{"type":"FeatureCollection","name":"gebiedsindelingen:buurt_gegeneraliseerd","crs_note":"EPSG:4326","features":[{"type":"Feature","properties":{"statcode":"BU0363MA01","statnaam":"Java-eiland"},"geometry":{"type":"MultiPolygon","coordinates":[[[[4.93698,52.37777],[4.9387,52.37524],[4.92905,52.37692],[4.911,52.37993],[4.91985,52.38081],[4.93735,52.38241],[4.93698,52.37777]]]]}},{"type":"Feature","properties":{"statcode":"BU0363MA02","statnaam":"KNSM-eiland"},"geometry":{"type":"MultiPolygon","coordinates":[[[[4.95498,52.37648],[4.9387,52.37524],[4.93698,52.37777],[4.93735,52.38241],[4.94318,52.38251],[4.95242,52.38257],[4.95498,52.37648]]]]}},{"type":"Feature","properties":{"statcode":"BU0363MA03","statnaam":"Oostelijke Handelskade"},"geometry":{"type":"MultiPolygon","coordinates":[[[[4.92905,52.37692],[4.92769,52.37391],[4.92493,52.3748],[4.92141,52.3756],[4.91355,52.37677],[4.91115,52.37764],[4.91059,52.37991],[4.911,52.37993],[4.92905,52.37692]]]]}},{"type":"Feature","properties":{"statcode":"BU0363MA04","statnaam":"Rietlanden"},"geometry":{"type":"MultiPolygon","coordinates":[[[[4.9387,52.37524],[4.93982,52.37428],[4.93844,52.37351],[4.93847,52.37185],[4.93849,52.37114],[4.93294,52.37055],[4.93197,52.37216],[4.9279,52.37385],[4.92769,52.37391],[4.92905,52.37692],[4.9387,52.37524]]]]}},{"type":"Feature","properties":{"statcode":"BU0363MA05","statnaam":"Sporenburg"},"geometry":{"type":"MultiPolygon","coordinates":[[[[4.95575,52.37334],[4.95451,52.37343],[4.93847,52.37185],[4.93844,52.37351],[4.93982,52.37428],[4.9387,52.37524],[4.95498,52.37648],[4.95575,52.37334]]]]}},{"type":"Feature","properties":{"statcode":"BU0363MA06","statnaam":"Borneo"},"geometry":{"type":"MultiPolygon","coordinates":[[[[4.95451,52.37343],[4.95144,52.37054],[4.94558,52.37021],[4.93851,52.36992],[4.93849,52.37114],[4.93847,52.37185],[4.95451,52.37343]]]]}},{"type":"Feature","properties":{"statcode":"BU0363MA07","statnaam":"Entrepot-Noordwest"},"geometry":{"type":"MultiPolygon","coordinates":[[[[4.93851,52.36992],[4.93854,52.36855],[4.93419,52.36724],[4.93198,52.36723],[4.93294,52.37055],[4.93849,52.37114],[4.93851,52.36992]]]]}},{"type":"Feature","properties":{"statcode":"BU0363MA08","statnaam":"Bedrijvengebied Veelaan"},"geometry":{"type":"MultiPolygon","coordinates":[[[[4.93854,52.36855],[4.93947,52.36728],[4.93419,52.36724],[4.93854,52.36855]]]]}},{"type":"Feature","properties":{"statcode":"BU0363MA09","statnaam":"Architectenbuurt"},"geometry":{"type":"MultiPolygon","coordinates":[[[[4.94612,52.36736],[4.93947,52.36728],[4.93854,52.36855],[4.93851,52.36992],[4.94558,52.37021],[4.94612,52.36736]]]]}},{"type":"Feature","properties":{"statcode":"BU0363MA10","statnaam":"Cruquiusbuurt"},"geometry":{"type":"MultiPolygon","coordinates":[[[[4.95575,52.37334],[4.95657,52.36846],[4.95187,52.36741],[4.94612,52.36736],[4.94558,52.37021],[4.95144,52.37054],[4.95451,52.37343],[4.95575,52.37334]]]]}},{"type":"Feature","properties":{"statcode":"BU0363MA11","statnaam":"Bedrijvengebied Zeeburgerkade"},"geometry":{"type":"MultiPolygon","coordinates":[[[[4.94614,52.36667],[4.93946,52.36665],[4.93209,52.36657],[4.93158,52.36657],[4.93198,52.36723],[4.93419,52.36724],[4.93947,52.36728],[4.94612,52.36736],[4.95187,52.36741],[4.94614,52.36667]]]]}},{"type":"Feature","properties":{"statcode":"BU0363MB01","statnaam":"Weesperzijde-Noord"},"geometry":{"type":"MultiPolygon","coordinates":[[[[4.91087,52.3564],[4.90655,52.35538],[4.90605,52.35617],[4.90463,52.35921],[4.90832,52.36059],[4.91087,52.3564]]]]}},{"type":"Feature","properties":{"statcode":"BU0363MB02","statnaam":"Weesperzijde-Midden/Zuid"},"geometry":{"type":"MultiPolygon","coordinates":[[[[4.91132,52.35563],[4.91471,52.35109],[4.91649,52.35002],[4.91541,52.34954],[4.91223,52.34811],[4.91106,52.35003],[4.90836,52.35339],[4.90655,52.35538],[4.91087,52.3564],[4.91132,52.35563]]]]}},{"type":"Feature","properties":{"statcode":"BU0363MB03","statnaam":"Parooldriehoek"},"geometry":{"type":"MultiPolygon","coordinates":[[[[4.91575,52.35432],[4.91471,52.35109],[4.91132,52.35563],[4.91575,52.35432]]]]}},{"type":"Feature","properties":{"statcode":"BU0363MC01","statnaam":"Oosterparkbuurt-Noordwest"},"geometry":{"type":"MultiPolygon","coordinates":[[[[4.91744,52.35804],[4.91087,52.3564],[4.90832,52.36059],[4.91507,52.36179],[4.91744,52.35804]]]]}},{"type":"Feature","properties":{"statcode":"BU0363MC02","statnaam":"Oosterpark"},"geometry":{"type":"MultiPolygon","coordinates":[[[[4.92398,52.36193],[4.92529,52.36003],[4.91744,52.35804],[4.91507,52.36179],[4.91748,52.36213],[4.92231,52.36376],[4.92398,52.36193]]]]}},{"type":"Feature","properties":{"statcode":"BU0363MC03","statnaam":"Oosterparkbuurt-Zuidwest"},"geometry":{"type":"MultiPolygon","coordinates":[[[[4.91918,52.35565],[4.91575,52.35432],[4.91132,52.35563],[4.91087,52.3564],[4.91744,52.35804],[4.91918,52.35565]]]]}},{"type":"Feature","properties":{"statcode":"BU0363MC04","statnaam":"Oosterparkbuurt-Zuidoost"},"geometry":{"type":"MultiPolygon","coordinates":[[[[4.92669,52.35787],[4.91918,52.35565],[4.91744,52.35804],[4.92529,52.36003],[4.92669,52.35787]]]]}},{"type":"Feature","properties":{"statcode":"BU0363MD01","statnaam":"Transvaalbuurt-West"},"geometry":{"type":"MultiPolygon","coordinates":[[[[4.92161,52.35233],[4.91649,52.35002],[4.91471,52.35109],[4.91575,52.35432],[4.91918,52.35565],[4.92161,52.35233]]]]}},{"type":"Feature","properties":{"statcode":"BU0363MD02","statnaam":"Transvaalbuurt-Oost"},"geometry":{"type":"MultiPolygon","coordinates":[[[[4.92823,52.35534],[4.92161,52.35233],[4.91918,52.35565],[4.92669,52.35787],[4.92823,52.35534]]]]}},{"type":"Feature","properties":{"statcode":"BU0363ME01","statnaam":"Dapperbuurt-Noord"},"geometry":{"type":"MultiPolygon","coordinates":[[[[4.93122,52.36338],[4.92398,52.36193],[4.92231,52.36376],[4.92713,52.36646],[4.93158,52.36657],[4.93209,52.36657],[4.93122,52.36338]]]]}},{"type":"Feature","properties":{"statcode":"BU0363ME02","statnaam":"Dapperbuurt-Zuid"},"geometry":{"type":"MultiPolygon","coordinates":[[[[4.9314,52.36322],[4.92989,52.35978],[4.92669,52.35787],[4.92529,52.36003],[4.92398,52.36193],[4.93122,52.36338],[4.9314,52.36322]]]]}},{"type":"Feature","properties":{"statcode":"BU0363ME03","statnaam":"Oostpoort"},"geometry":{"type":"MultiPolygon","coordinates":[[[[4.93211,52.3612],[4.93743,52.35774],[4.93714,52.35769],[4.92823,52.35534],[4.92669,52.35787],[4.92989,52.35978],[4.9314,52.36322],[4.93211,52.3612]]]]}},{"type":"Feature","properties":{"statcode":"BU0363MF01","statnaam":"Timorpleinbuurt-Noord"},"geometry":{"type":"MultiPolygon","coordinates":[[[[4.93954,52.36378],[4.93122,52.36338],[4.93209,52.36657],[4.93946,52.36665],[4.93954,52.36378]]]]}},{"type":"Feature","properties":{"statcode":"BU0363MF02","statnaam":"Timorpleinbuurt-Zuid"},"geometry":{"type":"MultiPolygon","coordinates":[[[[4.93974,52.36164],[4.93211,52.3612],[4.9314,52.36322],[4.93122,52.36338],[4.93954,52.36378],[4.93974,52.36164]]]]}},{"type":"Feature","properties":{"statcode":"BU0363MF03","statnaam":"Ambonpleinbuurt"},"geometry":{"type":"MultiPolygon","coordinates":[[[[4.94094,52.35841],[4.93743,52.35774],[4.93211,52.3612],[4.93974,52.36164],[4.94094,52.35841]]]]}},{"type":"Feature","properties":{"statcode":"BU0363MG01","statnaam":"Makassarpleinbuurt"},"geometry":{"type":"MultiPolygon","coordinates":[[[[4.9485,52.36526],[4.94592,52.36251],[4.93974,52.36164],[4.93954,52.36378],[4.93946,52.36665],[4.94614,52.36667],[4.9485,52.36526]]]]}},{"type":"Feature","properties":{"statcode":"BU0363MG02","statnaam":"Zeeburgerdijk-Oost"},"geometry":{"type":"MultiPolygon","coordinates":[[[[4.9573,52.3659],[4.9485,52.36526],[4.94614,52.36667],[4.95187,52.36741],[4.95657,52.36846],[4.9573,52.3659]]]]}},{"type":"Feature","properties":{"statcode":"BU0363MG03","statnaam":"Sumatraplantsoenbuurt"},"geometry":{"type":"MultiPolygon","coordinates":[[[[4.94468,52.35826],[4.94094,52.35841],[4.93974,52.36164],[4.94592,52.36251],[4.94468,52.35826]]]]}},{"type":"Feature","properties":{"statcode":"BU0363MG04","statnaam":"Flevopark"},"geometry":{"type":"MultiPolygon","coordinates":[[[[4.9613,52.35913],[4.95649,52.35779],[4.94468,52.35826],[4.94592,52.36251],[4.9485,52.36526],[4.9573,52.3659],[4.9613,52.35913]]]]}},{"type":"Feature","properties":{"statcode":"BU0363MH01","statnaam":"Sluisbuurt"},"geometry":{"type":"MultiPolygon","coordinates":[[[[4.95841,52.38247],[4.96061,52.38166],[4.96115,52.38141],[4.96108,52.38133],[4.9614,52.38117],[4.96137,52.38115],[4.96088,52.38135],[4.96074,52.38123],[4.96085,52.38118],[4.96084,52.38116],[4.9603,52.38139],[4.9602,52.38131],[4.96037,52.38123],[4.95997,52.38097],[4.95959,52.38093],[4.95899,52.38107],[4.95886,52.38096],[4.95914,52.38084],[4.95876,52.38061],[4.96187,52.37978],[4.96174,52.37961],[4.95883,52.38038],[4.9587,52.38016],[4.96163,52.37939],[4.96139,52.37906],[4.96115,52.37913],[4.96125,52.37928],[4.95996,52.37964],[4.95986,52.37947],[4.96478,52.37684],[4.9637,52.37601],[4.96302,52.37523],[4.96235,52.37205],[4.95575,52.37334],[4.95498,52.37648],[4.95242,52.38257],[4.95841,52.38247]]]]}},{"type":"Feature","properties":{"statcode":"BU0363MH02","statnaam":"Sportheldenbuurt"},"geometry":{"type":"MultiPolygon","coordinates":[[[[4.97225,52.37292],[4.96797,52.3698],[4.96235,52.37205],[4.96302,52.37523],[4.9637,52.37601],[4.96478,52.37684],[4.97225,52.37292]]]]}},{"type":"Feature","properties":{"statcode":"BU0363MH03","statnaam":"Oostpunt Zeeburgereiland"},"geometry":{"type":"MultiPolygon","coordinates":[[[[4.97436,52.37411],[4.97407,52.37194],[4.98032,52.36905],[4.97873,52.36873],[4.97366,52.36857],[4.97329,52.36756],[4.97686,52.36527],[4.97664,52.36514],[4.96797,52.3698],[4.97225,52.37292],[4.97363,52.37218],[4.97394,52.37434],[4.97436,52.37411]]]]}},{"type":"Feature","properties":{"statcode":"BU0363MH04","statnaam":"Baaibuurt-West"},"geometry":{"type":"MultiPolygon","coordinates":[[[[4.95824,52.36608],[4.95826,52.36601],[4.9573,52.3659],[4.95657,52.36846],[4.95575,52.37334],[4.96235,52.37205],[4.9623,52.36857],[4.96227,52.36857],[4.95801,52.36843],[4.95818,52.36687],[4.95969,52.36714],[4.95956,52.36646],[4.95822,52.36617],[4.95824,52.36608]]]]}},{"type":"Feature","properties":{"statcode":"BU0363MH05","statnaam":"Baaibuurt-Oost"},"geometry":{"type":"MultiPolygon","coordinates":[[[[4.96239,52.36856],[4.9623,52.36857],[4.96235,52.37205],[4.96797,52.3698],[4.97664,52.36514],[4.97639,52.365],[4.97436,52.36581],[4.97165,52.3649],[4.97036,52.36328],[4.96974,52.36353],[4.97021,52.36488],[4.96843,52.36673],[4.96989,52.36821],[4.96916,52.36862],[4.96239,52.36856]]]]}},{"type":"Feature","properties":{"statcode":"BU0363MH06","statnaam":"Bovendiep/Diemerpark"},"geometry":{"type":"MultiPolygon","coordinates":[[[[4.95831,52.36581],[4.96108,52.36599],[4.9623,52.3647],[4.96227,52.3642],[4.96132,52.36368],[4.96835,52.36095],[4.96974,52.36353],[4.97036,52.36328],[4.96891,52.36079],[4.9741,52.36069],[4.97415,52.35805],[4.97517,52.35721],[4.98438,52.35811],[4.98574,52.35763],[4.98513,52.35537],[4.99143,52.35242],[4.9944,52.35003],[4.99579,52.34981],[4.997,52.34869],[4.99839,52.34635],[5.00254,52.34412],[5.00581,52.34356],[5.01064,52.3441],[5.0123,52.34385],[5.01226,52.3438],[5.00907,52.34189],[5.00416,52.34258],[4.99932,52.34154],[4.99834,52.34201],[4.98991,52.34646],[4.9838,52.34971],[4.98036,52.35154],[4.97671,52.35349],[4.97248,52.35546],[4.96959,52.3561],[4.96454,52.35747],[4.9613,52.35913],[4.9573,52.3659],[4.95826,52.36601],[4.95831,52.36581]]]]}},{"type":"Feature","properties":{"statcode":"BU0363MJ01","statnaam":"Steigereiland-Zuid"},"geometry":{"type":"MultiPolygon","coordinates":[[[[4.98641,52.35997],[4.9861,52.35979],[4.98471,52.36033],[4.98046,52.35857],[4.97943,52.35948],[4.97973,52.35964],[4.97842,52.36082],[4.97717,52.36031],[4.9762,52.36109],[4.97539,52.36077],[4.97421,52.36183],[4.97769,52.36426],[4.97639,52.365],[4.97664,52.36514],[4.98641,52.35997]]]]}},{"type":"Feature","properties":{"statcode":"BU0363MJ02","statnaam":"Steigereiland-Noord"},"geometry":{"type":"MultiPolygon","coordinates":[[[[4.99078,52.36377],[4.99062,52.36365],[4.99024,52.36379],[4.98908,52.36296],[4.98939,52.36279],[4.98661,52.36082],[4.9858,52.36124],[4.9854,52.36092],[4.9863,52.36043],[4.98617,52.36032],[4.98663,52.36008],[4.98641,52.35997],[4.97664,52.36514],[4.97686,52.36527],[4.98092,52.3633],[4.98355,52.36439],[4.98352,52.36473],[4.98386,52.36475],[4.98393,52.36454],[4.98474,52.36488],[4.98422,52.36522],[4.98469,52.36567],[4.99078,52.36377]]]]}},{"type":"Feature","properties":{"statcode":"BU0363MJ03","statnaam":"Rieteilanden-West"},"geometry":{"type":"MultiPolygon","coordinates":[[[[4.99188,52.35702],[5.00074,52.3523],[4.99908,52.35114],[4.99901,52.35117],[4.9976,52.35031],[4.99653,52.3507],[4.99188,52.35288],[4.98931,52.35472],[4.9902,52.35493],[4.98672,52.35664],[4.98652,52.358],[4.98737,52.35816],[4.98903,52.3573],[4.98943,52.35738],[4.9899,52.35713],[4.99003,52.35721],[4.98813,52.35824],[4.9882,52.35864],[4.9861,52.35979],[4.98641,52.35997],[4.99188,52.35702]]]]}},{"type":"Feature","properties":{"statcode":"BU0363MJ04","statnaam":"Joris Ivenspleinbuurt"},"geometry":{"type":"MultiPolygon","coordinates":[[[[4.99715,52.35936],[4.99188,52.35702],[4.98641,52.35997],[4.98663,52.36008],[4.98708,52.35986],[4.98739,52.35997],[4.9877,52.35979],[4.99208,52.36166],[4.99715,52.35936]]]]}},{"type":"Feature","properties":{"statcode":"BU0363MJ05","statnaam":"Ed Pelsterparkbuurt"},"geometry":{"type":"MultiPolygon","coordinates":[[[[5.00624,52.35455],[5.00535,52.35376],[5.00388,52.35451],[5.00074,52.3523],[4.99188,52.35702],[4.99715,52.35936],[5.00574,52.3548],[5.00613,52.35506],[5.00659,52.35482],[5.00624,52.35455]]]]}},{"type":"Feature","properties":{"statcode":"BU0363MK01","statnaam":"Buiteneiland"},"geometry":{"type":"MultiPolygon","coordinates":[[[[5.01453,52.36797],[5.01275,52.36729],[5.002,52.36628],[5.00155,52.36682],[5.01453,52.36797]]]]}},{"type":"Feature","properties":{"statcode":"BU0363MK02","statnaam":"Pampusbuurt-West"},"geometry":{"type":"MultiPolygon","coordinates":[[[[5.01988,52.3559],[5.01571,52.35457],[5.01525,52.35509],[5.01982,52.35633],[5.01988,52.3559]]]]}},{"type":"Feature","properties":{"statcode":"BU0363MK03","statnaam":"Pampusbuurt-Oost"},"geometry":{"type":"MultiPolygon","coordinates":[[[[5.02051,52.3561],[5.01988,52.3559],[5.01982,52.35633],[5.02042,52.35647],[5.02051,52.3561]]]]}},{"type":"Feature","properties":{"statcode":"BU0363MK04","statnaam":"Centrumeiland"},"geometry":{"type":"MultiPolygon","coordinates":[[[[5.01525,52.35509],[5.01571,52.35457],[5.0165,52.35368],[5.0191,52.35038],[5.01881,52.34989],[5.01515,52.34861],[5.01551,52.34795],[5.01515,52.34783],[5.01529,52.34763],[5.01512,52.34743],[5.01478,52.34784],[5.01433,52.34781],[5.00997,52.35274],[5.00952,52.35326],[5.01355,52.35455],[5.01378,52.35513],[5.01403,52.35518],[5.0144,52.35482],[5.01525,52.35509]]]]}},{"type":"Feature","properties":{"statcode":"BU0363MK05","statnaam":"Muidenbuurt-West"},"geometry":{"type":"MultiPolygon","coordinates":[[[[5.02125,52.3541],[5.0206,52.35387],[5.01826,52.35378],[5.01718,52.35401],[5.0165,52.35368],[5.01571,52.35457],[5.01988,52.3559],[5.02051,52.3561],[5.02113,52.35547],[5.02125,52.3541]]]]}},{"type":"Feature","properties":{"statcode":"BU0363ML01","statnaam":"Havenkwartier IJburg"},"geometry":{"type":"MultiPolygon","coordinates":[[[[5.00624,52.35455],[5.00952,52.35326],[5.00997,52.35274],[5.00349,52.35084],[5.00074,52.3523],[5.00388,52.35451],[5.00535,52.35376],[5.00624,52.35455]]]]}},{"type":"Feature","properties":{"statcode":"BU0363ML02","statnaam":"Theo van Goghparkbuurt"},"geometry":{"type":"MultiPolygon","coordinates":[[[[5.01433,52.34781],[5.01416,52.34756],[5.01457,52.34707],[5.00909,52.34504],[5.00363,52.34781],[4.99879,52.3508],[4.99919,52.35108],[4.99908,52.35114],[5.00074,52.3523],[5.00349,52.35084],[5.00997,52.35274],[5.01433,52.34781]]]]}},{"type":"Feature","properties":{"statcode":"BU0363ML03","statnaam":"Rieteiland-Oost"},"geometry":{"type":"MultiPolygon","coordinates":[[[[4.99834,52.34846],[5.00496,52.34614],[5.00753,52.34442],[5.00513,52.34417],[4.9994,52.34626],[4.99834,52.34846]]]]}},{"type":"Feature","properties":{"statcode":"BU0363MM01","statnaam":"Van der Kunbuurt"},"geometry":{"type":"MultiPolygon","coordinates":[[[[4.9166,52.34788],[4.91741,52.3465],[4.91319,52.3456],[4.9127,52.34734],[4.91223,52.34811],[4.91541,52.34954],[4.9166,52.34788]]]]}},{"type":"Feature","properties":{"statcode":"BU0363MM02","statnaam":"De Eenhoorn"},"geometry":{"type":"MultiPolygon","coordinates":[[[[4.92505,52.35009],[4.92374,52.34867],[4.9166,52.34788],[4.91541,52.34954],[4.91649,52.35002],[4.92161,52.35233],[4.92505,52.35009]]]]}},{"type":"Feature","properties":{"statcode":"BU0363MM03","statnaam":"Don Bosco"},"geometry":{"type":"MultiPolygon","coordinates":[[[[4.93056,52.35374],[4.92505,52.35009],[4.92161,52.35233],[4.92823,52.35534],[4.93056,52.35374]]]]}},{"type":"Feature","properties":{"statcode":"BU0363MM04","statnaam":"Julianapark"},"geometry":{"type":"MultiPolygon","coordinates":[[[[4.92374,52.34867],[4.92749,52.34657],[4.92557,52.34594],[4.91954,52.34559],[4.91957,52.34366],[4.91741,52.3465],[4.9166,52.34788],[4.92374,52.34867]]]]}},{"type":"Feature","properties":{"statcode":"BU0363MM05","statnaam":"Frankendael"},"geometry":{"type":"MultiPolygon","coordinates":[[[[4.93517,52.35088],[4.92749,52.34657],[4.92374,52.34867],[4.92505,52.35009],[4.93056,52.35374],[4.93517,52.35088]]]]}},{"type":"Feature","properties":{"statcode":"BU0363MM06","statnaam":"Tuindorp Amstelstation"},"geometry":{"type":"MultiPolygon","coordinates":[[[[4.92129,52.3425],[4.92047,52.34276],[4.91957,52.34366],[4.91954,52.34559],[4.92557,52.34594],[4.92129,52.3425]]]]}},{"type":"Feature","properties":{"statcode":"BU0363MM07","statnaam":"De Wetbuurt"},"geometry":{"type":"MultiPolygon","coordinates":[[[[4.93262,52.34309],[4.92714,52.33981],[4.92129,52.3425],[4.92557,52.34594],[4.92749,52.34657],[4.93262,52.34309]]]]}},{"type":"Feature","properties":{"statcode":"BU0363MM08","statnaam":"Tuindorp Frankendael"},"geometry":{"type":"MultiPolygon","coordinates":[[[[4.94018,52.34778],[4.93262,52.34309],[4.92749,52.34657],[4.93517,52.35088],[4.94018,52.34778]]]]}},{"type":"Feature","properties":{"statcode":"BU0363MN01","statnaam":"Linnaeusparkbuurt"},"geometry":{"type":"MultiPolygon","coordinates":[[[[4.93764,52.35749],[4.93268,52.35495],[4.9368,52.35234],[4.93517,52.35088],[4.93056,52.35374],[4.92823,52.35534],[4.93714,52.35769],[4.93764,52.35749]]]]}},{"type":"Feature","properties":{"statcode":"BU0363MN02","statnaam":"Middenmeer-Noord"},"geometry":{"type":"MultiPolygon","coordinates":[[[[4.94189,52.35574],[4.9368,52.35234],[4.93268,52.35495],[4.93764,52.35749],[4.94189,52.35574]]]]}},{"type":"Feature","properties":{"statcode":"BU0363MN03","statnaam":"Middenmeer-Zuid"},"geometry":{"type":"MultiPolygon","coordinates":[[[[4.9488,52.35283],[4.94431,52.35024],[4.94018,52.34778],[4.93517,52.35088],[4.9368,52.35234],[4.94189,52.35574],[4.9488,52.35283]]]]}},{"type":"Feature","properties":{"statcode":"BU0363MN04","statnaam":"Science Park-Noord"},"geometry":{"type":"MultiPolygon","coordinates":[[[[4.94468,52.35826],[4.95649,52.35779],[4.9488,52.35283],[4.94189,52.35574],[4.93764,52.35749],[4.93714,52.35769],[4.93743,52.35774],[4.94094,52.35841],[4.94468,52.35826]]]]}},{"type":"Feature","properties":{"statcode":"BU0363MN05","statnaam":"Science Park-Zuid"},"geometry":{"type":"MultiPolygon","coordinates":[[[[4.96454,52.35747],[4.96959,52.3561],[4.96926,52.35535],[4.96624,52.35416],[4.96586,52.35465],[4.96454,52.35277],[4.96043,52.34794],[4.95535,52.35007],[4.9488,52.35283],[4.95649,52.35779],[4.9613,52.35913],[4.96454,52.35747]]]]}},{"type":"Feature","properties":{"statcode":"BU0363MN06","statnaam":"Sportpark Middenmeer-Zuid"},"geometry":{"type":"MultiPolygon","coordinates":[[[[4.95003,52.34698],[4.94563,52.34434],[4.9453,52.34455],[4.94018,52.34778],[4.94431,52.35024],[4.95003,52.34698]]]]}},{"type":"Feature","properties":{"statcode":"BU0363MN07","statnaam":"Sportpark Middenmeer-Noord"},"geometry":{"type":"MultiPolygon","coordinates":[[[[4.95535,52.35007],[4.95003,52.34698],[4.94431,52.35024],[4.9488,52.35283],[4.95535,52.35007]]]]}},{"type":"Feature","properties":{"statcode":"BU0363MN08","statnaam":"Park de Meer"},"geometry":{"type":"MultiPolygon","coordinates":[[[[4.95627,52.34359],[4.95273,52.34016],[4.94563,52.34434],[4.95003,52.34698],[4.95627,52.34359]]]]}},{"type":"Feature","properties":{"statcode":"BU0363MN09","statnaam":"Sportpark Voorland"},"geometry":{"type":"MultiPolygon","coordinates":[[[[4.96043,52.34794],[4.96038,52.34789],[4.95636,52.34368],[4.95627,52.34359],[4.95003,52.34698],[4.95535,52.35007],[4.96043,52.34794]]]]}},{"type":"Feature","properties":{"statcode":"BU0363MP01","statnaam":"Drieburg"},"geometry":{"type":"MultiPolygon","coordinates":[[[[4.9378,52.33955],[4.943,52.33657],[4.9426,52.33652],[4.92914,52.33897],[4.92714,52.33981],[4.93262,52.34309],[4.9378,52.33955]]]]}},{"type":"Feature","properties":{"statcode":"BU0363MP02","statnaam":"Nieuwe Oosterbegraafplaats"},"geometry":{"type":"MultiPolygon","coordinates":[[[[4.9453,52.34455],[4.9378,52.33955],[4.93262,52.34309],[4.94018,52.34778],[4.9453,52.34455]]]]}},{"type":"Feature","properties":{"statcode":"BU0363MP03","statnaam":"Betondorp"},"geometry":{"type":"MultiPolygon","coordinates":[[[[4.94563,52.34434],[4.95273,52.34016],[4.9525,52.34001],[4.94986,52.33853],[4.943,52.33657],[4.9378,52.33955],[4.9453,52.34455],[4.94563,52.34434]]]]}},{"type":"Feature","properties":{"statcode":"BU0363MQ01","statnaam":"De Omval"},"geometry":{"type":"MultiPolygon","coordinates":[[[[4.91957,52.34366],[4.92047,52.34276],[4.91945,52.34258],[4.91496,52.34186],[4.91413,52.34353],[4.91319,52.3456],[4.91741,52.3465],[4.91957,52.34366]]]]}},{"type":"Feature","properties":{"statcode":"BU0363MQ02","statnaam":"Overamstel"},"geometry":{"type":"MultiPolygon","coordinates":[[[[4.90624,52.32948],[4.91326,52.3284],[4.91359,52.32633],[4.91388,52.32455],[4.91033,52.32357],[4.91134,52.32288],[4.91081,52.32188],[4.91428,52.32041],[4.91238,52.31825],[4.90913,52.31825],[4.90784,52.31951],[4.90253,52.32132],[4.89828,52.32164],[4.89629,52.32242],[4.89525,52.3242],[4.89825,52.32897],[4.89875,52.33279],[4.90624,52.32948]]]]}},{"type":"Feature","properties":{"statcode":"BU0363MQ03","statnaam":"Amstelglorie"},"geometry":{"type":"MultiPolygon","coordinates":[[[[4.9111,52.33608],[4.91293,52.33051],[4.91326,52.3284],[4.90624,52.32948],[4.89875,52.33279],[4.9002,52.33338],[4.90425,52.33357],[4.90679,52.33596],[4.90748,52.33796],[4.9111,52.33608]]]]}},{"type":"Feature","properties":{"statcode":"BU0363MQ04","statnaam":"Amstelkwartier-West"},"geometry":{"type":"MultiPolygon","coordinates":[[[[4.91521,52.33466],[4.91748,52.33154],[4.91293,52.33051],[4.9111,52.33608],[4.90748,52.33796],[4.90942,52.33877],[4.91179,52.33946],[4.91521,52.33466]]]]}},{"type":"Feature","properties":{"statcode":"BU0363MQ05","statnaam":"Amstelkwartier-Noord"},"geometry":{"type":"MultiPolygon","coordinates":[[[[4.92217,52.3383],[4.92026,52.33761],[4.91955,52.3358],[4.91521,52.33466],[4.91179,52.33946],[4.91496,52.34186],[4.91945,52.34258],[4.92217,52.3383]]]]}},{"type":"Feature","properties":{"statcode":"BU0363MQ06","statnaam":"Amstelkwartier-Zuid"},"geometry":{"type":"MultiPolygon","coordinates":[[[[4.92495,52.33538],[4.92376,52.33544],[4.92255,52.33308],[4.91748,52.33154],[4.91521,52.33466],[4.91955,52.3358],[4.92026,52.33761],[4.92217,52.3383],[4.92495,52.33538]]]]}},{"type":"Feature","properties":{"statcode":"BU0363MQ07","statnaam":"Weespertrekvaart"},"geometry":{"type":"MultiPolygon","coordinates":[[[[4.92914,52.33897],[4.9426,52.33652],[4.94172,52.33641],[4.9417,52.33553],[4.93967,52.33561],[4.93651,52.33459],[4.93562,52.33551],[4.93422,52.3355],[4.92849,52.33655],[4.92677,52.33596],[4.92694,52.33578],[4.92577,52.33537],[4.92536,52.33538],[4.92495,52.33538],[4.92217,52.3383],[4.91945,52.34258],[4.92047,52.34276],[4.92129,52.3425],[4.92714,52.33981],[4.92914,52.33897]]]]}}]}