{"type":"FeatureCollection","name":"gebiedsindelingen:wijk_gegeneraliseerd","crs_note":"EPSG:4326","features":[{"type":"Feature","properties":{"statcode":"WK0363MA","statnaam":"Oostelijk Havengebied"},"geometry":{"type":"MultiPolygon","coordinates":[[[[4.93209,52.36657],[4.93158,52.36657],[4.93198,52.36723],[4.93294,52.37055],[4.93197,52.37216],[4.9279,52.37385],[4.92769,52.37391],[4.92493,52.3748],[4.92141,52.3756],[4.91355,52.37677],[4.91115,52.37764],[4.91059,52.37991],[4.911,52.37993],[4.91985,52.38081],[4.93735,52.38241],[4.94318,52.38251],[4.95242,52.38257],[4.95498,52.37648],[4.95575,52.37334],[4.95657,52.36846],[4.95187,52.36741],[4.94614,52.36667],[4.93946,52.36665],[4.93209,52.36657]]]]}},{"type":"Feature","properties":{"statcode":"WK0363MB","statnaam":"Weesperzijde"},"geometry":{"type":"MultiPolygon","coordinates":[[[[4.91541,52.34954],[4.91223,52.34811],[4.91106,52.35003],[4.90836,52.35339],[4.90655,52.35538],[4.90605,52.35617],[4.90463,52.35921],[4.90832,52.36059],[4.91087,52.3564],[4.91132,52.35563],[4.91575,52.35432],[4.91471,52.35109],[4.91649,52.35002],[4.91541,52.34954]]]]}},{"type":"Feature","properties":{"statcode":"WK0363MC","statnaam":"Oosterparkbuurt"},"geometry":{"type":"MultiPolygon","coordinates":[[[[4.91918,52.35565],[4.91575,52.35432],[4.91132,52.35563],[4.91087,52.3564],[4.90832,52.36059],[4.91507,52.36179],[4.91748,52.36213],[4.92231,52.36376],[4.92398,52.36193],[4.92529,52.36003],[4.92669,52.35787],[4.91918,52.35565]]]]}},{"type":"Feature","properties":{"statcode":"WK0363MD","statnaam":"Transvaalbuurt"},"geometry":{"type":"MultiPolygon","coordinates":[[[[4.92161,52.35233],[4.91649,52.35002],[4.91471,52.35109],[4.91575,52.35432],[4.91918,52.35565],[4.92669,52.35787],[4.92823,52.35534],[4.92161,52.35233]]]]}},{"type":"Feature","properties":{"statcode":"WK0363ME","statnaam":"Dapperbuurt"},"geometry":{"type":"MultiPolygon","coordinates":[[[[4.93714,52.35769],[4.92823,52.35534],[4.92669,52.35787],[4.92529,52.36003],[4.92398,52.36193],[4.92231,52.36376],[4.92713,52.36646],[4.93158,52.36657],[4.93209,52.36657],[4.93122,52.36338],[4.9314,52.36322],[4.93211,52.3612],[4.93743,52.35774],[4.93714,52.35769]]]]}},{"type":"Feature","properties":{"statcode":"WK0363MF","statnaam":"Indische Buurt-West"},"geometry":{"type":"MultiPolygon","coordinates":[[[[4.94094,52.35841],[4.93743,52.35774],[4.93211,52.3612],[4.9314,52.36322],[4.93122,52.36338],[4.93209,52.36657],[4.93946,52.36665],[4.93954,52.36378],[4.93974,52.36164],[4.94094,52.35841]]]]}},{"type":"Feature","properties":{"statcode":"WK0363MG","statnaam":"Indische Buurt-Oost"},"geometry":{"type":"MultiPolygon","coordinates":[[[[4.9613,52.35913],[4.95649,52.35779],[4.94468,52.35826],[4.94094,52.35841],[4.93974,52.36164],[4.93954,52.36378],[4.93946,52.36665],[4.94614,52.36667],[4.95187,52.36741],[4.95657,52.36846],[4.9573,52.3659],[4.9613,52.35913]]]]}},{"type":"Feature","properties":{"statcode":"WK0363MH","statnaam":"Zeeburgereiland/Bovendiep"},"geometry":{"type":"MultiPolygon","coordinates":[[[[4.96115,52.38141],[4.96108,52.38133],[4.9614,52.38117],[4.96137,52.38115],[4.96088,52.38135],[4.96074,52.38123],[4.96085,52.38118],[4.96084,52.38116],[4.9603,52.38139],[4.9602,52.38131],[4.96037,52.38123],[4.95997,52.38097],[4.95959,52.38093],[4.95899,52.38107],[4.95886,52.38096],[4.95914,52.38084],[4.95876,52.38061],[4.96187,52.37978],[4.96174,52.37961],[4.95883,52.38038],[4.9587,52.38016],[4.96163,52.37939],[4.96139,52.37906],[4.96115,52.37913],[4.96125,52.37928],[4.95996,52.37964],[4.95986,52.37947],[4.96478,52.37684],[4.97225,52.37292],[4.97363,52.37218],[4.97394,52.37434],[4.97436,52.37411],[4.97407,52.37194],[4.98032,52.36905],[4.97873,52.36873],[4.97366,52.36857],[4.97329,52.36756],[4.97686,52.36527],[4.97664,52.36514],[4.97639,52.365],[4.97436,52.36581],[4.97165,52.3649],[4.97036,52.36328],[4.96891,52.36079],[4.9741,52.36069],[4.97415,52.35805],[4.97517,52.35721],[4.98438,52.35811],[4.98574,52.35763],[4.98513,52.35537],[4.99143,52.35242],[4.9944,52.35003],[4.99579,52.34981],[4.997,52.34869],[4.99839,52.34635],[5.00254,52.34412],[5.00581,52.34356],[5.01064,52.3441],[5.0123,52.34385],[5.01226,52.3438],[5.00907,52.34189],[5.00416,52.34258],[4.99932,52.34154],[4.99834,52.34201],[4.98991,52.34646],[4.9838,52.34971],[4.98036,52.35154],[4.97671,52.35349],[4.97248,52.35546],[4.96959,52.3561],[4.96454,52.35747],[4.9613,52.35913],[4.9573,52.3659],[4.95657,52.36846],[4.95575,52.37334],[4.95498,52.37648],[4.95242,52.38257],[4.95841,52.38247],[4.96061,52.38166],[4.96115,52.38141]],[[4.96916,52.36862],[4.96239,52.36856],[4.9623,52.36857],[4.96227,52.36857],[4.95801,52.36843],[4.95818,52.36687],[4.95969,52.36714],[4.95956,52.36646],[4.95822,52.36617],[4.95824,52.36608],[4.95826,52.36601],[4.95831,52.36581],[4.96108,52.36599],[4.9623,52.3647],[4.96227,52.3642],[4.96132,52.36368],[4.96835,52.36095],[4.96974,52.36353],[4.97021,52.36488],[4.96843,52.36673],[4.96989,52.36821],[4.96916,52.36862]]]]}},{"type":"Feature","properties":{"statcode":"WK0363MJ","statnaam":"IJburg-West"},"geometry":{"type":"MultiPolygon","coordinates":[[[[4.98469,52.36567],[4.99078,52.36377],[4.99062,52.36365],[4.99024,52.36379],[4.98908,52.36296],[4.98939,52.36279],[4.98661,52.36082],[4.9858,52.36124],[4.9854,52.36092],[4.9863,52.36043],[4.98617,52.36032],[4.98663,52.36008],[4.98708,52.35986],[4.98739,52.35997],[4.9877,52.35979],[4.99208,52.36166],[4.99715,52.35936],[5.00574,52.3548],[5.00613,52.35506],[5.00659,52.35482],[5.00624,52.35455],[5.00535,52.35376],[5.00388,52.35451],[5.00074,52.3523],[4.99908,52.35114],[4.99901,52.35117],[4.9976,52.35031],[4.99653,52.3507],[4.99188,52.35288],[4.98931,52.35472],[4.9902,52.35493],[4.98672,52.35664],[4.98652,52.358],[4.98737,52.35816],[4.98903,52.3573],[4.98943,52.35738],[4.9899,52.35713],[4.99003,52.35721],[4.98813,52.35824],[4.9882,52.35864],[4.9861,52.35979],[4.98471,52.36033],[4.98046,52.35857],[4.97943,52.35948],[4.97973,52.35964],[4.97842,52.36082],[4.97717,52.36031],[4.9762,52.36109],[4.97539,52.36077],[4.97421,52.36183],[4.97769,52.36426],[4.97639,52.365],[4.97664,52.36514],[4.97686,52.36527],[4.98092,52.3633],[4.98355,52.36439],[4.98352,52.36473],[4.98386,52.36475],[4.98393,52.36454],[4.98474,52.36488],[4.98422,52.36522],[4.98469,52.36567]]]]}},{"type":"Feature","properties":{"statcode":"WK0363MK","statnaam":"IJburg-Oost"},"geometry":{"type":"MultiPolygon","coordinates":[[[[5.02113,52.35547],[5.02125,52.3541],[5.0206,52.35387],[5.01826,52.35378],[5.01718,52.35401],[5.0165,52.35368],[5.0191,52.35038],[5.01881,52.34989],[5.01515,52.34861],[5.01551,52.34795],[5.01515,52.34783],[5.01529,52.34763],[5.01512,52.34743],[5.01478,52.34784],[5.01433,52.34781],[5.00997,52.35274],[5.00952,52.35326],[5.01355,52.35455],[5.01378,52.35513],[5.01403,52.35518],[5.0144,52.35482],[5.01525,52.35509],[5.01982,52.35633],[5.02042,52.35647],[5.02051,52.3561],[5.02113,52.35547]]],[[[5.01275,52.36729],[5.002,52.36628],[5.00155,52.36682],[5.01453,52.36797],[5.01275,52.36729]]]]}},{"type":"Feature","properties":{"statcode":"WK0363ML","statnaam":"IJburg-Zuid"},"geometry":{"type":"MultiPolygon","coordinates":[[[[5.00753,52.34442],[5.00513,52.34417],[4.9994,52.34626],[4.99834,52.34846],[5.00496,52.34614],[5.00753,52.34442]]],[[[5.00624,52.35455],[5.00952,52.35326],[5.00997,52.35274],[5.01433,52.34781],[5.01416,52.34756],[5.01457,52.34707],[5.00909,52.34504],[5.00363,52.34781],[4.99879,52.3508],[4.99919,52.35108],[4.99908,52.35114],[5.00074,52.3523],[5.00388,52.35451],[5.00535,52.35376],[5.00624,52.35455]]]]}},{"type":"Feature","properties":{"statcode":"WK0363MM","statnaam":"Frankendael"},"geometry":{"type":"MultiPolygon","coordinates":[[[[4.94018,52.34778],[4.93262,52.34309],[4.92714,52.33981],[4.92129,52.3425],[4.92047,52.34276],[4.91957,52.34366],[4.91741,52.3465],[4.91319,52.3456],[4.9127,52.34734],[4.91223,52.34811],[4.91541,52.34954],[4.91649,52.35002],[4.92161,52.35233],[4.92823,52.35534],[4.93056,52.35374],[4.93517,52.35088],[4.94018,52.34778]]]]}},{"type":"Feature","properties":{"statcode":"WK0363MN","statnaam":"Middenmeer"},"geometry":{"type":"MultiPolygon","coordinates":[[[[4.9613,52.35913],[4.96454,52.35747],[4.96959,52.3561],[4.96926,52.35535],[4.96624,52.35416],[4.96586,52.35465],[4.96454,52.35277],[4.96043,52.34794],[4.96038,52.34789],[4.95636,52.34368],[4.95627,52.34359],[4.95273,52.34016],[4.94563,52.34434],[4.9453,52.34455],[4.94018,52.34778],[4.93517,52.35088],[4.93056,52.35374],[4.92823,52.35534],[4.93714,52.35769],[4.93743,52.35774],[4.94094,52.35841],[4.94468,52.35826],[4.95649,52.35779],[4.9613,52.35913]]]]}},{"type":"Feature","properties":{"statcode":"WK0363MP","statnaam":"Betondorp"},"geometry":{"type":"MultiPolygon","coordinates":[[[[4.943,52.33657],[4.9426,52.33652],[4.92914,52.33897],[4.92714,52.33981],[4.93262,52.34309],[4.94018,52.34778],[4.9453,52.34455],[4.94563,52.34434],[4.95273,52.34016],[4.9525,52.34001],[4.94986,52.33853],[4.943,52.33657]]]]}},{"type":"Feature","properties":{"statcode":"WK0363MQ","statnaam":"Omval/Overamstel"},"geometry":{"type":"MultiPolygon","coordinates":[[[[4.92914,52.33897],[4.9426,52.33652],[4.94172,52.33641],[4.9417,52.33553],[4.93967,52.33561],[4.93651,52.33459],[4.93562,52.33551],[4.93422,52.3355],[4.92849,52.33655],[4.92677,52.33596],[4.92694,52.33578],[4.92577,52.33537],[4.92536,52.33538],[4.92495,52.33538],[4.92376,52.33544],[4.92255,52.33308],[4.91748,52.33154],[4.91293,52.33051],[4.91326,52.3284],[4.91359,52.32633],[4.91388,52.32455],[4.91033,52.32357],[4.91134,52.32288],[4.91081,52.32188],[4.91428,52.32041],[4.91238,52.31825],[4.90913,52.31825],[4.90784,52.31951],[4.90253,52.32132],[4.89828,52.32164],[4.89629,52.32242],[4.89525,52.3242],[4.89825,52.32897],[4.89875,52.33279],[4.9002,52.33338],[4.90425,52.33357],[4.90679,52.33596],[4.90748,52.33796],[4.90942,52.33877],[4.91179,52.33946],[4.91496,52.34186],[4.91413,52.34353],[4.91319,52.3456],[4.91741,52.3465],[4.91957,52.34366],[4.92047,52.34276],[4.92129,52.3425],[4.92714,52.33981],[4.92914,52.33897]]]]}}]}