{"type": "FeatureCollection", "features": [{"type": "Feature", "properties": {"code": "BU00141801", "name": "Tuindorp"}, "geometry": {"type": "MultiPolygon", "coordinates": [[[[6.62768, 53.1691], [6.63071, 53.16721], [6.6247, 53.16469], [6.62215, 53.16882], [6.62768, 53.1691]]]]}}, {"type": "Feature", "properties": {"code": "BU00141303", "name": "Lintweide"}, "geometry": {"type": "MultiPolygon", "coordinates": [[[[6.64071, 53.22885], [6.64413, 53.2256], [6.63712, 53.22342], [6.63295, 53.2279], [6.63576, 53.23084], [6.64071, 53.22885]]]]}}, {"type": "Feature", "properties": {"code": "BU00141206", "name": "Zilvermeer"}, "geometry": {"type": "MultiPolygon", "coordinates": [[[[6.60589, 53.23836], [6.60471, 53.2358], [6.60411, 53.23629], [6.60321, 53.23835], [6.6048, 53.23914], [6.60589, 53.23836]]]]}}, {"type": "Feature", "properties": {"code": "BU00141301", "name": "Engelbert"}, "geometry": {"type": "MultiPolygon", "coordinates": [[[[6.65206, 53.21441], [6.66242, 53.20513], [6.66687, 53.20202], [6.66216, 53.19982], [6.65047, 53.19941], [6.64265, 53.2003], [6.63494, 53.2027], [6.63041, 53.20569], [6.62582, 53.20978], [6.63142, 53.21176], [6.63196, 53.21292], [6.63915, 53.21579], [6.64792, 53.21864], [6.65206, 53.21441]]]]}}, {"type": "Feature", "properties": {"code": "BU00141200", "name": "Lewenborg-Noord"}, "geometry": {"type": "MultiPolygon", "coordinates": [[[[6.63008, 53.23816], [6.61637, 53.23587], [6.61452, 53.23489], [6.61148, 53.23662], [6.61391, 53.23959], [6.61452, 53.24034], [6.62486, 53.24278], [6.62679, 53.24323], [6.63008, 53.23816]]]]}}, {"type": "Feature", "properties": {"code": "BU00140600", "name": "Sterrebosbuurt"}, "geometry": {"type": "MultiPolygon", "coordinates": [[[[6.58344, 53.20587], [6.58377, 53.20295], [6.57935, 53.2011], [6.57259, 53.2008], [6.5709, 53.20015], [6.56458, 53.19976], [6.56469, 53.20323], [6.57416, 53.20535], [6.57981, 53.20759], [6.58344, 53.20587]]]]}}, {"type": "Feature", "properties": {"code": "BU00140605", "name": "De Wijert"}, "geometry": {"type": "MultiPolygon", "coordinates": [[[[6.5709, 53.20015], [6.57453, 53.19796], [6.57749, 53.19394], [6.57541, 53.19333], [6.56419, 53.1928], [6.56301, 53.19619], [6.56458, 53.19976], [6.5709, 53.20015]]]]}}, {"type": "Feature", "properties": {"code": "BU00140806", "name": "Gravenburg"}, "geometry": {"type": "MultiPolygon", "coordinates": [[[[6.51398, 53.23742], [6.51996, 53.23582], [6.51454, 53.23494], [6.51423, 53.23634], [6.50763, 53.23464], [6.50678, 53.23403], [6.50515, 53.22646], [6.50264, 53.22644], [6.50124, 53.22695], [6.50014, 53.22905], [6.4997, 53.23494], [6.49548, 53.23693], [6.49401, 53.24267], [6.51398, 53.23742]]]]}}, {"type": "Feature", "properties": {"code": "BU00141600", "name": "Ten Post Dorp"}, "geometry": {"type": "MultiPolygon", "coordinates": [[[[6.72633, 53.30372], [6.72706, 53.30066], [6.73165, 53.30009], [6.73506, 53.29852], [6.73724, 53.29618], [6.73402, 53.29405], [6.728, 53.29446], [6.72452, 53.29266], [6.72314, 53.29267], [6.72441, 53.29797], [6.72112, 53.29988], [6.72196, 53.30282], [6.72325, 53.30417], [6.72633, 53.30372]]]]}}, {"type": "Feature", "properties": {"code": "BU00141101", "name": "Beijum-Oost"}, "geometry": {"type": "MultiPolygon", "coordinates": [[[[6.60635, 53.25374], [6.60641, 53.25142], [6.60673, 53.24914], [6.60913, 53.24642], [6.6054, 53.24487], [6.6038, 53.24578], [6.59809, 53.2438], [6.5975, 53.24448], [6.59074, 53.25532], [6.60635, 53.25374]]]]}}, {"type": "Feature", "properties": {"code": "BU00141302", "name": "Klein Harkstede"}, "geometry": {"type": "MultiPolygon", "coordinates": [[[[6.64366, 53.23347], [6.64005, 53.23247], [6.64109, 53.23111], [6.64331, 53.23051], [6.64071, 53.22885], [6.63576, 53.23084], [6.63475, 53.23236], [6.64359, 53.23481], [6.64366, 53.23347]]]]}}, {"type": "Feature", "properties": {"code": "BU00140810", "name": "De Buitenhof"}, "geometry": {"type": "MultiPolygon", "coordinates": [[[[6.53342, 53.19747], [6.52487, 53.19846], [6.52396, 53.20049], [6.52466, 53.20278], [6.53191, 53.20466], [6.53342, 53.19747]]]]}}, {"type": "Feature", "properties": {"code": "BU00141207", "name": "Kardinge"}, "geometry": {"type": "MultiPolygon", "coordinates": [[[[6.61226, 53.24284], [6.61452, 53.24034], [6.61391, 53.23959], [6.60589, 53.23836], [6.6048, 53.23914], [6.60321, 53.23835], [6.60411, 53.23629], [6.60055, 53.23768], [6.59819, 53.23718], [6.5984, 53.23594], [6.59357, 53.2369], [6.58955, 53.23901], [6.58759, 53.24031], [6.5975, 53.24448], [6.59809, 53.2438], [6.6038, 53.24578], [6.6054, 53.24487], [6.60913, 53.24642], [6.61226, 53.24284]]]]}}, {"type": "Feature", "properties": {"code": "BU00140800", "name": "Hoogkerk Dorp"}, "geometry": {"type": "MultiPolygon", "coordinates": [[[[6.50124, 53.22695], [6.50264, 53.22644], [6.50141, 53.22644], [6.5009, 53.22466], [6.50232, 53.22313], [6.50426, 53.22278], [6.5039, 53.22137], [6.50323, 53.21854], [6.51924, 53.21497], [6.51295, 53.21481], [6.51361, 53.21108], [6.4894, 53.21295], [6.49006, 53.21392], [6.48822, 53.21877], [6.49789, 53.2182], [6.49913, 53.21871], [6.49886, 53.22895], [6.50014, 53.22905], [6.50124, 53.22695]]]]}}, {"type": "Feature", "properties": {"code": "BU00140003", "name": "Binnenstad-West"}, "geometry": {"type": "MultiPolygon", "coordinates": [[[[6.5594, 53.21662], [6.55867, 53.2131], [6.55586, 53.21402], [6.55681, 53.21583], [6.55591, 53.21918], [6.55689, 53.2193], [6.5571, 53.21933], [6.5594, 53.21662]]]]}}, {"type": "Feature", "properties": {"code": "BU00140701", "name": "Hoornse Meer"}, "geometry": {"type": "MultiPolygon", "coordinates": [[[[6.56419, 53.1928], [6.56823, 53.18696], [6.57579, 53.18293], [6.57488, 53.1828], [6.57126, 53.1828], [6.56768, 53.18389], [6.56119, 53.18298], [6.55754, 53.18308], [6.55694, 53.18383], [6.54885, 53.18167], [6.54838, 53.18089], [6.54819, 53.1811], [6.55327, 53.19027], [6.55522, 53.19401], [6.56419, 53.1928]]]]}}, {"type": "Feature", "properties": {"code": "BU00140203", "name": "Kostverloren"}, "geometry": {"type": "MultiPolygon", "coordinates": [[[[6.54982, 53.21456], [6.54265, 53.21306], [6.54007, 53.21645], [6.54017, 53.21893], [6.54109, 53.22008], [6.54982, 53.21456]]]]}}, {"type": "Feature", "properties": {"code": "BU00141208", "name": "Drielanden"}, "geometry": {"type": "MultiPolygon", "coordinates": [[[[6.62486, 53.24278], [6.61452, 53.24034], [6.61226, 53.24284], [6.62232, 53.24542], [6.62486, 53.24278]]]]}}, {"type": "Feature", "properties": {"code": "BU00141000", "name": "Selwerd"}, "geometry": {"type": "MultiPolygon", "coordinates": [[[[6.55884, 53.23833], [6.55933, 53.23504], [6.55804, 53.23183], [6.5562, 53.22984], [6.55003, 53.23168], [6.54868, 53.22925], [6.54608, 53.22974], [6.54213, 53.23651], [6.54365, 53.23674], [6.55178, 53.23819], [6.55884, 53.23833]]]]}}, {"type": "Feature", "properties": {"code": "BU00140902", "name": "Hoendiep"}, "geometry": {"type": "MultiPolygon", "coordinates": [[[[6.54007, 53.21645], [6.54265, 53.21306], [6.54201, 53.21291], [6.53402, 53.21109], [6.52941, 53.21432], [6.52405, 53.21467], [6.52387, 53.21625], [6.53027, 53.21642], [6.53954, 53.21885], [6.54017, 53.21893], [6.54007, 53.21645]]]]}}, {"type": "Feature", "properties": {"code": "BU00141800", "name": "Oosterhaar"}, "geometry": {"type": "MultiPolygon", "coordinates": [[[[6.62859, 53.17999], [6.63586, 53.17136], [6.6313, 53.16748], [6.63071, 53.16721], [6.62768, 53.1691], [6.62215, 53.16882], [6.61952, 53.17296], [6.61877, 53.176], [6.61955, 53.17873], [6.62463, 53.1813], [6.62859, 53.17999]]]]}}, {"type": "Feature", "properties": {"code": "BU00140511", "name": "Waterhuizen"}, "geometry": {"type": "MultiPolygon", "coordinates": [[[[6.62932, 53.19292], [6.64399, 53.18737], [6.63947, 53.18598], [6.63686, 53.18626], [6.63202, 53.18837], [6.62187, 53.19144], [6.62567, 53.1946], [6.62932, 53.19292]]]]}}, {"type": "Feature", "properties": {"code": "BU00141901", "name": "Onnen Dorp"}, "geometry": {"type": "MultiPolygon", "coordinates": [[[[6.64103, 53.1607], [6.64271, 53.16115], [6.64648, 53.15496], [6.63885, 53.15363], [6.63544, 53.15986], [6.64065, 53.16124], [6.64103, 53.1607]]]]}}, {"type": "Feature", "properties": {"code": "BU00140103", "name": "Rivierenbuurt"}, "geometry": {"type": "MultiPolygon", "coordinates": [[[[6.57132, 53.21074], [6.57416, 53.20535], [6.56469, 53.20323], [6.56347, 53.20297], [6.55933, 53.21056], [6.57132, 53.21074]]]]}}, {"type": "Feature", "properties": {"code": "BU00140905", "name": "Dorkwerd"}, "geometry": {"type": "MultiPolygon", "coordinates": [[[[6.51862, 53.25004], [6.52094, 53.24758], [6.51169, 53.24521], [6.51281, 53.24391], [6.51473, 53.24451], [6.51581, 53.24219], [6.51279, 53.2414], [6.51398, 53.23742], [6.49401, 53.24267], [6.48048, 53.24551], [6.48092, 53.25019], [6.4886, 53.24902], [6.48873, 53.24723], [6.49043, 53.24732], [6.49244, 53.24668], [6.49199, 53.24556], [6.49585, 53.24582], [6.49704, 53.24677], [6.49924, 53.24838], [6.50215, 53.24771], [6.50494, 53.24891], [6.51144, 53.25411], [6.51862, 53.25004]]]]}}, {"type": "Feature", "properties": {"code": "BU00141304", "name": "Middelbert"}, "geometry": {"type": "MultiPolygon", "coordinates": [[[[6.63712, 53.22342], [6.64413, 53.2256], [6.64792, 53.21864], [6.63915, 53.21579], [6.63782, 53.21803], [6.63093, 53.21561], [6.6284, 53.21795], [6.63009, 53.22068], [6.63226, 53.22179], [6.6315, 53.22752], [6.63295, 53.2279], [6.63712, 53.22342]]]]}}, {"type": "Feature", "properties": {"code": "BU00140101", "name": "Oosterpoort"}, "geometry": {"type": "MultiPolygon", "coordinates": [[[[6.57914, 53.21482], [6.58365, 53.20959], [6.57981, 53.20759], [6.57132, 53.21074], [6.57015, 53.21263], [6.57239, 53.21312], [6.5766, 53.21574], [6.57914, 53.21482]]]]}}, {"type": "Feature", "properties": {"code": "BU00140401", "name": "Vogelbuurt"}, "geometry": {"type": "MultiPolygon", "coordinates": [[[[6.58808, 53.23066], [6.58432, 53.22934], [6.58583, 53.22757], [6.5806, 53.2253], [6.57543, 53.22932], [6.58451, 53.23348], [6.58808, 53.23066]]]]}}, {"type": "Feature", "properties": {"code": "BU00141906", "name": "Zuidlaardermeer"}, "geometry": {"type": "MultiPolygon", "coordinates": [[[[6.68905, 53.14467], [6.69537, 53.12118], [6.69462, 53.12106], [6.67877, 53.11811], [6.67896, 53.11927], [6.67336, 53.12805], [6.67473, 53.12947], [6.67944, 53.13108], [6.68096, 53.13417], [6.68051, 53.13634], [6.68422, 53.13696], [6.68391, 53.139], [6.68048, 53.14291], [6.68223, 53.14331], [6.67994, 53.14668], [6.68426, 53.14737], [6.68905, 53.14467]]]]}}, {"type": "Feature", "properties": {"code": "BU00140907", "name": "Westpark"}, "geometry": {"type": "MultiPolygon", "coordinates": [[[[6.52387, 53.21625], [6.52405, 53.21467], [6.51924, 53.21497], [6.50323, 53.21854], [6.5039, 53.22137], [6.5106, 53.22193], [6.51832, 53.22175], [6.51999, 53.22254], [6.52061, 53.22437], [6.52387, 53.21625]]]]}}, {"type": "Feature", "properties": {"code": "BU00140400", "name": "Gorechtbuurt"}, "geometry": {"type": "MultiPolygon", "coordinates": [[[[6.5806, 53.2253], [6.58396, 53.22219], [6.58351, 53.22053], [6.57851, 53.21848], [6.57877, 53.22113], [6.57711, 53.22389], [6.57162, 53.22661], [6.57087, 53.2272], [6.57543, 53.22932], [6.5806, 53.2253]]]]}}, {"type": "Feature", "properties": {"code": "BU00140604", "name": "Helpman"}, "geometry": {"type": "MultiPolygon", "coordinates": [[[[6.58679, 53.19403], [6.58631, 53.19336], [6.58172, 53.19487], [6.57796, 53.19408], [6.57749, 53.19394], [6.57453, 53.19796], [6.5709, 53.20015], [6.57259, 53.2008], [6.57935, 53.2011], [6.58377, 53.20295], [6.58679, 53.19403]]]]}}, {"type": "Feature", "properties": {"code": "BU00141603", "name": "Winneweer"}, "geometry": {"type": "MultiPolygon", "coordinates": [[[[6.74157, 53.3116], [6.74268, 53.31102], [6.7429, 53.31136], [6.74368, 53.3111], [6.74422, 53.31192], [6.74705, 53.31149], [6.74731, 53.31193], [6.74795, 53.31178], [6.74935, 53.30984], [6.74479, 53.30775], [6.73731, 53.30467], [6.73372, 53.30382], [6.73105, 53.30407], [6.72945, 53.30535], [6.7329, 53.31141], [6.73761, 53.3128], [6.74047, 53.31218], [6.74157, 53.3116]]]]}}, {"type": "Feature", "properties": {"code": "BU00140803", "name": "Vierverlaten"}, "geometry": {"type": "MultiPolygon", "coordinates": [[[[6.48446, 53.21366], [6.4894, 53.21295], [6.49003, 53.20986], [6.4883, 53.20952], [6.48722, 53.21143], [6.48617, 53.21175], [6.47408, 53.20919], [6.47204, 53.21361], [6.47908, 53.21589], [6.48446, 53.21366]]]]}}, {"type": "Feature", "properties": {"code": "BU00141803", "name": "Buitengebied Haren-Noordoost"}, "geometry": {"type": "MultiPolygon", "coordinates": [[[[6.60483, 53.19654], [6.62187, 53.19144], [6.63202, 53.18837], [6.63686, 53.18626], [6.63947, 53.18598], [6.64725, 53.18378], [6.64422, 53.18178], [6.63586, 53.17136], [6.62859, 53.17999], [6.62463, 53.1813], [6.61955, 53.17873], [6.61877, 53.176], [6.61952, 53.17296], [6.61658, 53.1776], [6.61064, 53.18685], [6.60627, 53.19358], [6.60327, 53.19636], [6.60483, 53.19654]]]]}}, {"type": "Feature", "properties": {"code": "BU00140503", "name": "Kop van Oost"}, "geometry": {"type": "MultiPolygon", "coordinates": [[[[6.58659, 53.21742], [6.58179, 53.21573], [6.58015, 53.21705], [6.58545, 53.21858], [6.58659, 53.21742]]]]}}, {"type": "Feature", "properties": {"code": "BU00141403", "name": "Groenewei"}, "geometry": {"type": "MultiPolygon", "coordinates": [[[[6.6531, 53.23383], [6.65489, 53.23353], [6.65435, 53.23215], [6.64845, 53.23051], [6.64814, 53.22881], [6.6432, 53.22739], [6.64331, 53.23051], [6.64109, 53.23111], [6.64005, 53.23247], [6.64366, 53.23347], [6.6478, 53.23481], [6.65214, 53.2351], [6.6531, 53.23383]]]]}}, {"type": "Feature", "properties": {"code": "BU00140601", "name": "Coendersborg"}, "geometry": {"type": "MultiPolygon", "coordinates": [[[[6.58411, 53.20556], [6.59335, 53.20122], [6.5984, 53.19885], [6.59296, 53.19761], [6.59589, 53.19196], [6.59485, 53.19167], [6.59165, 53.19119], [6.58993, 53.1944], [6.58679, 53.19403], [6.58377, 53.20295], [6.58344, 53.20587], [6.58411, 53.20556]]]]}}, {"type": "Feature", "properties": {"code": "BU00141210", "name": "Ruischerbrug"}, "geometry": {"type": "MultiPolygon", "coordinates": [[[[6.64362, 53.23506], [6.64359, 53.23481], [6.63475, 53.23236], [6.62564, 53.22986], [6.62497, 53.23194], [6.63379, 53.23379], [6.63512, 53.23464], [6.64287, 53.2364], [6.64362, 53.23506]]]]}}, {"type": "Feature", "properties": {"code": "BU00140500", "name": "De Linie"}, "geometry": {"type": "MultiPolygon", "coordinates": [[[[6.5853, 53.20759], [6.58544, 53.20581], [6.58411, 53.20556], [6.58344, 53.20587], [6.57981, 53.20759], [6.58365, 53.20959], [6.5853, 53.20759]]]]}}, {"type": "Feature", "properties": {"code": "BU00140802", "name": "Westpoort"}, "geometry": {"type": "MultiPolygon", "coordinates": [[[[6.47908, 53.21589], [6.47204, 53.21361], [6.47408, 53.20919], [6.48617, 53.21175], [6.48722, 53.21143], [6.4883, 53.20952], [6.49003, 53.20986], [6.49341, 53.20372], [6.48572, 53.20382], [6.48151, 53.20355], [6.46346, 53.20006], [6.46275, 53.20198], [6.46638, 53.20419], [6.467, 53.20617], [6.46468, 53.20746], [6.46447, 53.20761], [6.46977, 53.22047], [6.47908, 53.21589]]]]}}, {"type": "Feature", "properties": {"code": "BU00141909", "name": "Appelbergen Onnen"}, "geometry": {"type": "MultiPolygon", "coordinates": [[[[6.6442, 53.14118], [6.64657, 53.13518], [6.64619, 53.13503], [6.64527, 53.13666], [6.6378, 53.14041], [6.6442, 53.14118]]]]}}, {"type": "Feature", "properties": {"code": "BU00140102", "name": "Herewegbuurt"}, "geometry": {"type": "MultiPolygon", "coordinates": [[[[6.57981, 53.20759], [6.57416, 53.20535], [6.57132, 53.21074], [6.57981, 53.20759]]]]}}, {"type": "Feature", "properties": {"code": "BU00141004", "name": "Selwerderhof"}, "geometry": {"type": "MultiPolygon", "coordinates": [[[[6.55664, 53.24267], [6.55884, 53.23833], [6.55178, 53.23819], [6.54365, 53.23674], [6.54131, 53.24226], [6.53145, 53.25024], [6.55664, 53.24267]]]]}}, {"type": "Feature", "properties": {"code": "BU00140702", "name": "Hoornse Park"}, "geometry": {"type": "MultiPolygon", "coordinates": [[[[6.54819, 53.1811], [6.54625, 53.18028], [6.54683, 53.18125], [6.54315, 53.18551], [6.54432, 53.18729], [6.55327, 53.19027], [6.54819, 53.1811]]]]}}, {"type": "Feature", "properties": {"code": "BU00140105", "name": "Badstratenbuurt"}, "geometry": {"type": "MultiPolygon", "coordinates": [[[[6.55867, 53.2131], [6.55933, 53.21056], [6.55663, 53.21047], [6.55586, 53.21402], [6.55867, 53.2131]]]]}}, {"type": "Feature", "properties": {"code": "BU00140510", "name": "Roodehaan"}, "geometry": {"type": "MultiPolygon", "coordinates": [[[[6.63494, 53.2027], [6.64265, 53.2003], [6.65047, 53.19941], [6.66216, 53.19982], [6.65018, 53.19341], [6.64261, 53.19188], [6.6402, 53.19052], [6.63981, 53.1903], [6.64682, 53.18794], [6.64481, 53.18738], [6.64399, 53.18737], [6.62932, 53.19292], [6.63276, 53.19462], [6.63012, 53.19809], [6.62727, 53.19908], [6.62468, 53.20522], [6.63041, 53.20569], [6.63494, 53.2027]]]]}}, {"type": "Feature", "properties": {"code": "BU00141506", "name": "Bedrijventerrein Ten Boer"}, "geometry": {"type": "MultiPolygon", "coordinates": [[[[6.70954, 53.28194], [6.70898, 53.28], [6.7005, 53.2743], [6.69909, 53.27466], [6.69937, 53.27525], [6.70633, 53.27944], [6.7043, 53.28063], [6.70954, 53.28194]]]]}}, {"type": "Feature", "properties": {"code": "BU00141202", "name": "Lewenborg-West"}, "geometry": {"type": "MultiPolygon", "coordinates": [[[[6.61391, 53.23959], [6.61148, 53.23662], [6.61452, 53.23489], [6.61631, 53.23364], [6.6169, 53.2312], [6.60986, 53.22951], [6.60696, 53.23296], [6.60652, 53.23328], [6.60318, 53.2349], [6.60471, 53.2358], [6.60589, 53.23836], [6.61391, 53.23959]]]]}}, {"type": "Feature", "properties": {"code": "BU00140705", "name": "Bruilweering"}, "geometry": {"type": "MultiPolygon", "coordinates": [[[[6.5369, 53.1936], [6.5304, 53.19286], [6.52953, 53.1952], [6.53049, 53.19556], [6.53395, 53.1957], [6.53669, 53.19589], [6.5369, 53.1936]]]]}}, {"type": "Feature", "properties": {"code": "BU00141702", "name": "Haren-Zuidoost"}, "geometry": {"type": "MultiPolygon", "coordinates": [[[[6.61952, 53.17296], [6.62215, 53.16882], [6.6247, 53.16469], [6.62751, 53.15997], [6.6242, 53.1591], [6.62599, 53.15739], [6.62338, 53.15672], [6.61994, 53.15712], [6.61782, 53.16009], [6.61793, 53.15935], [6.61505, 53.15858], [6.6067, 53.17033], [6.608, 53.17209], [6.6079, 53.17528], [6.61658, 53.1776], [6.61952, 53.17296]]]]}}, {"type": "Feature", "properties": {"code": "BU00141216", "name": "Bedrijventerrein Ulgersmaborg-Noord"}, "geometry": {"type": "MultiPolygon", "coordinates": [[[[6.59357, 53.2369], [6.59306, 53.23514], [6.58892, 53.23361], [6.58863, 53.23474], [6.58875, 53.23568], [6.587, 53.23761], [6.58955, 53.23901], [6.59357, 53.2369]]]]}}, {"type": "Feature", "properties": {"code": "BU00140909", "name": "De Suikerzijde-Zuid"}, "geometry": {"type": "MultiPolygon", "coordinates": [[[[6.53132, 53.2098], [6.53202, 53.20782], [6.53074, 53.20764], [6.53128, 53.20558], [6.51931, 53.20246], [6.51867, 53.20319], [6.51361, 53.21108], [6.53132, 53.2098]]]]}}, {"type": "Feature", "properties": {"code": "BU00141103", "name": "Van Starkenborgh"}, "geometry": {"type": "MultiPolygon", "coordinates": [[[[6.57568, 53.24025], [6.57797, 53.23863], [6.57857, 53.23646], [6.57831, 53.23609], [6.57831, 53.23609], [6.5689, 53.23895], [6.57124, 53.24128], [6.57568, 53.24025]]]]}}, {"type": "Feature", "properties": {"code": "BU00141205", "name": "Hunzepark"}, "geometry": {"type": "MultiPolygon", "coordinates": [[[[6.60411, 53.23629], [6.60471, 53.2358], [6.60318, 53.2349], [6.59879, 53.23588], [6.5984, 53.23594], [6.59819, 53.23718], [6.60055, 53.23768], [6.60411, 53.23629]]]]}}, {"type": "Feature", "properties": {"code": "BU00141709", "name": "Wolddeelen"}, "geometry": {"type": "MultiPolygon", "coordinates": [[[[6.59989, 53.16294], [6.60641, 53.16201], [6.60759, 53.1612], [6.60768, 53.15971], [6.60968, 53.15702], [6.61343, 53.15067], [6.61178, 53.15044], [6.61182, 53.14711], [6.61603, 53.14128], [6.60985, 53.14019], [6.60862, 53.13965], [6.60918, 53.1384], [6.60818, 53.1389], [6.60586, 53.14738], [6.5951, 53.15965], [6.59211, 53.16635], [6.59568, 53.16751], [6.59989, 53.16294]]]]}}, {"type": "Feature", "properties": {"code": "BU00140303", "name": "De Hoogte"}, "geometry": {"type": "MultiPolygon", "coordinates": [[[[6.56644, 53.23696], [6.56003, 53.22801], [6.5562, 53.22984], [6.55804, 53.23183], [6.55933, 53.23504], [6.55884, 53.23833], [6.56644, 53.23696]]]]}}, {"type": "Feature", "properties": {"code": "BU00140506", "name": "Eemspoort"}, "geometry": {"type": "MultiPolygon", "coordinates": [[[[6.61835, 53.21719], [6.62582, 53.20978], [6.63041, 53.20569], [6.62468, 53.20522], [6.6221, 53.20598], [6.62014, 53.20878], [6.61742, 53.21057], [6.61558, 53.21091], [6.61071, 53.21031], [6.60622, 53.21198], [6.60253, 53.21463], [6.61187, 53.21755], [6.61835, 53.21719]]]]}}, {"type": "Feature", "properties": {"code": "BU00140809", "name": "Bangeweer"}, "geometry": {"type": "MultiPolygon", "coordinates": [[[[6.53329, 53.20504], [6.53191, 53.20466], [6.52466, 53.20278], [6.51916, 53.20146], [6.51778, 53.20092], [6.51867, 53.20319], [6.51931, 53.20246], [6.53128, 53.20558], [6.53074, 53.20764], [6.53202, 53.20782], [6.53329, 53.20504]]]]}}, {"type": "Feature", "properties": {"code": "BU00141217", "name": "Bedrijventerrein Ulgersmaweg"}, "geometry": {"type": "MultiPolygon", "coordinates": [[[[6.58498, 53.23731], [6.58784, 53.23601], [6.58789, 53.2346], [6.58932, 53.23152], [6.59324, 53.22898], [6.59179, 53.22765], [6.58808, 53.23066], [6.58451, 53.23348], [6.57831, 53.23609], [6.57857, 53.23646], [6.583, 53.23749], [6.58498, 53.23731]]]]}}, {"type": "Feature", "properties": {"code": "BU00140504", "name": "Woonschepenhaven"}, "geometry": {"type": "MultiPolygon", "coordinates": [[[[6.60454, 53.2217], [6.59731, 53.21963], [6.59643, 53.22174], [6.59826, 53.22222], [6.6026, 53.22336], [6.60316, 53.22353], [6.60454, 53.2217]]]]}}, {"type": "Feature", "properties": {"code": "BU00140606", "name": "De Wijert-Zuid"}, "geometry": {"type": "MultiPolygon", "coordinates": [[[[6.58133, 53.19297], [6.58235, 53.19101], [6.58005, 53.19043], [6.57886, 53.18703], [6.58116, 53.18497], [6.57972, 53.18469], [6.58038, 53.18359], [6.57579, 53.18293], [6.56823, 53.18696], [6.56419, 53.1928], [6.57541, 53.19333], [6.57749, 53.19394], [6.57796, 53.19408], [6.58133, 53.19297]]]]}}, {"type": "Feature", "properties": {"code": "BU00140501", "name": "Europapark"}, "geometry": {"type": "MultiPolygon", "coordinates": [[[[6.59594, 53.20682], [6.59379, 53.20444], [6.59412, 53.20216], [6.59335, 53.20122], [6.58411, 53.20556], [6.58544, 53.20581], [6.5853, 53.20759], [6.58365, 53.20959], [6.58864, 53.21145], [6.59594, 53.20682]]]]}}, {"type": "Feature", "properties": {"code": "BU00140700", "name": "Corpus den Hoorn"}, "geometry": {"type": "MultiPolygon", "coordinates": [[[[6.56458, 53.19976], [6.56301, 53.19619], [6.56419, 53.1928], [6.55522, 53.19401], [6.55004, 53.19511], [6.5439, 53.19149], [6.54043, 53.19661], [6.54641, 53.19851], [6.55937, 53.20215], [6.56347, 53.20297], [6.56469, 53.20323], [6.56458, 53.19976]]]]}}, {"type": "Feature", "properties": {"code": "BU00140507", "name": "Euvelgunne"}, "geometry": {"type": "MultiPolygon", "coordinates": [[[[6.60622, 53.21198], [6.61071, 53.21031], [6.61558, 53.21091], [6.61742, 53.21057], [6.62014, 53.20878], [6.6221, 53.20598], [6.62468, 53.20522], [6.61836, 53.20486], [6.60938, 53.2028], [6.60288, 53.20676], [6.59968, 53.21401], [6.60253, 53.21463], [6.60622, 53.21198]]]]}}, {"type": "Feature", "properties": {"code": "BU00140505", "name": "Driebond"}, "geometry": {"type": "MultiPolygon", "coordinates": [[[[6.61835, 53.21719], [6.61187, 53.21755], [6.60253, 53.21463], [6.59968, 53.21401], [6.59731, 53.21963], [6.60454, 53.2217], [6.60316, 53.22353], [6.61215, 53.22609], [6.61835, 53.21719]]]]}}, {"type": "Feature", "properties": {"code": "BU00141708", "name": "Buitengebied Haren-Zuidoost"}, "geometry": {"type": "MultiPolygon", "coordinates": [[[[6.61994, 53.15712], [6.62338, 53.15672], [6.62599, 53.15739], [6.6242, 53.1591], [6.62751, 53.15997], [6.62953, 53.15659], [6.63211, 53.15267], [6.63273, 53.14702], [6.63218, 53.14702], [6.63135, 53.14937], [6.62778, 53.15013], [6.6247, 53.14927], [6.61665, 53.14933], [6.61604, 53.15034], [6.61343, 53.15067], [6.60968, 53.15702], [6.61505, 53.15858], [6.61793, 53.15935], [6.61782, 53.16009], [6.61994, 53.15712]]]]}}, {"type": "Feature", "properties": {"code": "BU00141503", "name": "Thesinge"}, "geometry": {"type": "MultiPolygon", "coordinates": [[[[6.66235, 53.29425], [6.67067, 53.2878], [6.67426, 53.28332], [6.67913, 53.27731], [6.6811, 53.27068], [6.67651, 53.26798], [6.66695, 53.26211], [6.66007, 53.2658], [6.65537, 53.26287], [6.65593, 53.2624], [6.65075, 53.25854], [6.63621, 53.24908], [6.63504, 53.25129], [6.63605, 53.25144], [6.63568, 53.2541], [6.63345, 53.25976], [6.62587, 53.26614], [6.63278, 53.27621], [6.64277, 53.29093], [6.65156, 53.2906], [6.65883, 53.29592], [6.66235, 53.29425]]]]}}, {"type": "Feature", "properties": {"code": "BU00141402", "name": "Lageland GN"}, "geometry": {"type": "MultiPolygon", "coordinates": [[[[6.70373, 53.25378], [6.70354, 53.25194], [6.70981, 53.24843], [6.71451, 53.24561], [6.71272, 53.24462], [6.71769, 53.24187], [6.71485, 53.24017], [6.71201, 53.23846], [6.70883, 53.23544], [6.70885, 53.2353], [6.70887, 53.23518], [6.67806, 53.23536], [6.66176, 53.23546], [6.65308, 53.23551], [6.6531, 53.23383], [6.65214, 53.2351], [6.6478, 53.23481], [6.64366, 53.23347], [6.64359, 53.23481], [6.64362, 53.23506], [6.65027, 53.23726], [6.66781, 53.24522], [6.68905, 53.25282], [6.69833, 53.25615], [6.70373, 53.25378]]]]}}, {"type": "Feature", "properties": {"code": "BU00140801", "name": "Hoogkerk-Zuid"}, "geometry": {"type": "MultiPolygon", "coordinates": [[[[6.51361, 53.21108], [6.51867, 53.20319], [6.51778, 53.20092], [6.51572, 53.19831], [6.51339, 53.19694], [6.51334, 53.19697], [6.50685, 53.20015], [6.49643, 53.19814], [6.49351, 53.1985], [6.49273, 53.20074], [6.48572, 53.20382], [6.49341, 53.20372], [6.49003, 53.20986], [6.4894, 53.21295], [6.51361, 53.21108]]]]}}, {"type": "Feature", "properties": {"code": "BU00141201", "name": "Lewenborg-Zuid"}, "geometry": {"type": "MultiPolygon", "coordinates": [[[[6.63008, 53.23816], [6.63153, 53.23776], [6.63379, 53.23379], [6.62497, 53.23194], [6.6197, 53.23083], [6.6169, 53.2312], [6.61631, 53.23364], [6.61452, 53.23489], [6.61637, 53.23587], [6.63008, 53.23816]]]]}}, {"type": "Feature", "properties": {"code": "BU00141104", "name": "Noorderhoogebrug"}, "geometry": {"type": "MultiPolygon", "coordinates": [[[[6.57168, 53.25103], [6.57373, 53.24985], [6.57078, 53.24445], [6.57618, 53.24512], [6.57124, 53.24128], [6.5689, 53.23895], [6.56792, 53.23921], [6.56268, 53.24078], [6.56571, 53.24264], [6.56744, 53.24824], [6.57029, 53.25071], [6.57168, 53.25103]]]]}}, {"type": "Feature", "properties": {"code": "BU00141904", "name": "Buitengebied Onnen"}, "geometry": {"type": "MultiPolygon", "coordinates": [[[[6.65724, 53.18077], [6.65764, 53.18035], [6.66027, 53.17659], [6.66116, 53.17333], [6.66163, 53.17198], [6.66326, 53.17058], [6.66537, 53.16944], [6.66968, 53.16903], [6.67168, 53.16691], [6.67818, 53.16481], [6.67971, 53.16333], [6.68871, 53.15461], [6.69027, 53.15116], [6.69022, 53.15039], [6.68699, 53.14897], [6.68627, 53.14785], [6.68905, 53.14467], [6.68426, 53.14737], [6.67994, 53.14668], [6.67516, 53.14659], [6.6623, 53.13932], [6.65993, 53.13711], [6.66058, 53.13637], [6.65618, 53.1345], [6.65457, 53.13601], [6.64841, 53.13349], [6.64657, 53.13518], [6.6442, 53.14118], [6.6378, 53.14041], [6.63606, 53.14156], [6.63331, 53.14339], [6.63273, 53.14702], [6.63211, 53.15267], [6.62953, 53.15659], [6.63099, 53.15749], [6.6301, 53.16388], [6.63262, 53.16709], [6.6313, 53.16748], [6.63586, 53.17136], [6.64422, 53.18178], [6.64725, 53.18378], [6.65724, 53.18077], [6.65724, 53.18077]], [[6.63885, 53.15363], [6.64648, 53.15496], [6.64271, 53.16115], [6.64103, 53.1607], [6.64065, 53.16124], [6.63544, 53.15986], [6.63885, 53.15363]]]]}}, {"type": "Feature", "properties": {"code": "BU00140202", "name": "Schildersbuurt"}, "geometry": {"type": "MultiPolygon", "coordinates": [[[[6.54571, 53.21915], [6.55334, 53.21937], [6.55591, 53.21918], [6.55681, 53.21583], [6.55586, 53.21402], [6.54982, 53.21456], [6.54109, 53.22008], [6.54229, 53.22096], [6.54571, 53.21915]]]]}}, {"type": "Feature", "properties": {"code": "BU00141501", "name": "Buitengebied Ten Boer-Zuid"}, "geometry": {"type": "MultiPolygon", "coordinates": [[[[6.72248, 53.2798], [6.71065, 53.26866], [6.71766, 53.26317], [6.70752, 53.25943], [6.69833, 53.25615], [6.68905, 53.25282], [6.68821, 53.25325], [6.68747, 53.25713], [6.6794, 53.26126], [6.674, 53.2579], [6.66695, 53.26211], [6.67651, 53.26798], [6.67842, 53.26688], [6.68063, 53.26823], [6.6834, 53.26888], [6.68458, 53.26808], [6.68398, 53.26769], [6.68845, 53.26596], [6.69719, 53.27201], [6.70193, 53.27005], [6.70555, 53.27347], [6.70344, 53.27451], [6.70201, 53.27352], [6.7005, 53.2743], [6.70898, 53.28], [6.70954, 53.28194], [6.71095, 53.28357], [6.72248, 53.2798]]]]}}, {"type": "Feature", "properties": {"code": "BU00141710", "name": "Buitengebied Haren-Zuidwest"}, "geometry": {"type": "MultiPolygon", "coordinates": [[[[6.59211, 53.16635], [6.5951, 53.15965], [6.60586, 53.14738], [6.60818, 53.1389], [6.60652, 53.13932], [6.60046, 53.14431], [6.58779, 53.14589], [6.58739, 53.14868], [6.58464, 53.15431], [6.58709, 53.15623], [6.58346, 53.15853], [6.5811, 53.16261], [6.5815, 53.16353], [6.59012, 53.1664], [6.59211, 53.16635]]]]}}, {"type": "Feature", "properties": {"code": "BU00140001", "name": "Binnenstad-Zuid"}, "geometry": {"type": "MultiPolygon", "coordinates": [[[[6.57274, 53.21846], [6.5766, 53.21574], [6.57239, 53.21312], [6.57015, 53.21263], [6.56581, 53.21192], [6.55867, 53.2131], [6.5594, 53.21662], [6.56239, 53.21677], [6.56786, 53.2183], [6.57274, 53.21846]]]]}}, {"type": "Feature", "properties": {"code": "BU00141214", "name": "Ulgersmaborg"}, "geometry": {"type": "MultiPolygon", "coordinates": [[[[6.5984, 53.23594], [6.59879, 53.23588], [6.59656, 53.23532], [6.59684, 53.23485], [6.60131, 53.23295], [6.60331, 53.2326], [6.60652, 53.23328], [6.60696, 53.23296], [6.60359, 53.23147], [6.59324, 53.22898], [6.58932, 53.23152], [6.58789, 53.2346], [6.58863, 53.23474], [6.58892, 53.23361], [6.59306, 53.23514], [6.59357, 53.2369], [6.5984, 53.23594]]]]}}, {"type": "Feature", "properties": {"code": "BU00140304", "name": "Bedrijventerrein De Hoogte"}, "geometry": {"type": "MultiPolygon", "coordinates": [[[[6.56268, 53.24078], [6.56792, 53.23921], [6.56644, 53.23696], [6.55884, 53.23833], [6.55664, 53.24267], [6.56268, 53.24078]]]]}}, {"type": "Feature", "properties": {"code": "BU00140603", "name": "Villabuurt"}, "geometry": {"type": "MultiPolygon", "coordinates": [[[[6.58631, 53.19336], [6.58679, 53.19403], [6.58993, 53.1944], [6.59165, 53.19119], [6.59485, 53.19167], [6.59584, 53.19013], [6.59255, 53.18918], [6.58656, 53.1872], [6.58116, 53.18497], [6.57886, 53.18703], [6.58005, 53.19043], [6.58235, 53.19101], [6.58133, 53.19297], [6.57796, 53.19408], [6.58172, 53.19487], [6.58631, 53.19336]]]]}}, {"type": "Feature", "properties": {"code": "BU00140812", "name": "De Kring"}, "geometry": {"type": "MultiPolygon", "coordinates": [[[[6.52396, 53.20049], [6.51997, 53.19923], [6.51916, 53.20146], [6.52466, 53.20278], [6.52396, 53.20049]]]]}}, {"type": "Feature", "properties": {"code": "BU00141001", "name": "Paddepoel-Zuid"}, "geometry": {"type": "MultiPolygon", "coordinates": [[[[6.54868, 53.22925], [6.55067, 53.22616], [6.54885, 53.22501], [6.54229, 53.22096], [6.53829, 53.22387], [6.53543, 53.22731], [6.54608, 53.22974], [6.54868, 53.22925]]]]}}, {"type": "Feature", "properties": {"code": "BU00141504", "name": "Sint Annen"}, "geometry": {"type": "MultiPolygon", "coordinates": [[[[6.65478, 53.30842], [6.65577, 53.30812], [6.65594, 53.30833], [6.65675, 53.30806], [6.65665, 53.30793], [6.65705, 53.30775], [6.66077, 53.30669], [6.67717, 53.30374], [6.68974, 53.29754], [6.69363, 53.2947], [6.67426, 53.28332], [6.67067, 53.2878], [6.66235, 53.29425], [6.65883, 53.29592], [6.65156, 53.2906], [6.64277, 53.29093], [6.64929, 53.30228], [6.65405, 53.30865], [6.65478, 53.30842]]]]}}, {"type": "Feature", "properties": {"code": "BU00140703", "name": "Van Swieten"}, "geometry": {"type": "MultiPolygon", "coordinates": [[[[6.55004, 53.19511], [6.55522, 53.19401], [6.55327, 53.19027], [6.54432, 53.18729], [6.5439, 53.19149], [6.55004, 53.19511]]]]}}, {"type": "Feature", "properties": {"code": "BU00140004", "name": "Noorderplantsoen"}, "geometry": {"type": "MultiPolygon", "coordinates": [[[[6.56086, 53.22668], [6.56121, 53.22613], [6.55754, 53.22569], [6.55666, 53.22484], [6.55577, 53.22293], [6.55689, 53.2193], [6.55591, 53.21918], [6.55334, 53.21937], [6.55273, 53.22245], [6.55469, 53.22621], [6.56023, 53.22768], [6.56086, 53.22668]]]]}}, {"type": "Feature", "properties": {"code": "BU00141707", "name": "Paterswoldsemeer"}, "geometry": {"type": "MultiPolygon", "coordinates": [[[[6.56768, 53.18389], [6.57126, 53.1828], [6.57488, 53.1828], [6.58732, 53.17253], [6.58896, 53.1698], [6.59012, 53.1664], [6.5815, 53.16353], [6.56474, 53.15799], [6.56369, 53.15764], [6.56318, 53.15869], [6.56275, 53.16042], [6.56059, 53.16613], [6.55932, 53.16934], [6.55614, 53.17285], [6.55581, 53.1733], [6.54857, 53.18067], [6.54838, 53.18089], [6.54885, 53.18167], [6.55694, 53.18383], [6.55754, 53.18308], [6.56119, 53.18298], [6.56768, 53.18389]]]]}}, {"type": "Feature", "properties": {"code": "BU00140805", "name": "Leegkerk"}, "geometry": {"type": "MultiPolygon", "coordinates": [[[[6.49401, 53.24267], [6.49548, 53.23693], [6.4997, 53.23494], [6.50014, 53.22905], [6.49886, 53.22895], [6.49913, 53.21871], [6.49789, 53.2182], [6.48822, 53.21877], [6.4772, 53.23421], [6.47666, 53.2365], [6.48048, 53.24551], [6.49401, 53.24267]]]]}}, {"type": "Feature", "properties": {"code": "BU00141902", "name": "Noordlaren Dorp"}, "geometry": {"type": "MultiPolygon", "coordinates": [[[[6.66445, 53.12544], [6.66663, 53.12434], [6.67178, 53.11961], [6.67153, 53.11849], [6.66984, 53.11728], [6.66529, 53.1163], [6.66279, 53.1196], [6.66134, 53.12016], [6.65715, 53.11921], [6.6566, 53.12005], [6.6586, 53.12141], [6.66423, 53.12292], [6.66144, 53.12566], [6.66244, 53.1261], [6.66445, 53.12544]]]]}}, {"type": "Feature", "properties": {"code": "BU00141900", "name": "Glimmen Dorp"}, "geometry": {"type": "MultiPolygon", "coordinates": [[[[6.63331, 53.14339], [6.63606, 53.14156], [6.63361, 53.14184], [6.63253, 53.14265], [6.63259, 53.14046], [6.63197, 53.13183], [6.62702, 53.13239], [6.62172, 53.13516], [6.62322, 53.13658], [6.62625, 53.13729], [6.62325, 53.14126], [6.62564, 53.14196], [6.62417, 53.14534], [6.63218, 53.14702], [6.63273, 53.14702], [6.63331, 53.14339]]]]}}, {"type": "Feature", "properties": {"code": "BU00141602", "name": "Woltersum"}, "geometry": {"type": "MultiPolygon", "coordinates": [[[[6.75114, 53.2754], [6.73229, 53.26921], [6.71766, 53.26317], [6.71065, 53.26866], [6.72248, 53.2798], [6.72355, 53.27933], [6.72764, 53.28269], [6.73137, 53.28446], [6.73526, 53.27926], [6.74236, 53.27609], [6.74646, 53.27859], [6.75114, 53.2754]]]]}}, {"type": "Feature", "properties": {"code": "BU00141802", "name": "Felland"}, "geometry": {"type": "MultiPolygon", "coordinates": [[[[6.6313, 53.16748], [6.63262, 53.16709], [6.6301, 53.16388], [6.63099, 53.15749], [6.62953, 53.15659], [6.62751, 53.15997], [6.6247, 53.16469], [6.63071, 53.16721], [6.6313, 53.16748]]]]}}, {"type": "Feature", "properties": {"code": "BU00141100", "name": "Beijum-West"}, "geometry": {"type": "MultiPolygon", "coordinates": [[[[6.59074, 53.25532], [6.5975, 53.24448], [6.58759, 53.24031], [6.58553, 53.24167], [6.58226, 53.24415], [6.58108, 53.24682], [6.57887, 53.24805], [6.58713, 53.25571], [6.59074, 53.25532]]]]}}, {"type": "Feature", "properties": {"code": "BU00141405", "name": "De Zeilen"}, "geometry": {"type": "MultiPolygon", "coordinates": [[[[6.67191, 53.22368], [6.66667, 53.2246], [6.66224, 53.22528], [6.66176, 53.23546], [6.67806, 53.23536], [6.67191, 53.22368]]]]}}, {"type": "Feature", "properties": {"code": "BU00140000", "name": "Binnenstad-Noord"}, "geometry": {"type": "MultiPolygon", "coordinates": [[[[6.57039, 53.22138], [6.57274, 53.21846], [6.56786, 53.2183], [6.56239, 53.21677], [6.5594, 53.21662], [6.5571, 53.21933], [6.56628, 53.22224], [6.57039, 53.22138]]]]}}, {"type": "Feature", "properties": {"code": "BU00140910", "name": "De Nieuwe Held"}, "geometry": {"type": "MultiPolygon", "coordinates": [[[[6.51454, 53.23494], [6.51996, 53.23582], [6.52509, 53.23445], [6.52004, 53.23335], [6.52061, 53.2321], [6.5184, 53.23107], [6.5099, 53.23076], [6.50991, 53.22713], [6.51111, 53.22731], [6.5106, 53.22193], [6.5039, 53.22137], [6.50426, 53.22278], [6.50232, 53.22313], [6.5009, 53.22466], [6.50141, 53.22644], [6.50264, 53.22644], [6.50515, 53.22646], [6.50678, 53.23403], [6.50763, 53.23464], [6.51423, 53.23634], [6.51454, 53.23494]]]]}}, {"type": "Feature", "properties": {"code": "BU00141700", "name": "Haren-Centrum"}, "geometry": {"type": "MultiPolygon", "coordinates": [[[[6.608, 53.17209], [6.6067, 53.17033], [6.60121, 53.16951], [6.59857, 53.17256], [6.60195, 53.17397], [6.6079, 53.17528], [6.608, 53.17209]]]]}}, {"type": "Feature", "properties": {"code": "BU00141209", "name": "Noorddijk"}, "geometry": {"type": "MultiPolygon", "coordinates": [[[[6.6193, 53.24945], [6.63504, 53.25129], [6.63621, 53.24908], [6.64287, 53.2364], [6.63512, 53.23464], [6.63379, 53.23379], [6.63153, 53.23776], [6.63008, 53.23816], [6.62679, 53.24323], [6.62486, 53.24278], [6.62232, 53.24542], [6.61226, 53.24284], [6.60913, 53.24642], [6.60673, 53.24914], [6.60641, 53.25142], [6.61835, 53.25149], [6.6193, 53.24945]]]]}}, {"type": "Feature", "properties": {"code": "BU00140900", "name": "Vinkhuizen-Noord"}, "geometry": {"type": "MultiPolygon", "coordinates": [[[[6.52803, 53.23432], [6.53405, 53.22692], [6.52061, 53.22437], [6.5184, 53.23107], [6.52061, 53.2321], [6.52004, 53.23335], [6.52509, 53.23445], [6.52803, 53.23432]]]]}}, {"type": "Feature", "properties": {"code": "BU00141605", "name": "Buitengebied Ten Post"}, "geometry": {"type": "MultiPolygon", "coordinates": [[[[6.75308, 53.29885], [6.75554, 53.29963], [6.76068, 53.29524], [6.76462, 53.29814], [6.77223, 53.29192], [6.76979, 53.29068], [6.77231, 53.28779], [6.76914, 53.28663], [6.77253, 53.28309], [6.75114, 53.2754], [6.74646, 53.27859], [6.74236, 53.27609], [6.73526, 53.27926], [6.73137, 53.28446], [6.72764, 53.28269], [6.72355, 53.27933], [6.72248, 53.2798], [6.71095, 53.28357], [6.70418, 53.28743], [6.71069, 53.29133], [6.7127, 53.29159], [6.7179, 53.29501], [6.72037, 53.29742], [6.71864, 53.29823], [6.71796, 53.29984], [6.72115, 53.30347], [6.72435, 53.30554], [6.72945, 53.30535], [6.73105, 53.30407], [6.73372, 53.30382], [6.73731, 53.30467], [6.74479, 53.30775], [6.74805, 53.30297], [6.75308, 53.29885]], [[6.73706, 53.29126], [6.73478, 53.28899], [6.74577, 53.28576], [6.75213, 53.28112], [6.7541, 53.28198], [6.74958, 53.28538], [6.74959, 53.28759], [6.75272, 53.2891], [6.74381, 53.2935], [6.73706, 53.29126]], [[6.72325, 53.30417], [6.72196, 53.30282], [6.72112, 53.29988], [6.72441, 53.29797], [6.72314, 53.29267], [6.72452, 53.29266], [6.728, 53.29446], [6.73402, 53.29405], [6.73724, 53.29618], [6.73506, 53.29852], [6.73165, 53.30009], [6.72706, 53.30066], [6.72633, 53.30372], [6.72325, 53.30417]]]]}}, {"type": "Feature", "properties": {"code": "BU00140402", "name": "Bloemenbuurt"}, "geometry": {"type": "MultiPolygon", "coordinates": [[[[6.58915, 53.22231], [6.58351, 53.22053], [6.58396, 53.22219], [6.5806, 53.2253], [6.58583, 53.22757], [6.58915, 53.22231]]]]}}, {"type": "Feature", "properties": {"code": "BU00140107", "name": "Laanhuizen"}, "geometry": {"type": "MultiPolygon", "coordinates": [[[[6.55776, 53.20807], [6.55026, 53.20616], [6.54859, 53.20917], [6.54702, 53.21019], [6.55663, 53.21047], [6.55776, 53.20807]]]]}}, {"type": "Feature", "properties": {"code": "BU00141107", "name": "Hunzeboord"}, "geometry": {"type": "MultiPolygon", "coordinates": [[[[6.58759, 53.24031], [6.58955, 53.23901], [6.587, 53.23761], [6.58875, 53.23568], [6.58863, 53.23474], [6.58789, 53.2346], [6.58784, 53.23601], [6.58498, 53.23731], [6.583, 53.23749], [6.57857, 53.23646], [6.58289, 53.24055], [6.58553, 53.24167], [6.58759, 53.24031]]]]}}, {"type": "Feature", "properties": {"code": "BU00141211", "name": "Ruischerwaard"}, "geometry": {"type": "MultiPolygon", "coordinates": [[[[6.62564, 53.22986], [6.61215, 53.22609], [6.61038, 53.22872], [6.6197, 53.23083], [6.62497, 53.23194], [6.62564, 53.22986]]]]}}, {"type": "Feature", "properties": {"code": "BU00141502", "name": "Garmerwolde"}, "geometry": {"type": "MultiPolygon", "coordinates": [[[[6.66695, 53.26211], [6.674, 53.2579], [6.6794, 53.26126], [6.68747, 53.25713], [6.68821, 53.25325], [6.68905, 53.25282], [6.66781, 53.24522], [6.65027, 53.23726], [6.64362, 53.23506], [6.64287, 53.2364], [6.63621, 53.24908], [6.65075, 53.25854], [6.65593, 53.2624], [6.65537, 53.26287], [6.66007, 53.2658], [6.66695, 53.26211]]]]}}, {"type": "Feature", "properties": {"code": "BU00140404", "name": "Damsterbuurt"}, "geometry": {"type": "MultiPolygon", "coordinates": [[[[6.59826, 53.22222], [6.59643, 53.22174], [6.58545, 53.21858], [6.58015, 53.21705], [6.57851, 53.21848], [6.58351, 53.22053], [6.58915, 53.22231], [6.59252, 53.2236], [6.59385, 53.22591], [6.59826, 53.22222]]]]}}, {"type": "Feature", "properties": {"code": "BU00140106", "name": "Zeeheldenbuurt"}, "geometry": {"type": "MultiPolygon", "coordinates": [[[[6.54982, 53.21456], [6.55586, 53.21402], [6.55663, 53.21047], [6.54702, 53.21019], [6.54201, 53.21291], [6.54265, 53.21306], [6.54982, 53.21456]]]]}}, {"type": "Feature", "properties": {"code": "BU00141213", "name": "Oosterhoogebrug"}, "geometry": {"type": "MultiPolygon", "coordinates": [[[[6.60986, 53.22951], [6.6169, 53.2312], [6.6197, 53.23083], [6.61038, 53.22872], [6.59726, 53.22607], [6.6026, 53.22336], [6.59826, 53.22222], [6.59385, 53.22591], [6.59179, 53.22765], [6.59324, 53.22898], [6.60359, 53.23147], [6.60696, 53.23296], [6.60986, 53.22951]]]]}}, {"type": "Feature", "properties": {"code": "BU00141907", "name": "Noordlaarderbos"}, "geometry": {"type": "MultiPolygon", "coordinates": [[[[6.6499, 53.12314], [6.65029, 53.11895], [6.65365, 53.11163], [6.65191, 53.11116], [6.6435, 53.10866], [6.63856, 53.11947], [6.64529, 53.12039], [6.64523, 53.121], [6.64049, 53.12041], [6.64031, 53.12186], [6.64313, 53.12226], [6.6429, 53.12331], [6.64772, 53.1239], [6.6499, 53.12314]]]]}}, {"type": "Feature", "properties": {"code": "BU00140109", "name": "Martini Trade Park"}, "geometry": {"type": "MultiPolygon", "coordinates": [[[[6.5571, 53.20376], [6.55833, 53.20407], [6.55937, 53.20215], [6.54641, 53.19851], [6.54487, 53.20028], [6.55116, 53.20185], [6.55204, 53.20304], [6.55152, 53.20391], [6.5562, 53.2052], [6.5571, 53.20376]]]]}}, {"type": "Feature", "properties": {"code": "BU00140110", "name": "Peizerweg"}, "geometry": {"type": "MultiPolygon", "coordinates": [[[[6.54859, 53.20917], [6.53329, 53.20504], [6.53202, 53.20782], [6.53132, 53.2098], [6.54702, 53.21019], [6.54859, 53.20917]]]]}}, {"type": "Feature", "properties": {"code": "BU00140201", "name": "Noorderplantsoenbuurt"}, "geometry": {"type": "MultiPolygon", "coordinates": [[[[6.56003, 53.22801], [6.56023, 53.22768], [6.55469, 53.22621], [6.55273, 53.22245], [6.54885, 53.22501], [6.55067, 53.22616], [6.5562, 53.22984], [6.56003, 53.22801]]]]}}, {"type": "Feature", "properties": {"code": "BU00140602", "name": "Klein Martijn"}, "geometry": {"type": "MultiPolygon", "coordinates": [[[[6.60327, 53.19636], [6.59759, 53.19495], [6.59768, 53.19043], [6.59584, 53.19013], [6.59485, 53.19167], [6.59589, 53.19196], [6.59296, 53.19761], [6.5984, 53.19885], [6.60327, 53.19636]]]]}}, {"type": "Feature", "properties": {"code": "BU00141706", "name": "Nesciopark"}, "geometry": {"type": "MultiPolygon", "coordinates": [[[[6.59368, 53.17455], [6.59195, 53.17232], [6.58958, 53.17165], [6.58867, 53.17256], [6.59368, 53.17455]]]]}}, {"type": "Feature", "properties": {"code": "BU00140108", "name": "Stadspark"}, "geometry": {"type": "MultiPolygon", "coordinates": [[[[6.55026, 53.20616], [6.55776, 53.20807], [6.55833, 53.20407], [6.5571, 53.20376], [6.5562, 53.2052], [6.55152, 53.20391], [6.55204, 53.20304], [6.55116, 53.20185], [6.54487, 53.20028], [6.54641, 53.19851], [6.54043, 53.19661], [6.53669, 53.19589], [6.53395, 53.1957], [6.53342, 53.19747], [6.53191, 53.20466], [6.53329, 53.20504], [6.54859, 53.20917], [6.55026, 53.20616]]]]}}, {"type": "Feature", "properties": {"code": "BU00141106", "name": "Koningslaagte"}, "geometry": {"type": "MultiPolygon", "coordinates": [[[[6.54955, 53.26441], [6.55139, 53.26238], [6.5524, 53.26218], [6.55395, 53.26213], [6.5666, 53.26361], [6.56723, 53.26149], [6.57322, 53.2615], [6.57322, 53.2616], [6.58575, 53.26154], [6.58578, 53.26249], [6.58854, 53.26255], [6.58736, 53.26026], [6.58634, 53.25588], [6.58713, 53.25571], [6.57887, 53.24805], [6.57373, 53.24985], [6.57168, 53.25103], [6.57029, 53.25071], [6.56744, 53.24824], [6.56571, 53.24264], [6.56268, 53.24078], [6.55664, 53.24267], [6.53145, 53.25024], [6.50825, 53.25727], [6.50824, 53.25757], [6.51083, 53.25679], [6.51227, 53.25724], [6.51809, 53.25833], [6.52317, 53.25724], [6.52968, 53.25824], [6.53658, 53.26003], [6.53931, 53.26036], [6.53847, 53.26262], [6.53793, 53.2641], [6.54097, 53.26362], [6.55026, 53.26495], [6.55034, 53.26491], [6.54955, 53.26441]]]]}}, {"type": "Feature", "properties": {"code": "BU00140104", "name": "Grunobuurt"}, "geometry": {"type": "MultiPolygon", "coordinates": [[[[6.56347, 53.20297], [6.55937, 53.20215], [6.55833, 53.20407], [6.55776, 53.20807], [6.55663, 53.21047], [6.55933, 53.21056], [6.56347, 53.20297]]]]}}, {"type": "Feature", "properties": {"code": "BU00141212", "name": "Bedrijventerrein Oosterhoogebrug"}, "geometry": {"type": "MultiPolygon", "coordinates": [[[[6.61215, 53.22609], [6.60316, 53.22353], [6.6026, 53.22336], [6.59726, 53.22607], [6.61038, 53.22872], [6.61215, 53.22609]]]]}}, {"type": "Feature", "properties": {"code": "BU00140007", "name": "UMCG"}, "geometry": {"type": "MultiPolygon", "coordinates": [[[[6.57711, 53.22389], [6.57877, 53.22113], [6.57691, 53.22075], [6.57417, 53.2214], [6.56971, 53.22366], [6.56753, 53.22476], [6.57162, 53.22661], [6.57711, 53.22389]]]]}}, {"type": "Feature", "properties": {"code": "BU00140704", "name": "Piccardthof"}, "geometry": {"type": "MultiPolygon", "coordinates": [[[[6.5439, 53.19149], [6.54432, 53.18729], [6.54315, 53.18551], [6.54683, 53.18125], [6.54625, 53.18028], [6.54271, 53.17867], [6.54174, 53.17861], [6.5409, 53.17988], [6.53954, 53.18131], [6.53745, 53.18265], [6.53462, 53.18379], [6.53422, 53.18406], [6.5304, 53.19286], [6.5369, 53.1936], [6.53669, 53.19589], [6.54043, 53.19661], [6.5439, 53.19149]]]]}}, {"type": "Feature", "properties": {"code": "BU00141500", "name": "Ten Boer Dorp"}, "geometry": {"type": "MultiPolygon", "coordinates": [[[[6.70418, 53.28743], [6.71095, 53.28357], [6.70954, 53.28194], [6.7043, 53.28063], [6.70633, 53.27944], [6.69937, 53.27525], [6.69909, 53.27466], [6.7005, 53.2743], [6.70201, 53.27352], [6.70344, 53.27451], [6.70555, 53.27347], [6.70193, 53.27005], [6.69719, 53.27201], [6.68845, 53.26596], [6.68398, 53.26769], [6.68458, 53.26808], [6.6834, 53.26888], [6.68063, 53.26823], [6.67842, 53.26688], [6.67651, 53.26798], [6.6811, 53.27068], [6.68619, 53.2737], [6.68248, 53.27592], [6.70278, 53.28823], [6.70418, 53.28743]]]]}}, {"type": "Feature", "properties": {"code": "BU00141703", "name": "Haren-Noord"}, "geometry": {"type": "MultiPolygon", "coordinates": [[[[6.59365, 53.18795], [6.60011, 53.18588], [6.60158, 53.18473], [6.61064, 53.18685], [6.61658, 53.1776], [6.6079, 53.17528], [6.60195, 53.17397], [6.59814, 53.17644], [6.59624, 53.17807], [6.59361, 53.17823], [6.59099, 53.18229], [6.58767, 53.18131], [6.5847, 53.18271], [6.58339, 53.18463], [6.58768, 53.18598], [6.58656, 53.1872], [6.59255, 53.18918], [6.59365, 53.18795]]]]}}, {"type": "Feature", "properties": {"code": "BU00141704", "name": "Essen"}, "geometry": {"type": "MultiPolygon", "coordinates": [[[[6.60627, 53.19358], [6.61064, 53.18685], [6.60158, 53.18473], [6.60011, 53.18588], [6.59365, 53.18795], [6.59255, 53.18918], [6.59584, 53.19013], [6.59768, 53.19043], [6.59759, 53.19495], [6.60327, 53.19636], [6.60627, 53.19358]]]]}}, {"type": "Feature", "properties": {"code": "BU00141305", "name": "De Eems"}, "geometry": {"type": "MultiPolygon", "coordinates": [[[[6.63576, 53.23084], [6.63295, 53.2279], [6.6315, 53.22752], [6.63226, 53.22179], [6.63009, 53.22068], [6.6284, 53.21795], [6.63093, 53.21561], [6.63782, 53.21803], [6.63915, 53.21579], [6.63196, 53.21292], [6.63142, 53.21176], [6.62582, 53.20978], [6.61835, 53.21719], [6.61215, 53.22609], [6.62564, 53.22986], [6.63475, 53.23236], [6.63576, 53.23084]]]]}}, {"type": "Feature", "properties": {"code": "BU00141406", "name": "De Wierden"}, "geometry": {"type": "MultiPolygon", "coordinates": [[[[6.66667, 53.2246], [6.66749, 53.22379], [6.66679, 53.2221], [6.66382, 53.22265], [6.65736, 53.21229], [6.65361, 53.21342], [6.65058, 53.21612], [6.66224, 53.22528], [6.66667, 53.2246]]]]}}, {"type": "Feature", "properties": {"code": "BU00140906", "name": "De Held"}, "geometry": {"type": "MultiPolygon", "coordinates": [[[[6.52061, 53.22437], [6.51999, 53.22254], [6.51832, 53.22175], [6.5106, 53.22193], [6.51111, 53.22731], [6.50991, 53.22713], [6.5099, 53.23076], [6.5184, 53.23107], [6.52061, 53.22437]]]]}}, {"type": "Feature", "properties": {"code": "BU00141002", "name": "Paddepoel-Noord"}, "geometry": {"type": "MultiPolygon", "coordinates": [[[[6.54608, 53.22974], [6.53543, 53.22731], [6.52999, 53.23462], [6.54213, 53.23651], [6.54608, 53.22974]]]]}}, {"type": "Feature", "properties": {"code": "BU00141401", "name": "Harkstede GN"}, "geometry": {"type": "MultiPolygon", "coordinates": [[[[6.70845, 53.23491], [6.70709, 53.2343], [6.70901, 53.23312], [6.70881, 53.23186], [6.7073, 53.23107], [6.70567, 53.22826], [6.70763, 53.22711], [6.7072, 53.22686], [6.7088, 53.22583], [6.70836, 53.22478], [6.70705, 53.2256], [6.70576, 53.22501], [6.70637, 53.22453], [6.70512, 53.22371], [6.70276, 53.22114], [6.70117, 53.21941], [6.69855, 53.21781], [6.69879, 53.21731], [6.69752, 53.21697], [6.69825, 53.21467], [6.69331, 53.21425], [6.69336, 53.213], [6.69077, 53.21316], [6.69049, 53.21247], [6.68823, 53.21264], [6.68819, 53.21218], [6.68285, 53.2113], [6.68266, 53.21206], [6.68047, 53.21169], [6.68008, 53.21003], [6.67964, 53.2094], [6.67976, 53.20832], [6.68248, 53.20849], [6.68401, 53.20215], [6.68302, 53.20099], [6.6736, 53.20065], [6.66687, 53.20202], [6.66242, 53.20513], [6.65206, 53.21441], [6.64792, 53.21864], [6.64413, 53.2256], [6.64071, 53.22885], [6.64331, 53.23051], [6.6432, 53.22739], [6.64812, 53.22171], [6.65289, 53.21912], [6.65022, 53.21675], [6.65058, 53.21612], [6.65361, 53.21342], [6.65736, 53.21229], [6.66382, 53.22265], [6.66679, 53.2221], [6.66749, 53.22379], [6.66667, 53.2246], [6.67191, 53.22368], [6.67806, 53.23536], [6.70887, 53.23518], [6.70845, 53.23491]]]]}}, {"type": "Feature", "properties": {"code": "BU00140512", "name": "Eemskanaal-Noord"}, "geometry": {"type": "MultiPolygon", "coordinates": [[[[6.59731, 53.21963], [6.59968, 53.21401], [6.59257, 53.21296], [6.58864, 53.21145], [6.58179, 53.21573], [6.58659, 53.21742], [6.58545, 53.21858], [6.59643, 53.22174], [6.59731, 53.21963]]]]}}, {"type": "Feature", "properties": {"code": "BU00140904", "name": "Reitdiep"}, "geometry": {"type": "MultiPolygon", "coordinates": [[[[6.52999, 53.23462], [6.52803, 53.23432], [6.52509, 53.23445], [6.51996, 53.23582], [6.51398, 53.23742], [6.51279, 53.2414], [6.51581, 53.24219], [6.51473, 53.24451], [6.51281, 53.24391], [6.51169, 53.24521], [6.52094, 53.24758], [6.52999, 53.23462]]]]}}, {"type": "Feature", "properties": {"code": "BU00141105", "name": "Het Witte Lam"}, "geometry": {"type": "MultiPolygon", "coordinates": [[[[6.57887, 53.24805], [6.57618, 53.24512], [6.57078, 53.24445], [6.57373, 53.24985], [6.57887, 53.24805]]]]}}, {"type": "Feature", "properties": {"code": "BU00140008", "name": "Stationsgebied"}, "geometry": {"type": "MultiPolygon", "coordinates": [[[[6.56581, 53.21192], [6.57015, 53.21263], [6.57132, 53.21074], [6.55933, 53.21056], [6.55867, 53.2131], [6.56581, 53.21192]]]]}}, {"type": "Feature", "properties": {"code": "BU00141601", "name": "Lellens"}, "geometry": {"type": "MultiPolygon", "coordinates": [[[[6.71272, 53.30933], [6.72161, 53.30643], [6.72435, 53.30554], [6.72115, 53.30347], [6.71796, 53.29984], [6.71864, 53.29823], [6.72037, 53.29742], [6.7179, 53.29501], [6.7127, 53.29159], [6.71069, 53.29133], [6.70418, 53.28743], [6.70278, 53.28823], [6.69363, 53.2947], [6.68974, 53.29754], [6.70532, 53.30753], [6.70662, 53.30704], [6.709, 53.31012], [6.71272, 53.30933]]]]}}, {"type": "Feature", "properties": {"code": "BU00140100", "name": "De Meeuwen"}, "geometry": {"type": "MultiPolygon", "coordinates": [[[[6.58179, 53.21573], [6.58864, 53.21145], [6.58365, 53.20959], [6.57914, 53.21482], [6.5766, 53.21574], [6.58015, 53.21705], [6.58179, 53.21573]]]]}}, {"type": "Feature", "properties": {"code": "BU00141005", "name": "Tuinwijk"}, "geometry": {"type": "MultiPolygon", "coordinates": [[[[6.5562, 53.22984], [6.55067, 53.22616], [6.54868, 53.22925], [6.55003, 53.23168], [6.5562, 53.22984]]]]}}, {"type": "Feature", "properties": {"code": "BU00140002", "name": "Binnenstad-Oost"}, "geometry": {"type": "MultiPolygon", "coordinates": [[[[6.57417, 53.2214], [6.57691, 53.22075], [6.57877, 53.22113], [6.57851, 53.21848], [6.58015, 53.21705], [6.5766, 53.21574], [6.57274, 53.21846], [6.57039, 53.22138], [6.56628, 53.22224], [6.56971, 53.22366], [6.57417, 53.2214]]]]}}, {"type": "Feature", "properties": {"code": "BU00140005", "name": "Hortusbuurt-Ebbingekwartier"}, "geometry": {"type": "MultiPolygon", "coordinates": [[[[6.57162, 53.22661], [6.56753, 53.22476], [6.56971, 53.22366], [6.56628, 53.22224], [6.5571, 53.21933], [6.55689, 53.2193], [6.55577, 53.22293], [6.55666, 53.22484], [6.55754, 53.22569], [6.56121, 53.22613], [6.56409, 53.22648], [6.5664, 53.22533], [6.57087, 53.2272], [6.57162, 53.22661]]]]}}, {"type": "Feature", "properties": {"code": "BU00140513", "name": "Eemskanaal-Zuid"}, "geometry": {"type": "MultiPolygon", "coordinates": [[[[6.60288, 53.20676], [6.60938, 53.2028], [6.60586, 53.20223], [6.60319, 53.20262], [6.59594, 53.20682], [6.58864, 53.21145], [6.59257, 53.21296], [6.59968, 53.21401], [6.60288, 53.20676]]]]}}, {"type": "Feature", "properties": {"code": "BU00140403", "name": "Florabuurt"}, "geometry": {"type": "MultiPolygon", "coordinates": [[[[6.59179, 53.22765], [6.59385, 53.22591], [6.59252, 53.2236], [6.58915, 53.22231], [6.58583, 53.22757], [6.58432, 53.22934], [6.58808, 53.23066], [6.59179, 53.22765]]]]}}, {"type": "Feature", "properties": {"code": "BU00141908", "name": "Appelbergen Glimmen"}, "geometry": {"type": "MultiPolygon", "coordinates": [[[[6.63361, 53.14184], [6.63606, 53.14156], [6.6378, 53.14041], [6.64527, 53.13666], [6.64619, 53.13503], [6.64274, 53.13238], [6.63544, 53.13978], [6.63435, 53.14051], [6.63259, 53.14046], [6.63253, 53.14265], [6.63361, 53.14184]]]]}}, {"type": "Feature", "properties": {"code": "BU00141705", "name": "Buitengebied Haren-Noordwest"}, "geometry": {"type": "MultiPolygon", "coordinates": [[[[6.58768, 53.18598], [6.58339, 53.18463], [6.5847, 53.18271], [6.58767, 53.18131], [6.59099, 53.18229], [6.59361, 53.17823], [6.59624, 53.17807], [6.59814, 53.17644], [6.59368, 53.17455], [6.58867, 53.17256], [6.58958, 53.17165], [6.58896, 53.1698], [6.58732, 53.17253], [6.57488, 53.1828], [6.57579, 53.18293], [6.58038, 53.18359], [6.57972, 53.18469], [6.58116, 53.18497], [6.58656, 53.1872], [6.58768, 53.18598]]]]}}, {"type": "Feature", "properties": {"code": "BU00140508", "name": "Winschoterdiep"}, "geometry": {"type": "MultiPolygon", "coordinates": [[[[6.60319, 53.20262], [6.60586, 53.20223], [6.60938, 53.2028], [6.62567, 53.1946], [6.62187, 53.19144], [6.60483, 53.19654], [6.60327, 53.19636], [6.5984, 53.19885], [6.59335, 53.20122], [6.59412, 53.20216], [6.59379, 53.20444], [6.59594, 53.20682], [6.60319, 53.20262]]]]}}, {"type": "Feature", "properties": {"code": "BU00140903", "name": "Reitdiepswaard"}, "geometry": {"type": "MultiPolygon", "coordinates": [[[[6.53543, 53.22731], [6.53829, 53.22387], [6.54229, 53.22096], [6.54109, 53.22008], [6.54017, 53.21893], [6.53954, 53.21885], [6.53933, 53.22128], [6.53405, 53.22692], [6.52803, 53.23432], [6.52999, 53.23462], [6.53543, 53.22731]]]]}}, {"type": "Feature", "properties": {"code": "BU00141400", "name": "Meeroevers"}, "geometry": {"type": "MultiPolygon", "coordinates": [[[[6.66224, 53.22528], [6.65058, 53.21612], [6.65022, 53.21675], [6.65289, 53.21912], [6.64812, 53.22171], [6.6432, 53.22739], [6.64814, 53.22881], [6.64899, 53.22831], [6.65351, 53.22928], [6.66224, 53.22528]]]]}}, {"type": "Feature", "properties": {"code": "BU00140509", "name": "Stainkoel'n"}, "geometry": {"type": "MultiPolygon", "coordinates": [[[[6.62468, 53.20522], [6.62727, 53.19908], [6.63012, 53.19809], [6.63276, 53.19462], [6.62932, 53.19292], [6.62567, 53.1946], [6.60938, 53.2028], [6.61836, 53.20486], [6.62468, 53.20522]]]]}}, {"type": "Feature", "properties": {"code": "BU00141102", "name": "De Hunze"}, "geometry": {"type": "MultiPolygon", "coordinates": [[[[6.58108, 53.24682], [6.58226, 53.24415], [6.58553, 53.24167], [6.58289, 53.24055], [6.57857, 53.23646], [6.57797, 53.23863], [6.57568, 53.24025], [6.57124, 53.24128], [6.57618, 53.24512], [6.57887, 53.24805], [6.58108, 53.24682]]]]}}, {"type": "Feature", "properties": {"code": "BU00140301", "name": "Indische buurt"}, "geometry": {"type": "MultiPolygon", "coordinates": [[[[6.5689, 53.23895], [6.57831, 53.23609], [6.57632, 53.23375], [6.56086, 53.22668], [6.56023, 53.22768], [6.56003, 53.22801], [6.56644, 53.23696], [6.56792, 53.23921], [6.5689, 53.23895]]]]}}, {"type": "Feature", "properties": {"code": "BU00141505", "name": "Buitengebied Ten Boer-Noord"}, "geometry": {"type": "MultiPolygon", "coordinates": [[[[6.70278, 53.28823], [6.68248, 53.27592], [6.68619, 53.2737], [6.6811, 53.27068], [6.67913, 53.27731], [6.67426, 53.28332], [6.69363, 53.2947], [6.70278, 53.28823]]]]}}, {"type": "Feature", "properties": {"code": "BU00141404", "name": "Tersluis"}, "geometry": {"type": "MultiPolygon", "coordinates": [[[[6.66224, 53.22528], [6.65351, 53.22928], [6.64899, 53.22831], [6.64814, 53.22881], [6.64845, 53.23051], [6.65435, 53.23215], [6.65489, 53.23353], [6.6531, 53.23383], [6.65308, 53.23551], [6.66176, 53.23546], [6.66224, 53.22528]]]]}}, {"type": "Feature", "properties": {"code": "BU00140908", "name": "De Suikerzijde-Noord"}, "geometry": {"type": "MultiPolygon", "coordinates": [[[[6.51924, 53.21497], [6.52405, 53.21467], [6.52941, 53.21432], [6.53402, 53.21109], [6.54201, 53.21291], [6.54702, 53.21019], [6.53132, 53.2098], [6.51361, 53.21108], [6.51295, 53.21481], [6.51924, 53.21497]]]]}}, {"type": "Feature", "properties": {"code": "BU00140901", "name": "Vinkhuizen-Zuid"}, "geometry": {"type": "MultiPolygon", "coordinates": [[[[6.53933, 53.22128], [6.53954, 53.21885], [6.53027, 53.21642], [6.52387, 53.21625], [6.52061, 53.22437], [6.53405, 53.22692], [6.53933, 53.22128]]]]}}, {"type": "Feature", "properties": {"code": "BU00140200", "name": "Oranjebuurt"}, "geometry": {"type": "MultiPolygon", "coordinates": [[[[6.55273, 53.22245], [6.55334, 53.21937], [6.54571, 53.21915], [6.54229, 53.22096], [6.54885, 53.22501], [6.55273, 53.22245]]]]}}, {"type": "Feature", "properties": {"code": "BU00141903", "name": "Buitengebied Glimmen"}, "geometry": {"type": "MultiPolygon", "coordinates": [[[[6.61604, 53.15034], [6.61665, 53.14933], [6.6247, 53.14927], [6.62778, 53.15013], [6.63135, 53.14937], [6.63218, 53.14702], [6.62417, 53.14534], [6.62564, 53.14196], [6.62325, 53.14126], [6.62625, 53.13729], [6.62322, 53.13658], [6.62172, 53.13516], [6.62702, 53.13239], [6.63197, 53.13183], [6.63259, 53.14046], [6.63435, 53.14051], [6.63544, 53.13978], [6.64274, 53.13238], [6.64619, 53.13503], [6.64657, 53.13518], [6.64841, 53.13349], [6.6469, 53.13265], [6.6487, 53.13048], [6.64866, 53.12908], [6.64119, 53.12599], [6.63759, 53.12348], [6.63517, 53.12415], [6.63361, 53.12126], [6.63058, 53.11939], [6.62865, 53.11949], [6.62734, 53.12283], [6.62283, 53.12537], [6.62176, 53.12635], [6.62132, 53.12831], [6.61898, 53.12988], [6.61898, 53.13158], [6.61657, 53.13297], [6.61364, 53.1327], [6.6144, 53.13556], [6.61062, 53.13794], [6.60918, 53.1384], [6.60862, 53.13965], [6.60985, 53.14019], [6.61603, 53.14128], [6.61182, 53.14711], [6.61178, 53.15044], [6.61343, 53.15067], [6.61604, 53.15034]]]]}}, {"type": "Feature", "properties": {"code": "BU00140302", "name": "Professorenbuurt"}, "geometry": {"type": "MultiPolygon", "coordinates": [[[[6.57831, 53.23609], [6.58451, 53.23348], [6.57543, 53.22932], [6.57087, 53.2272], [6.5664, 53.22533], [6.56409, 53.22648], [6.56121, 53.22613], [6.56086, 53.22668], [6.57632, 53.23375], [6.57831, 53.23609], [6.57831, 53.23609]]]]}}, {"type": "Feature", "properties": {"code": "BU00140811", "name": "Kranenburg"}, "geometry": {"type": "MultiPolygon", "coordinates": [[[[6.51997, 53.19923], [6.52396, 53.20049], [6.52487, 53.19846], [6.53342, 53.19747], [6.53395, 53.1957], [6.53049, 53.19556], [6.51572, 53.19831], [6.51778, 53.20092], [6.51916, 53.20146], [6.51997, 53.19923]]]]}}, {"type": "Feature", "properties": {"code": "BU00140804", "name": "Zuidwending"}, "geometry": {"type": "MultiPolygon", "coordinates": [[[[6.4772, 53.23421], [6.48822, 53.21877], [6.49006, 53.21392], [6.4894, 53.21295], [6.48446, 53.21366], [6.47908, 53.21589], [6.46977, 53.22047], [6.47666, 53.2365], [6.4772, 53.23421]]]]}}, {"type": "Feature", "properties": {"code": "BU00141701", "name": "Haren-Zuidwest"}, "geometry": {"type": "MultiPolygon", "coordinates": [[[[6.60195, 53.17397], [6.59857, 53.17256], [6.60121, 53.16951], [6.6067, 53.17033], [6.61505, 53.15858], [6.60968, 53.15702], [6.60768, 53.15971], [6.60759, 53.1612], [6.60641, 53.16201], [6.59989, 53.16294], [6.59568, 53.16751], [6.59211, 53.16635], [6.59012, 53.1664], [6.58896, 53.1698], [6.58958, 53.17165], [6.59195, 53.17232], [6.59368, 53.17455], [6.59814, 53.17644], [6.60195, 53.17397]]]]}}, {"type": "Feature", "properties": {"code": "BU00141905", "name": "Buitengebied Noordlaren"}, "geometry": {"type": "MultiPolygon", "coordinates": [[[[6.68048, 53.14291], [6.68391, 53.139], [6.68422, 53.13696], [6.68051, 53.13634], [6.68096, 53.13417], [6.67944, 53.13108], [6.67473, 53.12947], [6.67336, 53.12805], [6.67896, 53.11927], [6.67877, 53.11811], [6.67493, 53.11753], [6.65365, 53.11163], [6.65029, 53.11895], [6.6499, 53.12314], [6.64772, 53.1239], [6.6429, 53.12331], [6.64313, 53.12226], [6.64031, 53.12186], [6.64049, 53.12041], [6.64523, 53.121], [6.64529, 53.12039], [6.63856, 53.11947], [6.6435, 53.10866], [6.63484, 53.1062], [6.6371, 53.10865], [6.63578, 53.1134], [6.63386, 53.1142], [6.62983, 53.11468], [6.62807, 53.11588], [6.62794, 53.11718], [6.63058, 53.11939], [6.63361, 53.12126], [6.63517, 53.12415], [6.63759, 53.12348], [6.64119, 53.12599], [6.64866, 53.12908], [6.6487, 53.13048], [6.6469, 53.13265], [6.64841, 53.13349], [6.65457, 53.13601], [6.65618, 53.1345], [6.66058, 53.13637], [6.65993, 53.13711], [6.6623, 53.13932], [6.67516, 53.14659], [6.67994, 53.14668], [6.68223, 53.14331], [6.68048, 53.14291]], [[6.66423, 53.12292], [6.6586, 53.12141], [6.6566, 53.12005], [6.65715, 53.11921], [6.66134, 53.12016], [6.66279, 53.1196], [6.66529, 53.1163], [6.66984, 53.11728], [6.67153, 53.11849], [6.67178, 53.11961], [6.66663, 53.12434], [6.66445, 53.12544], [6.66244, 53.1261], [6.66144, 53.12566], [6.66423, 53.12292]]]]}}, {"type": "Feature", "properties": {"code": "BU00141604", "name": "Wittewierum"}, "geometry": {"type": "MultiPolygon", "coordinates": [[[[6.75272, 53.2891], [6.74959, 53.28759], [6.74958, 53.28538], [6.7541, 53.28198], [6.75213, 53.28112], [6.74577, 53.28576], [6.73478, 53.28899], [6.73706, 53.29126], [6.74381, 53.2935], [6.75272, 53.2891]]]]}}, {"type": "Feature", "properties": {"code": "BU00141215", "name": "Bedrijventerrein Ulgersmaborg-Zuid"}, "geometry": {"type": "MultiPolygon", "coordinates": [[[[6.60318, 53.2349], [6.60652, 53.23328], [6.60331, 53.2326], [6.60131, 53.23295], [6.59684, 53.23485], [6.59656, 53.23532], [6.59879, 53.23588], [6.60318, 53.2349]]]]}}, {"type": "Feature", "properties": {"code": "BU00141003", "name": "Zernike Campus"}, "geometry": {"type": "MultiPolygon", "coordinates": [[[[6.53145, 53.25024], [6.54131, 53.24226], [6.54365, 53.23674], [6.54213, 53.23651], [6.52999, 53.23462], [6.52094, 53.24758], [6.51862, 53.25004], [6.51144, 53.25411], [6.508, 53.25622], [6.50825, 53.25727], [6.53145, 53.25024]]]]}}]}