{"type": "FeatureCollection", "features": [{"type": "Feature", "properties": {"code": "BU00801103", "name": "Achter de Hoven"}, "geometry": {"type": "MultiPolygon", "coordinates": [[[[5.81687, 53.19498], [5.81346, 53.19344], [5.81111, 53.19352], [5.80731, 53.19466], [5.80223, 53.19576], [5.80249, 53.19744], [5.81722, 53.19916], [5.81687, 53.19498]]]]}}, {"type": "Feature", "properties": {"code": "BU00802001", "name": "Oldegalileën"}, "geometry": {"type": "MultiPolygon", "coordinates": [[[[5.80342, 53.21277], [5.80627, 53.20887], [5.80205, 53.20679], [5.80089, 53.20624], [5.79801, 53.20701], [5.79888, 53.20949], [5.80271, 53.21289], [5.80342, 53.21277]]]]}}, {"type": "Feature", "properties": {"code": "BU00808206", "name": "Grou"}, "geometry": {"type": "MultiPolygon", "coordinates": [[[[5.84963, 53.09996], [5.84476, 53.09109], [5.83444, 53.08151], [5.82795, 53.07899], [5.82024, 53.09404], [5.82035, 53.09409], [5.81697, 53.10094], [5.81892, 53.10107], [5.82727, 53.10423], [5.83022, 53.10331], [5.83129, 53.0995], [5.83718, 53.0999], [5.83792, 53.10272], [5.85366, 53.10418], [5.84963, 53.09996]]]]}}, {"type": "Feature", "properties": {"code": "BU00803204", "name": "Spoordok"}, "geometry": {"type": "MultiPolygon", "coordinates": [[[[5.78902, 53.19553], [5.78305, 53.19494], [5.77874, 53.19453], [5.77695, 53.19435], [5.77454, 53.19785], [5.77456, 53.19785], [5.78628, 53.19717], [5.78769, 53.19801], [5.78902, 53.19553]]]]}}, {"type": "Feature", "properties": {"code": "BU00802004", "name": "Zamenhofpark"}, "geometry": {"type": "MultiPolygon", "coordinates": [[[[5.81873, 53.20851], [5.8117, 53.20693], [5.80627, 53.20887], [5.81403, 53.21205], [5.81873, 53.20851]]]]}}, {"type": "Feature", "properties": {"code": "BU00803007", "name": "Magere Weide"}, "geometry": {"type": "MultiPolygon", "coordinates": [[[[5.78092, 53.2175], [5.78086, 53.21704], [5.78102, 53.21341], [5.78223, 53.21166], [5.78163, 53.21147], [5.77516, 53.21188], [5.77516, 53.2122], [5.77522, 53.2179], [5.78092, 53.2175]]]]}}, {"type": "Feature", "properties": {"code": "BU00807301", "name": "Techum"}, "geometry": {"type": "MultiPolygon", "coordinates": [[[[5.7992, 53.17099], [5.79993, 53.17017], [5.80069, 53.16861], [5.80322, 53.16684], [5.80635, 53.16631], [5.8022, 53.16318], [5.80008, 53.16215], [5.79848, 53.16227], [5.79608, 53.1639], [5.79467, 53.16651], [5.79242, 53.16646], [5.79107, 53.16996], [5.79231, 53.17315], [5.7992, 53.17099]]]]}}, {"type": "Feature", "properties": {"code": "BU00808107", "name": "Jellum"}, "geometry": {"type": "MultiPolygon", "coordinates": [[[[5.75583, 53.17325], [5.76361, 53.16897], [5.76561, 53.16141], [5.76078, 53.16168], [5.76051, 53.16323], [5.75613, 53.16293], [5.75599, 53.16078], [5.75292, 53.15992], [5.74147, 53.15961], [5.73365, 53.16327], [5.73433, 53.16427], [5.73265, 53.1643], [5.72932, 53.16118], [5.72561, 53.15984], [5.72359, 53.16112], [5.71947, 53.16224], [5.718, 53.1643], [5.71788, 53.16551], [5.72492, 53.16608], [5.72833, 53.16793], [5.72822, 53.16979], [5.73135, 53.17074], [5.73238, 53.16939], [5.73333, 53.16947], [5.73481, 53.17148], [5.73779, 53.17255], [5.74088, 53.17277], [5.74203, 53.1721], [5.74494, 53.17211], [5.75148, 53.17338], [5.75583, 53.17325]]]]}}, {"type": "Feature", "properties": {"code": "BU00802005", "name": "Cambuur"}, "geometry": {"type": "MultiPolygon", "coordinates": [[[[5.81951, 53.20781], [5.81953, 53.20459], [5.81137, 53.20494], [5.8117, 53.20693], [5.81873, 53.20851], [5.81951, 53.20781]]]]}}, {"type": "Feature", "properties": {"code": "BU00806210", "name": "Buitengebied Britsum"}, "geometry": {"type": "MultiPolygon", "coordinates": [[[[5.82158, 53.25497], [5.82351, 53.25037], [5.83205, 53.2464], [5.83102, 53.24472], [5.83216, 53.24286], [5.82755, 53.24359], [5.82301, 53.24285], [5.82081, 53.24455], [5.81241, 53.24257], [5.80924, 53.2425], [5.80757, 53.24513], [5.79932, 53.24782], [5.7942, 53.24831], [5.78861, 53.24722], [5.78216, 53.24866], [5.77052, 53.24753], [5.73871, 53.24824], [5.73613, 53.2489], [5.73596, 53.25147], [5.74127, 53.25131], [5.74144, 53.25219], [5.7645, 53.2517], [5.76667, 53.25131], [5.76808, 53.25245], [5.78322, 53.25646], [5.78638, 53.25729], [5.81568, 53.25584], [5.82158, 53.25497]], [[5.78285, 53.256], [5.77963, 53.25269], [5.77889, 53.24987], [5.78623, 53.25039], [5.79233, 53.25235], [5.78985, 53.25496], [5.79, 53.25657], [5.78719, 53.25702], [5.78285, 53.256]]]]}}, {"type": "Feature", "properties": {"code": "BU00803102", "name": "Buitengebied Noordwest"}, "geometry": {"type": "MultiPolygon", "coordinates": [[[[5.74464, 53.24061], [5.76144, 53.23986], [5.76167, 53.23894], [5.76306, 53.23454], [5.77299, 53.23397], [5.77496, 53.2303], [5.7751, 53.22637], [5.77964, 53.2261], [5.78092, 53.2175], [5.77522, 53.2179], [5.77516, 53.2122], [5.76974, 53.21253], [5.77002, 53.2142], [5.7672, 53.21444], [5.75638, 53.21291], [5.75819, 53.20914], [5.75434, 53.2105], [5.74391, 53.21138], [5.74711, 53.21515], [5.74561, 53.21588], [5.73416, 53.21581], [5.7336, 53.22232], [5.73255, 53.23032], [5.73363, 53.2309], [5.73815, 53.23128], [5.72977, 53.23526], [5.73495, 53.23806], [5.73601, 53.23744], [5.74392, 53.2411], [5.74464, 53.24061]]]]}}, {"type": "Feature", "properties": {"code": "BU00801104", "name": "Schepenbuurt"}, "geometry": {"type": "MultiPolygon", "coordinates": [[[[5.82795, 53.20216], [5.83, 53.20065], [5.83406, 53.1954], [5.83066, 53.19491], [5.82146, 53.19513], [5.81934, 53.19413], [5.81687, 53.19498], [5.81722, 53.19916], [5.81695, 53.20029], [5.82795, 53.20216]]]]}}, {"type": "Feature", "properties": {"code": "BU00802006", "name": "Zeeheldenbuurt"}, "geometry": {"type": "MultiPolygon", "coordinates": [[[[5.80949, 53.2038], [5.80974, 53.20269], [5.80339, 53.20295], [5.80299, 53.2057], [5.80498, 53.20607], [5.80949, 53.2038]]]]}}, {"type": "Feature", "properties": {"code": "BU00801106", "name": "Huizum-Dorp"}, "geometry": {"type": "MultiPolygon", "coordinates": [[[[5.81687, 53.19498], [5.81591, 53.19168], [5.81673, 53.18966], [5.80933, 53.18814], [5.80761, 53.1911], [5.80731, 53.19466], [5.81111, 53.19352], [5.81346, 53.19344], [5.81687, 53.19498]]]]}}, {"type": "Feature", "properties": {"code": "BU00803006", "name": "Valeriuskwartier"}, "geometry": {"type": "MultiPolygon", "coordinates": [[[[5.78163, 53.21147], [5.77946, 53.20992], [5.77626, 53.20501], [5.77256, 53.20537], [5.77516, 53.21188], [5.78163, 53.21147]]]]}}, {"type": "Feature", "properties": {"code": "BU00808111", "name": "Hilaard"}, "geometry": {"type": "MultiPolygon", "coordinates": [[[[5.70633, 53.16697], [5.71417, 53.16615], [5.71554, 53.16531], [5.71522, 53.16332], [5.70929, 53.16367], [5.70511, 53.16547], [5.70553, 53.16696], [5.70633, 53.16697]]]]}}, {"type": "Feature", "properties": {"code": "BU00808112", "name": "Buitengebied Hilaard"}, "geometry": {"type": "MultiPolygon", "coordinates": [[[[5.6871, 53.18004], [5.69269, 53.17993], [5.6973, 53.17772], [5.6979, 53.17448], [5.69929, 53.17371], [5.7061, 53.17338], [5.71324, 53.17523], [5.71879, 53.16948], [5.72013, 53.17053], [5.72376, 53.16998], [5.72353, 53.16842], [5.72492, 53.16608], [5.71788, 53.16551], [5.718, 53.1643], [5.71947, 53.16224], [5.72359, 53.16112], [5.72561, 53.15984], [5.72728, 53.1574], [5.72469, 53.15637], [5.7218, 53.15655], [5.71998, 53.15584], [5.71659, 53.15728], [5.71646, 53.15834], [5.71396, 53.16066], [5.69952, 53.16162], [5.68847, 53.16312], [5.68488, 53.16164], [5.68436, 53.16599], [5.68209, 53.16576], [5.67811, 53.16682], [5.67498, 53.17004], [5.67754, 53.17402], [5.67729, 53.17639], [5.6794, 53.17913], [5.68464, 53.18183], [5.68591, 53.18169], [5.6871, 53.18004]], [[5.70511, 53.16547], [5.70929, 53.16367], [5.71522, 53.16332], [5.71554, 53.16531], [5.71417, 53.16615], [5.70633, 53.16697], [5.70553, 53.16696], [5.70511, 53.16547]]]]}}, {"type": "Feature", "properties": {"code": "BU00805104", "name": "Grote Wielen"}, "geometry": {"type": "MultiPolygon", "coordinates": [[[[5.88901, 53.21798], [5.86162, 53.21719], [5.86159, 53.2178], [5.85869, 53.21784], [5.85884, 53.22057], [5.85262, 53.22058], [5.851, 53.22241], [5.85049, 53.22456], [5.85255, 53.23048], [5.85904, 53.23057], [5.87623, 53.23231], [5.87795, 53.23323], [5.87989, 53.23325], [5.88066, 53.22498], [5.88999, 53.225], [5.88917, 53.22282], [5.89693, 53.22296], [5.89712, 53.22097], [5.88895, 53.22095], [5.88901, 53.21798]]]]}}, {"type": "Feature", "properties": {"code": "BU00807001", "name": "Aldlân-Oost"}, "geometry": {"type": "MultiPolygon", "coordinates": [[[[5.83792, 53.1907], [5.83782, 53.18801], [5.81867, 53.18494], [5.81673, 53.18966], [5.83592, 53.19299], [5.83792, 53.1907]]]]}}, {"type": "Feature", "properties": {"code": "BU00808006", "name": "Warstiens"}, "geometry": {"type": "MultiPolygon", "coordinates": [[[[5.88028, 53.17032], [5.88704, 53.15442], [5.87682, 53.15541], [5.87471, 53.15747], [5.86786, 53.15806], [5.86698, 53.15863], [5.86422, 53.15862], [5.86304, 53.1579], [5.86321, 53.15682], [5.86083, 53.15715], [5.85607, 53.16026], [5.85741, 53.16543], [5.85615, 53.17035], [5.86194, 53.17152], [5.88028, 53.17032]]]]}}, {"type": "Feature", "properties": {"code": "BU00806208", "name": "Buitengebied Koarnjum"}, "geometry": {"type": "MultiPolygon", "coordinates": [[[[5.73871, 53.24824], [5.77052, 53.24753], [5.78216, 53.24866], [5.78861, 53.24722], [5.7942, 53.24831], [5.79932, 53.24782], [5.80757, 53.24513], [5.80924, 53.2425], [5.81241, 53.24257], [5.82081, 53.24455], [5.82301, 53.24285], [5.82755, 53.24359], [5.83216, 53.24286], [5.82882, 53.23883], [5.82575, 53.23737], [5.81439, 53.24018], [5.81088, 53.24027], [5.80041, 53.23865], [5.79294, 53.24097], [5.78467, 53.23956], [5.78189, 53.23991], [5.7819, 53.24137], [5.78843, 53.24275], [5.78806, 53.24406], [5.78353, 53.24576], [5.77824, 53.24618], [5.77663, 53.24563], [5.77605, 53.24371], [5.77662, 53.243], [5.77771, 53.24308], [5.77846, 53.23975], [5.77631, 53.23934], [5.77639, 53.23819], [5.76167, 53.23894], [5.76144, 53.23986], [5.74464, 53.24061], [5.74392, 53.2411], [5.73527, 53.24705], [5.73362, 53.24852], [5.73613, 53.2489], [5.73871, 53.24824]]]]}}, {"type": "Feature", "properties": {"code": "BU00804105", "name": "De Zwette IV Businesspark"}, "geometry": {"type": "MultiPolygon", "coordinates": [[[[5.76143, 53.20714], [5.7643, 53.20616], [5.76988, 53.20558], [5.77136, 53.20329], [5.7697, 53.19824], [5.76903, 53.19832], [5.76413, 53.19906], [5.75644, 53.20231], [5.76012, 53.20325], [5.75896, 53.20741], [5.76143, 53.20714]]]]}}, {"type": "Feature", "properties": {"code": "BU00803003", "name": "Rengerspark"}, "geometry": {"type": "MultiPolygon", "coordinates": [[[[5.80271, 53.21289], [5.79888, 53.20949], [5.79801, 53.20701], [5.79688, 53.20631], [5.79054, 53.2083], [5.78921, 53.20956], [5.78849, 53.21311], [5.80271, 53.21289]]]]}}, {"type": "Feature", "properties": {"code": "BU00807004", "name": "Hemrik"}, "geometry": {"type": "MultiPolygon", "coordinates": [[[[5.85747, 53.2016], [5.86207, 53.1936], [5.85097, 53.19172], [5.85342, 53.18937], [5.85498, 53.18582], [5.85127, 53.1882], [5.84755, 53.18909], [5.83782, 53.18801], [5.83792, 53.1907], [5.83592, 53.19299], [5.83406, 53.1954], [5.83, 53.20065], [5.83686, 53.20145], [5.85766, 53.20387], [5.85699, 53.20293], [5.85747, 53.2016]]]]}}, {"type": "Feature", "properties": {"code": "BU00807304", "name": "De Zuidlanden"}, "geometry": {"type": "MultiPolygon", "coordinates": [[[[5.81815, 53.18011], [5.81603, 53.17782], [5.81555, 53.17557], [5.81787, 53.17334], [5.82212, 53.17166], [5.82383, 53.17218], [5.82637, 53.17194], [5.82965, 53.16683], [5.80952, 53.16203], [5.81197, 53.16636], [5.80851, 53.16749], [5.8105, 53.16981], [5.80931, 53.17168], [5.80796, 53.17195], [5.80848, 53.17138], [5.80534, 53.17026], [5.8043, 53.17184], [5.80213, 53.17579], [5.81127, 53.17575], [5.81304, 53.17738], [5.81373, 53.17968], [5.81815, 53.18011]]]]}}, {"type": "Feature", "properties": {"code": "BU00801004", "name": "Grote Kerkbuurt"}, "geometry": {"type": "MultiPolygon", "coordinates": [[[[5.80089, 53.20624], [5.79996, 53.20284], [5.79626, 53.20248], [5.79502, 53.20528], [5.79688, 53.20631], [5.79801, 53.20701], [5.80089, 53.20624]]]]}}, {"type": "Feature", "properties": {"code": "BU00808005", "name": "Buitengebied Wergea"}, "geometry": {"type": "MultiPolygon", "coordinates": [[[[5.85607, 53.16026], [5.86083, 53.15715], [5.86321, 53.15682], [5.86304, 53.1579], [5.86422, 53.15862], [5.86698, 53.15863], [5.86786, 53.15806], [5.87582, 53.1512], [5.87578, 53.15119], [5.87556, 53.15112], [5.87593, 53.15068], [5.87228, 53.14701], [5.87543, 53.14537], [5.88209, 53.14003], [5.87464, 53.13765], [5.85948, 53.12914], [5.85345, 53.12359], [5.85111, 53.12423], [5.8509, 53.12589], [5.848, 53.12689], [5.84439, 53.12412], [5.8426, 53.12166], [5.83059, 53.12224], [5.83054, 53.12268], [5.83106, 53.12433], [5.83714, 53.13383], [5.83332, 53.13433], [5.82624, 53.13388], [5.82349, 53.13502], [5.8224, 53.13636], [5.82189, 53.13854], [5.82398, 53.14281], [5.82457, 53.14538], [5.82929, 53.14827], [5.8327, 53.1515], [5.83124, 53.15385], [5.8259, 53.15705], [5.82345, 53.16036], [5.82056, 53.16256], [5.82498, 53.16479], [5.82644, 53.16487], [5.82961, 53.16317], [5.83489, 53.16443], [5.84147, 53.16879], [5.84219, 53.16992], [5.84963, 53.16988], [5.85615, 53.17035], [5.85741, 53.16543], [5.85607, 53.16026]], [[5.8415, 53.1551], [5.83594, 53.15381], [5.83494, 53.15269], [5.83553, 53.14895], [5.84269, 53.14753], [5.84416, 53.14552], [5.84671, 53.14402], [5.85167, 53.14599], [5.85732, 53.14969], [5.85822, 53.15187], [5.85115, 53.15338], [5.84787, 53.15546], [5.84707, 53.15733], [5.8463, 53.15723], [5.8415, 53.1551]]]]}}, {"type": "Feature", "properties": {"code": "BU00808001", "name": "Wirdum"}, "geometry": {"type": "MultiPolygon", "coordinates": [[[[5.80659, 53.15432], [5.81233, 53.15194], [5.81093, 53.14936], [5.81411, 53.14777], [5.81031, 53.14765], [5.79865, 53.14409], [5.79725, 53.1443], [5.7949, 53.1478], [5.80331, 53.15171], [5.80659, 53.15432]]]]}}, {"type": "Feature", "properties": {"code": "BU00806001", "name": "Bilgaard"}, "geometry": {"type": "MultiPolygon", "coordinates": [[[[5.80549, 53.218], [5.80777, 53.21735], [5.80271, 53.21289], [5.78849, 53.21311], [5.78223, 53.21166], [5.78102, 53.21341], [5.78086, 53.21704], [5.79076, 53.21803], [5.80549, 53.218]]]]}}, {"type": "Feature", "properties": {"code": "BU00806102", "name": "Vrijheidswijk-Oost"}, "geometry": {"type": "MultiPolygon", "coordinates": [[[[5.8292, 53.21718], [5.82474, 53.21626], [5.81403, 53.21205], [5.81349, 53.21329], [5.81474, 53.21743], [5.8231, 53.21739], [5.8292, 53.21718]]]]}}, {"type": "Feature", "properties": {"code": "BU00803201", "name": "Vossepark"}, "geometry": {"type": "MultiPolygon", "coordinates": [[[[5.77667, 53.20497], [5.78726, 53.20402], [5.78801, 53.20405], [5.78752, 53.20227], [5.78857, 53.20041], [5.78831, 53.1987], [5.78769, 53.19801], [5.78492, 53.19878], [5.77494, 53.19972], [5.77626, 53.20501], [5.77667, 53.20497]]]]}}, {"type": "Feature", "properties": {"code": "BU00806206", "name": "Buitengebied Jelsum"}, "geometry": {"type": "MultiPolygon", "coordinates": [[[[5.80041, 53.23865], [5.81088, 53.24027], [5.81439, 53.24018], [5.82575, 53.23737], [5.82409, 53.23426], [5.81879, 53.23072], [5.81811, 53.22876], [5.81503, 53.22566], [5.81123, 53.22564], [5.80808, 53.224], [5.78243, 53.2265], [5.78046, 53.2266], [5.77964, 53.2261], [5.7751, 53.22637], [5.77496, 53.2303], [5.77299, 53.23397], [5.76306, 53.23454], [5.76167, 53.23894], [5.77639, 53.23819], [5.77631, 53.23934], [5.77846, 53.23975], [5.77874, 53.23619], [5.78097, 53.23269], [5.78755, 53.23243], [5.78685, 53.23445], [5.78549, 53.23591], [5.78159, 53.23774], [5.78083, 53.2398], [5.78189, 53.23991], [5.78467, 53.23956], [5.79294, 53.24097], [5.80041, 53.23865]]]]}}, {"type": "Feature", "properties": {"code": "BU00808201", "name": "Reduzum"}, "geometry": {"type": "MultiPolygon", "coordinates": [[[[5.79669, 53.12054], [5.79357, 53.1193], [5.78822, 53.1156], [5.78734, 53.11267], [5.78364, 53.11313], [5.77913, 53.11557], [5.78112, 53.12005], [5.7868, 53.1204], [5.78995, 53.11892], [5.79423, 53.11986], [5.79523, 53.12101], [5.79683, 53.12114], [5.79669, 53.12054]]]]}}, {"type": "Feature", "properties": {"code": "BU00806002", "name": "Havankpark"}, "geometry": {"type": "MultiPolygon", "coordinates": [[[[5.80789, 53.22122], [5.80801, 53.21755], [5.80777, 53.21735], [5.80549, 53.218], [5.80331, 53.21925], [5.80392, 53.22128], [5.80789, 53.22122]]]]}}, {"type": "Feature", "properties": {"code": "BU00806202", "name": "Snakkerburen"}, "geometry": {"type": "MultiPolygon", "coordinates": [[[[5.81503, 53.22566], [5.8146, 53.22339], [5.81192, 53.2175], [5.80801, 53.21755], [5.80789, 53.22122], [5.80808, 53.224], [5.81123, 53.22564], [5.81503, 53.22566]]]]}}, {"type": "Feature", "properties": {"code": "BU00807201", "name": "Hempens/Teerns"}, "geometry": {"type": "MultiPolygon", "coordinates": [[[[5.83522, 53.1809], [5.84109, 53.18027], [5.84186, 53.17975], [5.83987, 53.17681], [5.83693, 53.17673], [5.83706, 53.17602], [5.83378, 53.17999], [5.8323, 53.18055], [5.83526, 53.18146], [5.83522, 53.1809]]]]}}, {"type": "Feature", "properties": {"code": "BU00807403", "name": "Wetterstêd"}, "geometry": {"type": "MultiPolygon", "coordinates": [[[[5.78866, 53.1816], [5.78762, 53.17915], [5.78907, 53.17896], [5.78916, 53.17796], [5.78777, 53.17439], [5.78588, 53.17462], [5.78381, 53.17488], [5.78331, 53.17732], [5.7845, 53.17987], [5.78653, 53.18159], [5.78866, 53.1816]]]]}}, {"type": "Feature", "properties": {"code": "BU00804001", "name": "Hollanderwijk"}, "geometry": {"type": "MultiPolygon", "coordinates": [[[[5.79844, 53.19343], [5.79822, 53.19262], [5.78949, 53.19313], [5.78969, 53.19401], [5.78349, 53.19367], [5.78305, 53.19494], [5.78902, 53.19553], [5.79677, 53.19677], [5.79844, 53.19343]]]]}}, {"type": "Feature", "properties": {"code": "BU00803001", "name": "Transvaalwijk"}, "geometry": {"type": "MultiPolygon", "coordinates": [[[[5.79688, 53.20631], [5.79502, 53.20528], [5.79217, 53.20533], [5.78801, 53.20405], [5.78726, 53.20402], [5.78745, 53.20597], [5.79054, 53.2083], [5.79688, 53.20631]]]]}}, {"type": "Feature", "properties": {"code": "BU00801101", "name": "Tulpenburg"}, "geometry": {"type": "MultiPolygon", "coordinates": [[[[5.80286, 53.19944], [5.80249, 53.19744], [5.79677, 53.19677], [5.7967, 53.19832], [5.79829, 53.19917], [5.80247, 53.19945], [5.80286, 53.19944]]]]}}, {"type": "Feature", "properties": {"code": "BU00804109", "name": "Buitengebied De Zwette"}, "geometry": {"type": "MultiPolygon", "coordinates": [[[[5.76913, 53.18596], [5.77395, 53.18526], [5.78271, 53.16995], [5.78495, 53.16545], [5.78846, 53.15831], [5.78373, 53.1587], [5.77976, 53.15985], [5.76361, 53.16897], [5.75583, 53.17325], [5.75148, 53.17338], [5.74494, 53.17211], [5.74203, 53.1721], [5.74088, 53.17277], [5.73779, 53.17255], [5.74142, 53.1809], [5.74818, 53.18149], [5.76455, 53.183], [5.76555, 53.18726], [5.76913, 53.18596]]]]}}, {"type": "Feature", "properties": {"code": "BU00808105", "name": "Weidum"}, "geometry": {"type": "MultiPolygon", "coordinates": [[[[5.74628, 53.14867], [5.74747, 53.14741], [5.74754, 53.14564], [5.74317, 53.14351], [5.74071, 53.14341], [5.73684, 53.14422], [5.73634, 53.14599], [5.74206, 53.14808], [5.74628, 53.14867]]]]}}, {"type": "Feature", "properties": {"code": "BU00806306", "name": "Buitengebied Hijum"}, "geometry": {"type": "MultiPolygon", "coordinates": [[[[5.74936, 53.29394], [5.75966, 53.2941], [5.75797, 53.29226], [5.75866, 53.29059], [5.76656, 53.28752], [5.77132, 53.28966], [5.77199, 53.29155], [5.79459, 53.28405], [5.79775, 53.2838], [5.79857, 53.28295], [5.81105, 53.28081], [5.81052, 53.27985], [5.81323, 53.27924], [5.81054, 53.27742], [5.81127, 53.27699], [5.78173, 53.27757], [5.78244, 53.27944], [5.76326, 53.28616], [5.76315, 53.28687], [5.75703, 53.28908], [5.73738, 53.28908], [5.73685, 53.29459], [5.74936, 53.29394]]]]}}, {"type": "Feature", "properties": {"code": "BU00806205", "name": "Jelsum"}, "geometry": {"type": "MultiPolygon", "coordinates": [[[[5.78083, 53.2398], [5.78159, 53.23774], [5.78549, 53.23591], [5.78685, 53.23445], [5.78755, 53.23243], [5.78097, 53.23269], [5.77874, 53.23619], [5.77846, 53.23975], [5.78005, 53.24003], [5.78083, 53.2398]]]]}}, {"type": "Feature", "properties": {"code": "BU00808108", "name": "Bears"}, "geometry": {"type": "MultiPolygon", "coordinates": [[[[5.73433, 53.16427], [5.73365, 53.16327], [5.74147, 53.15961], [5.75292, 53.15992], [5.75599, 53.16078], [5.75613, 53.16293], [5.76051, 53.16323], [5.76078, 53.16168], [5.76561, 53.16141], [5.76536, 53.15449], [5.74613, 53.15427], [5.74039, 53.15485], [5.73857, 53.15559], [5.73557, 53.15559], [5.73532, 53.15314], [5.73382, 53.15167], [5.71862, 53.1483], [5.7172, 53.14831], [5.71674, 53.1509], [5.72105, 53.15266], [5.7218, 53.15655], [5.72469, 53.15637], [5.72728, 53.1574], [5.72561, 53.15984], [5.72932, 53.16118], [5.73265, 53.1643], [5.73433, 53.16427]]]]}}, {"type": "Feature", "properties": {"code": "BU00808207", "name": "Buitengebied Grou"}, "geometry": {"type": "MultiPolygon", "coordinates": [[[[5.8509, 53.12589], [5.85111, 53.12423], [5.85345, 53.12359], [5.85633, 53.12387], [5.86068, 53.12594], [5.86322, 53.1263], [5.86841, 53.1233], [5.87086, 53.12063], [5.87867, 53.11621], [5.89597, 53.11855], [5.90942, 53.12145], [5.91372, 53.11915], [5.91382, 53.11224], [5.91639, 53.11215], [5.9154, 53.10907], [5.91049, 53.10916], [5.88201, 53.10694], [5.88598, 53.09445], [5.88598, 53.09445], [5.8823, 53.09333], [5.87825, 53.09096], [5.88085, 53.09017], [5.88312, 53.09098], [5.88311, 53.08896], [5.87725, 53.08538], [5.87464, 53.08507], [5.87287, 53.08514], [5.85912, 53.08198], [5.85444, 53.08241], [5.84477, 53.07958], [5.84336, 53.08038], [5.83102, 53.07838], [5.83016, 53.0796], [5.81927, 53.07586], [5.81418, 53.07239], [5.80824, 53.06659], [5.80439, 53.07134], [5.80415, 53.07428], [5.80316, 53.07547], [5.80175, 53.07594], [5.79609, 53.07574], [5.79343, 53.07691], [5.79338, 53.07782], [5.79679, 53.08161], [5.79682, 53.08352], [5.80184, 53.08952], [5.81277, 53.09305], [5.81356, 53.09515], [5.81316, 53.10211], [5.80878, 53.1039], [5.8143, 53.1051], [5.82024, 53.09404], [5.82795, 53.07899], [5.83444, 53.08151], [5.84476, 53.09109], [5.84963, 53.09996], [5.85366, 53.10418], [5.83792, 53.10272], [5.83718, 53.0999], [5.83129, 53.0995], [5.83022, 53.10331], [5.82727, 53.10423], [5.81892, 53.10107], [5.81697, 53.10094], [5.81488, 53.10516], [5.81646, 53.10621], [5.82013, 53.11148], [5.83031, 53.12153], [5.83054, 53.12268], [5.83059, 53.12224], [5.8426, 53.12166], [5.84439, 53.12412], [5.848, 53.12689], [5.8509, 53.12589]]]]}}, {"type": "Feature", "properties": {"code": "BU00808117", "name": "Buitengebied Easterlittens"}, "geometry": {"type": "MultiPolygon", "coordinates": [[[[5.65545, 53.14773], [5.65646, 53.14604], [5.65431, 53.14371], [5.65526, 53.14225], [5.65626, 53.14189], [5.65976, 53.14268], [5.66343, 53.14241], [5.66292, 53.14081], [5.6636, 53.13992], [5.66631, 53.13938], [5.66791, 53.14], [5.67042, 53.13912], [5.67299, 53.13537], [5.67859, 53.13098], [5.68004, 53.12858], [5.65948, 53.11599], [5.65657, 53.11238], [5.65651, 53.11237], [5.64641, 53.11635], [5.64303, 53.12288], [5.63735, 53.12415], [5.63749, 53.12805], [5.63618, 53.13065], [5.63199, 53.13302], [5.63821, 53.13657], [5.64389, 53.13746], [5.64762, 53.13459], [5.65393, 53.13243], [5.65524, 53.13307], [5.6554, 53.13436], [5.6497, 53.13929], [5.65412, 53.14164], [5.64934, 53.14713], [5.65203, 53.14869], [5.65545, 53.14773]]]]}}, {"type": "Feature", "properties": {"code": "BU00802009", "name": "Welgelegen"}, "geometry": {"type": "MultiPolygon", "coordinates": [[[[5.81799, 53.20262], [5.81695, 53.20029], [5.81015, 53.19981], [5.80974, 53.20269], [5.81799, 53.20262]]]]}}, {"type": "Feature", "properties": {"code": "BU00804102", "name": "De Zwette I Harlingervaart"}, "geometry": {"type": "MultiPolygon", "coordinates": [[[[5.7697, 53.19824], [5.77454, 53.19785], [5.77695, 53.19435], [5.76739, 53.19309], [5.76903, 53.19832], [5.7697, 53.19824]]]]}}, {"type": "Feature", "properties": {"code": "BU00807203", "name": "Zuiderburen"}, "geometry": {"type": "MultiPolygon", "coordinates": [[[[5.85498, 53.18582], [5.85707, 53.18142], [5.86194, 53.17152], [5.85615, 53.17035], [5.84963, 53.16988], [5.84643, 53.17651], [5.8467, 53.18214], [5.83787, 53.1823], [5.83543, 53.18197], [5.83526, 53.18146], [5.8323, 53.18055], [5.83378, 53.17999], [5.83706, 53.17602], [5.84005, 53.17143], [5.84219, 53.16992], [5.84147, 53.16879], [5.82965, 53.16683], [5.82637, 53.17194], [5.82311, 53.17703], [5.82158, 53.17619], [5.81603, 53.17782], [5.81815, 53.18011], [5.81659, 53.1846], [5.81867, 53.18494], [5.83782, 53.18801], [5.84755, 53.18909], [5.85127, 53.1882], [5.85498, 53.18582]]]]}}, {"type": "Feature", "properties": {"code": "BU00806307", "name": "Alde Leie"}, "geometry": {"type": "MultiPolygon", "coordinates": [[[[5.73685, 53.29459], [5.73738, 53.28908], [5.73678, 53.28758], [5.7376, 53.28184], [5.73976, 53.28006], [5.72136, 53.27957], [5.72204, 53.28048], [5.72403, 53.28438], [5.72384, 53.28443], [5.72635, 53.28761], [5.72485, 53.28773], [5.7255, 53.28915], [5.72662, 53.28899], [5.72762, 53.28895], [5.72764, 53.28907], [5.72703, 53.28915], [5.72708, 53.28938], [5.72798, 53.2917], [5.72988, 53.29389], [5.73057, 53.29447], [5.73516, 53.29437], [5.73538, 53.29472], [5.73685, 53.29459]]]]}}, {"type": "Feature", "properties": {"code": "BU00805002", "name": "Schieringen"}, "geometry": {"type": "MultiPolygon", "coordinates": [[[[5.83686, 53.20145], [5.83, 53.20065], [5.82795, 53.20216], [5.82472, 53.20293], [5.81799, 53.20262], [5.81953, 53.20459], [5.81951, 53.20781], [5.82684, 53.21082], [5.8309, 53.21134], [5.83686, 53.20145]]]]}}, {"type": "Feature", "properties": {"code": "BU00805105", "name": "De Groene Ster"}, "geometry": {"type": "MultiPolygon", "coordinates": [[[[5.89419, 53.21765], [5.89382, 53.21552], [5.8979, 53.21539], [5.89786, 53.21466], [5.90593, 53.21501], [5.90497, 53.21392], [5.905, 53.21248], [5.90565, 53.21184], [5.90705, 53.21103], [5.89789, 53.2087], [5.85773, 53.20406], [5.85518, 53.2103], [5.85124, 53.217], [5.86162, 53.21719], [5.88901, 53.21798], [5.89419, 53.21765]]]]}}, {"type": "Feature", "properties": {"code": "BU00806201", "name": "Lekkum"}, "geometry": {"type": "MultiPolygon", "coordinates": [[[[5.82158, 53.22764], [5.82422, 53.22503], [5.82324, 53.22291], [5.81731, 53.22274], [5.8146, 53.22339], [5.81503, 53.22566], [5.81811, 53.22876], [5.82158, 53.22764]]]]}}, {"type": "Feature", "properties": {"code": "BU00808208", "name": "Jirnsum"}, "geometry": {"type": "MultiPolygon", "coordinates": [[[[5.79132, 53.08772], [5.79178, 53.08564], [5.79262, 53.08551], [5.79682, 53.08352], [5.79679, 53.08161], [5.79338, 53.07782], [5.79343, 53.07691], [5.79609, 53.07574], [5.80175, 53.07594], [5.80316, 53.07547], [5.80415, 53.07428], [5.80439, 53.07134], [5.80824, 53.06659], [5.8067, 53.06557], [5.80418, 53.06705], [5.80198, 53.0701], [5.79485, 53.07486], [5.79021, 53.07446], [5.78661, 53.07748], [5.78613, 53.07924], [5.78951, 53.08361], [5.78844, 53.0856], [5.78642, 53.08589], [5.78676, 53.08832], [5.79132, 53.08772]]]]}}, {"type": "Feature", "properties": {"code": "BU00805001", "name": "Heechterp"}, "geometry": {"type": "MultiPolygon", "coordinates": [[[[5.82941, 53.21423], [5.8309, 53.21134], [5.82684, 53.21082], [5.81951, 53.20781], [5.81873, 53.20851], [5.81403, 53.21205], [5.82474, 53.21626], [5.8292, 53.21718], [5.82941, 53.21423]]]]}}, {"type": "Feature", "properties": {"code": "BU00806304", "name": "Buitengebied Feinsum"}, "geometry": {"type": "MultiPolygon", "coordinates": [[[[5.75703, 53.28908], [5.76315, 53.28687], [5.76326, 53.28616], [5.78244, 53.27944], [5.78173, 53.27757], [5.78114, 53.27657], [5.77841, 53.27661], [5.7735, 53.27284], [5.76128, 53.27304], [5.76197, 53.27512], [5.76415, 53.27601], [5.76624, 53.27828], [5.76361, 53.28006], [5.75007, 53.28033], [5.75065, 53.27955], [5.73976, 53.28006], [5.7376, 53.28184], [5.73678, 53.28758], [5.73738, 53.28908], [5.75703, 53.28908]]]]}}, {"type": "Feature", "properties": {"code": "BU00804003", "name": "Julianapark"}, "geometry": {"type": "MultiPolygon", "coordinates": [[[[5.79293, 53.19067], [5.79757, 53.19043], [5.79686, 53.18662], [5.78695, 53.189], [5.79059, 53.19136], [5.79293, 53.19067]]]]}}, {"type": "Feature", "properties": {"code": "BU00808110", "name": "Buitengebied Jorwert"}, "geometry": {"type": "MultiPolygon", "coordinates": [[[[5.72105, 53.15266], [5.71674, 53.1509], [5.7172, 53.14831], [5.71862, 53.1483], [5.71854, 53.14647], [5.721, 53.14686], [5.72403, 53.14548], [5.72851, 53.14029], [5.72759, 53.13712], [5.72882, 53.13615], [5.73541, 53.13616], [5.73929, 53.13549], [5.73761, 53.13358], [5.73565, 53.13317], [5.73147, 53.13384], [5.72565, 53.13652], [5.71244, 53.13594], [5.70892, 53.1348], [5.70562, 53.13464], [5.70194, 53.13617], [5.69796, 53.13633], [5.69409, 53.13459], [5.69254, 53.13312], [5.69544, 53.12905], [5.69437, 53.12697], [5.69157, 53.12736], [5.69222, 53.12881], [5.69223, 53.12885], [5.68597, 53.12987], [5.68828, 53.1343], [5.68754, 53.13755], [5.68434, 53.14192], [5.68595, 53.14276], [5.68503, 53.14522], [5.68895, 53.14585], [5.69152, 53.14814], [5.68893, 53.15069], [5.69148, 53.15314], [5.6927, 53.15313], [5.69126, 53.15452], [5.68613, 53.15697], [5.6844, 53.15883], [5.68488, 53.16164], [5.68847, 53.16312], [5.69952, 53.16162], [5.71396, 53.16066], [5.71646, 53.15834], [5.71659, 53.15728], [5.71998, 53.15584], [5.7218, 53.15655], [5.72105, 53.15266]], [[5.70982, 53.14679], [5.70992, 53.14533], [5.71125, 53.14421], [5.71564, 53.14287], [5.7169, 53.14313], [5.71394, 53.14714], [5.7129, 53.14728], [5.71275, 53.14659], [5.70982, 53.14679]]]]}}, {"type": "Feature", "properties": {"code": "BU00804108", "name": "EnergieCampus Sylsterrak"}, "geometry": {"type": "MultiPolygon", "coordinates": [[[[5.75644, 53.20231], [5.76413, 53.19906], [5.75234, 53.19616], [5.74574, 53.19641], [5.7452, 53.20069], [5.75644, 53.20231]]]]}}, {"type": "Feature", "properties": {"code": "BU00804106", "name": "De Zwette V Newton"}, "geometry": {"type": "MultiPolygon", "coordinates": [[[[5.75951, 53.19213], [5.76, 53.1917], [5.76555, 53.18726], [5.76455, 53.183], [5.74818, 53.18149], [5.7469, 53.187], [5.75147, 53.19206], [5.75357, 53.19253], [5.75951, 53.19213]]]]}}, {"type": "Feature", "properties": {"code": "BU00808202", "name": "Buitengebied Reduzum"}, "geometry": {"type": "MultiPolygon", "coordinates": [[[[5.78492, 53.12245], [5.78899, 53.1238], [5.79404, 53.12391], [5.79935, 53.12291], [5.80467, 53.12484], [5.81488, 53.10516], [5.81697, 53.10094], [5.82035, 53.09409], [5.82024, 53.09404], [5.8143, 53.1051], [5.80878, 53.1039], [5.80468, 53.1096], [5.79197, 53.10728], [5.78627, 53.1071], [5.78499, 53.10538], [5.7881, 53.0984], [5.78738, 53.0985], [5.78462, 53.09903], [5.78057, 53.1019], [5.77696, 53.10346], [5.77421, 53.10381], [5.77111, 53.10292], [5.76953, 53.10326], [5.76778, 53.10506], [5.76972, 53.10599], [5.7694, 53.10654], [5.76483, 53.10897], [5.76318, 53.10906], [5.76265, 53.11164], [5.7614, 53.11368], [5.75745, 53.11272], [5.75659, 53.11578], [5.75624, 53.12084], [5.75456, 53.12466], [5.7662, 53.12467], [5.76927, 53.12598], [5.77957, 53.12595], [5.78164, 53.12553], [5.78492, 53.12245]], [[5.79423, 53.11986], [5.78995, 53.11892], [5.7868, 53.1204], [5.78112, 53.12005], [5.77913, 53.11557], [5.78364, 53.11313], [5.78734, 53.11267], [5.78822, 53.1156], [5.79357, 53.1193], [5.79669, 53.12054], [5.79683, 53.12114], [5.79523, 53.12101], [5.79423, 53.11986]]]]}}, {"type": "Feature", "properties": {"code": "BU00803202", "name": "Helicon"}, "geometry": {"type": "MultiPolygon", "coordinates": [[[[5.77256, 53.20537], [5.77626, 53.20501], [5.77494, 53.19972], [5.77456, 53.19785], [5.77454, 53.19785], [5.7697, 53.19824], [5.77136, 53.20329], [5.76988, 53.20558], [5.77256, 53.20537]]]]}}, {"type": "Feature", "properties": {"code": "BU00808113", "name": "Húns"}, "geometry": {"type": "MultiPolygon", "coordinates": [[[[5.67729, 53.17639], [5.67754, 53.17402], [5.67498, 53.17004], [5.67811, 53.16682], [5.68209, 53.16576], [5.68436, 53.16599], [5.68488, 53.16164], [5.6844, 53.15883], [5.68263, 53.15918], [5.68007, 53.15871], [5.67716, 53.15962], [5.67324, 53.15814], [5.67462, 53.15683], [5.66852, 53.15181], [5.66281, 53.15232], [5.6619, 53.15497], [5.65693, 53.15444], [5.65666, 53.15543], [5.65766, 53.15724], [5.65944, 53.15762], [5.6575, 53.15862], [5.66099, 53.16311], [5.6603, 53.16428], [5.65608, 53.16573], [5.65514, 53.16514], [5.65354, 53.16593], [5.65284, 53.16626], [5.66126, 53.16976], [5.66258, 53.17071], [5.66206, 53.1722], [5.66359, 53.17397], [5.66583, 53.17528], [5.66804, 53.17507], [5.6681, 53.17367], [5.66901, 53.17333], [5.67252, 53.17517], [5.67426, 53.17745], [5.67517, 53.17772], [5.67729, 53.17639]]]]}}, {"type": "Feature", "properties": {"code": "BU00803101", "name": "Westeinde"}, "geometry": {"type": "MultiPolygon", "coordinates": [[[[5.77002, 53.2142], [5.76974, 53.21253], [5.77516, 53.2122], [5.77516, 53.21188], [5.77256, 53.20537], [5.76988, 53.20558], [5.7643, 53.20616], [5.76143, 53.20714], [5.75819, 53.20914], [5.75638, 53.21291], [5.7672, 53.21444], [5.77002, 53.2142]]]]}}, {"type": "Feature", "properties": {"code": "BU00808104", "name": "Buitengebied Mantgum"}, "geometry": {"type": "MultiPolygon", "coordinates": [[[[5.75608, 53.13044], [5.75456, 53.12466], [5.75148, 53.12594], [5.74552, 53.12548], [5.73618, 53.1219], [5.73715, 53.12084], [5.73325, 53.12019], [5.73056, 53.12054], [5.72443, 53.12343], [5.71943, 53.12052], [5.70987, 53.1196], [5.70762, 53.11912], [5.70061, 53.11578], [5.69611, 53.11994], [5.69545, 53.12258], [5.69389, 53.1229], [5.69562, 53.12683], [5.69437, 53.12697], [5.69437, 53.12697], [5.69544, 53.12905], [5.69254, 53.13312], [5.69409, 53.13459], [5.69796, 53.13633], [5.70194, 53.13617], [5.70562, 53.13464], [5.70892, 53.1348], [5.71244, 53.13594], [5.72565, 53.13652], [5.73147, 53.13384], [5.73565, 53.13317], [5.73761, 53.13358], [5.75608, 53.13044]], [[5.7152, 53.13336], [5.71296, 53.12934], [5.71397, 53.12833], [5.71741, 53.12605], [5.72286, 53.12732], [5.72649, 53.12998], [5.72485, 53.13245], [5.72103, 53.13328], [5.7152, 53.13336]]]]}}, {"type": "Feature", "properties": {"code": "BU00807305", "name": "De Klamp"}, "geometry": {"type": "MultiPolygon", "coordinates": [[[[5.80931, 53.17168], [5.8105, 53.16981], [5.80851, 53.16749], [5.80635, 53.16631], [5.80322, 53.16684], [5.80069, 53.16861], [5.79993, 53.17017], [5.8043, 53.17184], [5.80534, 53.17026], [5.80848, 53.17138], [5.80796, 53.17195], [5.80931, 53.17168]]]]}}, {"type": "Feature", "properties": {"code": "BU00801105", "name": "Wielenpôlle"}, "geometry": {"type": "MultiPolygon", "coordinates": [[[[5.83066, 53.19491], [5.83406, 53.1954], [5.83592, 53.19299], [5.81673, 53.18966], [5.81591, 53.19168], [5.81687, 53.19498], [5.81934, 53.19413], [5.82146, 53.19513], [5.83066, 53.19491]]]]}}, {"type": "Feature", "properties": {"code": "BU00801108", "name": "Huizum-Bornia"}, "geometry": {"type": "MultiPolygon", "coordinates": [[[[5.80731, 53.19466], [5.80761, 53.1911], [5.79782, 53.19101], [5.79822, 53.19262], [5.79844, 53.19343], [5.80254, 53.19312], [5.80277, 53.19389], [5.80111, 53.19407], [5.80223, 53.19576], [5.80731, 53.19466]]]]}}, {"type": "Feature", "properties": {"code": "BU00805103", "name": "Camminghaburen-Zuid"}, "geometry": {"type": "MultiPolygon", "coordinates": [[[[5.83951, 53.20598], [5.84444, 53.2051], [5.84984, 53.20567], [5.85141, 53.20661], [5.85131, 53.20844], [5.84958, 53.20891], [5.84904, 53.21083], [5.85518, 53.2103], [5.85773, 53.20406], [5.85766, 53.20387], [5.83686, 53.20145], [5.8309, 53.21134], [5.83705, 53.21149], [5.83951, 53.20598]]]]}}, {"type": "Feature", "properties": {"code": "BU00805101", "name": "Camminghaburen-Noord"}, "geometry": {"type": "MultiPolygon", "coordinates": [[[[5.85124, 53.217], [5.85518, 53.2103], [5.84904, 53.21083], [5.84822, 53.21247], [5.8428, 53.21396], [5.83874, 53.21321], [5.83705, 53.21149], [5.8309, 53.21134], [5.82941, 53.21423], [5.8292, 53.21718], [5.85124, 53.217]]]]}}, {"type": "Feature", "properties": {"code": "BU00806209", "name": "Britsum"}, "geometry": {"type": "MultiPolygon", "coordinates": [[[[5.78719, 53.25702], [5.79, 53.25657], [5.78985, 53.25496], [5.79233, 53.25235], [5.78623, 53.25039], [5.77889, 53.24987], [5.77963, 53.25269], [5.78285, 53.256], [5.78719, 53.25702]]]]}}, {"type": "Feature", "properties": {"code": "BU00804107", "name": "De Zwette VI Deinumerpolder"}, "geometry": {"type": "MultiPolygon", "coordinates": [[[[5.75234, 53.19616], [5.75603, 53.19479], [5.75951, 53.19213], [5.75357, 53.19253], [5.75147, 53.19206], [5.7469, 53.187], [5.74574, 53.19641], [5.75234, 53.19616]]]]}}, {"type": "Feature", "properties": {"code": "BU00808116", "name": "Easterlittens"}, "geometry": {"type": "MultiPolygon", "coordinates": [[[[5.6554, 53.13436], [5.65524, 53.13307], [5.65393, 53.13243], [5.64762, 53.13459], [5.64389, 53.13746], [5.64483, 53.13781], [5.64811, 53.13837], [5.6497, 53.13929], [5.6554, 53.13436]]]]}}, {"type": "Feature", "properties": {"code": "BU00808103", "name": "Mantgum"}, "geometry": {"type": "MultiPolygon", "coordinates": [[[[5.72103, 53.13328], [5.72485, 53.13245], [5.72649, 53.12998], [5.72286, 53.12732], [5.71741, 53.12605], [5.71397, 53.12833], [5.71296, 53.12934], [5.7152, 53.13336], [5.72103, 53.13328]]]]}}, {"type": "Feature", "properties": {"code": "BU00808204", "name": "Idaerd"}, "geometry": {"type": "MultiPolygon", "coordinates": [[[[5.80918, 53.12413], [5.81201, 53.12355], [5.81669, 53.12432], [5.81869, 53.12234], [5.82274, 53.12279], [5.82535, 53.12481], [5.83106, 53.12433], [5.83054, 53.12268], [5.83031, 53.12153], [5.82013, 53.11148], [5.81646, 53.10621], [5.81488, 53.10516], [5.80467, 53.12484], [5.80496, 53.12495], [5.80732, 53.12603], [5.80918, 53.12413]]]]}}, {"type": "Feature", "properties": {"code": "BU00801109", "name": "Huizum-Badweg"}, "geometry": {"type": "MultiPolygon", "coordinates": [[[[5.80933, 53.18814], [5.80928, 53.18814], [5.80155, 53.18655], [5.79686, 53.18662], [5.79757, 53.19043], [5.79782, 53.19101], [5.80761, 53.1911], [5.80933, 53.18814]]]]}}, {"type": "Feature", "properties": {"code": "BU00801107", "name": "Huizum-Sixma"}, "geometry": {"type": "MultiPolygon", "coordinates": [[[[5.80223, 53.19576], [5.80111, 53.19407], [5.80277, 53.19389], [5.80254, 53.19312], [5.79844, 53.19343], [5.79677, 53.19677], [5.80249, 53.19744], [5.80223, 53.19576]]]]}}, {"type": "Feature", "properties": {"code": "BU00808115", "name": "Baard"}, "geometry": {"type": "MultiPolygon", "coordinates": [[[[5.68503, 53.14522], [5.68595, 53.14276], [5.68434, 53.14192], [5.68754, 53.13755], [5.68828, 53.1343], [5.68597, 53.12987], [5.68488, 53.12827], [5.68004, 53.12858], [5.67859, 53.13098], [5.67299, 53.13537], [5.67042, 53.13912], [5.66791, 53.14], [5.66631, 53.13938], [5.6636, 53.13992], [5.66292, 53.14081], [5.66343, 53.14241], [5.65976, 53.14268], [5.65626, 53.14189], [5.65526, 53.14225], [5.65431, 53.14371], [5.65646, 53.14604], [5.65545, 53.14773], [5.65847, 53.14942], [5.66332, 53.14982], [5.6669, 53.14983], [5.67539, 53.14627], [5.67709, 53.14471], [5.68334, 53.14417], [5.68503, 53.14522]]]]}}, {"type": "Feature", "properties": {"code": "BU00806301", "name": "Stiens"}, "geometry": {"type": "MultiPolygon", "coordinates": [[[[5.77262, 53.26892], [5.77194, 53.26716], [5.7783, 53.26725], [5.78061, 53.26547], [5.78081, 53.26226], [5.78377, 53.26191], [5.78254, 53.25737], [5.78322, 53.25646], [5.76808, 53.25245], [5.76667, 53.25131], [5.7645, 53.2517], [5.76024, 53.25599], [5.75502, 53.25865], [5.74979, 53.26413], [5.7462, 53.2655], [5.74382, 53.26816], [5.76956, 53.26908], [5.77262, 53.26892]]]]}}, {"type": "Feature", "properties": {"code": "BU00804002", "name": "Gerard Dou"}, "geometry": {"type": "MultiPolygon", "coordinates": [[[[5.79822, 53.19262], [5.79782, 53.19101], [5.79757, 53.19043], [5.79293, 53.19067], [5.79059, 53.19136], [5.78949, 53.19313], [5.79822, 53.19262]]]]}}, {"type": "Feature", "properties": {"code": "BU00806203", "name": "Buitengebied Lekkum en Miedum"}, "geometry": {"type": "MultiPolygon", "coordinates": [[[[5.85255, 53.23048], [5.85049, 53.22456], [5.851, 53.22241], [5.82778, 53.22257], [5.82432, 53.22014], [5.8231, 53.21739], [5.81474, 53.21743], [5.81192, 53.2175], [5.8146, 53.22339], [5.81731, 53.22274], [5.82324, 53.22291], [5.82422, 53.22503], [5.82158, 53.22764], [5.81811, 53.22876], [5.81879, 53.23072], [5.82409, 53.23426], [5.82575, 53.23737], [5.82882, 53.23883], [5.83216, 53.24286], [5.8592, 53.24329], [5.85924, 53.24329], [5.85255, 53.23048]]]]}}, {"type": "Feature", "properties": {"code": "BU00808008", "name": "Buitengebied Warten"}, "geometry": {"type": "MultiPolygon", "coordinates": [[[[5.93278, 53.1703], [5.93375, 53.16887], [5.93192, 53.16108], [5.9233, 53.15296], [5.91896, 53.14917], [5.90863, 53.14478], [5.92336, 53.13091], [5.92767, 53.12916], [5.9324, 53.12813], [5.93858, 53.1254], [5.94346, 53.12161], [5.94569, 53.11722], [5.94966, 53.10489], [5.94594, 53.10368], [5.93373, 53.10912], [5.93044, 53.10993], [5.92651, 53.10895], [5.9154, 53.10907], [5.91639, 53.11215], [5.91382, 53.11224], [5.91372, 53.11915], [5.90942, 53.12145], [5.89597, 53.11855], [5.87867, 53.11621], [5.87086, 53.12063], [5.86841, 53.1233], [5.86322, 53.1263], [5.86068, 53.12594], [5.85633, 53.12387], [5.85345, 53.12359], [5.85948, 53.12914], [5.87464, 53.13765], [5.88209, 53.14003], [5.87543, 53.14537], [5.87228, 53.14701], [5.87593, 53.15068], [5.87556, 53.15112], [5.88015, 53.14976], [5.89379, 53.14879], [5.90029, 53.14935], [5.90574, 53.14706], [5.90962, 53.14966], [5.90041, 53.15437], [5.89266, 53.15198], [5.89306, 53.15108], [5.8892, 53.15041], [5.87582, 53.1512], [5.86786, 53.15806], [5.87471, 53.15747], [5.87682, 53.15541], [5.88704, 53.15442], [5.88028, 53.17032], [5.91557, 53.16876], [5.92595, 53.16843], [5.93278, 53.1703]]]]}}, {"type": "Feature", "properties": {"code": "BU00804101", "name": "Nijlân"}, "geometry": {"type": "MultiPolygon", "coordinates": [[[[5.78054, 53.19171], [5.78695, 53.189], [5.79686, 53.18662], [5.79681, 53.18329], [5.79466, 53.18335], [5.78383, 53.18423], [5.77395, 53.18526], [5.77202, 53.18859], [5.77206, 53.19067], [5.77403, 53.19291], [5.77714, 53.19418], [5.78054, 53.19171]]]]}}, {"type": "Feature", "properties": {"code": "BU00807401", "name": "Havenstêd"}, "geometry": {"type": "MultiPolygon", "coordinates": [[[[5.79466, 53.18335], [5.7941, 53.18043], [5.78866, 53.1816], [5.78653, 53.18159], [5.78383, 53.18423], [5.79466, 53.18335]]]]}}, {"type": "Feature", "properties": {"code": "BU00808007", "name": "Warten"}, "geometry": {"type": "MultiPolygon", "coordinates": [[[[5.90962, 53.14966], [5.90574, 53.14706], [5.90029, 53.14935], [5.89379, 53.14879], [5.88015, 53.14976], [5.87556, 53.15112], [5.87578, 53.15119], [5.87582, 53.1512], [5.8892, 53.15041], [5.89306, 53.15108], [5.89266, 53.15198], [5.90041, 53.15437], [5.90962, 53.14966]]]]}}, {"type": "Feature", "properties": {"code": "BU00806305", "name": "Hijum"}, "geometry": {"type": "MultiPolygon", "coordinates": [[[[5.77199, 53.29155], [5.77132, 53.28966], [5.76656, 53.28752], [5.75866, 53.29059], [5.75797, 53.29226], [5.75966, 53.2941], [5.76328, 53.29449], [5.76641, 53.29343], [5.7672, 53.29344], [5.76835, 53.29322], [5.76903, 53.29255], [5.77199, 53.29155]]]]}}, {"type": "Feature", "properties": {"code": "BU00804004", "name": "Jan van Scorelbuurt"}, "geometry": {"type": "MultiPolygon", "coordinates": [[[[5.78349, 53.19367], [5.78969, 53.19401], [5.78949, 53.19313], [5.79059, 53.19136], [5.78695, 53.189], [5.78054, 53.19171], [5.77714, 53.19418], [5.77874, 53.19453], [5.78305, 53.19494], [5.78349, 53.19367]]]]}}, {"type": "Feature", "properties": {"code": "BU00808004", "name": "Wergea"}, "geometry": {"type": "MultiPolygon", "coordinates": [[[[5.84787, 53.15546], [5.85115, 53.15338], [5.85822, 53.15187], [5.85732, 53.14969], [5.85167, 53.14599], [5.84671, 53.14402], [5.84416, 53.14552], [5.84269, 53.14753], [5.83553, 53.14895], [5.83494, 53.15269], [5.83594, 53.15381], [5.8415, 53.1551], [5.8463, 53.15723], [5.84707, 53.15733], [5.84787, 53.15546]]]]}}, {"type": "Feature", "properties": {"code": "BU00807302", "name": "Wiarda"}, "geometry": {"type": "MultiPolygon", "coordinates": [[[[5.82158, 53.17619], [5.82311, 53.17703], [5.82637, 53.17194], [5.82383, 53.17218], [5.82212, 53.17166], [5.81787, 53.17334], [5.81555, 53.17557], [5.81603, 53.17782], [5.82158, 53.17619]]]]}}, {"type": "Feature", "properties": {"code": "BU00801002", "name": "Nieuwestad"}, "geometry": {"type": "MultiPolygon", "coordinates": [[[[5.79501, 53.20163], [5.79518, 53.19989], [5.78915, 53.20063], [5.78976, 53.20172], [5.79161, 53.20237], [5.79501, 53.20163]]]]}}, {"type": "Feature", "properties": {"code": "BU00808109", "name": "Jorwert"}, "geometry": {"type": "MultiPolygon", "coordinates": [[[[5.71394, 53.14714], [5.7169, 53.14313], [5.71564, 53.14287], [5.71125, 53.14421], [5.70992, 53.14533], [5.70982, 53.14679], [5.71275, 53.14659], [5.7129, 53.14728], [5.71394, 53.14714]]]]}}, {"type": "Feature", "properties": {"code": "BU00808106", "name": "Buitengebied Weidum"}, "geometry": {"type": "MultiPolygon", "coordinates": [[[[5.74039, 53.15485], [5.74613, 53.15427], [5.76536, 53.15449], [5.76494, 53.15355], [5.76363, 53.14906], [5.76427, 53.14299], [5.75608, 53.13044], [5.73761, 53.13358], [5.73929, 53.13549], [5.73541, 53.13616], [5.72882, 53.13615], [5.72759, 53.13712], [5.72851, 53.14029], [5.72403, 53.14548], [5.721, 53.14686], [5.71854, 53.14647], [5.71862, 53.1483], [5.73382, 53.15167], [5.73532, 53.15314], [5.73557, 53.15559], [5.73857, 53.15559], [5.74039, 53.15485]], [[5.73634, 53.14599], [5.73684, 53.14422], [5.74071, 53.14341], [5.74317, 53.14351], [5.74754, 53.14564], [5.74747, 53.14741], [5.74628, 53.14867], [5.74206, 53.14808], [5.73634, 53.14599]]]]}}, {"type": "Feature", "properties": {"code": "BU00808003", "name": "Buitengebied Wirdum"}, "geometry": {"type": "MultiPolygon", "coordinates": [[[[5.83489, 53.16443], [5.82961, 53.16317], [5.82644, 53.16487], [5.82498, 53.16479], [5.82056, 53.16256], [5.81668, 53.15881], [5.81461, 53.15784], [5.81259, 53.15802], [5.81113, 53.15581], [5.81241, 53.15365], [5.81233, 53.15194], [5.80659, 53.15432], [5.80331, 53.15171], [5.7949, 53.1478], [5.79725, 53.1443], [5.79865, 53.14409], [5.81031, 53.14765], [5.81411, 53.14777], [5.81758, 53.14655], [5.82009, 53.14301], [5.82398, 53.14281], [5.82189, 53.13854], [5.8224, 53.13636], [5.81662, 53.1347], [5.81316, 53.12756], [5.80732, 53.12603], [5.80496, 53.12495], [5.79458, 53.14594], [5.79117, 53.1459], [5.78724, 53.15064], [5.77998, 53.15207], [5.76494, 53.15355], [5.76536, 53.15449], [5.76561, 53.16141], [5.76361, 53.16897], [5.77976, 53.15985], [5.78373, 53.1587], [5.78846, 53.15831], [5.80462, 53.16112], [5.80952, 53.16203], [5.82965, 53.16683], [5.84147, 53.16879], [5.83489, 53.16443]]]]}}, {"type": "Feature", "properties": {"code": "BU00803005", "name": "Sonnenborgh"}, "geometry": {"type": "MultiPolygon", "coordinates": [[[[5.7853, 53.20831], [5.77667, 53.20497], [5.77626, 53.20501], [5.77946, 53.20992], [5.78163, 53.21147], [5.78223, 53.21166], [5.7853, 53.20831]]]]}}, {"type": "Feature", "properties": {"code": "BU00801006", "name": "Blokhuisplein"}, "geometry": {"type": "MultiPolygon", "coordinates": [[[[5.80311, 53.20192], [5.80247, 53.19945], [5.79829, 53.19917], [5.80081, 53.20222], [5.80311, 53.20192]]]]}}, {"type": "Feature", "properties": {"code": "BU00805003", "name": "De Centrale"}, "geometry": {"type": "MultiPolygon", "coordinates": [[[[5.82795, 53.20216], [5.81695, 53.20029], [5.81799, 53.20262], [5.82472, 53.20293], [5.82795, 53.20216]]]]}}, {"type": "Feature", "properties": {"code": "BU00808203", "name": "Eagum"}, "geometry": {"type": "MultiPolygon", "coordinates": [[[[5.82349, 53.13502], [5.82624, 53.13388], [5.83332, 53.13433], [5.83714, 53.13383], [5.83106, 53.12433], [5.82535, 53.12481], [5.82274, 53.12279], [5.81869, 53.12234], [5.81669, 53.12432], [5.81201, 53.12355], [5.80918, 53.12413], [5.80732, 53.12603], [5.81316, 53.12756], [5.81662, 53.1347], [5.8224, 53.13636], [5.82349, 53.13502]]]]}}, {"type": "Feature", "properties": {"code": "BU00807101", "name": "Goutum"}, "geometry": {"type": "MultiPolygon", "coordinates": [[[[5.81815, 53.18011], [5.81373, 53.17968], [5.81304, 53.17738], [5.81127, 53.17575], [5.80213, 53.17579], [5.8043, 53.17184], [5.79993, 53.17017], [5.7992, 53.17099], [5.79231, 53.17315], [5.79587, 53.17912], [5.79389, 53.17974], [5.7941, 53.18043], [5.79466, 53.18335], [5.79681, 53.18329], [5.80818, 53.18338], [5.81659, 53.1846], [5.81815, 53.18011]]]]}}, {"type": "Feature", "properties": {"code": "BU00802008", "name": "Molenpad"}, "geometry": {"type": "MultiPolygon", "coordinates": [[[[5.80974, 53.20269], [5.81015, 53.19981], [5.80286, 53.19944], [5.80247, 53.19945], [5.80311, 53.20192], [5.80339, 53.20295], [5.80974, 53.20269]]]]}}, {"type": "Feature", "properties": {"code": "BU00803004", "name": "Vogelwijk"}, "geometry": {"type": "MultiPolygon", "coordinates": [[[[5.78745, 53.20597], [5.78726, 53.20402], [5.77667, 53.20497], [5.7853, 53.20831], [5.78745, 53.20597]]]]}}, {"type": "Feature", "properties": {"code": "BU00802007", "name": "Indische buurt"}, "geometry": {"type": "MultiPolygon", "coordinates": [[[[5.81953, 53.20459], [5.81799, 53.20262], [5.80974, 53.20269], [5.80949, 53.2038], [5.81137, 53.20494], [5.81953, 53.20459]]]]}}, {"type": "Feature", "properties": {"code": "BU00807003", "name": "Rapenburg"}, "geometry": {"type": "MultiPolygon", "coordinates": [[[[5.80727, 53.1857], [5.80818, 53.18338], [5.79681, 53.18329], [5.79686, 53.18662], [5.80155, 53.18655], [5.80928, 53.18814], [5.80727, 53.1857]]]]}}, {"type": "Feature", "properties": {"code": "BU00801008", "name": "Stationskwartier"}, "geometry": {"type": "MultiPolygon", "coordinates": [[[[5.7967, 53.19832], [5.79677, 53.19677], [5.78902, 53.19553], [5.78769, 53.19801], [5.78769, 53.19801], [5.78831, 53.1987], [5.7967, 53.19832]]]]}}, {"type": "Feature", "properties": {"code": "BU00801102", "name": "Oranjewijk"}, "geometry": {"type": "MultiPolygon", "coordinates": [[[[5.81722, 53.19916], [5.80249, 53.19744], [5.80286, 53.19944], [5.81015, 53.19981], [5.81695, 53.20029], [5.81722, 53.19916]]]]}}, {"type": "Feature", "properties": {"code": "BU00804103", "name": "De Zwette II Zwettehaven"}, "geometry": {"type": "MultiPolygon", "coordinates": [[[[5.77714, 53.19418], [5.77403, 53.19291], [5.77206, 53.19067], [5.77202, 53.18859], [5.77395, 53.18526], [5.76913, 53.18596], [5.76555, 53.18726], [5.76, 53.1917], [5.76739, 53.19309], [5.77695, 53.19435], [5.77874, 53.19453], [5.77714, 53.19418]]]]}}, {"type": "Feature", "properties": {"code": "BU00808101", "name": "Wytgaard"}, "geometry": {"type": "MultiPolygon", "coordinates": [[[[5.78333, 53.14305], [5.78584, 53.14315], [5.78701, 53.14166], [5.78534, 53.13863], [5.78132, 53.1387], [5.77998, 53.14352], [5.78308, 53.14364], [5.78333, 53.14305]]]]}}, {"type": "Feature", "properties": {"code": "BU00806207", "name": "Koarnjum"}, "geometry": {"type": "MultiPolygon", "coordinates": [[[[5.78353, 53.24576], [5.78806, 53.24406], [5.78843, 53.24275], [5.7819, 53.24137], [5.78189, 53.23991], [5.78083, 53.2398], [5.78005, 53.24003], [5.77846, 53.23975], [5.77771, 53.24308], [5.77662, 53.243], [5.77605, 53.24371], [5.77663, 53.24563], [5.77824, 53.24618], [5.78353, 53.24576]]]]}}, {"type": "Feature", "properties": {"code": "BU00807306", "name": "Unia"}, "geometry": {"type": "MultiPolygon", "coordinates": [[[[5.81197, 53.16636], [5.80952, 53.16203], [5.80462, 53.16112], [5.8022, 53.16318], [5.80635, 53.16631], [5.80851, 53.16749], [5.81197, 53.16636]]]]}}, {"type": "Feature", "properties": {"code": "BU00804104", "name": "De Zwette III Schenkenschans"}, "geometry": {"type": "MultiPolygon", "coordinates": [[[[5.76903, 53.19832], [5.76739, 53.19309], [5.76, 53.1917], [5.75951, 53.19213], [5.75603, 53.19479], [5.75234, 53.19616], [5.76413, 53.19906], [5.76903, 53.19832]]]]}}, {"type": "Feature", "properties": {"code": "BU00806204", "name": "Blitsaerd"}, "geometry": {"type": "MultiPolygon", "coordinates": [[[[5.82778, 53.22257], [5.851, 53.22241], [5.85262, 53.22058], [5.85884, 53.22057], [5.85869, 53.21784], [5.86159, 53.2178], [5.86162, 53.21719], [5.85124, 53.217], [5.8292, 53.21718], [5.8231, 53.21739], [5.82432, 53.22014], [5.82778, 53.22257]]]]}}, {"type": "Feature", "properties": {"code": "BU00807202", "name": "Buitengebied Hempens"}, "geometry": {"type": "MultiPolygon", "coordinates": [[[[5.8467, 53.18214], [5.84643, 53.17651], [5.84963, 53.16988], [5.84219, 53.16992], [5.84005, 53.17143], [5.83706, 53.17602], [5.83693, 53.17673], [5.83987, 53.17681], [5.84186, 53.17975], [5.84109, 53.18027], [5.83522, 53.1809], [5.83526, 53.18146], [5.83543, 53.18197], [5.83787, 53.1823], [5.8467, 53.18214]]]]}}, {"type": "Feature", "properties": {"code": "BU00807402", "name": "Barrahûs"}, "geometry": {"type": "MultiPolygon", "coordinates": [[[[5.78777, 53.17439], [5.79231, 53.17315], [5.79107, 53.16996], [5.79242, 53.16646], [5.78495, 53.16545], [5.78271, 53.16995], [5.78366, 53.16981], [5.78588, 53.17462], [5.78777, 53.17439]]]]}}, {"type": "Feature", "properties": {"code": "BU00807002", "name": "Aldlân-West"}, "geometry": {"type": "MultiPolygon", "coordinates": [[[[5.81867, 53.18494], [5.81659, 53.1846], [5.80818, 53.18338], [5.80727, 53.1857], [5.80928, 53.18814], [5.80933, 53.18814], [5.81673, 53.18966], [5.81867, 53.18494]]]]}}, {"type": "Feature", "properties": {"code": "BU00801003", "name": "Oldehove"}, "geometry": {"type": "MultiPolygon", "coordinates": [[[[5.79502, 53.20528], [5.79626, 53.20248], [5.79501, 53.20163], [5.79161, 53.20237], [5.78976, 53.20172], [5.78915, 53.20063], [5.78857, 53.20041], [5.78752, 53.20227], [5.78801, 53.20405], [5.79217, 53.20533], [5.79502, 53.20528]]]]}}, {"type": "Feature", "properties": {"code": "BU00805102", "name": "Camminghaburen-Midden"}, "geometry": {"type": "MultiPolygon", "coordinates": [[[[5.8428, 53.21396], [5.84822, 53.21247], [5.84904, 53.21083], [5.84958, 53.20891], [5.85131, 53.20844], [5.85141, 53.20661], [5.84984, 53.20567], [5.84444, 53.2051], [5.83951, 53.20598], [5.83705, 53.21149], [5.83874, 53.21321], [5.8428, 53.21396]]]]}}, {"type": "Feature", "properties": {"code": "BU00808102", "name": "Buitengebied Wytgaard"}, "geometry": {"type": "MultiPolygon", "coordinates": [[[[5.78724, 53.15064], [5.79117, 53.1459], [5.79458, 53.14594], [5.80496, 53.12495], [5.80467, 53.12484], [5.79935, 53.12291], [5.79404, 53.12391], [5.78899, 53.1238], [5.78492, 53.12245], [5.78164, 53.12553], [5.77957, 53.12595], [5.76927, 53.12598], [5.7662, 53.12467], [5.75456, 53.12466], [5.75608, 53.13044], [5.76427, 53.14299], [5.76363, 53.14906], [5.76494, 53.15355], [5.77998, 53.15207], [5.78724, 53.15064]], [[5.78132, 53.1387], [5.78534, 53.13863], [5.78701, 53.14166], [5.78584, 53.14315], [5.78333, 53.14305], [5.78308, 53.14364], [5.77998, 53.14352], [5.78132, 53.1387]]]]}}, {"type": "Feature", "properties": {"code": "BU00807404", "name": "De Fellingen"}, "geometry": {"type": "MultiPolygon", "coordinates": [[[[5.7941, 53.18043], [5.79389, 53.17974], [5.79587, 53.17912], [5.79231, 53.17315], [5.78777, 53.17439], [5.78916, 53.17796], [5.78907, 53.17896], [5.78762, 53.17915], [5.78866, 53.1816], [5.7941, 53.18043]]]]}}, {"type": "Feature", "properties": {"code": "BU00803203", "name": "Harlingervaart Noord"}, "geometry": {"type": "MultiPolygon", "coordinates": [[[[5.78492, 53.19878], [5.78769, 53.19801], [5.78769, 53.19801], [5.78628, 53.19717], [5.77456, 53.19785], [5.77494, 53.19972], [5.78492, 53.19878]]]]}}, {"type": "Feature", "properties": {"code": "BU00808002", "name": "Swichum"}, "geometry": {"type": "MultiPolygon", "coordinates": [[[[5.82345, 53.16036], [5.8259, 53.15705], [5.83124, 53.15385], [5.8327, 53.1515], [5.82929, 53.14827], [5.82457, 53.14538], [5.82398, 53.14281], [5.82009, 53.14301], [5.81758, 53.14655], [5.81411, 53.14777], [5.81093, 53.14936], [5.81233, 53.15194], [5.81241, 53.15365], [5.81113, 53.15581], [5.81259, 53.15802], [5.81461, 53.15784], [5.81668, 53.15881], [5.82056, 53.16256], [5.82345, 53.16036]]]]}}, {"type": "Feature", "properties": {"code": "BU00808209", "name": "Buitengebied Jirnsum"}, "geometry": {"type": "MultiPolygon", "coordinates": [[[[5.7881, 53.0984], [5.79211, 53.09836], [5.7944, 53.09561], [5.79474, 53.09387], [5.79199, 53.08864], [5.79262, 53.08551], [5.79178, 53.08564], [5.79132, 53.08772], [5.78676, 53.08832], [5.78642, 53.08589], [5.78844, 53.0856], [5.78951, 53.08361], [5.78613, 53.07924], [5.78661, 53.07748], [5.79021, 53.07446], [5.79485, 53.07486], [5.80198, 53.0701], [5.80418, 53.06705], [5.8067, 53.06557], [5.79639, 53.05884], [5.77391, 53.04592], [5.76985, 53.04585], [5.77101, 53.04697], [5.7707, 53.04744], [5.76954, 53.04953], [5.76681, 53.05055], [5.76313, 53.05662], [5.76184, 53.0608], [5.76668, 53.06224], [5.77505, 53.06664], [5.77356, 53.07411], [5.76428, 53.08028], [5.77101, 53.08108], [5.77263, 53.08182], [5.77438, 53.0857], [5.77281, 53.08761], [5.77148, 53.08765], [5.77119, 53.08794], [5.77204, 53.08838], [5.77138, 53.08911], [5.77813, 53.09273], [5.78815, 53.09656], [5.78738, 53.0985], [5.7881, 53.0984]]]]}}, {"type": "Feature", "properties": {"code": "BU00802002", "name": "Bloemenbuurt"}, "geometry": {"type": "MultiPolygon", "coordinates": [[[[5.81403, 53.21205], [5.80627, 53.20887], [5.80342, 53.21277], [5.81088, 53.21254], [5.81349, 53.21329], [5.81403, 53.21205]]]]}}, {"type": "Feature", "properties": {"code": "BU00801005", "name": "Hoek"}, "geometry": {"type": "MultiPolygon", "coordinates": [[[[5.80205, 53.20679], [5.80299, 53.2057], [5.80339, 53.20295], [5.80311, 53.20192], [5.80081, 53.20222], [5.79996, 53.20284], [5.80089, 53.20624], [5.80205, 53.20679]]]]}}, {"type": "Feature", "properties": {"code": "BU00802003", "name": "Cambuursterpad"}, "geometry": {"type": "MultiPolygon", "coordinates": [[[[5.8117, 53.20693], [5.81137, 53.20494], [5.80949, 53.2038], [5.80498, 53.20607], [5.80299, 53.2057], [5.80205, 53.20679], [5.80627, 53.20887], [5.8117, 53.20693]]]]}}, {"type": "Feature", "properties": {"code": "BU00806101", "name": "Vrijheidswijk-West"}, "geometry": {"type": "MultiPolygon", "coordinates": [[[[5.81192, 53.2175], [5.81474, 53.21743], [5.81349, 53.21329], [5.81088, 53.21254], [5.80342, 53.21277], [5.80271, 53.21289], [5.80777, 53.21735], [5.80801, 53.21755], [5.81192, 53.2175]]]]}}, {"type": "Feature", "properties": {"code": "BU00808114", "name": "Leons"}, "geometry": {"type": "MultiPolygon", "coordinates": [[[[5.6844, 53.15883], [5.68613, 53.15697], [5.69126, 53.15452], [5.6927, 53.15313], [5.69148, 53.15314], [5.68893, 53.15069], [5.69152, 53.14814], [5.68895, 53.14585], [5.68503, 53.14522], [5.68334, 53.14417], [5.67709, 53.14471], [5.67539, 53.14627], [5.6669, 53.14983], [5.66332, 53.14982], [5.66197, 53.15092], [5.66281, 53.15232], [5.66852, 53.15181], [5.67462, 53.15683], [5.67324, 53.15814], [5.67716, 53.15962], [5.68007, 53.15871], [5.68263, 53.15918], [5.6844, 53.15883]]]]}}, {"type": "Feature", "properties": {"code": "BU00806302", "name": "Buitengebied Stiens"}, "geometry": {"type": "MultiPolygon", "coordinates": [[[[5.75065, 53.27955], [5.75012, 53.27711], [5.76197, 53.27512], [5.76128, 53.27304], [5.7735, 53.27284], [5.77841, 53.27661], [5.78114, 53.27657], [5.78173, 53.27757], [5.81127, 53.27699], [5.81204, 53.27674], [5.81389, 53.27765], [5.81531, 53.27747], [5.81691, 53.27639], [5.83151, 53.27543], [5.83865, 53.27495], [5.83782, 53.27383], [5.83269, 53.26849], [5.83213, 53.25989], [5.8297, 53.25758], [5.8299, 53.25535], [5.83106, 53.25199], [5.83317, 53.24775], [5.83319, 53.24701], [5.83205, 53.2464], [5.82351, 53.25037], [5.82158, 53.25497], [5.81568, 53.25584], [5.78638, 53.25729], [5.78322, 53.25646], [5.78254, 53.25737], [5.78377, 53.26191], [5.78081, 53.26226], [5.78061, 53.26547], [5.7783, 53.26725], [5.77194, 53.26716], [5.77262, 53.26892], [5.76956, 53.26908], [5.74382, 53.26816], [5.7462, 53.2655], [5.74979, 53.26413], [5.75502, 53.25865], [5.76024, 53.25599], [5.7645, 53.2517], [5.74144, 53.25219], [5.74127, 53.25131], [5.73596, 53.25147], [5.7326, 53.25717], [5.72984, 53.26124], [5.73539, 53.26471], [5.72734, 53.26835], [5.72231, 53.27153], [5.72013, 53.27492], [5.72136, 53.27957], [5.73976, 53.28006], [5.75065, 53.27955]]]]}}, {"type": "Feature", "properties": {"code": "BU00807303", "name": "De Werp"}, "geometry": {"type": "MultiPolygon", "coordinates": [[[[5.79467, 53.16651], [5.79608, 53.1639], [5.79848, 53.16227], [5.80008, 53.16215], [5.8022, 53.16318], [5.80462, 53.16112], [5.78846, 53.15831], [5.78495, 53.16545], [5.79242, 53.16646], [5.79467, 53.16651]]]]}}, {"type": "Feature", "properties": {"code": "BU00807405", "name": "Boksumerhoeke"}, "geometry": {"type": "MultiPolygon", "coordinates": [[[[5.78383, 53.18423], [5.78653, 53.18159], [5.7845, 53.17987], [5.78331, 53.17732], [5.78381, 53.17488], [5.78588, 53.17462], [5.78366, 53.16981], [5.78271, 53.16995], [5.77395, 53.18526], [5.78383, 53.18423]]]]}}, {"type": "Feature", "properties": {"code": "BU00808205", "name": "Friens"}, "geometry": {"type": "MultiPolygon", "coordinates": [[[[5.80468, 53.1096], [5.80878, 53.1039], [5.81316, 53.10211], [5.81356, 53.09515], [5.81277, 53.09305], [5.80184, 53.08952], [5.79682, 53.08352], [5.79262, 53.08551], [5.79199, 53.08864], [5.79474, 53.09387], [5.7944, 53.09561], [5.79211, 53.09836], [5.7881, 53.0984], [5.78499, 53.10538], [5.78627, 53.1071], [5.79197, 53.10728], [5.80468, 53.1096]]]]}}, {"type": "Feature", "properties": {"code": "BU00804110", "name": "Buitengebied West"}, "geometry": {"type": "MultiPolygon", "coordinates": [[[[5.75819, 53.20914], [5.76143, 53.20714], [5.75896, 53.20741], [5.76012, 53.20325], [5.75644, 53.20231], [5.7452, 53.20069], [5.74574, 53.19641], [5.7469, 53.187], [5.74818, 53.18149], [5.74142, 53.1809], [5.74541, 53.18523], [5.74034, 53.18537], [5.7407, 53.18745], [5.74212, 53.19428], [5.74457, 53.19781], [5.74241, 53.2001], [5.7374, 53.20622], [5.73609, 53.20609], [5.73474, 53.21122], [5.74391, 53.21138], [5.75434, 53.2105], [5.75819, 53.20914]]]]}}, {"type": "Feature", "properties": {"code": "BU00806003", "name": "Vierhuisterweg e.o."}, "geometry": {"type": "MultiPolygon", "coordinates": [[[[5.78243, 53.2265], [5.80808, 53.224], [5.80789, 53.22122], [5.80392, 53.22128], [5.80331, 53.21925], [5.80549, 53.218], [5.79076, 53.21803], [5.78086, 53.21704], [5.78092, 53.2175], [5.77964, 53.2261], [5.78046, 53.2266], [5.78243, 53.2265]]]]}}, {"type": "Feature", "properties": {"code": "BU00803002", "name": "Bonifatius"}, "geometry": {"type": "MultiPolygon", "coordinates": [[[[5.78921, 53.20956], [5.79054, 53.2083], [5.78745, 53.20597], [5.7853, 53.20831], [5.78223, 53.21166], [5.78849, 53.21311], [5.78921, 53.20956]]]]}}, {"type": "Feature", "properties": {"code": "BU00801007", "name": "Zaailand"}, "geometry": {"type": "MultiPolygon", "coordinates": [[[[5.79518, 53.19989], [5.7967, 53.19832], [5.78831, 53.1987], [5.78857, 53.20041], [5.78915, 53.20063], [5.79518, 53.19989]]]]}}, {"type": "Feature", "properties": {"code": "BU00806303", "name": "Feinsum"}, "geometry": {"type": "MultiPolygon", "coordinates": [[[[5.76361, 53.28006], [5.76624, 53.27828], [5.76415, 53.27601], [5.76197, 53.27512], [5.75012, 53.27711], [5.75065, 53.27955], [5.75007, 53.28033], [5.76361, 53.28006]]]]}}, {"type": "Feature", "properties": {"code": "BU00801001", "name": "De Waag"}, "geometry": {"type": "MultiPolygon", "coordinates": [[[[5.79996, 53.20284], [5.80081, 53.20222], [5.79829, 53.19917], [5.7967, 53.19832], [5.79518, 53.19989], [5.79501, 53.20163], [5.79626, 53.20248], [5.79996, 53.20284]]]]}}]}