{"type": "FeatureCollection", "features": [{"type": "Feature", "properties": {"code": "WK003401", "name": "Centrum Almere Haven"}, "geometry": {"type": "MultiPolygon", "coordinates": [[[[5.22152, 52.33657], [5.22183, 52.33507], [5.22186, 52.33508], [5.22337, 52.33392], [5.22355, 52.33373], [5.22346, 52.33208], [5.22348, 52.33205], [5.22342, 52.33192], [5.22302, 52.332], [5.22116, 52.33131], [5.22078, 52.33132], [5.22121, 52.33177], [5.22081, 52.33187], [5.22024, 52.33254], [5.22127, 52.33237], [5.2216, 52.33307], [5.22092, 52.3338], [5.22013, 52.33395], [5.21939, 52.3337], [5.21907, 52.33307], [5.22019, 52.33189], [5.21918, 52.33134], [5.2183, 52.33223], [5.2158, 52.3313], [5.21683, 52.3302], [5.21792, 52.33059], [5.21872, 52.33032], [5.21971, 52.33049], [5.21637, 52.32939], [5.21256, 52.32998], [5.21284, 52.33145], [5.21352, 52.33206], [5.21281, 52.33291], [5.2103, 52.3338], [5.20945, 52.33304], [5.20848, 52.33246], [5.20616, 52.33339], [5.20601, 52.33435], [5.20477, 52.33551], [5.21349, 52.33463], [5.21456, 52.33579], [5.21601, 52.33581], [5.21742, 52.3378], [5.21859, 52.3379], [5.22152, 52.33657]]]]}}, {"type": "Feature", "properties": {"code": "WK003402", "name": "De Werven"}, "geometry": {"type": "MultiPolygon", "coordinates": [[[[5.23145, 52.33622], [5.23023, 52.33434], [5.22355, 52.33373], [5.22337, 52.33392], [5.22186, 52.33508], [5.22183, 52.33507], [5.22152, 52.33657], [5.21859, 52.3379], [5.2191, 52.34005], [5.22061, 52.34061], [5.22306, 52.34187], [5.22753, 52.34014], [5.23014, 52.3379], [5.23026, 52.33777], [5.23207, 52.3372], [5.23145, 52.33622]]]]}}, {"type": "Feature", "properties": {"code": "WK003403", "name": "De Hoven"}, "geometry": {"type": "MultiPolygon", "coordinates": [[[[5.21601, 52.33581], [5.21456, 52.33579], [5.21241, 52.33688], [5.21036, 52.33918], [5.21026, 52.34141], [5.21035, 52.34155], [5.21542, 52.34316], [5.22115, 52.34387], [5.22306, 52.34187], [5.22061, 52.34061], [5.2191, 52.34005], [5.21859, 52.3379], [5.21742, 52.3378], [5.21601, 52.33581]]]]}}, {"type": "Feature", "properties": {"code": "WK003404", "name": "De Meenten"}, "geometry": {"type": "MultiPolygon", "coordinates": [[[[5.2342, 52.33774], [5.23451, 52.33698], [5.23727, 52.33703], [5.24017, 52.33611], [5.24429, 52.33503], [5.24308, 52.33283], [5.24338, 52.3327], [5.23983, 52.32926], [5.23264, 52.33059], [5.22367, 52.33216], [5.22346, 52.33208], [5.22355, 52.33373], [5.23023, 52.33434], [5.23145, 52.33622], [5.23207, 52.3372], [5.2342, 52.33774]]]]}}, {"type": "Feature", "properties": {"code": "WK003405", "name": "De Grienden"}, "geometry": {"type": "MultiPolygon", "coordinates": [[[[5.24776, 52.34105], [5.24429, 52.33503], [5.24017, 52.33611], [5.23727, 52.33703], [5.23451, 52.33698], [5.2342, 52.33774], [5.23207, 52.3372], [5.23026, 52.33777], [5.23014, 52.3379], [5.23508, 52.34005], [5.23621, 52.34235], [5.23621, 52.34236], [5.23972, 52.34481], [5.24466, 52.34241], [5.24776, 52.34105]]]]}}, {"type": "Feature", "properties": {"code": "WK003406", "name": "De Marken"}, "geometry": {"type": "MultiPolygon", "coordinates": [[[[5.23508, 52.34005], [5.23014, 52.3379], [5.22753, 52.34014], [5.22306, 52.34187], [5.22115, 52.34387], [5.22116, 52.3445], [5.22104, 52.34664], [5.22952, 52.34935], [5.23164, 52.35198], [5.2359, 52.34908], [5.23972, 52.34481], [5.23621, 52.34236], [5.23621, 52.34235], [5.23508, 52.34005]]]]}}, {"type": "Feature", "properties": {"code": "WK003407", "name": "De Gouwen"}, "geometry": {"type": "MultiPolygon", "coordinates": [[[[5.21542, 52.34316], [5.21035, 52.34155], [5.20831, 52.34226], [5.20515, 52.3443], [5.20468, 52.34664], [5.20934, 52.34829], [5.21731, 52.35092], [5.21977, 52.34814], [5.22104, 52.34664], [5.22116, 52.3445], [5.22115, 52.34387], [5.21542, 52.34316]]]]}}, {"type": "Feature", "properties": {"code": "WK003408", "name": "De Wierden"}, "geometry": {"type": "MultiPolygon", "coordinates": [[[[5.21026, 52.34141], [5.21036, 52.33918], [5.21241, 52.33688], [5.21456, 52.33579], [5.21349, 52.33463], [5.20477, 52.33551], [5.19518, 52.33649], [5.20015, 52.33981], [5.20021, 52.33981], [5.2053, 52.34344], [5.20502, 52.34423], [5.20515, 52.3443], [5.20831, 52.34226], [5.21035, 52.34155], [5.21026, 52.34141]]]]}}, {"type": "Feature", "properties": {"code": "WK003409", "name": "De Velden"}, "geometry": {"type": "MultiPolygon", "coordinates": [[[[5.19518, 52.33649], [5.18423, 52.33532], [5.18411, 52.33562], [5.1835, 52.33792], [5.18547, 52.34026], [5.19531, 52.34369], [5.19688, 52.34191], [5.19687, 52.3419], [5.20015, 52.33981], [5.19518, 52.33649]]]]}}, {"type": "Feature", "properties": {"code": "WK003410", "name": "Overgooi"}, "geometry": {"type": "MultiPolygon", "coordinates": [[[[5.26194, 52.33733], [5.26335, 52.33709], [5.2676, 52.33826], [5.27387, 52.33465], [5.28319, 52.33206], [5.30981, 52.32293], [5.29877, 52.31263], [5.29885, 52.31187], [5.28518, 52.31709], [5.26334, 52.32387], [5.23983, 52.32926], [5.24338, 52.3327], [5.24308, 52.33283], [5.24429, 52.33503], [5.24776, 52.34105], [5.26194, 52.33733]]]]}}, {"type": "Feature", "properties": {"code": "WK003411", "name": "De Laren"}, "geometry": {"type": "MultiPolygon", "coordinates": [[[[5.2053, 52.34344], [5.20021, 52.33981], [5.20015, 52.33981], [5.19687, 52.3419], [5.19688, 52.34191], [5.19531, 52.34369], [5.20468, 52.34664], [5.20515, 52.3443], [5.20502, 52.34423], [5.2053, 52.34344]]]]}}, {"type": "Feature", "properties": {"code": "WK003414", "name": "De Steiger"}, "geometry": {"type": "MultiPolygon", "coordinates": [[[[5.22435, 52.35329], [5.23164, 52.35198], [5.22952, 52.34935], [5.22104, 52.34664], [5.21977, 52.34814], [5.21731, 52.35092], [5.22435, 52.35329]]]]}}, {"type": "Feature", "properties": {"code": "WK003415", "name": "Stichtsekant"}, "geometry": {"type": "MultiPolygon", "coordinates": [[[[5.33293, 52.31389], [5.31716, 52.30356], [5.31599, 52.30415], [5.3139, 52.3031], [5.31341, 52.30337], [5.31545, 52.30441], [5.29885, 52.31187], [5.29877, 52.31263], [5.30981, 52.32293], [5.33293, 52.31389]]]]}}, {"type": "Feature", "properties": {"code": "WK003416", "name": "Overig Almere Haven"}, "geometry": {"type": "MultiPolygon", "coordinates": [[[[5.21994, 52.35309], [5.22165, 52.35377], [5.22435, 52.35329], [5.21731, 52.35092], [5.20934, 52.34829], [5.20468, 52.34664], [5.19531, 52.34369], [5.18547, 52.34026], [5.1835, 52.33792], [5.18411, 52.33562], [5.18423, 52.33532], [5.16686, 52.33184], [5.15748, 52.32924], [5.15272, 52.3291], [5.15127, 52.32822], [5.14866, 52.32842], [5.14554, 52.32631], [5.14476, 52.32402], [5.14093, 52.32607], [5.16208, 52.33631], [5.17078, 52.33964], [5.17546, 52.34064], [5.17709, 52.34254], [5.1897, 52.34734], [5.20171, 52.3515], [5.2029, 52.35091], [5.21262, 52.35383], [5.21994, 52.35309]]], [[[5.26239, 52.34434], [5.2676, 52.33826], [5.26335, 52.33709], [5.26194, 52.33733], [5.24776, 52.34105], [5.24466, 52.34241], [5.23972, 52.34481], [5.2359, 52.34908], [5.23164, 52.35198], [5.232, 52.35251], [5.244, 52.35218], [5.25798, 52.35342], [5.26239, 52.34434]]]]}}, {"type": "Feature", "properties": {"code": "WK003417", "name": "Centrum Almere Stad"}, "geometry": {"type": "MultiPolygon", "coordinates": [[[[5.21714, 52.37747], [5.21721, 52.37746], [5.22036, 52.37791], [5.22058, 52.37744], [5.22088, 52.37682], [5.22089, 52.37681], [5.221, 52.37658], [5.22177, 52.37666], [5.22203, 52.37661], [5.22223, 52.37657], [5.22237, 52.37625], [5.22258, 52.37572], [5.22258, 52.37571], [5.22258, 52.37571], [5.2226, 52.37568], [5.22531, 52.37276], [5.22603, 52.37108], [5.22661, 52.36878], [5.22795, 52.36681], [5.22302, 52.36607], [5.21897, 52.36545], [5.21358, 52.36536], [5.21305, 52.36629], [5.21477, 52.36782], [5.21416, 52.36968], [5.21289, 52.37002], [5.21236, 52.37134], [5.21567, 52.37214], [5.21406, 52.37441], [5.21405, 52.37442], [5.21405, 52.37442], [5.21261, 52.37625], [5.21412, 52.37842], [5.21416, 52.37848], [5.21535, 52.37808], [5.21714, 52.37747]]]]}}, {"type": "Feature", "properties": {"code": "WK003418", "name": "Filmwijk"}, "geometry": {"type": "MultiPolygon", "coordinates": [[[[5.24807, 52.36611], [5.25186, 52.36198], [5.25371, 52.3601], [5.2537, 52.36009], [5.24286, 52.35614], [5.2401, 52.35804], [5.23572, 52.36134], [5.23623, 52.36212], [5.23363, 52.36196], [5.23037, 52.36311], [5.22795, 52.36681], [5.22661, 52.36878], [5.22603, 52.37108], [5.22531, 52.37276], [5.2226, 52.37568], [5.22258, 52.37571], [5.22258, 52.37571], [5.23083, 52.37628], [5.23462, 52.37624], [5.23463, 52.37622], [5.2358, 52.37434], [5.23681, 52.37271], [5.23879, 52.37066], [5.23892, 52.37054], [5.24195, 52.36797], [5.24766, 52.36647], [5.2475, 52.36635], [5.24807, 52.36611]]]]}}, {"type": "Feature", "properties": {"code": "WK003419", "name": "Danswijk"}, "geometry": {"type": "MultiPolygon", "coordinates": [[[[5.25801, 52.3615], [5.25371, 52.3601], [5.25186, 52.36198], [5.24807, 52.36611], [5.25293, 52.36775], [5.25307, 52.36788], [5.25967, 52.36968], [5.26379, 52.36555], [5.26551, 52.3639], [5.25801, 52.3615]]]]}}, {"type": "Feature", "properties": {"code": "WK003420", "name": "Parkwijk"}, "geometry": {"type": "MultiPolygon", "coordinates": [[[[5.25293, 52.36775], [5.24807, 52.36611], [5.2475, 52.36635], [5.24766, 52.36647], [5.24195, 52.36797], [5.23892, 52.37054], [5.23879, 52.37066], [5.23681, 52.37271], [5.2358, 52.37434], [5.23463, 52.37622], [5.24483, 52.37657], [5.25165, 52.37788], [5.25575, 52.37408], [5.25657, 52.3735], [5.25967, 52.36968], [5.25307, 52.36788], [5.25293, 52.36775]]]]}}, {"type": "Feature", "properties": {"code": "WK003421", "name": "Verzetswijk"}, "geometry": {"type": "MultiPolygon", "coordinates": [[[[5.24483, 52.37657], [5.23463, 52.37622], [5.23462, 52.37624], [5.23083, 52.37628], [5.23083, 52.37676], [5.22942, 52.38086], [5.22969, 52.38102], [5.24296, 52.38686], [5.24531, 52.38445], [5.24796, 52.38174], [5.25191, 52.37795], [5.25165, 52.37788], [5.24483, 52.37657]]]]}}, {"type": "Feature", "properties": {"code": "WK003422", "name": "Waterwijk"}, "geometry": {"type": "MultiPolygon", "coordinates": [[[[5.22942, 52.38086], [5.2236, 52.37957], [5.21854, 52.38168], [5.21972, 52.38377], [5.21938, 52.38398], [5.22177, 52.3883], [5.2167, 52.38987], [5.22814, 52.39314], [5.23422, 52.39494], [5.23483, 52.39512], [5.23647, 52.39351], [5.23899, 52.39089], [5.24296, 52.38686], [5.22969, 52.38102], [5.22942, 52.38086]]]]}}, {"type": "Feature", "properties": {"code": "WK003423", "name": "Tussen de Vaarten Noord"}, "geometry": {"type": "MultiPolygon", "coordinates": [[[[5.25643, 52.37928], [5.25191, 52.37795], [5.24796, 52.38174], [5.24531, 52.38445], [5.24296, 52.38686], [5.23899, 52.39089], [5.23647, 52.39351], [5.23483, 52.39512], [5.24196, 52.39747], [5.2451, 52.39787], [5.25033, 52.39363], [5.25348, 52.39091], [5.25619, 52.38856], [5.2591, 52.38604], [5.26332, 52.3824], [5.26281, 52.38212], [5.25643, 52.37928]]]]}}, {"type": "Feature", "properties": {"code": "WK003424", "name": "Tussen de Vaarten Zuid"}, "geometry": {"type": "MultiPolygon", "coordinates": [[[[5.27615, 52.3773], [5.28953, 52.37412], [5.29193, 52.37328], [5.29055, 52.37172], [5.27583, 52.36257], [5.27877, 52.36899], [5.27824, 52.36963], [5.27881, 52.37321], [5.27528, 52.37612], [5.2739, 52.37463], [5.27124, 52.37368], [5.2751, 52.36878], [5.27071, 52.36736], [5.2706, 52.36733], [5.26379, 52.36555], [5.25967, 52.36968], [5.25657, 52.3735], [5.25575, 52.37408], [5.25165, 52.37788], [5.25191, 52.37795], [5.25643, 52.37928], [5.26281, 52.38212], [5.26575, 52.38039], [5.27128, 52.37871], [5.27615, 52.3773]]]]}}, {"type": "Feature", "properties": {"code": "WK003425", "name": "Staatsliedenwijk"}, "geometry": {"type": "MultiPolygon", "coordinates": [[[[5.22192, 52.37934], [5.22145, 52.37854], [5.22215, 52.37678], [5.22223, 52.37657], [5.22203, 52.37661], [5.22177, 52.37666], [5.221, 52.37658], [5.22089, 52.37681], [5.22088, 52.37682], [5.22058, 52.37744], [5.22036, 52.37791], [5.21721, 52.37746], [5.21714, 52.37747], [5.21535, 52.37808], [5.21416, 52.37848], [5.21412, 52.37842], [5.21261, 52.37625], [5.21405, 52.37442], [5.21405, 52.37442], [5.21406, 52.37441], [5.20714, 52.37336], [5.20636, 52.37552], [5.20829, 52.37582], [5.20883, 52.37673], [5.20892, 52.37687], [5.20899, 52.377], [5.20921, 52.37834], [5.2116, 52.37875], [5.21244, 52.37996], [5.21712, 52.37912], [5.21854, 52.38168], [5.2236, 52.37957], [5.22351, 52.37955], [5.22192, 52.37934]]]]}}, {"type": "Feature", "properties": {"code": "WK003426", "name": "Kruidenwijk"}, "geometry": {"type": "MultiPolygon", "coordinates": [[[[5.20704, 52.37334], [5.20255, 52.37229], [5.20239, 52.37232], [5.20172, 52.37306], [5.19373, 52.3753], [5.19129, 52.37763], [5.18386, 52.38215], [5.18854, 52.38461], [5.19587, 52.3874], [5.20071, 52.38792], [5.20157, 52.38799], [5.20349, 52.38814], [5.20552, 52.38831], [5.21292, 52.38908], [5.21165, 52.38564], [5.21272, 52.38298], [5.21226, 52.38], [5.21244, 52.37996], [5.2116, 52.37875], [5.20921, 52.37834], [5.20899, 52.377], [5.20892, 52.37687], [5.20883, 52.37673], [5.20829, 52.37582], [5.20636, 52.37552], [5.20714, 52.37336], [5.20704, 52.37334]]]]}}, {"type": "Feature", "properties": {"code": "WK003427", "name": "Stedenwijk"}, "geometry": {"type": "MultiPolygon", "coordinates": [[[[5.21358, 52.36536], [5.21135, 52.36132], [5.21368, 52.35872], [5.21332, 52.35808], [5.21081, 52.35882], [5.208, 52.35802], [5.20149, 52.35636], [5.19622, 52.35614], [5.19218, 52.35716], [5.19421, 52.36076], [5.19604, 52.36145], [5.19621, 52.3615], [5.19721, 52.36179], [5.19779, 52.36196], [5.19819, 52.36208], [5.19992, 52.36259], [5.20002, 52.36262], [5.2001, 52.36266], [5.20085, 52.36307], [5.20155, 52.36346], [5.20155, 52.36346], [5.20161, 52.36344], [5.20161, 52.36344], [5.20191, 52.36332], [5.20193, 52.36336], [5.20234, 52.36417], [5.20344, 52.36634], [5.20409, 52.36984], [5.20424, 52.36988], [5.20255, 52.37229], [5.20704, 52.37334], [5.20714, 52.37336], [5.21406, 52.37441], [5.21567, 52.37214], [5.21236, 52.37134], [5.21289, 52.37002], [5.21416, 52.36968], [5.21477, 52.36782], [5.21305, 52.36629], [5.21358, 52.36536]]]]}}, {"type": "Feature", "properties": {"code": "WK003428", "name": "Muziekwijk Noord"}, "geometry": {"type": "MultiPolygon", "coordinates": [[[[5.18702, 52.36594], [5.18326, 52.36418], [5.17959, 52.36563], [5.1733, 52.36532], [5.17002, 52.36536], [5.17007, 52.36583], [5.17107, 52.37001], [5.1727, 52.37457], [5.17516, 52.37706], [5.17523, 52.37711], [5.18254, 52.38262], [5.18386, 52.38215], [5.19129, 52.37763], [5.19373, 52.3753], [5.20172, 52.37306], [5.20239, 52.37232], [5.19619, 52.37019], [5.19089, 52.36773], [5.18702, 52.36594]]]]}}, {"type": "Feature", "properties": {"code": "WK003429", "name": "Muziekwijk Zuid"}, "geometry": {"type": "MultiPolygon", "coordinates": [[[[5.20234, 52.36417], [5.20193, 52.36336], [5.20191, 52.36332], [5.20161, 52.36344], [5.20161, 52.36344], [5.20155, 52.36346], [5.20155, 52.36346], [5.20085, 52.36307], [5.2001, 52.36266], [5.20002, 52.36262], [5.19992, 52.36259], [5.19819, 52.36208], [5.19779, 52.36196], [5.19721, 52.36179], [5.19621, 52.3615], [5.19604, 52.36145], [5.19421, 52.36076], [5.19115, 52.3614], [5.18838, 52.36189], [5.18837, 52.36188], [5.18828, 52.36191], [5.18778, 52.36204], [5.18605, 52.36251], [5.18456, 52.36292], [5.18446, 52.36294], [5.18328, 52.36413], [5.18328, 52.36413], [5.18326, 52.36418], [5.18702, 52.36594], [5.19089, 52.36773], [5.19619, 52.37019], [5.20239, 52.37232], [5.20255, 52.37229], [5.20424, 52.36988], [5.20409, 52.36984], [5.20344, 52.36634], [5.20234, 52.36417]]]]}}, {"type": "Feature", "properties": {"code": "WK003430", "name": "Literatuurwijk"}, "geometry": {"type": "MultiPolygon", "coordinates": [[[[5.18828, 52.36191], [5.18837, 52.36188], [5.18838, 52.36189], [5.19115, 52.3614], [5.19421, 52.36076], [5.19218, 52.35716], [5.19212, 52.35497], [5.18528, 52.35215], [5.18035, 52.35049], [5.17373, 52.34986], [5.17362, 52.35276], [5.1722, 52.35639], [5.17123, 52.35843], [5.17914, 52.36226], [5.17928, 52.36232], [5.17941, 52.36238], [5.18328, 52.36413], [5.18328, 52.36413], [5.18446, 52.36294], [5.18456, 52.36292], [5.18605, 52.36251], [5.18778, 52.36204], [5.18828, 52.36191]]]]}}, {"type": "Feature", "properties": {"code": "WK003431", "name": "Noorderplassen"}, "geometry": {"type": "MultiPolygon", "coordinates": [[[[5.22804, 52.4014], [5.23422, 52.39494], [5.22814, 52.39314], [5.2167, 52.38987], [5.21292, 52.38908], [5.20552, 52.38831], [5.20349, 52.38814], [5.20157, 52.38799], [5.20071, 52.38792], [5.19587, 52.3874], [5.18854, 52.38461], [5.18386, 52.38215], [5.18254, 52.38262], [5.17523, 52.37711], [5.1761, 52.37816], [5.16839, 52.3862], [5.16212, 52.39367], [5.15838, 52.39489], [5.16192, 52.39945], [5.16156, 52.39979], [5.16964, 52.40277], [5.17505, 52.40201], [5.17736, 52.39944], [5.18198, 52.39432], [5.18327, 52.39404], [5.19213, 52.39712], [5.19166, 52.39865], [5.1983, 52.40106], [5.20825, 52.39958], [5.22376, 52.40471], [5.22708, 52.40489], [5.22804, 52.4014]]]]}}, {"type": "Feature", "properties": {"code": "WK003432", "name": "Hortus"}, "geometry": {"type": "MultiPolygon", "coordinates": [[[[5.22462, 52.36206], [5.22919, 52.36123], [5.23508, 52.35888], [5.23462, 52.35563], [5.232, 52.35251], [5.23164, 52.35198], [5.22435, 52.35329], [5.22165, 52.35377], [5.22203, 52.35716], [5.22062, 52.35744], [5.22251, 52.36135], [5.22462, 52.36206]]]]}}, {"type": "Feature", "properties": {"code": "WK003434", "name": "Randstad"}, "geometry": {"type": "MultiPolygon", "coordinates": [[[[5.23083, 52.37628], [5.22258, 52.37571], [5.22258, 52.37572], [5.22237, 52.37625], [5.22223, 52.37657], [5.22215, 52.37678], [5.22145, 52.37854], [5.22192, 52.37934], [5.22351, 52.37955], [5.2236, 52.37957], [5.22942, 52.38086], [5.23083, 52.37676], [5.23083, 52.37628]]]]}}, {"type": "Feature", "properties": {"code": "WK003435", "name": "Markerkant"}, "geometry": {"type": "MultiPolygon", "coordinates": [[[[5.21854, 52.38168], [5.21712, 52.37912], [5.21244, 52.37996], [5.21226, 52.38], [5.21272, 52.38298], [5.21165, 52.38564], [5.21292, 52.38908], [5.2167, 52.38987], [5.22177, 52.3883], [5.21938, 52.38398], [5.21972, 52.38377], [5.21854, 52.38168]]]]}}, {"type": "Feature", "properties": {"code": "WK003436", "name": "Hollandsekant"}, "geometry": {"type": "MultiPolygon", "coordinates": [[[[5.18326, 52.36418], [5.18328, 52.36413], [5.17941, 52.36238], [5.17928, 52.36232], [5.17914, 52.36226], [5.17123, 52.35843], [5.16977, 52.36169], [5.17002, 52.36536], [5.1733, 52.36532], [5.17959, 52.36563], [5.18326, 52.36418]]]]}}, {"type": "Feature", "properties": {"code": "WK003437", "name": "Gooisekant"}, "geometry": {"type": "MultiPolygon", "coordinates": [[[[5.19218, 52.35716], [5.19622, 52.35614], [5.20149, 52.35636], [5.19998, 52.35375], [5.20171, 52.3515], [5.1897, 52.34734], [5.17709, 52.34254], [5.17373, 52.34614], [5.17373, 52.34986], [5.18035, 52.35049], [5.18528, 52.35215], [5.19212, 52.35497], [5.19218, 52.35716]]]]}}, {"type": "Feature", "properties": {"code": "WK003438", "name": "Veluwsekant"}, "geometry": {"type": "MultiPolygon", "coordinates": [[[[5.25798, 52.35342], [5.244, 52.35218], [5.24255, 52.35405], [5.24344, 52.35522], [5.24286, 52.35614], [5.2537, 52.36009], [5.25371, 52.3601], [5.25801, 52.3615], [5.26551, 52.3639], [5.26932, 52.3601], [5.26958, 52.35988], [5.25803, 52.35438], [5.25798, 52.35342]]]]}}, {"type": "Feature", "properties": {"code": "WK003439", "name": "Sallandsekant"}, "geometry": {"type": "MultiPolygon", "coordinates": [[[[5.27335, 52.36147], [5.26932, 52.3601], [5.26551, 52.3639], [5.26379, 52.36555], [5.2706, 52.36733], [5.27071, 52.36736], [5.2751, 52.36878], [5.27124, 52.37368], [5.2739, 52.37463], [5.27528, 52.37612], [5.27881, 52.37321], [5.27824, 52.36963], [5.27877, 52.36899], [5.27583, 52.36257], [5.27333, 52.36151], [5.27335, 52.36147]]]]}}, {"type": "Feature", "properties": {"code": "WK003440", "name": "Overig Almere Stad"}, "geometry": {"type": "MultiPolygon", "coordinates": [[[[5.23363, 52.36196], [5.23623, 52.36212], [5.23572, 52.36134], [5.2401, 52.35804], [5.24286, 52.35614], [5.24344, 52.35522], [5.24255, 52.35405], [5.244, 52.35218], [5.232, 52.35251], [5.23462, 52.35563], [5.23508, 52.35888], [5.22919, 52.36123], [5.22462, 52.36206], [5.22251, 52.36135], [5.22062, 52.35744], [5.22203, 52.35716], [5.22165, 52.35377], [5.21994, 52.35309], [5.21262, 52.35383], [5.2029, 52.35091], [5.20171, 52.3515], [5.19998, 52.35375], [5.20149, 52.35636], [5.208, 52.35802], [5.21081, 52.35882], [5.21332, 52.35808], [5.21368, 52.35872], [5.21135, 52.36132], [5.21358, 52.36536], [5.21897, 52.36545], [5.22302, 52.36607], [5.22795, 52.36681], [5.23037, 52.36311], [5.23363, 52.36196]]], [[[5.2298, 52.41416], [5.23474, 52.40872], [5.24594, 52.39813], [5.2451, 52.39787], [5.24196, 52.39747], [5.23483, 52.39512], [5.23422, 52.39494], [5.22804, 52.4014], [5.22708, 52.40489], [5.22376, 52.40471], [5.20825, 52.39958], [5.1983, 52.40106], [5.19166, 52.39865], [5.19213, 52.39712], [5.18327, 52.39404], [5.18198, 52.39432], [5.17736, 52.39944], [5.17505, 52.40201], [5.16964, 52.40277], [5.20598, 52.41605], [5.21767, 52.41604], [5.22522, 52.41744], [5.2298, 52.41416]]]]}}, {"type": "Feature", "properties": {"code": "WK003441", "name": "Centrum Almere Buiten"}, "geometry": {"type": "MultiPolygon", "coordinates": [[[[5.27971, 52.39248], [5.27718, 52.39148], [5.27555, 52.39237], [5.2755, 52.39226], [5.27238, 52.39223], [5.26872, 52.39392], [5.26868, 52.39398], [5.2706, 52.3948], [5.27404, 52.39645], [5.27989, 52.39881], [5.28254, 52.39653], [5.28264, 52.39644], [5.28466, 52.39469], [5.27971, 52.39248]]]]}}, {"type": "Feature", "properties": {"code": "WK003442", "name": "Oostvaardersbuurt"}, "geometry": {"type": "MultiPolygon", "coordinates": [[[[5.29091, 52.41331], [5.29316, 52.41128], [5.29753, 52.41259], [5.30082, 52.41032], [5.30791, 52.40598], [5.30506, 52.40518], [5.30046, 52.40345], [5.3005, 52.40291], [5.29349, 52.40054], [5.29408, 52.40217], [5.28922, 52.40639], [5.28619, 52.40829], [5.28162, 52.41061], [5.28087, 52.41097], [5.28344, 52.41174], [5.29091, 52.41331]]]]}}, {"type": "Feature", "properties": {"code": "WK003443", "name": "Seizoenenbuurt"}, "geometry": {"type": "MultiPolygon", "coordinates": [[[[5.28559, 52.39758], [5.28254, 52.39653], [5.27989, 52.39881], [5.27382, 52.40406], [5.26921, 52.4077], [5.28087, 52.41097], [5.28162, 52.41061], [5.28619, 52.40829], [5.28922, 52.40639], [5.29408, 52.40217], [5.29349, 52.40054], [5.29042, 52.39931], [5.28559, 52.39758]]]]}}, {"type": "Feature", "properties": {"code": "WK003444", "name": "Molenbuurt"}, "geometry": {"type": "MultiPolygon", "coordinates": [[[[5.2706, 52.3948], [5.26868, 52.39398], [5.26628, 52.39658], [5.26292, 52.39934], [5.26294, 52.39935], [5.26452, 52.40004], [5.26798, 52.4017], [5.27382, 52.40406], [5.27989, 52.39881], [5.27404, 52.39645], [5.2706, 52.3948]]]]}}, {"type": "Feature", "properties": {"code": "WK003445", "name": "Bouwmeesterbuurt"}, "geometry": {"type": "MultiPolygon", "coordinates": [[[[5.26216, 52.39094], [5.25619, 52.38856], [5.25348, 52.39091], [5.25033, 52.39363], [5.2451, 52.39787], [5.24594, 52.39813], [5.25584, 52.4012], [5.25842, 52.40239], [5.26294, 52.39935], [5.26292, 52.39934], [5.26628, 52.39658], [5.26868, 52.39398], [5.26872, 52.39392], [5.26216, 52.39094]]]]}}, {"type": "Feature", "properties": {"code": "WK003446", "name": "Landgoederenbuurt"}, "geometry": {"type": "MultiPolygon", "coordinates": [[[[5.26872, 52.39392], [5.27238, 52.39223], [5.2755, 52.39226], [5.26861, 52.38596], [5.26383, 52.3827], [5.26332, 52.3824], [5.2591, 52.38604], [5.25619, 52.38856], [5.26216, 52.39094], [5.26872, 52.39392]]]]}}, {"type": "Feature", "properties": {"code": "WK003447", "name": "Faunabuurt"}, "geometry": {"type": "MultiPolygon", "coordinates": [[[[5.27965, 52.38314], [5.27252, 52.38095], [5.26782, 52.38106], [5.26383, 52.3827], [5.26861, 52.38596], [5.2755, 52.39226], [5.27555, 52.39237], [5.27718, 52.39148], [5.27496, 52.38897], [5.27803, 52.38646], [5.27802, 52.38645], [5.28097, 52.38356], [5.27965, 52.38314]]]]}}, {"type": "Feature", "properties": {"code": "WK003448", "name": "Bloemenbuurt"}, "geometry": {"type": "MultiPolygon", "coordinates": [[[[5.2872, 52.38569], [5.28097, 52.38356], [5.27802, 52.38645], [5.27803, 52.38646], [5.27496, 52.38897], [5.27718, 52.39148], [5.27971, 52.39248], [5.28466, 52.39469], [5.28858, 52.391], [5.29183, 52.38846], [5.29247, 52.38749], [5.2872, 52.38569]]]]}}, {"type": "Feature", "properties": {"code": "WK003449", "name": "Regenboogbuurt"}, "geometry": {"type": "MultiPolygon", "coordinates": [[[[5.29947, 52.38981], [5.29525, 52.38838], [5.29183, 52.38846], [5.28858, 52.391], [5.28466, 52.39469], [5.28737, 52.39579], [5.29194, 52.39776], [5.29707, 52.39994], [5.30083, 52.39648], [5.30238, 52.3954], [5.30241, 52.39538], [5.30262, 52.39523], [5.30281, 52.39514], [5.30355, 52.39482], [5.30381, 52.39471], [5.30404, 52.3946], [5.30773, 52.39258], [5.29947, 52.38981]]]]}}, {"type": "Feature", "properties": {"code": "WK003450", "name": "Indischebuurt"}, "geometry": {"type": "MultiPolygon", "coordinates": [[[[5.28737, 52.39579], [5.28466, 52.39469], [5.28264, 52.39644], [5.28254, 52.39653], [5.28559, 52.39758], [5.29042, 52.39931], [5.29349, 52.40054], [5.3005, 52.40291], [5.30046, 52.40345], [5.30506, 52.40518], [5.30791, 52.40598], [5.31732, 52.41005], [5.32042, 52.40921], [5.31829, 52.40749], [5.31304, 52.40701], [5.30629, 52.40411], [5.30195, 52.40209], [5.29707, 52.39994], [5.29194, 52.39776], [5.28737, 52.39579]]]]}}, {"type": "Feature", "properties": {"code": "WK003451", "name": "Eilandenbuurt"}, "geometry": {"type": "MultiPolygon", "coordinates": [[[[5.30773, 52.39258], [5.30773, 52.39258], [5.30404, 52.3946], [5.30381, 52.39471], [5.30355, 52.39482], [5.30281, 52.39514], [5.30262, 52.39523], [5.30241, 52.39538], [5.30238, 52.3954], [5.30083, 52.39648], [5.29707, 52.39994], [5.30195, 52.40209], [5.30629, 52.40411], [5.31038, 52.40058], [5.31051, 52.40047], [5.3146, 52.39691], [5.31621, 52.3955], [5.30923, 52.39309], [5.30773, 52.39258]]]]}}, {"type": "Feature", "properties": {"code": "WK003452", "name": "Stripheldenbuurt"}, "geometry": {"type": "MultiPolygon", "coordinates": [[[[5.32867, 52.39961], [5.31621, 52.3955], [5.3146, 52.39691], [5.31051, 52.40047], [5.31038, 52.40058], [5.30629, 52.40411], [5.31304, 52.40701], [5.31829, 52.40749], [5.32042, 52.40921], [5.32631, 52.40736], [5.33878, 52.40312], [5.32867, 52.39961]]]]}}, {"type": "Feature", "properties": {"code": "WK003453", "name": "Sieradenbuurt"}, "geometry": {"type": "MultiPolygon", "coordinates": [[[[5.30615, 52.41345], [5.31732, 52.41005], [5.30791, 52.40598], [5.30082, 52.41032], [5.29753, 52.41259], [5.29316, 52.41128], [5.29091, 52.41331], [5.29872, 52.41456], [5.30615, 52.41345]]]]}}, {"type": "Feature", "properties": {"code": "WK003456", "name": "Poldervlak"}, "geometry": {"type": "MultiPolygon", "coordinates": [[[[5.26452, 52.40004], [5.26294, 52.39935], [5.25842, 52.40239], [5.25844, 52.40247], [5.26347, 52.40507], [5.26921, 52.4077], [5.27382, 52.40406], [5.26798, 52.4017], [5.26452, 52.40004]]]]}}, {"type": "Feature", "properties": {"code": "WK003457", "name": "De Vaart"}, "geometry": {"type": "MultiPolygon", "coordinates": [[[[5.25584, 52.4012], [5.24594, 52.39813], [5.23474, 52.40872], [5.24556, 52.41344], [5.23745, 52.4203], [5.23644, 52.42271], [5.23788, 52.42424], [5.24711, 52.42762], [5.26921, 52.4077], [5.26347, 52.40507], [5.25844, 52.40247], [5.25842, 52.40239], [5.25584, 52.4012]]]]}}, {"type": "Feature", "properties": {"code": "WK003458", "name": "Buitenvaart"}, "geometry": {"type": "MultiPolygon", "coordinates": [[[[5.25802, 52.43205], [5.26754, 52.42213], [5.27068, 52.42239], [5.27419, 52.42004], [5.27966, 52.41805], [5.28237, 52.41591], [5.28356, 52.41493], [5.28248, 52.41291], [5.28344, 52.41174], [5.28087, 52.41097], [5.26921, 52.4077], [5.24711, 52.42762], [5.25802, 52.43205]]]]}}, {"type": "Feature", "properties": {"code": "WK003459", "name": "Overig Almere Buiten"}, "geometry": {"type": "MultiPolygon", "coordinates": [[[[5.25842, 52.43543], [5.26798, 52.42737], [5.27581, 52.42332], [5.31886, 52.41071], [5.33484, 52.40573], [5.34371, 52.40124], [5.34951, 52.40147], [5.35077, 52.40021], [5.34817, 52.39703], [5.34637, 52.39611], [5.33935, 52.39581], [5.33237, 52.39325], [5.33293, 52.39277], [5.31352, 52.38574], [5.31304, 52.38625], [5.30124, 52.38199], [5.29669, 52.37992], [5.28953, 52.37412], [5.27615, 52.3773], [5.27128, 52.37871], [5.26575, 52.38039], [5.26281, 52.38212], [5.26332, 52.3824], [5.26383, 52.3827], [5.26782, 52.38106], [5.27252, 52.38095], [5.27965, 52.38314], [5.28097, 52.38356], [5.2872, 52.38569], [5.29247, 52.38749], [5.29183, 52.38846], [5.29525, 52.38838], [5.29947, 52.38981], [5.30773, 52.39258], [5.30773, 52.39258], [5.30923, 52.39309], [5.31621, 52.3955], [5.32867, 52.39961], [5.33878, 52.40312], [5.32631, 52.40736], [5.32042, 52.40921], [5.31732, 52.41005], [5.30615, 52.41345], [5.29872, 52.41456], [5.29091, 52.41331], [5.28344, 52.41174], [5.28248, 52.41291], [5.28356, 52.41493], [5.28237, 52.41591], [5.27966, 52.41805], [5.27419, 52.42004], [5.27068, 52.42239], [5.26754, 52.42213], [5.25802, 52.43205], [5.24711, 52.42762], [5.23788, 52.42424], [5.23644, 52.42271], [5.23745, 52.4203], [5.24556, 52.41344], [5.23474, 52.40872], [5.2298, 52.41416], [5.22522, 52.41744], [5.21767, 52.41604], [5.20598, 52.41605], [5.22713, 52.42363], [5.22714, 52.42336], [5.20825, 52.41637], [5.21697, 52.41643], [5.22051, 52.41772], [5.22011, 52.41836], [5.22211, 52.4179], [5.22268, 52.41837], [5.22397, 52.4178], [5.22459, 52.41806], [5.2245, 52.41911], [5.22845, 52.42066], [5.23177, 52.42429], [5.23325, 52.42562], [5.22987, 52.42469], [5.25842, 52.43543]]]]}}, {"type": "Feature", "properties": {"code": "WK003460", "name": "Europakwartier Oost"}, "geometry": {"type": "MultiPolygon", "coordinates": [[[[5.15606, 52.34928], [5.16344, 52.34607], [5.15955, 52.34242], [5.15261, 52.3441], [5.15383, 52.34638], [5.15606, 52.34928]]]]}}, {"type": "Feature", "properties": {"code": "WK003461", "name": "Europakwartier West"}, "geometry": {"type": "MultiPolygon", "coordinates": [[[[5.14149, 52.35047], [5.1527, 52.3492], [5.15609, 52.34932], [5.15606, 52.34928], [5.15383, 52.34638], [5.15261, 52.3441], [5.15258, 52.34403], [5.14799, 52.34383], [5.14569, 52.3433], [5.14546, 52.34335], [5.13928, 52.35066], [5.14149, 52.35047]]]]}}, {"type": "Feature", "properties": {"code": "WK003462", "name": "Columbuskwartier"}, "geometry": {"type": "MultiPolygon", "coordinates": [[[[5.15609, 52.34932], [5.1527, 52.3492], [5.14149, 52.35047], [5.13928, 52.35066], [5.13707, 52.35287], [5.13506, 52.35485], [5.14313, 52.35777], [5.1456, 52.35484], [5.14869, 52.35145], [5.15736, 52.35061], [5.15609, 52.34932]]]]}}, {"type": "Feature", "properties": {"code": "WK003463", "name": "Homeruskwartier"}, "geometry": {"type": "MultiPolygon", "coordinates": [[[[5.15951, 52.3524], [5.15736, 52.35061], [5.14869, 52.35145], [5.1456, 52.35484], [5.14313, 52.35777], [5.15451, 52.36139], [5.15703, 52.36239], [5.1636, 52.35515], [5.15951, 52.3524]]]]}}, {"type": "Feature", "properties": {"code": "WK003464", "name": "Olympiakwartier Oost"}, "geometry": {"type": "MultiPolygon", "coordinates": [[[[5.15955, 52.34242], [5.16178, 52.3413], [5.15491, 52.33783], [5.15284, 52.33559], [5.15065, 52.33445], [5.15005, 52.3354], [5.15258, 52.34403], [5.15261, 52.3441], [5.15955, 52.34242]]]]}}, {"type": "Feature", "properties": {"code": "WK003465", "name": "Olympiakwartier West"}, "geometry": {"type": "MultiPolygon", "coordinates": [[[[5.15258, 52.34403], [5.15005, 52.3354], [5.14939, 52.3381], [5.14569, 52.3433], [5.14799, 52.34383], [5.15258, 52.34403]]]]}}, {"type": "Feature", "properties": {"code": "WK003466", "name": "Duin"}, "geometry": {"type": "MultiPolygon", "coordinates": [[[[5.14569, 52.3433], [5.14939, 52.3381], [5.15005, 52.3354], [5.15065, 52.33445], [5.14582, 52.32973], [5.13844, 52.32581], [5.13832, 52.3259], [5.14005, 52.32678], [5.13696, 52.32934], [5.13724, 52.32944], [5.13933, 52.32803], [5.14141, 52.3282], [5.14361, 52.32964], [5.14487, 52.33141], [5.14049, 52.33407], [5.13599, 52.33759], [5.13417, 52.33789], [5.13445, 52.33807], [5.13476, 52.33824], [5.13515, 52.33866], [5.13593, 52.33873], [5.13607, 52.33894], [5.13553, 52.33922], [5.13468, 52.33861], [5.13265, 52.33793], [5.13287, 52.33774], [5.1328, 52.33769], [5.13242, 52.33774], [5.13212, 52.33747], [5.13216, 52.3371], [5.13094, 52.3377], [5.13099, 52.33823], [5.13215, 52.33811], [5.13462, 52.34106], [5.13457, 52.34138], [5.13175, 52.34246], [5.12971, 52.33989], [5.13117, 52.34201], [5.13098, 52.34346], [5.13235, 52.34374], [5.13392, 52.34399], [5.13363, 52.3442], [5.1342, 52.34474], [5.13346, 52.34527], [5.13347, 52.34599], [5.13394, 52.3465], [5.13314, 52.34713], [5.1342, 52.34796], [5.13282, 52.35708], [5.13356, 52.35703], [5.13506, 52.35485], [5.13707, 52.35287], [5.13928, 52.35066], [5.14546, 52.34335], [5.14569, 52.3433]]]]}}, {"type": "Feature", "properties": {"code": "WK003471", "name": "Hogekant"}, "geometry": {"type": "MultiPolygon", "coordinates": [[[[5.1722, 52.35639], [5.17362, 52.35276], [5.17373, 52.34986], [5.16866, 52.34911], [5.16408, 52.3548], [5.17123, 52.35843], [5.1722, 52.35639]]]]}}, {"type": "Feature", "properties": {"code": "WK003472", "name": "Middenkant"}, "geometry": {"type": "MultiPolygon", "coordinates": [[[[5.16408, 52.3548], [5.16866, 52.34911], [5.16827, 52.34629], [5.16344, 52.34607], [5.15606, 52.34928], [5.15609, 52.34932], [5.15736, 52.35061], [5.15951, 52.3524], [5.1636, 52.35515], [5.16408, 52.3548]]]]}}, {"type": "Feature", "properties": {"code": "WK003473", "name": "Lagekant"}, "geometry": {"type": "MultiPolygon", "coordinates": [[[[5.16827, 52.34629], [5.16782, 52.34439], [5.16178, 52.3413], [5.15955, 52.34242], [5.16344, 52.34607], [5.16827, 52.34629]]]]}}, {"type": "Feature", "properties": {"code": "WK003474", "name": "Overig Almere Poort"}, "geometry": {"type": "MultiPolygon", "coordinates": [[[[5.13921, 52.32522], [5.13882, 52.32552], [5.13844, 52.32581], [5.14582, 52.32973], [5.15065, 52.33445], [5.15284, 52.33559], [5.15491, 52.33783], [5.16178, 52.3413], [5.16782, 52.34439], [5.16827, 52.34629], [5.16866, 52.34911], [5.17373, 52.34986], [5.17373, 52.34614], [5.17709, 52.34254], [5.17546, 52.34064], [5.17078, 52.33964], [5.16208, 52.33631], [5.14093, 52.32607], [5.13921, 52.32522]]], [[[5.16677, 52.3656], [5.17007, 52.36583], [5.17002, 52.36536], [5.16977, 52.36169], [5.17123, 52.35843], [5.16408, 52.3548], [5.1636, 52.35515], [5.15703, 52.36239], [5.15451, 52.36139], [5.14313, 52.35777], [5.13506, 52.35485], [5.13356, 52.35703], [5.13371, 52.35769], [5.15443, 52.36468], [5.16118, 52.36641], [5.16677, 52.3656]]]]}}, {"type": "Feature", "properties": {"code": "WK003475", "name": "Vogelhorst"}, "geometry": {"type": "MultiPolygon", "coordinates": [[[[5.30725, 52.3487], [5.31168, 52.34461], [5.31583, 52.34095], [5.30706, 52.33668], [5.30223, 52.334], [5.29825, 52.33174], [5.28873, 52.34112], [5.28735, 52.34264], [5.28786, 52.3431], [5.28097, 52.34877], [5.28192, 52.34853], [5.29962, 52.35617], [5.30725, 52.3487]]]]}}, {"type": "Feature", "properties": {"code": "WK003476", "name": "Nobelhorst"}, "geometry": {"type": "MultiPolygon", "coordinates": [[[[5.29921, 52.36825], [5.30545, 52.3615], [5.30707, 52.35976], [5.29962, 52.35617], [5.28192, 52.34853], [5.28097, 52.34877], [5.27949, 52.35019], [5.26958, 52.35988], [5.26932, 52.3601], [5.27335, 52.36147], [5.27581, 52.35954], [5.27867, 52.36038], [5.27961, 52.36082], [5.28277, 52.36185], [5.29113, 52.36572], [5.2937, 52.36783], [5.29637, 52.36663], [5.29921, 52.36825]]]]}}, {"type": "Feature", "properties": {"code": "WK003477", "name": "Oosterwold"}, "geometry": {"type": "MultiPolygon", "coordinates": [[[[5.34195, 52.32154], [5.33359, 52.31486], [5.30771, 52.32502], [5.30226, 52.32824], [5.29825, 52.33174], [5.30223, 52.334], [5.30706, 52.33668], [5.31583, 52.34095], [5.31168, 52.34461], [5.30725, 52.3487], [5.29962, 52.35617], [5.30707, 52.35976], [5.30545, 52.3615], [5.29921, 52.36825], [5.29635, 52.37156], [5.29193, 52.37328], [5.28953, 52.37412], [5.29669, 52.37992], [5.30124, 52.38199], [5.33749, 52.35037], [5.35054, 52.33904], [5.34759, 52.33616], [5.34747, 52.33108], [5.34591, 52.32671], [5.34195, 52.32154]]]]}}, {"type": "Feature", "properties": {"code": "WK003479", "name": "Twentsekant"}, "geometry": {"type": "MultiPolygon", "coordinates": [[[[5.29635, 52.37156], [5.29921, 52.36825], [5.29637, 52.36663], [5.2937, 52.36783], [5.29113, 52.36572], [5.28277, 52.36185], [5.27961, 52.36082], [5.27867, 52.36038], [5.27581, 52.35954], [5.27335, 52.36147], [5.27333, 52.36151], [5.27583, 52.36257], [5.29055, 52.37172], [5.29193, 52.37328], [5.29635, 52.37156]]]]}}, {"type": "Feature", "properties": {"code": "WK003485", "name": "Overig Almere Hout"}, "geometry": {"type": "MultiPolygon", "coordinates": [[[[5.30771, 52.32502], [5.33359, 52.31486], [5.34195, 52.32154], [5.34591, 52.32671], [5.34747, 52.33108], [5.34759, 52.33616], [5.35054, 52.33904], [5.37916, 52.31411], [5.35401, 52.30941], [5.3505, 52.30923], [5.34492, 52.30994], [5.3335, 52.31427], [5.33293, 52.31389], [5.30981, 52.32293], [5.28319, 52.33206], [5.27387, 52.33465], [5.2676, 52.33826], [5.26239, 52.34434], [5.25798, 52.35342], [5.25803, 52.35438], [5.26958, 52.35988], [5.27949, 52.35019], [5.28097, 52.34877], [5.28786, 52.3431], [5.28735, 52.34264], [5.28873, 52.34112], [5.29825, 52.33174], [5.30226, 52.32824], [5.30771, 52.32502]]]]}}, {"type": "Feature", "properties": {"code": "WK003496", "name": "Overig Almere Pampus"}, "geometry": {"type": "MultiPolygon", "coordinates": [[[[5.16212, 52.39367], [5.16839, 52.3862], [5.1761, 52.37816], [5.17523, 52.37711], [5.17516, 52.37706], [5.1727, 52.37457], [5.17107, 52.37001], [5.17007, 52.36583], [5.16677, 52.3656], [5.16118, 52.36641], [5.15443, 52.36468], [5.13371, 52.35769], [5.13356, 52.35703], [5.13282, 52.35708], [5.13124, 52.36546], [5.12266, 52.3748], [5.12275, 52.37886], [5.1243, 52.38054], [5.12875, 52.38291], [5.15676, 52.39311], [5.15838, 52.39489], [5.16212, 52.39367]]]]}}]}