{"type": "FeatureCollection", "features": [{"type": "Feature", "properties": {"code": "BU01530000", "name": "City"}, "geometry": {"type": "MultiPolygon", "coordinates": [[[[6.89931, 52.22343], [6.90011, 52.21696], [6.89999, 52.21625], [6.89703, 52.21628], [6.89605, 52.21653], [6.89641, 52.21751], [6.89086, 52.21808], [6.88803, 52.21957], [6.8873, 52.22224], [6.88748, 52.22353], [6.89205, 52.22317], [6.8992, 52.22376], [6.89931, 52.22343]]]]}}, {"type": "Feature", "properties": {"code": "BU01530001", "name": "Lasonder, Zeggelt"}, "geometry": {"type": "MultiPolygon", "coordinates": [[[[6.90026, 52.22774], [6.8992, 52.22376], [6.89205, 52.22317], [6.88997, 52.22839], [6.89638, 52.22743], [6.90026, 52.22774]]]]}}, {"type": "Feature", "properties": {"code": "BU01530002", "name": "De Laares"}, "geometry": {"type": "MultiPolygon", "coordinates": [[[[6.90874, 52.22773], [6.90956, 52.22449], [6.89931, 52.22343], [6.8992, 52.22376], [6.90026, 52.22774], [6.90391, 52.22867], [6.90874, 52.22773]]]]}}, {"type": "Feature", "properties": {"code": "BU01530003", "name": "De Bothoven"}, "geometry": {"type": "MultiPolygon", "coordinates": [[[[6.9109, 52.21688], [6.90642, 52.21642], [6.90011, 52.21696], [6.89931, 52.22343], [6.90956, 52.22449], [6.90974, 52.22336], [6.91142, 52.22312], [6.91193, 52.22229], [6.91212, 52.21893], [6.9109, 52.21688]]]]}}, {"type": "Feature", "properties": {"code": "BU01530004", "name": "Hogeland-Noord"}, "geometry": {"type": "MultiPolygon", "coordinates": [[[[6.90939, 52.21409], [6.90766, 52.21276], [6.90271, 52.21209], [6.89915, 52.21041], [6.89999, 52.21625], [6.90011, 52.21696], [6.90642, 52.21642], [6.9109, 52.21688], [6.90939, 52.21409]]]]}}, {"type": "Feature", "properties": {"code": "BU01530005", "name": "Getfert"}, "geometry": {"type": "MultiPolygon", "coordinates": [[[[6.89999, 52.21625], [6.89915, 52.21041], [6.89345, 52.20939], [6.88936, 52.21003], [6.88903, 52.21293], [6.8876, 52.21429], [6.89086, 52.21808], [6.89641, 52.21751], [6.89605, 52.21653], [6.89703, 52.21628], [6.89999, 52.21625]]]]}}, {"type": "Feature", "properties": {"code": "BU01530006", "name": "Veldkamp-Getfert-West"}, "geometry": {"type": "MultiPolygon", "coordinates": [[[[6.8876, 52.21429], [6.88903, 52.21293], [6.88936, 52.21003], [6.88184, 52.21083], [6.87931, 52.21109], [6.87683, 52.2129], [6.8775, 52.21599], [6.88327, 52.21559], [6.8876, 52.21429]]]]}}, {"type": "Feature", "properties": {"code": "BU01530007", "name": "Horstlanden-Stadsweide"}, "geometry": {"type": "MultiPolygon", "coordinates": [[[[6.89086, 52.21808], [6.8876, 52.21429], [6.88327, 52.21559], [6.8775, 52.21599], [6.87411, 52.21727], [6.87475, 52.22101], [6.87851, 52.22138], [6.8873, 52.22224], [6.88803, 52.21957], [6.89086, 52.21808]]]]}}, {"type": "Feature", "properties": {"code": "BU01530008", "name": "Boddenkamp"}, "geometry": {"type": "MultiPolygon", "coordinates": [[[[6.89205, 52.22317], [6.88748, 52.22353], [6.8873, 52.22224], [6.87851, 52.22138], [6.87912, 52.22551], [6.88048, 52.22631], [6.88997, 52.22839], [6.89205, 52.22317]]]]}}, {"type": "Feature", "properties": {"code": "BU01530100", "name": "Velve-Lindenhof"}, "geometry": {"type": "MultiPolygon", "coordinates": [[[[6.92861, 52.22376], [6.92645, 52.21853], [6.91699, 52.21906], [6.91158, 52.21706], [6.9109, 52.21688], [6.91212, 52.21893], [6.91193, 52.22229], [6.91142, 52.22312], [6.90974, 52.22336], [6.90956, 52.22449], [6.91654, 52.22489], [6.92861, 52.22376]]]]}}, {"type": "Feature", "properties": {"code": "BU01530101", "name": "Wooldrik"}, "geometry": {"type": "MultiPolygon", "coordinates": [[[[6.92645, 52.21853], [6.92594, 52.21446], [6.92277, 52.21283], [6.91916, 52.21236], [6.9152, 52.21329], [6.91399, 52.21383], [6.91158, 52.21706], [6.91699, 52.21906], [6.92645, 52.21853]]]]}}, {"type": "Feature", "properties": {"code": "BU01530102", "name": "Hogeland-Zuid"}, "geometry": {"type": "MultiPolygon", "coordinates": [[[[6.9152, 52.21329], [6.9141, 52.21202], [6.9168, 52.20959], [6.91688, 52.20721], [6.91092, 52.20613], [6.90939, 52.21409], [6.9109, 52.21688], [6.91158, 52.21706], [6.91399, 52.21383], [6.9152, 52.21329]]]]}}, {"type": "Feature", "properties": {"code": "BU01530103", "name": "Varvik-Diekman"}, "geometry": {"type": "MultiPolygon", "coordinates": [[[[6.91092, 52.20613], [6.9119, 52.20264], [6.89431, 52.19998], [6.89069, 52.20011], [6.88936, 52.21003], [6.89345, 52.20939], [6.89915, 52.21041], [6.90271, 52.21209], [6.90766, 52.21276], [6.90939, 52.21409], [6.91092, 52.20613]]]]}}, {"type": "Feature", "properties": {"code": "BU01530104", "name": "Sleutelkamp"}, "geometry": {"type": "MultiPolygon", "coordinates": [[[[6.94011, 52.22247], [6.93919, 52.2175], [6.92645, 52.21853], [6.92861, 52.22376], [6.94011, 52.22247]]]]}}, {"type": "Feature", "properties": {"code": "BU01530105", "name": "'t Weldink"}, "geometry": {"type": "MultiPolygon", "coordinates": [[[[6.94013, 52.22574], [6.94011, 52.22247], [6.92861, 52.22376], [6.92873, 52.22599], [6.92677, 52.22836], [6.94013, 52.22574]]]]}}, {"type": "Feature", "properties": {"code": "BU01530106", "name": "De Leuriks"}, "geometry": {"type": "MultiPolygon", "coordinates": [[[[6.93919, 52.2175], [6.93869, 52.21372], [6.9292, 52.21381], [6.92594, 52.21446], [6.92645, 52.21853], [6.93919, 52.2175]]]]}}, {"type": "Feature", "properties": {"code": "BU01530200", "name": "Cromhoffsbleek-Kotman"}, "geometry": {"type": "MultiPolygon", "coordinates": [[[[6.88936, 52.21003], [6.89069, 52.20011], [6.87968, 52.20106], [6.88184, 52.21083], [6.88936, 52.21003]]]]}}, {"type": "Feature", "properties": {"code": "BU01530201", "name": "Boswinkel-De Braker"}, "geometry": {"type": "MultiPolygon", "coordinates": [[[[6.88184, 52.21083], [6.87968, 52.20106], [6.87389, 52.20142], [6.87404, 52.2032], [6.87196, 52.20505], [6.86946, 52.20514], [6.86687, 52.20666], [6.86987, 52.2072], [6.87541, 52.20936], [6.87931, 52.21109], [6.88184, 52.21083]]]]}}, {"type": "Feature", "properties": {"code": "BU01530202", "name": "Pathmos"}, "geometry": {"type": "MultiPolygon", "coordinates": [[[[6.8775, 52.21599], [6.87683, 52.2129], [6.87931, 52.21109], [6.87541, 52.20936], [6.87392, 52.20976], [6.872, 52.21613], [6.87411, 52.21727], [6.8775, 52.21599]]]]}}, {"type": "Feature", "properties": {"code": "BU01530203", "name": "Stevenfenne"}, "geometry": {"type": "MultiPolygon", "coordinates": [[[[6.87541, 52.20936], [6.86987, 52.2072], [6.86687, 52.20666], [6.864, 52.20609], [6.86391, 52.21051], [6.86206, 52.21345], [6.86796, 52.21457], [6.872, 52.21613], [6.87392, 52.20976], [6.87541, 52.20936]]]]}}, {"type": "Feature", "properties": {"code": "BU01530204", "name": "Stadsveld-Zuid"}, "geometry": {"type": "MultiPolygon", "coordinates": [[[[6.864, 52.20609], [6.85975, 52.2055], [6.85908, 52.20978], [6.85707, 52.21214], [6.85787, 52.21316], [6.86206, 52.21345], [6.86391, 52.21051], [6.864, 52.20609]]]]}}, {"type": "Feature", "properties": {"code": "BU01530205", "name": "Elferink-Heuwkamp"}, "geometry": {"type": "MultiPolygon", "coordinates": [[[[6.87475, 52.22101], [6.87411, 52.21727], [6.872, 52.21613], [6.86796, 52.21457], [6.86206, 52.21345], [6.85998, 52.21478], [6.85687, 52.21881], [6.86384, 52.21922], [6.86607, 52.22009], [6.86711, 52.22143], [6.87475, 52.22101]]]]}}, {"type": "Feature", "properties": {"code": "BU01530206", "name": "Stadsveld-Noord-Bruggert"}, "geometry": {"type": "MultiPolygon", "coordinates": [[[[6.86206, 52.21345], [6.85787, 52.21316], [6.85752, 52.2144], [6.85346, 52.21443], [6.84906, 52.21357], [6.84824, 52.21418], [6.85073, 52.21659], [6.85105, 52.21807], [6.85687, 52.21881], [6.85998, 52.21478], [6.86206, 52.21345]]]]}}, {"type": "Feature", "properties": {"code": "BU01530207", "name": "'t Zwering"}, "geometry": {"type": "MultiPolygon", "coordinates": [[[[6.85787, 52.21316], [6.85707, 52.21214], [6.85908, 52.20978], [6.85975, 52.2055], [6.85429, 52.20528], [6.8442, 52.21281], [6.84824, 52.21418], [6.84906, 52.21357], [6.85346, 52.21443], [6.85752, 52.2144], [6.85787, 52.21316]]]]}}, {"type": "Feature", "properties": {"code": "BU01530208", "name": "Ruwenbos"}, "geometry": {"type": "MultiPolygon", "coordinates": [[[[6.87389, 52.20142], [6.85869, 52.20211], [6.85429, 52.20528], [6.85975, 52.2055], [6.864, 52.20609], [6.86687, 52.20666], [6.86946, 52.20514], [6.87196, 52.20505], [6.87404, 52.2032], [6.87389, 52.20142]]]]}}, {"type": "Feature", "properties": {"code": "BU01530300", "name": "Tubantia-Toekomst"}, "geometry": {"type": "MultiPolygon", "coordinates": [[[[6.86917, 52.23066], [6.88048, 52.22631], [6.87912, 52.22551], [6.87851, 52.22138], [6.87475, 52.22101], [6.86711, 52.22143], [6.86297, 52.22262], [6.85858, 52.22504], [6.86112, 52.22869], [6.86357, 52.23039], [6.8644, 52.23015], [6.86608, 52.2318], [6.86917, 52.23066]]]]}}, {"type": "Feature", "properties": {"code": "BU01530301", "name": "Twekkelerveld"}, "geometry": {"type": "MultiPolygon", "coordinates": [[[[6.85648, 52.2355], [6.85924, 52.23444], [6.86608, 52.2318], [6.8644, 52.23015], [6.86357, 52.23039], [6.86112, 52.22869], [6.85858, 52.22504], [6.84463, 52.23384], [6.84971, 52.23622], [6.85443, 52.23411], [6.85648, 52.2355]]]]}}, {"type": "Feature", "properties": {"code": "BU01530400", "name": "Walhof-Roessingh"}, "geometry": {"type": "MultiPolygon", "coordinates": [[[[6.88997, 52.22839], [6.88048, 52.22631], [6.86917, 52.23066], [6.8733, 52.23279], [6.87355, 52.23409], [6.8816, 52.23273], [6.88632, 52.23399], [6.88997, 52.22839]]]]}}, {"type": "Feature", "properties": {"code": "BU01530401", "name": "Bolhaar"}, "geometry": {"type": "MultiPolygon", "coordinates": [[[[6.88326, 52.24136], [6.88445, 52.23773], [6.88598, 52.23448], [6.88632, 52.23399], [6.8816, 52.23273], [6.87355, 52.23409], [6.8733, 52.23279], [6.86917, 52.23066], [6.86608, 52.2318], [6.85924, 52.23444], [6.86199, 52.23649], [6.86591, 52.23699], [6.86541, 52.24174], [6.86554, 52.24289], [6.86722, 52.24293], [6.86919, 52.24129], [6.87345, 52.2416], [6.8731, 52.24403], [6.87668, 52.24399], [6.8789, 52.24393], [6.87872, 52.24203], [6.88287, 52.24198], [6.88326, 52.24136]]]]}}, {"type": "Feature", "properties": {"code": "BU01530402", "name": "Roombeek-Roomveldje"}, "geometry": {"type": "MultiPolygon", "coordinates": [[[[6.89993, 52.23442], [6.90644, 52.23357], [6.90093, 52.2295], [6.90026, 52.22774], [6.89638, 52.22743], [6.88997, 52.22839], [6.88632, 52.23399], [6.88598, 52.23448], [6.89485, 52.23378], [6.89516, 52.23488], [6.89993, 52.23442]]]]}}, {"type": "Feature", "properties": {"code": "BU01530403", "name": "Mekkelholt"}, "geometry": {"type": "MultiPolygon", "coordinates": [[[[6.90064, 52.23735], [6.89993, 52.23442], [6.89516, 52.23488], [6.89485, 52.23378], [6.88598, 52.23448], [6.88445, 52.23773], [6.89688, 52.23791], [6.90064, 52.23735]]]]}}, {"type": "Feature", "properties": {"code": "BU01530404", "name": "Deppenbroek"}, "geometry": {"type": "MultiPolygon", "coordinates": [[[[6.90326, 52.24277], [6.9043, 52.24202], [6.90064, 52.23735], [6.89688, 52.23791], [6.88445, 52.23773], [6.88326, 52.24136], [6.88856, 52.24319], [6.89085, 52.24233], [6.89753, 52.24297], [6.90024, 52.24263], [6.90038, 52.24214], [6.90326, 52.24277]]]]}}, {"type": "Feature", "properties": {"code": "BU01530405", "name": "Voortman-Amelink"}, "geometry": {"type": "MultiPolygon", "coordinates": [[[[6.91689, 52.24445], [6.91694, 52.24086], [6.90644, 52.23357], [6.89993, 52.23442], [6.90064, 52.23735], [6.9043, 52.24202], [6.90326, 52.24277], [6.90564, 52.24379], [6.90763, 52.24572], [6.90902, 52.245], [6.91301, 52.24451], [6.91473, 52.24439], [6.91519, 52.24522], [6.91689, 52.24445]]]]}}, {"type": "Feature", "properties": {"code": "BU01530406", "name": "Drienerveld-U.T."}, "geometry": {"type": "MultiPolygon", "coordinates": [[[[6.86541, 52.24174], [6.86591, 52.23699], [6.86199, 52.23649], [6.85924, 52.23444], [6.85648, 52.2355], [6.83662, 52.24296], [6.82706, 52.24818], [6.84256, 52.25391], [6.84411, 52.25272], [6.85871, 52.25176], [6.85784, 52.25078], [6.85648, 52.2509], [6.8551, 52.25025], [6.8537, 52.24771], [6.85682, 52.24405], [6.85684, 52.24264], [6.86541, 52.24174]]]]}}, {"type": "Feature", "properties": {"code": "BU01530500", "name": "Schreurserve"}, "geometry": {"type": "MultiPolygon", "coordinates": [[[[6.91844, 52.23225], [6.91562, 52.23095], [6.90874, 52.22773], [6.90391, 52.22867], [6.90026, 52.22774], [6.90093, 52.2295], [6.90644, 52.23357], [6.9077, 52.23315], [6.9171, 52.23327], [6.91844, 52.23225]]]]}}, {"type": "Feature", "properties": {"code": "BU01530501", "name": "Ribbelt-Ribbelerbrink"}, "geometry": {"type": "MultiPolygon", "coordinates": [[[[6.91654, 52.22489], [6.90956, 52.22449], [6.90874, 52.22773], [6.91562, 52.23095], [6.9178, 52.22801], [6.91654, 52.22489]]]]}}, {"type": "Feature", "properties": {"code": "BU01530502", "name": "Park Stokhorst"}, "geometry": {"type": "MultiPolygon", "coordinates": [[[[6.92708, 52.2323], [6.92476, 52.23081], [6.92677, 52.22836], [6.92873, 52.22599], [6.92861, 52.22376], [6.91654, 52.22489], [6.9178, 52.22801], [6.91562, 52.23095], [6.91844, 52.23225], [6.92123, 52.23269], [6.92708, 52.2323]]]]}}, {"type": "Feature", "properties": {"code": "BU01530503", "name": "Stokhorst"}, "geometry": {"type": "MultiPolygon", "coordinates": [[[[6.91742, 52.24073], [6.92171, 52.23912], [6.92885, 52.23982], [6.92793, 52.23618], [6.92842, 52.23396], [6.92708, 52.2323], [6.92123, 52.23269], [6.91844, 52.23225], [6.9171, 52.23327], [6.9077, 52.23315], [6.90644, 52.23357], [6.91694, 52.24086], [6.91742, 52.24073]]]]}}, {"type": "Feature", "properties": {"code": "BU01530600", "name": "Stroinkslanden Noord-Oost"}, "geometry": {"type": "MultiPolygon", "coordinates": [[[[6.90605, 52.19413], [6.90078, 52.19232], [6.89431, 52.19998], [6.9119, 52.20264], [6.9131, 52.19986], [6.91291, 52.19618], [6.90605, 52.19413]]]]}}, {"type": "Feature", "properties": {"code": "BU01530601", "name": "Stroinkslanden-Zuid"}, "geometry": {"type": "MultiPolygon", "coordinates": [[[[6.88689, 52.1844], [6.88906, 52.19023], [6.89354, 52.19018], [6.90078, 52.19232], [6.90605, 52.19413], [6.91112, 52.18963], [6.91024, 52.18847], [6.90584, 52.18751], [6.89892, 52.18744], [6.89898, 52.18632], [6.89425, 52.18566], [6.89287, 52.18492], [6.88689, 52.1844]]]]}}, {"type": "Feature", "properties": {"code": "BU01530602", "name": "Stroinkslanden Noord-West"}, "geometry": {"type": "MultiPolygon", "coordinates": [[[[6.89431, 52.19998], [6.90078, 52.19232], [6.89354, 52.19018], [6.88906, 52.19023], [6.89118, 52.19554], [6.89069, 52.20011], [6.89431, 52.19998]]]]}}, {"type": "Feature", "properties": {"code": "BU01530603", "name": "Wesselerbrink Noord-Oost"}, "geometry": {"type": "MultiPolygon", "coordinates": [[[[6.89069, 52.20011], [6.89118, 52.19554], [6.88906, 52.19023], [6.87831, 52.19103], [6.87745, 52.19114], [6.87968, 52.20106], [6.89069, 52.20011]]]]}}, {"type": "Feature", "properties": {"code": "BU01530604", "name": "Wesselerbrink Zuid-Oost"}, "geometry": {"type": "MultiPolygon", "coordinates": [[[[6.88906, 52.19023], [6.88689, 52.1844], [6.88149, 52.1835], [6.8747, 52.18474], [6.87406, 52.18687], [6.87765, 52.18919], [6.87831, 52.19103], [6.88906, 52.19023]]]]}}, {"type": "Feature", "properties": {"code": "BU01530605", "name": "Wesselerbrink Zuid-West"}, "geometry": {"type": "MultiPolygon", "coordinates": [[[[6.8628, 52.19251], [6.86918, 52.19153], [6.87745, 52.19114], [6.87831, 52.19103], [6.87765, 52.18919], [6.87406, 52.18687], [6.8747, 52.18474], [6.8692, 52.18573], [6.85995, 52.18742], [6.86088, 52.18927], [6.86087, 52.19287], [6.8628, 52.19251]]]]}}, {"type": "Feature", "properties": {"code": "BU01530606", "name": "Wesselerbrink Noord-West"}, "geometry": {"type": "MultiPolygon", "coordinates": [[[[6.87389, 52.20142], [6.87968, 52.20106], [6.87745, 52.19114], [6.86918, 52.19153], [6.8628, 52.19251], [6.86328, 52.19379], [6.86734, 52.19597], [6.85869, 52.20211], [6.87389, 52.20142]]]]}}, {"type": "Feature", "properties": {"code": "BU01530607", "name": "Helmerhoek-Noord"}, "geometry": {"type": "MultiPolygon", "coordinates": [[[[6.85869, 52.20211], [6.86734, 52.19597], [6.86328, 52.19379], [6.8628, 52.19251], [6.86087, 52.19287], [6.85924, 52.19366], [6.85052, 52.19135], [6.84849, 52.19344], [6.84977, 52.19487], [6.84883, 52.19577], [6.84961, 52.19946], [6.85294, 52.20248], [6.85869, 52.20211]]]]}}, {"type": "Feature", "properties": {"code": "BU01530608", "name": "Helmerhoek-Zuid"}, "geometry": {"type": "MultiPolygon", "coordinates": [[[[6.86087, 52.19287], [6.86088, 52.18927], [6.85995, 52.18742], [6.85715, 52.18659], [6.85366, 52.18753], [6.84925, 52.18992], [6.84418, 52.19053], [6.84849, 52.19344], [6.85052, 52.19135], [6.85924, 52.19366], [6.86087, 52.19287]]]]}}, {"type": "Feature", "properties": {"code": "BU01530609", "name": "het Brunink"}, "geometry": {"type": "MultiPolygon", "coordinates": [[[[6.8747, 52.18474], [6.88149, 52.1835], [6.88689, 52.1844], [6.88658, 52.18258], [6.88502, 52.18194], [6.8735, 52.18136], [6.86335, 52.18306], [6.8692, 52.18573], [6.8747, 52.18474]]]]}}, {"type": "Feature", "properties": {"code": "BU01530700", "name": "Industrie- en havengebied"}, "geometry": {"type": "MultiPolygon", "coordinates": [[[[6.85858, 52.22504], [6.86297, 52.22262], [6.86711, 52.22143], [6.86607, 52.22009], [6.86384, 52.21922], [6.85687, 52.21881], [6.85105, 52.21807], [6.84559, 52.2173], [6.83856, 52.21504], [6.83605, 52.21721], [6.83347, 52.22137], [6.83723, 52.22424], [6.83792, 52.22948], [6.84106, 52.23177], [6.84463, 52.23384], [6.85858, 52.22504]]]]}}, {"type": "Feature", "properties": {"code": "BU01530701", "name": "Marssteden"}, "geometry": {"type": "MultiPolygon", "coordinates": [[[[6.83605, 52.21721], [6.83856, 52.21504], [6.83278, 52.2137], [6.82926, 52.21187], [6.82338, 52.20697], [6.81119, 52.21102], [6.80269, 52.21581], [6.83168, 52.21772], [6.83605, 52.21721]]]]}}, {"type": "Feature", "properties": {"code": "BU01530702", "name": "Koekoeksbeekhoek"}, "geometry": {"type": "MultiPolygon", "coordinates": [[[[6.84106, 52.23177], [6.83792, 52.22948], [6.82998, 52.23076], [6.82861, 52.23405], [6.82306, 52.23988], [6.81845, 52.24101], [6.81954, 52.24366], [6.82382, 52.24319], [6.84106, 52.23177]]]]}}, {"type": "Feature", "properties": {"code": "BU01530703", "name": "Kennispark"}, "geometry": {"type": "MultiPolygon", "coordinates": [[[[6.85648, 52.2355], [6.85443, 52.23411], [6.84971, 52.23622], [6.84463, 52.23384], [6.84106, 52.23177], [6.82382, 52.24319], [6.81954, 52.24366], [6.8243, 52.24652], [6.82706, 52.24818], [6.83662, 52.24296], [6.85648, 52.2355]]]]}}, {"type": "Feature", "properties": {"code": "BU01530800", "name": "Glanerveld"}, "geometry": {"type": "MultiPolygon", "coordinates": [[[[6.97521, 52.22461], [6.97644, 52.2238], [6.97535, 52.22298], [6.97423, 52.22305], [6.97349, 52.22201], [6.97346, 52.21872], [6.95649, 52.22066], [6.95763, 52.2256], [6.96072, 52.22562], [6.96597, 52.22589], [6.97029, 52.22774], [6.97521, 52.22461]]]]}}, {"type": "Feature", "properties": {"code": "BU01530801", "name": "Bentveld-Bultserve"}, "geometry": {"type": "MultiPolygon", "coordinates": [[[[6.97667, 52.22365], [6.9811, 52.22074], [6.9797, 52.21813], [6.97968, 52.21514], [6.97097, 52.21544], [6.95894, 52.21614], [6.95549, 52.21639], [6.95649, 52.22066], [6.97346, 52.21872], [6.97349, 52.22201], [6.97423, 52.22305], [6.97535, 52.22298], [6.97644, 52.2238], [6.97667, 52.22365]]]]}}, {"type": "Feature", "properties": {"code": "BU01530802", "name": "Schipholt-Glanermaten"}, "geometry": {"type": "MultiPolygon", "coordinates": [[[[6.97968, 52.21514], [6.97849, 52.21219], [6.97598, 52.20949], [6.97481, 52.20842], [6.96916, 52.2066], [6.96698, 52.20694], [6.965, 52.20834], [6.97048, 52.21239], [6.97097, 52.21544], [6.97968, 52.21514]]]]}}, {"type": "Feature", "properties": {"code": "BU01530803", "name": "Eekmaat"}, "geometry": {"type": "MultiPolygon", "coordinates": [[[[6.97097, 52.21544], [6.97048, 52.21239], [6.965, 52.20834], [6.96596, 52.21036], [6.96437, 52.21314], [6.95873, 52.21394], [6.95894, 52.21614], [6.97097, 52.21544]]]]}}, {"type": "Feature", "properties": {"code": "BU01530804", "name": "Oikos"}, "geometry": {"type": "MultiPolygon", "coordinates": [[[[6.9709, 52.20298], [6.96441, 52.20398], [6.96107, 52.2054], [6.9597, 52.20631], [6.96118, 52.20826], [6.96066, 52.20884], [6.965, 52.20834], [6.96698, 52.20694], [6.96916, 52.2066], [6.97481, 52.20842], [6.97598, 52.20949], [6.97409, 52.2054], [6.9709, 52.20298]]]]}}, {"type": "Feature", "properties": {"code": "BU01530805", "name": "Eilermarke"}, "geometry": {"type": "MultiPolygon", "coordinates": [[[[6.95873, 52.21394], [6.96437, 52.21314], [6.96596, 52.21036], [6.965, 52.20834], [6.96066, 52.20884], [6.95582, 52.20932], [6.95682, 52.21405], [6.95873, 52.21394]]]]}}, {"type": "Feature", "properties": {"code": "BU01530806", "name": "De Slank"}, "geometry": {"type": "MultiPolygon", "coordinates": [[[[6.96072, 52.22562], [6.95763, 52.2256], [6.95649, 52.22066], [6.94011, 52.22247], [6.94013, 52.22574], [6.94069, 52.22725], [6.94803, 52.22612], [6.94831, 52.22766], [6.95402, 52.22712], [6.95521, 52.22728], [6.95554, 52.22835], [6.95882, 52.22802], [6.96072, 52.22562]]]]}}, {"type": "Feature", "properties": {"code": "BU01530807", "name": "Dolphia"}, "geometry": {"type": "MultiPolygon", "coordinates": [[[[6.95649, 52.22066], [6.95549, 52.21639], [6.93919, 52.2175], [6.94011, 52.22247], [6.95649, 52.22066]]]]}}, {"type": "Feature", "properties": {"code": "BU01530808", "name": "Eekmaat West"}, "geometry": {"type": "MultiPolygon", "coordinates": [[[[6.95549, 52.21639], [6.95894, 52.21614], [6.95873, 52.21394], [6.95682, 52.21405], [6.95582, 52.20932], [6.94218, 52.21238], [6.93869, 52.21372], [6.93919, 52.2175], [6.95549, 52.21639]]]]}}, {"type": "Feature", "properties": {"code": "BU01530900", "name": "Dorp Lonneker"}, "geometry": {"type": "MultiPolygon", "coordinates": [[[[6.91689, 52.24445], [6.91519, 52.24522], [6.91473, 52.24439], [6.91301, 52.24451], [6.90902, 52.245], [6.90763, 52.24572], [6.90496, 52.24773], [6.90425, 52.25214], [6.90888, 52.25353], [6.91304, 52.25382], [6.91604, 52.25555], [6.91761, 52.25531], [6.91798, 52.25354], [6.91744, 52.25228], [6.91598, 52.25159], [6.91638, 52.25031], [6.92046, 52.25061], [6.92025, 52.24704], [6.91815, 52.24458], [6.91689, 52.24445]]]]}}, {"type": "Feature", "properties": {"code": "BU01530901", "name": "Dorp Boekelo"}, "geometry": {"type": "MultiPolygon", "coordinates": [[[[6.80814, 52.21008], [6.81087, 52.20834], [6.81062, 52.20679], [6.81324, 52.20143], [6.80974, 52.19945], [6.80895, 52.20045], [6.8058, 52.20078], [6.79876, 52.20043], [6.79287, 52.20337], [6.7906, 52.20257], [6.78653, 52.203], [6.78645, 52.20453], [6.7841, 52.20572], [6.78677, 52.20628], [6.78617, 52.20684], [6.78781, 52.20986], [6.78756, 52.21101], [6.79025, 52.21227], [6.79498, 52.20991], [6.79781, 52.21161], [6.80168, 52.21044], [6.80143, 52.20951], [6.80503, 52.20845], [6.80814, 52.21008]]]]}}, {"type": "Feature", "properties": {"code": "BU01530902", "name": "Buurtschap Lonneker-West"}, "geometry": {"type": "MultiPolygon", "coordinates": [[[[6.93917, 52.28387], [6.94099, 52.2839], [6.94928, 52.27949], [6.96782, 52.26816], [6.96913, 52.26686], [6.97092, 52.25832], [6.96617, 52.25648], [6.95367, 52.25521], [6.94063, 52.2506], [6.9269, 52.24726], [6.91742, 52.24073], [6.91694, 52.24086], [6.91689, 52.24445], [6.91815, 52.24458], [6.92025, 52.24704], [6.92046, 52.25061], [6.91638, 52.25031], [6.91598, 52.25159], [6.91744, 52.25228], [6.91798, 52.25354], [6.91761, 52.25531], [6.91604, 52.25555], [6.91304, 52.25382], [6.90888, 52.25353], [6.90425, 52.25214], [6.90496, 52.24773], [6.90763, 52.24572], [6.90564, 52.24379], [6.90326, 52.24277], [6.90038, 52.24214], [6.90024, 52.24263], [6.89753, 52.24297], [6.89085, 52.24233], [6.88856, 52.24319], [6.88326, 52.24136], [6.88287, 52.24198], [6.87872, 52.24203], [6.8789, 52.24393], [6.87668, 52.24399], [6.8731, 52.24403], [6.87345, 52.2416], [6.86919, 52.24129], [6.86722, 52.24293], [6.86554, 52.24289], [6.86541, 52.24174], [6.85684, 52.24264], [6.85682, 52.24405], [6.8537, 52.24771], [6.8551, 52.25025], [6.85648, 52.2509], [6.85784, 52.25078], [6.85871, 52.25176], [6.84411, 52.25272], [6.84256, 52.25391], [6.84029, 52.26109], [6.8407, 52.26208], [6.84335, 52.2637], [6.8438, 52.26555], [6.84352, 52.26659], [6.84028, 52.26908], [6.83185, 52.27345], [6.83785, 52.27663], [6.84049, 52.27631], [6.86833, 52.27296], [6.8765, 52.27472], [6.88124, 52.27936], [6.88002, 52.2814], [6.88326, 52.28221], [6.88321, 52.28317], [6.88781, 52.28345], [6.88957, 52.28098], [6.89022, 52.2822], [6.89537, 52.28383], [6.91213, 52.28551], [6.91359, 52.28217], [6.91875, 52.28361], [6.93917, 52.28387]]]]}}, {"type": "Feature", "properties": {"code": "BU01530903", "name": "Noord Esmarke"}, "geometry": {"type": "MultiPolygon", "coordinates": [[[[6.96496, 52.23626], [6.96589, 52.23042], [6.97029, 52.22774], [6.96597, 52.22589], [6.96072, 52.22562], [6.95882, 52.22802], [6.95554, 52.22835], [6.95521, 52.22728], [6.95402, 52.22712], [6.94831, 52.22766], [6.94803, 52.22612], [6.94069, 52.22725], [6.94013, 52.22574], [6.92677, 52.22836], [6.92476, 52.23081], [6.92708, 52.2323], [6.92842, 52.23396], [6.92793, 52.23618], [6.92885, 52.23982], [6.92171, 52.23912], [6.91742, 52.24073], [6.9269, 52.24726], [6.94063, 52.2506], [6.95367, 52.25521], [6.96617, 52.25648], [6.97092, 52.25832], [6.97303, 52.2485], [6.97165, 52.24407], [6.96496, 52.23626]]]]}}, {"type": "Feature", "properties": {"code": "BU01530904", "name": "Buurtschap Zuid-Esmarke"}, "geometry": {"type": "MultiPolygon", "coordinates": [[[[6.93869, 52.21372], [6.94218, 52.21238], [6.95582, 52.20932], [6.96066, 52.20884], [6.96118, 52.20826], [6.9597, 52.20631], [6.96107, 52.2054], [6.96441, 52.20398], [6.9709, 52.20298], [6.9674, 52.19789], [6.96239, 52.1943], [6.96228, 52.19341], [6.95408, 52.19539], [6.93854, 52.19789], [6.92642, 52.2019], [6.92037, 52.20278], [6.9119, 52.20264], [6.91092, 52.20613], [6.91688, 52.20721], [6.9168, 52.20959], [6.9141, 52.21202], [6.9152, 52.21329], [6.91916, 52.21236], [6.92277, 52.21283], [6.92594, 52.21446], [6.9292, 52.21381], [6.93869, 52.21372]]]]}}, {"type": "Feature", "properties": {"code": "BU01530905", "name": "Buurtschap Broekheurne"}, "geometry": {"type": "MultiPolygon", "coordinates": [[[[6.85294, 52.20248], [6.84961, 52.19946], [6.84883, 52.19577], [6.84977, 52.19487], [6.84849, 52.19344], [6.84418, 52.19053], [6.84925, 52.18992], [6.85366, 52.18753], [6.85715, 52.18659], [6.85995, 52.18742], [6.8692, 52.18573], [6.86335, 52.18306], [6.8735, 52.18136], [6.88502, 52.18194], [6.88658, 52.18258], [6.88689, 52.1844], [6.89287, 52.18492], [6.89425, 52.18566], [6.89898, 52.18632], [6.89892, 52.18744], [6.90584, 52.18751], [6.91024, 52.18847], [6.91112, 52.18963], [6.90605, 52.19413], [6.91291, 52.19618], [6.9131, 52.19986], [6.9119, 52.20264], [6.92037, 52.20278], [6.92642, 52.2019], [6.93854, 52.19789], [6.95408, 52.19539], [6.96228, 52.19341], [6.96248, 52.19138], [6.95125, 52.18106], [6.94951, 52.1805], [6.93788, 52.17947], [6.93374, 52.17845], [6.91563, 52.17761], [6.90955, 52.17645], [6.90675, 52.17507], [6.90588, 52.17387], [6.90572, 52.16991], [6.88975, 52.16121], [6.86987, 52.16269], [6.82799, 52.17101], [6.81428, 52.17086], [6.8056, 52.16661], [6.78817, 52.17629], [6.81548, 52.18811], [6.82595, 52.19337], [6.82862, 52.19584], [6.83248, 52.20246], [6.83561, 52.20454], [6.85294, 52.20248]]]]}}, {"type": "Feature", "properties": {"code": "BU01530906", "name": "Buurtschap Usselo"}, "geometry": {"type": "MultiPolygon", "coordinates": [[[[6.84824, 52.21418], [6.8442, 52.21281], [6.85429, 52.20528], [6.85869, 52.20211], [6.85294, 52.20248], [6.83561, 52.20454], [6.83248, 52.20246], [6.82862, 52.19584], [6.82595, 52.19337], [6.81548, 52.18811], [6.81396, 52.19286], [6.81934, 52.19867], [6.81394, 52.20002], [6.81324, 52.20143], [6.81062, 52.20679], [6.81087, 52.20834], [6.80814, 52.21008], [6.81119, 52.21102], [6.82338, 52.20697], [6.82926, 52.21187], [6.83278, 52.2137], [6.83856, 52.21504], [6.84559, 52.2173], [6.85105, 52.21807], [6.85073, 52.21659], [6.84824, 52.21418]]]]}}, {"type": "Feature", "properties": {"code": "BU01530907", "name": "Boekelerveld"}, "geometry": {"type": "MultiPolygon", "coordinates": [[[[6.80269, 52.21581], [6.81119, 52.21102], [6.80814, 52.21008], [6.80503, 52.20845], [6.80143, 52.20951], [6.80168, 52.21044], [6.79781, 52.21161], [6.79498, 52.20991], [6.79025, 52.21227], [6.78756, 52.21101], [6.78781, 52.20986], [6.78617, 52.20684], [6.78677, 52.20628], [6.7841, 52.20572], [6.78645, 52.20453], [6.78653, 52.203], [6.7906, 52.20257], [6.79287, 52.20337], [6.79876, 52.20043], [6.8058, 52.20078], [6.80895, 52.20045], [6.80974, 52.19945], [6.81324, 52.20143], [6.81394, 52.20002], [6.81934, 52.19867], [6.81396, 52.19286], [6.81548, 52.18811], [6.78817, 52.17629], [6.7766, 52.18431], [6.7668, 52.19106], [6.76632, 52.20314], [6.76287, 52.20728], [6.75962, 52.21003], [6.75589, 52.2174], [6.76906, 52.22701], [6.76519, 52.23314], [6.7681, 52.23478], [6.78842, 52.22652], [6.80269, 52.21581]]]]}}, {"type": "Feature", "properties": {"code": "BU01530908", "name": "Buurtschap Twekkelo"}, "geometry": {"type": "MultiPolygon", "coordinates": [[[[6.83792, 52.22948], [6.83723, 52.22424], [6.83347, 52.22137], [6.83605, 52.21721], [6.83168, 52.21772], [6.80269, 52.21581], [6.78842, 52.22652], [6.7681, 52.23478], [6.76832, 52.23491], [6.77443, 52.23846], [6.78858, 52.23523], [6.80236, 52.23208], [6.81375, 52.22948], [6.81845, 52.24101], [6.82306, 52.23988], [6.82861, 52.23405], [6.82998, 52.23076], [6.83792, 52.22948]]]]}}]}