{"type": "FeatureCollection", "features": [{"type": "Feature", "properties": {"code": "BU01500101", "name": "Centrum"}, "geometry": {"type": "MultiPolygon", "coordinates": [[[[6.15599, 52.25626], [6.16037, 52.25369], [6.16124, 52.25201], [6.15883, 52.24959], [6.15772, 52.24929], [6.152, 52.25144], [6.15466, 52.25324], [6.15447, 52.25428], [6.15282, 52.25551], [6.15274, 52.25556], [6.15426, 52.25638], [6.15599, 52.25626]]]]}}, {"type": "Feature", "properties": {"code": "BU01500102", "name": "Bergkwartier"}, "geometry": {"type": "MultiPolygon", "coordinates": [[[[6.16528, 52.25237], [6.15953, 52.24945], [6.15883, 52.24959], [6.16124, 52.25201], [6.16037, 52.25369], [6.16528, 52.25237]]]]}}, {"type": "Feature", "properties": {"code": "BU01500103", "name": "Noordenbergkwartier"}, "geometry": {"type": "MultiPolygon", "coordinates": [[[[6.15447, 52.25428], [6.15466, 52.25324], [6.152, 52.25144], [6.15128, 52.25214], [6.15236, 52.25259], [6.15076, 52.25437], [6.15282, 52.25551], [6.15447, 52.25428]]]]}}, {"type": "Feature", "properties": {"code": "BU01500104", "name": "Noordenbergsingel"}, "geometry": {"type": "MultiPolygon", "coordinates": [[[[6.15274, 52.25556], [6.15282, 52.25551], [6.15076, 52.25437], [6.15236, 52.25259], [6.15128, 52.25214], [6.14606, 52.25572], [6.1495, 52.25777], [6.15274, 52.25556]]]]}}, {"type": "Feature", "properties": {"code": "BU01500105", "name": "Singel"}, "geometry": {"type": "MultiPolygon", "coordinates": [[[[6.15847, 52.25858], [6.16396, 52.25623], [6.16419, 52.25616], [6.16335, 52.25506], [6.16672, 52.2534], [6.16655, 52.25245], [6.16528, 52.25237], [6.16037, 52.25369], [6.15599, 52.25626], [6.15426, 52.25638], [6.15274, 52.25556], [6.1495, 52.25777], [6.15468, 52.25979], [6.15847, 52.25858]]]]}}, {"type": "Feature", "properties": {"code": "BU01500106", "name": "Raambuurt"}, "geometry": {"type": "MultiPolygon", "coordinates": [[[[6.16854, 52.25079], [6.16534, 52.2493], [6.15953, 52.24945], [6.16528, 52.25237], [6.16655, 52.25245], [6.16854, 52.25079]]]]}}, {"type": "Feature", "properties": {"code": "BU01500107", "name": "Knutteldorp"}, "geometry": {"type": "MultiPolygon", "coordinates": [[[[6.17031, 52.24955], [6.16989, 52.24582], [6.16369, 52.24585], [6.16122, 52.24815], [6.15772, 52.24929], [6.15883, 52.24959], [6.15953, 52.24945], [6.16534, 52.2493], [6.16854, 52.25079], [6.16897, 52.25086], [6.17031, 52.24955]]]]}}, {"type": "Feature", "properties": {"code": "BU01500201", "name": "De Hoven"}, "geometry": {"type": "MultiPolygon", "coordinates": [[[[6.13252, 52.26048], [6.14237, 52.25725], [6.14606, 52.25572], [6.15128, 52.25214], [6.152, 52.25144], [6.15772, 52.24929], [6.16122, 52.24815], [6.16369, 52.24585], [6.16332, 52.24291], [6.16068, 52.23755], [6.16121, 52.23405], [6.16734, 52.23125], [6.16627, 52.23101], [6.16303, 52.22852], [6.16844, 52.22728], [6.16787, 52.22634], [6.1625, 52.22792], [6.16572, 52.2235], [6.16528, 52.22284], [6.16865, 52.22069], [6.16753, 52.21884], [6.16538, 52.21751], [6.16407, 52.21744], [6.16262, 52.21836], [6.16399, 52.22165], [6.16217, 52.22417], [6.16015, 52.22522], [6.15651, 52.22569], [6.14768, 52.22769], [6.14308, 52.23162], [6.14171, 52.23417], [6.14176, 52.2371], [6.14224, 52.23846], [6.14467, 52.23941], [6.15117, 52.24253], [6.15385, 52.24431], [6.1542, 52.24587], [6.15343, 52.247], [6.15002, 52.24832], [6.14942, 52.24797], [6.14451, 52.24712], [6.14337, 52.24645], [6.13877, 52.2478], [6.13541, 52.24961], [6.12647, 52.25065], [6.12387, 52.25148], [6.12364, 52.25369], [6.12515, 52.25683], [6.13007, 52.26069], [6.13252, 52.26048]]]]}}, {"type": "Feature", "properties": {"code": "BU01500301", "name": "Noorderplein"}, "geometry": {"type": "MultiPolygon", "coordinates": [[[[6.15468, 52.25979], [6.1495, 52.25777], [6.14801, 52.25969], [6.15115, 52.26146], [6.15468, 52.25979]]]]}}, {"type": "Feature", "properties": {"code": "BU01500302", "name": "Zwolseweg"}, "geometry": {"type": "MultiPolygon", "coordinates": [[[[6.15115, 52.26146], [6.14801, 52.25969], [6.14463, 52.26113], [6.13796, 52.26473], [6.13911, 52.26569], [6.14478, 52.26723], [6.15115, 52.26146]]]]}}, {"type": "Feature", "properties": {"code": "BU01500303", "name": "Lange Zandstraat"}, "geometry": {"type": "MultiPolygon", "coordinates": [[[[6.14801, 52.25969], [6.1495, 52.25777], [6.14606, 52.25572], [6.14237, 52.25725], [6.14463, 52.26113], [6.14801, 52.25969]]]]}}, {"type": "Feature", "properties": {"code": "BU01500304", "name": "Zandweerd-Zuid"}, "geometry": {"type": "MultiPolygon", "coordinates": [[[[6.14463, 52.26113], [6.14237, 52.25725], [6.13252, 52.26048], [6.13796, 52.26473], [6.14463, 52.26113]]]]}}, {"type": "Feature", "properties": {"code": "BU01500305", "name": "Zandweerd-Noord"}, "geometry": {"type": "MultiPolygon", "coordinates": [[[[6.13507, 52.26937], [6.13571, 52.26745], [6.13911, 52.26569], [6.13796, 52.26473], [6.13252, 52.26048], [6.13007, 52.26069], [6.12606, 52.26245], [6.12363, 52.26504], [6.12298, 52.26926], [6.12737, 52.27021], [6.12888, 52.26933], [6.13239, 52.27152], [6.13507, 52.26937]]]]}}, {"type": "Feature", "properties": {"code": "BU01500306", "name": "Schrijversbuurt"}, "geometry": {"type": "MultiPolygon", "coordinates": [[[[6.14032, 52.27249], [6.14261, 52.27244], [6.14461, 52.26747], [6.14478, 52.26723], [6.13911, 52.26569], [6.13571, 52.26745], [6.13507, 52.26937], [6.13239, 52.27152], [6.13752, 52.2737], [6.14032, 52.27249]]]]}}, {"type": "Feature", "properties": {"code": "BU01500401", "name": "Rode Dorp"}, "geometry": {"type": "MultiPolygon", "coordinates": [[[[6.1502, 52.26788], [6.15438, 52.26674], [6.15557, 52.26604], [6.15546, 52.26452], [6.15739, 52.26082], [6.15847, 52.25858], [6.15468, 52.25979], [6.15115, 52.26146], [6.14478, 52.26723], [6.14461, 52.26747], [6.1502, 52.26788]]]]}}, {"type": "Feature", "properties": {"code": "BU01500402", "name": "Oudegoedstraat"}, "geometry": {"type": "MultiPolygon", "coordinates": [[[[6.16052, 52.26399], [6.16315, 52.26308], [6.15953, 52.26164], [6.15739, 52.26082], [6.15546, 52.26452], [6.15557, 52.26604], [6.16052, 52.26399]]]]}}, {"type": "Feature", "properties": {"code": "BU01500403", "name": "Burgemeestersbuurt"}, "geometry": {"type": "MultiPolygon", "coordinates": [[[[6.16353, 52.26296], [6.16955, 52.26021], [6.16767, 52.25906], [6.16667, 52.26031], [6.16393, 52.2595], [6.15953, 52.26164], [6.16315, 52.26308], [6.16353, 52.26296]]]]}}, {"type": "Feature", "properties": {"code": "BU01500404", "name": "Oosterstraat"}, "geometry": {"type": "MultiPolygon", "coordinates": [[[[6.16393, 52.2595], [6.16667, 52.26031], [6.16767, 52.25906], [6.16396, 52.25623], [6.15847, 52.25858], [6.15739, 52.26082], [6.15953, 52.26164], [6.16393, 52.2595]]]]}}, {"type": "Feature", "properties": {"code": "BU01500405", "name": "Rielerweg-West"}, "geometry": {"type": "MultiPolygon", "coordinates": [[[[6.1703, 52.26001], [6.17212, 52.25834], [6.17146, 52.25619], [6.16419, 52.25616], [6.16396, 52.25623], [6.16767, 52.25906], [6.16955, 52.26021], [6.1703, 52.26001]]]]}}, {"type": "Feature", "properties": {"code": "BU01500406", "name": "Rielerweg-Oost"}, "geometry": {"type": "MultiPolygon", "coordinates": [[[[6.20706, 52.26097], [6.20647, 52.26039], [6.20179, 52.25555], [6.19502, 52.25306], [6.19476, 52.25299], [6.18888, 52.25666], [6.18422, 52.2578], [6.1808, 52.25783], [6.17146, 52.25619], [6.17212, 52.25834], [6.1703, 52.26001], [6.17406, 52.26236], [6.17783, 52.25993], [6.182, 52.26074], [6.19349, 52.25998], [6.19605, 52.26184], [6.19863, 52.26264], [6.20706, 52.26097]]]]}}, {"type": "Feature", "properties": {"code": "BU01500407", "name": "Brinkgreven"}, "geometry": {"type": "MultiPolygon", "coordinates": [[[[6.18297, 52.26676], [6.18695, 52.26466], [6.19605, 52.26184], [6.19349, 52.25998], [6.182, 52.26074], [6.17783, 52.25993], [6.17406, 52.26236], [6.17664, 52.26536], [6.17664, 52.26823], [6.18297, 52.26676]]]]}}, {"type": "Feature", "properties": {"code": "BU01500501", "name": "Borgele"}, "geometry": {"type": "MultiPolygon", "coordinates": [[[[6.14548, 52.28018], [6.15603, 52.27848], [6.15537, 52.27099], [6.15438, 52.26674], [6.1502, 52.26788], [6.14461, 52.26747], [6.14261, 52.27244], [6.14187, 52.27912], [6.14226, 52.27924], [6.14548, 52.28018]]]]}}, {"type": "Feature", "properties": {"code": "BU01500502", "name": "Platvoet"}, "geometry": {"type": "MultiPolygon", "coordinates": [[[[6.14261, 52.27244], [6.14032, 52.27249], [6.13752, 52.2737], [6.13239, 52.27152], [6.12888, 52.26933], [6.12737, 52.27021], [6.12298, 52.26926], [6.12111, 52.27203], [6.13159, 52.27762], [6.1361, 52.27826], [6.13787, 52.27777], [6.14187, 52.27912], [6.14261, 52.27244]]]]}}, {"type": "Feature", "properties": {"code": "BU01500601", "name": "Ludgeruskwartier"}, "geometry": {"type": "MultiPolygon", "coordinates": [[[[6.16472, 52.27028], [6.16645, 52.26879], [6.1626, 52.2673], [6.16052, 52.26399], [6.15557, 52.26604], [6.15438, 52.26674], [6.15537, 52.27099], [6.16472, 52.27028]]]]}}, {"type": "Feature", "properties": {"code": "BU01500602", "name": "Tuindorp"}, "geometry": {"type": "MultiPolygon", "coordinates": [[[[6.16956, 52.26572], [6.16353, 52.26296], [6.16315, 52.26308], [6.16052, 52.26399], [6.1626, 52.2673], [6.16645, 52.26879], [6.16956, 52.26572]]]]}}, {"type": "Feature", "properties": {"code": "BU01500603", "name": "Rollecatekwartier"}, "geometry": {"type": "MultiPolygon", "coordinates": [[[[6.17664, 52.26823], [6.17664, 52.26536], [6.17406, 52.26236], [6.1703, 52.26001], [6.16955, 52.26021], [6.16353, 52.26296], [6.16956, 52.26572], [6.17449, 52.26835], [6.17663, 52.26873], [6.17664, 52.26823]]]]}}, {"type": "Feature", "properties": {"code": "BU01500604", "name": "Oranjekwartier"}, "geometry": {"type": "MultiPolygon", "coordinates": [[[[6.1768, 52.27178], [6.17663, 52.26873], [6.17449, 52.26835], [6.16956, 52.26572], [6.16645, 52.26879], [6.16472, 52.27028], [6.16832, 52.27313], [6.1768, 52.27178]]]]}}, {"type": "Feature", "properties": {"code": "BU01500605", "name": "Landsherenkwartier"}, "geometry": {"type": "MultiPolygon", "coordinates": [[[[6.16029, 52.27774], [6.16832, 52.27313], [6.16472, 52.27028], [6.15537, 52.27099], [6.15603, 52.27848], [6.16029, 52.27774]]]]}}, {"type": "Feature", "properties": {"code": "BU01500606", "name": "Steenbrugge"}, "geometry": {"type": "MultiPolygon", "coordinates": [[[[6.17145, 52.28068], [6.18017, 52.27935], [6.1768, 52.27178], [6.16832, 52.27313], [6.16029, 52.27774], [6.15603, 52.27848], [6.1615, 52.28119], [6.17145, 52.28068]]]]}}, {"type": "Feature", "properties": {"code": "BU01500701", "name": "Rivierenbuurt"}, "geometry": {"type": "MultiPolygon", "coordinates": [[[[6.1809, 52.25323], [6.17433, 52.25354], [6.17073, 52.25357], [6.17146, 52.25619], [6.1808, 52.25783], [6.1809, 52.25323]]]]}}, {"type": "Feature", "properties": {"code": "BU01500702", "name": "Deltabuurt"}, "geometry": {"type": "MultiPolygon", "coordinates": [[[[6.18422, 52.2578], [6.18888, 52.25666], [6.19476, 52.25299], [6.19042, 52.25143], [6.18924, 52.25096], [6.1809, 52.25323], [6.1808, 52.25783], [6.18422, 52.2578]]]]}}, {"type": "Feature", "properties": {"code": "BU01500703", "name": "Hoornwerk"}, "geometry": {"type": "MultiPolygon", "coordinates": [[[[6.17073, 52.25357], [6.17433, 52.25354], [6.16897, 52.25086], [6.16854, 52.25079], [6.16655, 52.25245], [6.16672, 52.2534], [6.16335, 52.25506], [6.16419, 52.25616], [6.17146, 52.25619], [6.17073, 52.25357]]]]}}, {"type": "Feature", "properties": {"code": "BU01500704", "name": "Industrieterrein"}, "geometry": {"type": "MultiPolygon", "coordinates": [[[[6.1809, 52.25323], [6.18924, 52.25096], [6.19042, 52.25143], [6.19155, 52.2473], [6.19044, 52.24436], [6.18674, 52.24366], [6.18846, 52.2416], [6.18565, 52.23951], [6.1847, 52.24132], [6.1797, 52.24036], [6.17759, 52.23919], [6.18068, 52.23659], [6.17517, 52.2347], [6.17421, 52.23278], [6.16734, 52.23125], [6.16121, 52.23405], [6.16068, 52.23755], [6.16332, 52.24291], [6.16369, 52.24585], [6.16989, 52.24582], [6.17031, 52.24955], [6.16897, 52.25086], [6.17433, 52.25354], [6.1809, 52.25323]]]]}}, {"type": "Feature", "properties": {"code": "BU01500705", "name": "Kloosterlanden"}, "geometry": {"type": "MultiPolygon", "coordinates": [[[[6.2012, 52.24755], [6.2068, 52.24291], [6.20925, 52.23895], [6.21049, 52.23725], [6.21088, 52.23659], [6.18861, 52.23503], [6.18466, 52.23722], [6.18245, 52.23725], [6.18068, 52.23659], [6.17759, 52.23919], [6.1797, 52.24036], [6.1847, 52.24132], [6.18565, 52.23951], [6.18846, 52.2416], [6.18674, 52.24366], [6.19044, 52.24436], [6.19761, 52.24581], [6.20085, 52.2478], [6.2012, 52.24755]]]]}}, {"type": "Feature", "properties": {"code": "BU01500706", "name": "Epse-Noord"}, "geometry": {"type": "MultiPolygon", "coordinates": [[[[6.18466, 52.23722], [6.18861, 52.23503], [6.21088, 52.23659], [6.21452, 52.23133], [6.21695, 52.22647], [6.20311, 52.22927], [6.19014, 52.22921], [6.18945, 52.22934], [6.18914, 52.22917], [6.18686, 52.23097], [6.18604, 52.23145], [6.18599, 52.2314], [6.18484, 52.23182], [6.18497, 52.23199], [6.18253, 52.23383], [6.17838, 52.2337], [6.17421, 52.23278], [6.17517, 52.2347], [6.18068, 52.23659], [6.18245, 52.23725], [6.18466, 52.23722]]]]}}, {"type": "Feature", "properties": {"code": "BU01500801", "name": "Het Oostrik"}, "geometry": {"type": "MultiPolygon", "coordinates": [[[[6.21594, 52.25347], [6.21641, 52.25045], [6.20538, 52.25032], [6.20639, 52.2539], [6.21594, 52.25347]]]]}}, {"type": "Feature", "properties": {"code": "BU01500802", "name": "Groot Douwel"}, "geometry": {"type": "MultiPolygon", "coordinates": [[[[6.21195, 52.25856], [6.21258, 52.25549], [6.21474, 52.25573], [6.21668, 52.2542], [6.21594, 52.25347], [6.20639, 52.2539], [6.20179, 52.25555], [6.20647, 52.26039], [6.21195, 52.25856]]]]}}, {"type": "Feature", "properties": {"code": "BU01500803", "name": "Blauwenoord"}, "geometry": {"type": "MultiPolygon", "coordinates": [[[[6.20639, 52.2539], [6.20538, 52.25032], [6.20011, 52.25063], [6.19719, 52.25152], [6.19502, 52.25306], [6.20179, 52.25555], [6.20639, 52.2539]]]]}}, {"type": "Feature", "properties": {"code": "BU01500901", "name": "Op den Haar"}, "geometry": {"type": "MultiPolygon", "coordinates": [[[[6.23067, 52.25509], [6.23186, 52.25095], [6.22138, 52.25061], [6.22077, 52.2524], [6.21918, 52.25368], [6.21668, 52.2542], [6.21474, 52.25573], [6.21919, 52.25768], [6.22521, 52.2595], [6.22947, 52.25989], [6.23067, 52.25509]]]]}}, {"type": "Feature", "properties": {"code": "BU01500902", "name": "Steinvoorde"}, "geometry": {"type": "MultiPolygon", "coordinates": [[[[6.22964, 52.25998], [6.22947, 52.25989], [6.22521, 52.2595], [6.21919, 52.25768], [6.2197, 52.26085], [6.22401, 52.26328], [6.22695, 52.26494], [6.22964, 52.25998]]]]}}, {"type": "Feature", "properties": {"code": "BU01500903", "name": "Graveland"}, "geometry": {"type": "MultiPolygon", "coordinates": [[[[6.23709, 52.26118], [6.23549, 52.25956], [6.23666, 52.2554], [6.23067, 52.25509], [6.22947, 52.25989], [6.22964, 52.25998], [6.236, 52.26188], [6.23709, 52.26118]]]]}}, {"type": "Feature", "properties": {"code": "BU01500904", "name": "Het Jeurlink"}, "geometry": {"type": "MultiPolygon", "coordinates": [[[[6.22228, 52.26402], [6.22401, 52.26328], [6.2197, 52.26085], [6.21919, 52.25768], [6.21474, 52.25573], [6.21258, 52.25549], [6.21195, 52.25856], [6.20647, 52.26039], [6.20706, 52.26097], [6.20733, 52.26096], [6.21272, 52.26078], [6.21557, 52.26319], [6.21862, 52.26426], [6.22228, 52.26402]]]]}}, {"type": "Feature", "properties": {"code": "BU01500905", "name": "Het Fetlaer en Spijkvoorder Enk"}, "geometry": {"type": "MultiPolygon", "coordinates": [[[[6.22695, 52.26494], [6.22401, 52.26328], [6.22228, 52.26402], [6.21862, 52.26426], [6.21557, 52.26319], [6.21272, 52.26078], [6.20733, 52.26096], [6.21294, 52.26675], [6.22785, 52.26795], [6.22695, 52.26494]]]]}}, {"type": "Feature", "properties": {"code": "BU01500906", "name": "Spikvoorde"}, "geometry": {"type": "MultiPolygon", "coordinates": [[[[6.23588, 52.26726], [6.23483, 52.26379], [6.236, 52.26188], [6.22964, 52.25998], [6.22695, 52.26494], [6.22785, 52.26795], [6.23588, 52.26726]]]]}}, {"type": "Feature", "properties": {"code": "BU01500907", "name": "Overig Colmschate-Noord"}, "geometry": {"type": "MultiPolygon", "coordinates": [[[[6.25154, 52.2661], [6.25441, 52.26425], [6.25503, 52.2628], [6.25319, 52.25952], [6.2572, 52.25828], [6.25897, 52.25692], [6.26093, 52.25342], [6.2631, 52.25173], [6.26515, 52.2518], [6.26256, 52.24864], [6.25647, 52.25124], [6.24719, 52.24967], [6.23223, 52.24954], [6.23186, 52.25095], [6.23067, 52.25509], [6.23666, 52.2554], [6.23549, 52.25956], [6.23709, 52.26118], [6.236, 52.26188], [6.23483, 52.26379], [6.23588, 52.26726], [6.25154, 52.2661]]]]}}, {"type": "Feature", "properties": {"code": "BU01501001", "name": "Snipperling"}, "geometry": {"type": "MultiPolygon", "coordinates": [[[[6.19719, 52.25152], [6.20085, 52.2478], [6.19761, 52.24581], [6.19044, 52.24436], [6.19155, 52.2473], [6.19042, 52.25143], [6.19476, 52.25299], [6.19502, 52.25306], [6.19719, 52.25152]]]]}}, {"type": "Feature", "properties": {"code": "BU01501002", "name": "Dorp Colmschate"}, "geometry": {"type": "MultiPolygon", "coordinates": [[[[6.21918, 52.25368], [6.22077, 52.2524], [6.22138, 52.25061], [6.23186, 52.25095], [6.23223, 52.24954], [6.23187, 52.24866], [6.22166, 52.24661], [6.21755, 52.24596], [6.21613, 52.24877], [6.21641, 52.25045], [6.21594, 52.25347], [6.21668, 52.2542], [6.21918, 52.25368]]]]}}, {"type": "Feature", "properties": {"code": "BU01501003", "name": "De Scheg"}, "geometry": {"type": "MultiPolygon", "coordinates": [[[[6.20011, 52.25063], [6.20538, 52.25032], [6.21641, 52.25045], [6.21613, 52.24877], [6.20291, 52.2495], [6.20176, 52.2479], [6.2012, 52.24755], [6.20085, 52.2478], [6.19719, 52.25152], [6.20011, 52.25063]]]]}}, {"type": "Feature", "properties": {"code": "BU01501004", "name": "Colmschaterenk"}, "geometry": {"type": "MultiPolygon", "coordinates": [[[[6.21613, 52.24877], [6.21755, 52.24596], [6.21527, 52.2452], [6.20598, 52.24472], [6.20176, 52.2479], [6.20291, 52.2495], [6.21613, 52.24877]]]]}}, {"type": "Feature", "properties": {"code": "BU01501005", "name": "Roessink"}, "geometry": {"type": "MultiPolygon", "coordinates": [[[[6.22162, 52.2432], [6.21637, 52.24246], [6.21527, 52.2452], [6.21755, 52.24596], [6.22166, 52.24661], [6.22162, 52.2432]]]]}}, {"type": "Feature", "properties": {"code": "BU01501006", "name": "Het Bramelt"}, "geometry": {"type": "MultiPolygon", "coordinates": [[[[6.20598, 52.24472], [6.21527, 52.2452], [6.21637, 52.24246], [6.21665, 52.24182], [6.2141, 52.24129], [6.21101, 52.23912], [6.20925, 52.23895], [6.2068, 52.24291], [6.2012, 52.24755], [6.20176, 52.2479], [6.20598, 52.24472]]]]}}, {"type": "Feature", "properties": {"code": "BU01501007", "name": "Essenerveld"}, "geometry": {"type": "MultiPolygon", "coordinates": [[[[6.23224, 52.2456], [6.22919, 52.24496], [6.2252, 52.24308], [6.22162, 52.2432], [6.22166, 52.24661], [6.23187, 52.24866], [6.23224, 52.2456]]]]}}, {"type": "Feature", "properties": {"code": "BU01501008", "name": "Swormink"}, "geometry": {"type": "MultiPolygon", "coordinates": [[[[6.23197, 52.23891], [6.22318, 52.23843], [6.22264, 52.24199], [6.21665, 52.24182], [6.21637, 52.24246], [6.22162, 52.2432], [6.2252, 52.24308], [6.22919, 52.24496], [6.23224, 52.2456], [6.23197, 52.23891]]]]}}, {"type": "Feature", "properties": {"code": "BU01501009", "name": "Handelspark De Weteringen"}, "geometry": {"type": "MultiPolygon", "coordinates": [[[[6.22318, 52.23843], [6.21458, 52.23833], [6.21049, 52.23725], [6.20925, 52.23895], [6.21101, 52.23912], [6.2141, 52.24129], [6.21665, 52.24182], [6.22264, 52.24199], [6.22318, 52.23843]]]]}}, {"type": "Feature", "properties": {"code": "BU01501010", "name": "Bannink"}, "geometry": {"type": "MultiPolygon", "coordinates": [[[[6.26256, 52.24864], [6.25778, 52.24471], [6.25391, 52.24262], [6.24776, 52.24122], [6.23197, 52.23891], [6.23224, 52.2456], [6.23187, 52.24866], [6.23223, 52.24954], [6.24719, 52.24967], [6.25647, 52.25124], [6.26256, 52.24864]]]]}}, {"type": "Feature", "properties": {"code": "BU01501101", "name": "Dorp Diepenveen"}, "geometry": {"type": "MultiPolygon", "coordinates": [[[[6.1615, 52.28119], [6.15603, 52.27848], [6.14548, 52.28018], [6.14226, 52.27924], [6.1303, 52.30167], [6.1404, 52.30376], [6.16312, 52.30741], [6.15871, 52.28474], [6.1615, 52.28119]]]]}}, {"type": "Feature", "properties": {"code": "BU01501102", "name": "Rande"}, "geometry": {"type": "MultiPolygon", "coordinates": [[[[6.14226, 52.27924], [6.14187, 52.27912], [6.13787, 52.27777], [6.1361, 52.27826], [6.13159, 52.27762], [6.12111, 52.27203], [6.11237, 52.27831], [6.11127, 52.28072], [6.11132, 52.28821], [6.10587, 52.29241], [6.10132, 52.30122], [6.10146, 52.30121], [6.10812, 52.29901], [6.10837, 52.29766], [6.11859, 52.29889], [6.12998, 52.3016], [6.1303, 52.30167], [6.14226, 52.27924]]]]}}, {"type": "Feature", "properties": {"code": "BU01501103", "name": "Tjoene"}, "geometry": {"type": "MultiPolygon", "coordinates": [[[[6.20644, 52.3112], [6.20571, 52.30927], [6.19936, 52.30286], [6.19642, 52.29689], [6.18389, 52.28676], [6.18017, 52.27935], [6.17145, 52.28068], [6.1615, 52.28119], [6.15871, 52.28474], [6.16312, 52.30741], [6.17186, 52.30879], [6.18218, 52.30891], [6.18155, 52.31486], [6.18344, 52.31503], [6.19007, 52.31476], [6.19951, 52.31598], [6.20247, 52.31811], [6.20369, 52.32028], [6.20562, 52.32086], [6.20644, 52.3112]]]]}}, {"type": "Feature", "properties": {"code": "BU01501201", "name": "Dorp Schalkhaar"}, "geometry": {"type": "MultiPolygon", "coordinates": [[[[6.21527, 52.28028], [6.20444, 52.27553], [6.20607, 52.27451], [6.20865, 52.27451], [6.21097, 52.26674], [6.21294, 52.26675], [6.20733, 52.26096], [6.20706, 52.26097], [6.19863, 52.26264], [6.19605, 52.26184], [6.18695, 52.26466], [6.18297, 52.26676], [6.17664, 52.26823], [6.17663, 52.26873], [6.1768, 52.27178], [6.18017, 52.27935], [6.19807, 52.27681], [6.19876, 52.27882], [6.21046, 52.28033], [6.21527, 52.28028]]]]}}, {"type": "Feature", "properties": {"code": "BU01501202", "name": "Averlo en Frieswijk"}, "geometry": {"type": "MultiPolygon", "coordinates": [[[[6.23536, 52.31982], [6.23513, 52.31446], [6.25564, 52.3058], [6.24547, 52.29672], [6.23195, 52.28731], [6.21294, 52.26675], [6.21097, 52.26674], [6.20865, 52.27451], [6.20607, 52.27451], [6.20444, 52.27553], [6.21527, 52.28028], [6.21046, 52.28033], [6.19876, 52.27882], [6.19807, 52.27681], [6.18017, 52.27935], [6.18389, 52.28676], [6.19642, 52.29689], [6.19936, 52.30286], [6.20571, 52.30927], [6.20644, 52.3112], [6.20562, 52.32086], [6.23536, 52.31982]]]]}}, {"type": "Feature", "properties": {"code": "BU01501301", "name": "Okkenbroek"}, "geometry": {"type": "MultiPolygon", "coordinates": [[[[6.32782, 52.29018], [6.32782, 52.29014], [6.32039, 52.29165], [6.30612, 52.3006], [6.32653, 52.30163], [6.32782, 52.29018]]]]}}, {"type": "Feature", "properties": {"code": "BU01501401", "name": "Dorp Lettele"}, "geometry": {"type": "MultiPolygon", "coordinates": [[[[6.27236, 52.28101], [6.27272, 52.28148], [6.27646, 52.2818], [6.27928, 52.27715], [6.27993, 52.27132], [6.27715, 52.26997], [6.2753, 52.26985], [6.27325, 52.27369], [6.26465, 52.27727], [6.26594, 52.28205], [6.27236, 52.28101]]]]}}, {"type": "Feature", "properties": {"code": "BU01501402", "name": "Oude Molen"}, "geometry": {"type": "MultiPolygon", "coordinates": [[[[6.29166, 52.26395], [6.29275, 52.26192], [6.29134, 52.25907], [6.29162, 52.25702], [6.28805, 52.25761], [6.2818, 52.25614], [6.27554, 52.25632], [6.27457, 52.25808], [6.27995, 52.25922], [6.28054, 52.26154], [6.27387, 52.26328], [6.27914, 52.26467], [6.29166, 52.26395]]]]}}, {"type": "Feature", "properties": {"code": "BU01501403", "name": "Buitengebied Lettele en Okkenbroek"}, "geometry": {"type": "MultiPolygon", "coordinates": [[[[6.30612, 52.3006], [6.32039, 52.29165], [6.32782, 52.29014], [6.32884, 52.2811], [6.32646, 52.26606], [6.32474, 52.26452], [6.31688, 52.26257], [6.30802, 52.26152], [6.30331, 52.26024], [6.30247, 52.2593], [6.29486, 52.25824], [6.29162, 52.25702], [6.29134, 52.25907], [6.29275, 52.26192], [6.29166, 52.26395], [6.27914, 52.26467], [6.27387, 52.26328], [6.28054, 52.26154], [6.27995, 52.25922], [6.27457, 52.25808], [6.27554, 52.25632], [6.27604, 52.25408], [6.27112, 52.25412], [6.26515, 52.2518], [6.2631, 52.25173], [6.26093, 52.25342], [6.25897, 52.25692], [6.2572, 52.25828], [6.25319, 52.25952], [6.25503, 52.2628], [6.25441, 52.26425], [6.25154, 52.2661], [6.23588, 52.26726], [6.22785, 52.26795], [6.21294, 52.26675], [6.23195, 52.28731], [6.24547, 52.29672], [6.25564, 52.3058], [6.26724, 52.3008], [6.30612, 52.3006]], [[6.27325, 52.27369], [6.2753, 52.26985], [6.27715, 52.26997], [6.27993, 52.27132], [6.27928, 52.27715], [6.27646, 52.2818], [6.27272, 52.28148], [6.27236, 52.28101], [6.26594, 52.28205], [6.26465, 52.27727], [6.27325, 52.27369]]]]}}, {"type": "Feature", "properties": {"code": "BU01501501", "name": "Dorp Bathmen"}, "geometry": {"type": "MultiPolygon", "coordinates": [[[[6.30461, 52.24774], [6.29783, 52.2475], [6.27576, 52.2437], [6.25976, 52.2447], [6.25778, 52.24471], [6.26256, 52.24864], [6.26515, 52.2518], [6.27112, 52.25412], [6.27604, 52.25408], [6.27554, 52.25632], [6.2818, 52.25614], [6.28805, 52.25761], [6.29162, 52.25702], [6.29486, 52.25824], [6.30247, 52.2593], [6.30335, 52.25792], [6.30609, 52.25637], [6.30714, 52.25445], [6.3022, 52.25328], [6.30211, 52.25285], [6.30475, 52.25198], [6.30461, 52.24774]]]]}}, {"type": "Feature", "properties": {"code": "BU01501502", "name": "Loo"}, "geometry": {"type": "MultiPolygon", "coordinates": [[[[6.34886, 52.26989], [6.35083, 52.26925], [6.35213, 52.27083], [6.35349, 52.27002], [6.35488, 52.2692], [6.35284, 52.26835], [6.35538, 52.26727], [6.35672, 52.26813], [6.36349, 52.26421], [6.36306, 52.26401], [6.36454, 52.26316], [6.36483, 52.26343], [6.37078, 52.26001], [6.37294, 52.26091], [6.37716, 52.25868], [6.37722, 52.25665], [6.37481, 52.2563], [6.37488, 52.25514], [6.37729, 52.2544], [6.37634, 52.25219], [6.37654, 52.25135], [6.37721, 52.25002], [6.38122, 52.2474], [6.38113, 52.2466], [6.38185, 52.24611], [6.37735, 52.24475], [6.36399, 52.24541], [6.35356, 52.24521], [6.33379, 52.24328], [6.33047, 52.24438], [6.31679, 52.24552], [6.31264, 52.24706], [6.30461, 52.24774], [6.30475, 52.25198], [6.30211, 52.25285], [6.3022, 52.25328], [6.30714, 52.25445], [6.30609, 52.25637], [6.30335, 52.25792], [6.30247, 52.2593], [6.30331, 52.26024], [6.30802, 52.26152], [6.31688, 52.26257], [6.32474, 52.26452], [6.32646, 52.26606], [6.32884, 52.2811], [6.35054, 52.27145], [6.34886, 52.26989]]]]}}, {"type": "Feature", "properties": {"code": "BU01501503", "name": "Dortherhoek"}, "geometry": {"type": "MultiPolygon", "coordinates": [[[[6.30528, 52.24565], [6.30722, 52.24566], [6.30843, 52.24491], [6.30854, 52.2419], [6.30539, 52.2411], [6.30099, 52.23864], [6.29895, 52.23646], [6.29662, 52.23044], [6.29695, 52.229], [6.29304, 52.22951], [6.29283, 52.23083], [6.29171, 52.23087], [6.28633, 52.23036], [6.27723, 52.22794], [6.27101, 52.22791], [6.27106, 52.231], [6.27252, 52.23437], [6.27519, 52.23562], [6.2731, 52.24268], [6.26233, 52.24145], [6.26235, 52.2434], [6.25976, 52.2447], [6.27576, 52.2437], [6.29783, 52.2475], [6.30461, 52.24774], [6.30528, 52.24565]]]]}}, {"type": "Feature", "properties": {"code": "BU01501504", "name": "Zuidloo"}, "geometry": {"type": "MultiPolygon", "coordinates": [[[[6.31264, 52.24706], [6.31679, 52.24552], [6.33047, 52.24438], [6.33379, 52.24328], [6.35356, 52.24521], [6.36399, 52.24541], [6.37735, 52.24475], [6.36685, 52.24153], [6.35176, 52.2417], [6.34965, 52.24124], [6.34922, 52.2401], [6.33806, 52.23622], [6.33871, 52.22715], [6.32543, 52.227], [6.32043, 52.22567], [6.29794, 52.22553], [6.29695, 52.229], [6.29662, 52.23044], [6.29895, 52.23646], [6.30099, 52.23864], [6.30539, 52.2411], [6.30854, 52.2419], [6.30843, 52.24491], [6.30722, 52.24566], [6.30528, 52.24565], [6.30461, 52.24774], [6.31264, 52.24706]]]]}}, {"type": "Feature", "properties": {"code": "BU01501505", "name": "Oxerhof"}, "geometry": {"type": "MultiPolygon", "coordinates": [[[[6.26235, 52.2434], [6.26233, 52.24145], [6.2731, 52.24268], [6.27519, 52.23562], [6.27252, 52.23437], [6.27106, 52.231], [6.27101, 52.22791], [6.27129, 52.22641], [6.2694, 52.22646], [6.26472, 52.22725], [6.26084, 52.22907], [6.25729, 52.22728], [6.23845, 52.22759], [6.23392, 52.22904], [6.22777, 52.22975], [6.22248, 52.22887], [6.21648, 52.23147], [6.21452, 52.23133], [6.21088, 52.23659], [6.21049, 52.23725], [6.21458, 52.23833], [6.22318, 52.23843], [6.23197, 52.23891], [6.24776, 52.24122], [6.25391, 52.24262], [6.25778, 52.24471], [6.25976, 52.2447], [6.26235, 52.2434]]]]}}]}