{"type": "FeatureCollection", "features": [{"type": "Feature", "properties": {"code": "WK015001", "name": "Binnenstad"}, "geometry": {"type": "MultiPolygon", "coordinates": [[[[6.16655, 52.25245], [6.16854, 52.25079], [6.16897, 52.25086], [6.17031, 52.24955], [6.16989, 52.24582], [6.16369, 52.24585], [6.16122, 52.24815], [6.15772, 52.24929], [6.152, 52.25144], [6.15128, 52.25214], [6.14606, 52.25572], [6.1495, 52.25777], [6.15468, 52.25979], [6.15847, 52.25858], [6.16396, 52.25623], [6.16419, 52.25616], [6.16335, 52.25506], [6.16672, 52.2534], [6.16655, 52.25245]]]]}}, {"type": "Feature", "properties": {"code": "WK015002", "name": "De Hoven"}, "geometry": {"type": "MultiPolygon", "coordinates": [[[[6.13252, 52.26048], [6.14237, 52.25725], [6.14606, 52.25572], [6.15128, 52.25214], [6.152, 52.25144], [6.15772, 52.24929], [6.16122, 52.24815], [6.16369, 52.24585], [6.16332, 52.24291], [6.16068, 52.23755], [6.16121, 52.23405], [6.16734, 52.23125], [6.16627, 52.23101], [6.16303, 52.22852], [6.16844, 52.22728], [6.16787, 52.22634], [6.1625, 52.22792], [6.16572, 52.2235], [6.16528, 52.22284], [6.16865, 52.22069], [6.16753, 52.21884], [6.16538, 52.21751], [6.16407, 52.21744], [6.16262, 52.21836], [6.16399, 52.22165], [6.16217, 52.22417], [6.16015, 52.22522], [6.15651, 52.22569], [6.14768, 52.22769], [6.14308, 52.23162], [6.14171, 52.23417], [6.14176, 52.2371], [6.14224, 52.23846], [6.14467, 52.23941], [6.15117, 52.24253], [6.15385, 52.24431], [6.1542, 52.24587], [6.15343, 52.247], [6.15002, 52.24832], [6.14942, 52.24797], [6.14451, 52.24712], [6.14337, 52.24645], [6.13877, 52.2478], [6.13541, 52.24961], [6.12647, 52.25065], [6.12387, 52.25148], [6.12364, 52.25369], [6.12515, 52.25683], [6.13007, 52.26069], [6.13252, 52.26048]]]]}}, {"type": "Feature", "properties": {"code": "WK015003", "name": "Zandweerd"}, "geometry": {"type": "MultiPolygon", "coordinates": [[[[6.14261, 52.27244], [6.14461, 52.26747], [6.14478, 52.26723], [6.15115, 52.26146], [6.15468, 52.25979], [6.1495, 52.25777], [6.14606, 52.25572], [6.14237, 52.25725], [6.13252, 52.26048], [6.13007, 52.26069], [6.12606, 52.26245], [6.12363, 52.26504], [6.12298, 52.26926], [6.12737, 52.27021], [6.12888, 52.26933], [6.13239, 52.27152], [6.13752, 52.2737], [6.14032, 52.27249], [6.14261, 52.27244]]]]}}, {"type": "Feature", "properties": {"code": "WK015004", "name": "Voorstad"}, "geometry": {"type": "MultiPolygon", "coordinates": [[[[6.18695, 52.26466], [6.19605, 52.26184], [6.19863, 52.26264], [6.20706, 52.26097], [6.20647, 52.26039], [6.20179, 52.25555], [6.19502, 52.25306], [6.19476, 52.25299], [6.18888, 52.25666], [6.18422, 52.2578], [6.1808, 52.25783], [6.17146, 52.25619], [6.16419, 52.25616], [6.16396, 52.25623], [6.15847, 52.25858], [6.15468, 52.25979], [6.15115, 52.26146], [6.14478, 52.26723], [6.14461, 52.26747], [6.1502, 52.26788], [6.15438, 52.26674], [6.15557, 52.26604], [6.16052, 52.26399], [6.16315, 52.26308], [6.16353, 52.26296], [6.16955, 52.26021], [6.1703, 52.26001], [6.17406, 52.26236], [6.17664, 52.26536], [6.17664, 52.26823], [6.18297, 52.26676], [6.18695, 52.26466]]]]}}, {"type": "Feature", "properties": {"code": "WK015005", "name": "Borgele en Platvoet"}, "geometry": {"type": "MultiPolygon", "coordinates": [[[[6.15603, 52.27848], [6.15537, 52.27099], [6.15438, 52.26674], [6.1502, 52.26788], [6.14461, 52.26747], [6.14261, 52.27244], [6.14032, 52.27249], [6.13752, 52.2737], [6.13239, 52.27152], [6.12888, 52.26933], [6.12737, 52.27021], [6.12298, 52.26926], [6.12111, 52.27203], [6.13159, 52.27762], [6.1361, 52.27826], [6.13787, 52.27777], [6.14187, 52.27912], [6.14226, 52.27924], [6.14548, 52.28018], [6.15603, 52.27848]]]]}}, {"type": "Feature", "properties": {"code": "WK015006", "name": "Keizerslanden"}, "geometry": {"type": "MultiPolygon", "coordinates": [[[[6.17406, 52.26236], [6.1703, 52.26001], [6.16955, 52.26021], [6.16353, 52.26296], [6.16315, 52.26308], [6.16052, 52.26399], [6.15557, 52.26604], [6.15438, 52.26674], [6.15537, 52.27099], [6.15603, 52.27848], [6.1615, 52.28119], [6.17145, 52.28068], [6.18017, 52.27935], [6.1768, 52.27178], [6.17663, 52.26873], [6.17664, 52.26823], [6.17664, 52.26536], [6.17406, 52.26236]]]]}}, {"type": "Feature", "properties": {"code": "WK015007", "name": "Rivierenwijk en Bergweide"}, "geometry": {"type": "MultiPolygon", "coordinates": [[[[6.19042, 52.25143], [6.19155, 52.2473], [6.19044, 52.24436], [6.19761, 52.24581], [6.20085, 52.2478], [6.2012, 52.24755], [6.2068, 52.24291], [6.20925, 52.23895], [6.21049, 52.23725], [6.21088, 52.23659], [6.21452, 52.23133], [6.21695, 52.22647], [6.20311, 52.22927], [6.19014, 52.22921], [6.18945, 52.22934], [6.18914, 52.22917], [6.18686, 52.23097], [6.18604, 52.23145], [6.18599, 52.2314], [6.18484, 52.23182], [6.18497, 52.23199], [6.18253, 52.23383], [6.17838, 52.2337], [6.17421, 52.23278], [6.16734, 52.23125], [6.16121, 52.23405], [6.16068, 52.23755], [6.16332, 52.24291], [6.16369, 52.24585], [6.16989, 52.24582], [6.17031, 52.24955], [6.16897, 52.25086], [6.16854, 52.25079], [6.16655, 52.25245], [6.16672, 52.2534], [6.16335, 52.25506], [6.16419, 52.25616], [6.17146, 52.25619], [6.1808, 52.25783], [6.18422, 52.2578], [6.18888, 52.25666], [6.19476, 52.25299], [6.19042, 52.25143]]]]}}, {"type": "Feature", "properties": {"code": "WK015008", "name": "Colmschate-Noord"}, "geometry": {"type": "MultiPolygon", "coordinates": [[[[6.21195, 52.25856], [6.21258, 52.25549], [6.21474, 52.25573], [6.21668, 52.2542], [6.21594, 52.25347], [6.21641, 52.25045], [6.20538, 52.25032], [6.20011, 52.25063], [6.19719, 52.25152], [6.19502, 52.25306], [6.20179, 52.25555], [6.20647, 52.26039], [6.21195, 52.25856]]]]}}, {"type": "Feature", "properties": {"code": "WK015009", "name": "Colmschate-Vijfhoek"}, "geometry": {"type": "MultiPolygon", "coordinates": [[[[6.25503, 52.2628], [6.25319, 52.25952], [6.2572, 52.25828], [6.25897, 52.25692], [6.26093, 52.25342], [6.2631, 52.25173], [6.26515, 52.2518], [6.26256, 52.24864], [6.25647, 52.25124], [6.24719, 52.24967], [6.23223, 52.24954], [6.23186, 52.25095], [6.22138, 52.25061], [6.22077, 52.2524], [6.21918, 52.25368], [6.21668, 52.2542], [6.21474, 52.25573], [6.21258, 52.25549], [6.21195, 52.25856], [6.20647, 52.26039], [6.20706, 52.26097], [6.20733, 52.26096], [6.21294, 52.26675], [6.22785, 52.26795], [6.23588, 52.26726], [6.25154, 52.2661], [6.25441, 52.26425], [6.25503, 52.2628]]]]}}, {"type": "Feature", "properties": {"code": "WK015010", "name": "Colmschate-Zuid"}, "geometry": {"type": "MultiPolygon", "coordinates": [[[[6.22077, 52.2524], [6.22138, 52.25061], [6.23186, 52.25095], [6.23223, 52.24954], [6.24719, 52.24967], [6.25647, 52.25124], [6.26256, 52.24864], [6.25778, 52.24471], [6.25391, 52.24262], [6.24776, 52.24122], [6.23197, 52.23891], [6.22318, 52.23843], [6.21458, 52.23833], [6.21049, 52.23725], [6.20925, 52.23895], [6.2068, 52.24291], [6.2012, 52.24755], [6.20085, 52.2478], [6.19761, 52.24581], [6.19044, 52.24436], [6.19155, 52.2473], [6.19042, 52.25143], [6.19476, 52.25299], [6.19502, 52.25306], [6.19719, 52.25152], [6.20011, 52.25063], [6.20538, 52.25032], [6.21641, 52.25045], [6.21594, 52.25347], [6.21668, 52.2542], [6.21918, 52.25368], [6.22077, 52.2524]]]]}}, {"type": "Feature", "properties": {"code": "WK015011", "name": "Diepenveen"}, "geometry": {"type": "MultiPolygon", "coordinates": [[[[6.20562, 52.32086], [6.20644, 52.3112], [6.20571, 52.30927], [6.19936, 52.30286], [6.19642, 52.29689], [6.18389, 52.28676], [6.18017, 52.27935], [6.17145, 52.28068], [6.1615, 52.28119], [6.15603, 52.27848], [6.14548, 52.28018], [6.14226, 52.27924], [6.14187, 52.27912], [6.13787, 52.27777], [6.1361, 52.27826], [6.13159, 52.27762], [6.12111, 52.27203], [6.11237, 52.27831], [6.11127, 52.28072], [6.11132, 52.28821], [6.10587, 52.29241], [6.10132, 52.30122], [6.10146, 52.30121], [6.10812, 52.29901], [6.10837, 52.29766], [6.11859, 52.29889], [6.12998, 52.3016], [6.1303, 52.30167], [6.1404, 52.30376], [6.16312, 52.30741], [6.17186, 52.30879], [6.18218, 52.30891], [6.18155, 52.31486], [6.18344, 52.31503], [6.19007, 52.31476], [6.19951, 52.31598], [6.20247, 52.31811], [6.20369, 52.32028], [6.20562, 52.32086]]]]}}, {"type": "Feature", "properties": {"code": "WK015012", "name": "Schalkhaar"}, "geometry": {"type": "MultiPolygon", "coordinates": [[[[6.21294, 52.26675], [6.20733, 52.26096], [6.20706, 52.26097], [6.19863, 52.26264], [6.19605, 52.26184], [6.18695, 52.26466], [6.18297, 52.26676], [6.17664, 52.26823], [6.17663, 52.26873], [6.1768, 52.27178], [6.18017, 52.27935], [6.18389, 52.28676], [6.19642, 52.29689], [6.19936, 52.30286], [6.20571, 52.30927], [6.20644, 52.3112], [6.20562, 52.32086], [6.23536, 52.31982], [6.23513, 52.31446], [6.25564, 52.3058], [6.24547, 52.29672], [6.23195, 52.28731], [6.21294, 52.26675]]]]}}, {"type": "Feature", "properties": {"code": "WK015013", "name": "Okkenbroek"}, "geometry": {"type": "MultiPolygon", "coordinates": [[[[6.32782, 52.29018], [6.32782, 52.29014], [6.32039, 52.29165], [6.30612, 52.3006], [6.32653, 52.30163], [6.32782, 52.29018]]]]}}, {"type": "Feature", "properties": {"code": "WK015014", "name": "Lettele"}, "geometry": {"type": "MultiPolygon", "coordinates": [[[[6.25564, 52.3058], [6.26724, 52.3008], [6.30612, 52.3006], [6.32039, 52.29165], [6.32782, 52.29014], [6.32884, 52.2811], [6.32646, 52.26606], [6.32474, 52.26452], [6.31688, 52.26257], [6.30802, 52.26152], [6.30331, 52.26024], [6.30247, 52.2593], [6.29486, 52.25824], [6.29162, 52.25702], [6.28805, 52.25761], [6.2818, 52.25614], [6.27554, 52.25632], [6.27604, 52.25408], [6.27112, 52.25412], [6.26515, 52.2518], [6.2631, 52.25173], [6.26093, 52.25342], [6.25897, 52.25692], [6.2572, 52.25828], [6.25319, 52.25952], [6.25503, 52.2628], [6.25441, 52.26425], [6.25154, 52.2661], [6.23588, 52.26726], [6.22785, 52.26795], [6.21294, 52.26675], [6.23195, 52.28731], [6.24547, 52.29672], [6.25564, 52.3058]]]]}}, {"type": "Feature", "properties": {"code": "WK015015", "name": "Bathmen"}, "geometry": {"type": "MultiPolygon", "coordinates": [[[[6.34886, 52.26989], [6.35083, 52.26925], [6.35213, 52.27083], [6.35349, 52.27002], [6.35488, 52.2692], [6.35284, 52.26835], [6.35538, 52.26727], [6.35672, 52.26813], [6.36349, 52.26421], [6.36306, 52.26401], [6.36454, 52.26316], [6.36483, 52.26343], [6.37078, 52.26001], [6.37294, 52.26091], [6.37716, 52.25868], [6.37722, 52.25665], [6.37481, 52.2563], [6.37488, 52.25514], [6.37729, 52.2544], [6.37634, 52.25219], [6.37654, 52.25135], [6.37721, 52.25002], [6.38122, 52.2474], [6.38113, 52.2466], [6.38185, 52.24611], [6.37735, 52.24475], [6.36685, 52.24153], [6.35176, 52.2417], [6.34965, 52.24124], [6.34922, 52.2401], [6.33806, 52.23622], [6.33871, 52.22715], [6.32543, 52.227], [6.32043, 52.22567], [6.29794, 52.22553], [6.29695, 52.229], [6.29304, 52.22951], [6.29283, 52.23083], [6.29171, 52.23087], [6.28633, 52.23036], [6.27723, 52.22794], [6.27101, 52.22791], [6.27129, 52.22641], [6.2694, 52.22646], [6.26472, 52.22725], [6.26084, 52.22907], [6.25729, 52.22728], [6.23845, 52.22759], [6.23392, 52.22904], [6.22777, 52.22975], [6.22248, 52.22887], [6.21648, 52.23147], [6.21452, 52.23133], [6.21088, 52.23659], [6.21049, 52.23725], [6.21458, 52.23833], [6.22318, 52.23843], [6.23197, 52.23891], [6.24776, 52.24122], [6.25391, 52.24262], [6.25778, 52.24471], [6.26256, 52.24864], [6.26515, 52.2518], [6.27112, 52.25412], [6.27604, 52.25408], [6.27554, 52.25632], [6.2818, 52.25614], [6.28805, 52.25761], [6.29162, 52.25702], [6.29486, 52.25824], [6.30247, 52.2593], [6.30331, 52.26024], [6.30802, 52.26152], [6.31688, 52.26257], [6.32474, 52.26452], [6.32646, 52.26606], [6.32884, 52.2811], [6.35054, 52.27145], [6.34886, 52.26989]]]]}}]}