{"type": "FeatureCollection", "features": [{"type": "Feature", "properties": {"code": "BU01140100", "name": "Derde Kruisdiep"}, "geometry": {"type": "MultiPolygon", "coordinates": [[[[6.96002, 52.84814], [6.96191, 52.84637], [6.9525, 52.84267], [6.95191, 52.84195], [6.94923, 52.84245], [6.94518, 52.8432], [6.94345, 52.84485], [6.94401, 52.8466], [6.9497, 52.84582], [6.95505, 52.84777], [6.95622, 52.85012], [6.95799, 52.85008], [6.96002, 52.84814]]]]}}, {"type": "Feature", "properties": {"code": "BU01140101", "name": "Eerste Kruisdiep"}, "geometry": {"type": "MultiPolygon", "coordinates": [[[[6.99649, 52.86318], [6.99895, 52.86069], [7.00273, 52.85675], [6.99524, 52.85377], [7.00208, 52.84726], [6.99818, 52.84577], [6.99339, 52.85034], [6.99061, 52.84927], [6.98597, 52.85354], [6.98105, 52.85163], [6.98035, 52.85229], [6.98161, 52.85278], [6.98063, 52.85371], [6.97953, 52.85474], [6.9783, 52.85426], [6.9775, 52.855], [6.97443, 52.85791], [6.9818, 52.86077], [6.97988, 52.86264], [6.98276, 52.86372], [6.98478, 52.86182], [6.98685, 52.86184], [6.99481, 52.86494], [6.99649, 52.86318]]]]}}, {"type": "Feature", "properties": {"code": "BU01140102", "name": "Tramwijk"}, "geometry": {"type": "MultiPolygon", "coordinates": [[[[6.95191, 52.84195], [6.95105, 52.83947], [6.94601, 52.83428], [6.93701, 52.82874], [6.93258, 52.82711], [6.93088, 52.82911], [6.93379, 52.83001], [6.94512, 52.83732], [6.94923, 52.84245], [6.95191, 52.84195]]]]}}, {"type": "Feature", "properties": {"code": "BU01140103", "name": "Achterdiep"}, "geometry": {"type": "MultiPolygon", "coordinates": [[[[6.98063, 52.85371], [6.96191, 52.84637], [6.96002, 52.84814], [6.9775, 52.855], [6.9783, 52.85426], [6.97953, 52.85474], [6.98063, 52.85371]]]]}}, {"type": "Feature", "properties": {"code": "BU01140104", "name": "Weerdingerkanaal"}, "geometry": {"type": "MultiPolygon", "coordinates": [[[[6.99895, 52.86069], [6.99649, 52.86318], [7.00346, 52.86755], [7.00265, 52.86835], [7.00475, 52.86914], [7.00563, 52.86828], [7.01315, 52.87299], [7.0148, 52.87299], [7.01858, 52.87298], [6.99895, 52.86069]]]]}}, {"type": "Feature", "properties": {"code": "BU01140106", "name": "Siepelveen"}, "geometry": {"type": "MultiPolygon", "coordinates": [[[[6.98414, 52.84036], [6.98359, 52.83877], [6.9753, 52.8356], [6.97375, 52.83706], [6.96857, 52.83504], [6.96928, 52.83436], [6.96679, 52.83339], [6.96607, 52.83408], [6.95789, 52.83095], [6.944, 52.82951], [6.94352, 52.83128], [6.95575, 52.83255], [6.9818, 52.84256], [6.98414, 52.84036]]]]}}, {"type": "Feature", "properties": {"code": "BU01140109", "name": "Verspreide huizen Nieuw-Weerdinge"}, "geometry": {"type": "MultiPolygon", "coordinates": [[[[7.00563, 52.86828], [7.00475, 52.86914], [7.00265, 52.86835], [7.00346, 52.86755], [6.99649, 52.86318], [6.99481, 52.86494], [6.98685, 52.86184], [6.98478, 52.86182], [6.98276, 52.86372], [6.97988, 52.86264], [6.9818, 52.86077], [6.97443, 52.85791], [6.9775, 52.855], [6.96002, 52.84814], [6.95799, 52.85008], [6.95622, 52.85012], [6.95505, 52.84777], [6.9497, 52.84582], [6.94401, 52.8466], [6.94345, 52.84485], [6.94518, 52.8432], [6.94923, 52.84245], [6.94512, 52.83732], [6.93379, 52.83001], [6.93088, 52.82911], [6.93258, 52.82711], [6.93701, 52.82874], [6.94601, 52.83428], [6.95105, 52.83947], [6.95191, 52.84195], [6.9525, 52.84267], [6.96191, 52.84637], [6.98063, 52.85371], [6.98161, 52.85278], [6.98035, 52.85229], [6.98105, 52.85163], [6.98597, 52.85354], [6.99061, 52.84927], [6.99339, 52.85034], [6.99818, 52.84577], [6.98414, 52.84036], [6.9818, 52.84256], [6.95575, 52.83255], [6.94352, 52.83128], [6.944, 52.82951], [6.95789, 52.83095], [6.96607, 52.83408], [6.96679, 52.83339], [6.96928, 52.83436], [6.96857, 52.83504], [6.97375, 52.83706], [6.9753, 52.8356], [6.98765, 52.81653], [6.98519, 52.81994], [6.9827, 52.81967], [6.98257, 52.81874], [6.97261, 52.81765], [6.97285, 52.81582], [6.94647, 52.81294], [6.94587, 52.81574], [6.94647, 52.81816], [6.93511, 52.81732], [6.9338, 52.82041], [6.92657, 52.82445], [6.92839, 52.82505], [6.93227, 52.82631], [6.92683, 52.82925], [6.93039, 52.83256], [6.92557, 52.8379], [6.91397, 52.83397], [6.9124, 52.83372], [6.91093, 52.8354], [6.91925, 52.83835], [6.94991, 52.8488], [6.95189, 52.85219], [6.95208, 52.85532], [6.95762, 52.86191], [6.96145, 52.86428], [6.96449, 52.86495], [6.96664, 52.86387], [7.00759, 52.87301], [7.01315, 52.87299], [7.00563, 52.86828]]], [[[7.04349, 52.86522], [7.04643, 52.86586], [7.04788, 52.86451], [7.04763, 52.86374], [7.0428, 52.86329], [7.0413, 52.8647], [7.03424, 52.86317], [7.03643, 52.8607], [7.03454, 52.85992], [7.03192, 52.86239], [7.01921, 52.85727], [7.02193, 52.855], [7.00973, 52.85023], [7.00638, 52.84892], [7.00208, 52.84726], [6.99524, 52.85377], [7.00273, 52.85675], [6.99895, 52.86069], [7.01858, 52.87298], [7.04029, 52.87282], [7.04349, 52.86522]]]]}}, {"type": "Feature", "properties": {"code": "BU01140200", "name": "Roswinkel-Centrum"}, "geometry": {"type": "MultiPolygon", "coordinates": [[[[7.04232, 52.83571], [7.03919, 52.8346], [7.0378, 52.83605], [7.03462, 52.8349], [7.03115, 52.83487], [7.03065, 52.83538], [7.03669, 52.83755], [7.03526, 52.83895], [7.03852, 52.84012], [7.03898, 52.83964], [7.04278, 52.84103], [7.04592, 52.83749], [7.04739, 52.83803], [7.04864, 52.8367], [7.04451, 52.83517], [7.04348, 52.83613], [7.04232, 52.83571]]]]}}, {"type": "Feature", "properties": {"code": "BU01140206", "name": "Oude Schuttingskanaal"}, "geometry": {"type": "MultiPolygon", "coordinates": [[[[7.03305, 52.82173], [7.03135, 52.82164], [7.02957, 52.82161], [7.02949, 52.82319], [7.00579, 52.84785], [7.00701, 52.84831], [7.00638, 52.84892], [7.00973, 52.85023], [7.01205, 52.84807], [7.01542, 52.84939], [7.01756, 52.84739], [7.01215, 52.84543], [7.03211, 52.82466], [7.03305, 52.82173]]]]}}, {"type": "Feature", "properties": {"code": "BU01140208", "name": "Roswinkelerstraat"}, "geometry": {"type": "MultiPolygon", "coordinates": [[[[7.04492, 52.82867], [7.03919, 52.8346], [7.04232, 52.83571], [7.04796, 52.82981], [7.04695, 52.82927], [7.04492, 52.82867]]], [[[7.03526, 52.83895], [7.0292, 52.84547], [7.02775, 52.84898], [7.03117, 52.85027], [7.0328, 52.84868], [7.0322, 52.84846], [7.03416, 52.84481], [7.03852, 52.84012], [7.03526, 52.83895]]]]}}, {"type": "Feature", "properties": {"code": "BU01140209", "name": "Verspreide huizen Roswinkel"}, "geometry": {"type": "MultiPolygon", "coordinates": [[[[7.02957, 52.82161], [7.03135, 52.82164], [7.02732, 52.81929], [7.0259, 52.81916], [7.02547, 52.8201], [7.02379, 52.81997], [6.98765, 52.81653], [6.9753, 52.8356], [6.98359, 52.83877], [6.98414, 52.84036], [6.99818, 52.84577], [7.00208, 52.84726], [7.00638, 52.84892], [7.00701, 52.84831], [7.00579, 52.84785], [7.02949, 52.82319], [7.02957, 52.82161]]], [[[7.0428, 52.86329], [7.04763, 52.86374], [7.04788, 52.86451], [7.05146, 52.86118], [7.0523, 52.8615], [7.06273, 52.85147], [7.06375, 52.85179], [7.06427, 52.85104], [7.06592, 52.85164], [7.06914, 52.84786], [7.07007, 52.84779], [7.07624, 52.85003], [7.07632, 52.84875], [7.07219, 52.84521], [7.07164, 52.83928], [7.07086, 52.83776], [7.04796, 52.82981], [7.04232, 52.83571], [7.04348, 52.83613], [7.04451, 52.83517], [7.04864, 52.8367], [7.04739, 52.83803], [7.04592, 52.83749], [7.04278, 52.84103], [7.03898, 52.83964], [7.03852, 52.84012], [7.03416, 52.84481], [7.0322, 52.84846], [7.0328, 52.84868], [7.03117, 52.85027], [7.02775, 52.84898], [7.0292, 52.84547], [7.03526, 52.83895], [7.03669, 52.83755], [7.03065, 52.83538], [7.03115, 52.83487], [7.03462, 52.8349], [7.0378, 52.83605], [7.03919, 52.8346], [7.04492, 52.82867], [7.04695, 52.82927], [7.04626, 52.82812], [7.0388, 52.82543], [7.03666, 52.82335], [7.04228, 52.82356], [7.04252, 52.82256], [7.03305, 52.82173], [7.03211, 52.82466], [7.01215, 52.84543], [7.01756, 52.84739], [7.01542, 52.84939], [7.01205, 52.84807], [7.00973, 52.85023], [7.02193, 52.855], [7.01921, 52.85727], [7.03192, 52.86239], [7.03454, 52.85992], [7.03643, 52.8607], [7.03424, 52.86317], [7.0413, 52.8647], [7.0428, 52.86329]]]]}}, {"type": "Feature", "properties": {"code": "BU01140300", "name": "Emmer-Compascuum-Centrum"}, "geometry": {"type": "MultiPolygon", "coordinates": [[[[7.06497, 52.82081], [7.06125, 52.81846], [7.06438, 52.81599], [7.0581, 52.81249], [7.05801, 52.80944], [7.04814, 52.8097], [7.04704, 52.79604], [7.03958, 52.79624], [7.04016, 52.80344], [7.04226, 52.80338], [7.04253, 52.80658], [7.03008, 52.80691], [7.03094, 52.80763], [7.03191, 52.80845], [7.03157, 52.81276], [7.04403, 52.81664], [7.05026, 52.81994], [7.04862, 52.8208], [7.05047, 52.82216], [7.05708, 52.81933], [7.06106, 52.82248], [7.06497, 52.82081]]]]}}, {"type": "Feature", "properties": {"code": "BU01140301", "name": "Emmer-Erfscheidenveen"}, "geometry": {"type": "MultiPolygon", "coordinates": [[[[7.02732, 52.81929], [7.02921, 52.81252], [7.03157, 52.81276], [7.03191, 52.80845], [7.03094, 52.80763], [7.02534, 52.80755], [7.02537, 52.80677], [7.01773, 52.80664], [7.01498, 52.80613], [6.98985, 52.80356], [6.99006, 52.79887], [6.98708, 52.79882], [6.98701, 52.80026], [6.98404, 52.80022], [6.9839, 52.80331], [6.96025, 52.8009], [6.95782, 52.80272], [6.95714, 52.80516], [7.02597, 52.81214], [7.02379, 52.81997], [7.02547, 52.8201], [7.0259, 52.81916], [7.02732, 52.81929]]]]}}, {"type": "Feature", "properties": {"code": "BU01140302", "name": "Foxel"}, "geometry": {"type": "MultiPolygon", "coordinates": [[[[7.01498, 52.80613], [7.01773, 52.80664], [7.01827, 52.79429], [7.02383, 52.79328], [7.02054, 52.78736], [7.02156, 52.78714], [7.01976, 52.78397], [7.01465, 52.78388], [7.01498, 52.80613]]]]}}, {"type": "Feature", "properties": {"code": "BU01140303", "name": "Oosterdiep"}, "geometry": {"type": "MultiPolygon", "coordinates": [[[[7.03958, 52.79624], [7.04704, 52.79604], [7.05342, 52.79586], [7.05333, 52.79395], [7.04659, 52.79413], [7.04568, 52.77994], [7.04171, 52.77987], [7.04085, 52.77985], [7.04202, 52.7943], [7.02581, 52.79475], [7.02576, 52.79412], [7.02243, 52.79479], [7.02262, 52.79673], [7.03958, 52.79624]]]]}}, {"type": "Feature", "properties": {"code": "BU01140304", "name": "Hoofdkanaal"}, "geometry": {"type": "MultiPolygon", "coordinates": [[[[7.06497, 52.82081], [7.06106, 52.82248], [7.07444, 52.8336], [7.07723, 52.83445], [7.07942, 52.83445], [7.07998, 52.83315], [7.06497, 52.82081]]]]}}, {"type": "Feature", "properties": {"code": "BU01140309", "name": "Verspreide huizen Emmer-Compascuum"}, "geometry": {"type": "MultiPolygon", "coordinates": [[[[7.04226, 52.80338], [7.04016, 52.80344], [7.03958, 52.79624], [7.02262, 52.79673], [7.02243, 52.79479], [7.02576, 52.79412], [7.02581, 52.79475], [7.04202, 52.7943], [7.04085, 52.77985], [7.01964, 52.77952], [7.01329, 52.7779], [7.00383, 52.77831], [7.00387, 52.77872], [7.00055, 52.77884], [7.00177, 52.77839], [7.00116, 52.7725], [6.99981, 52.77254], [6.97455, 52.77332], [6.96568, 52.78458], [6.96698, 52.78464], [6.96652, 52.79486], [6.9603, 52.79526], [6.96025, 52.8009], [6.9839, 52.80331], [6.98404, 52.80022], [6.98701, 52.80026], [6.98708, 52.79882], [6.99006, 52.79887], [6.98985, 52.80356], [7.01498, 52.80613], [7.01465, 52.78388], [7.01976, 52.78397], [7.02156, 52.78714], [7.02054, 52.78736], [7.02383, 52.79328], [7.01827, 52.79429], [7.01773, 52.80664], [7.02537, 52.80677], [7.02534, 52.80755], [7.03094, 52.80763], [7.03008, 52.80691], [7.04253, 52.80658], [7.04226, 52.80338]]], [[[7.07155, 52.81042], [7.06907, 52.78032], [7.04568, 52.77994], [7.04659, 52.79413], [7.05333, 52.79395], [7.05342, 52.79586], [7.04704, 52.79604], [7.04814, 52.8097], [7.05801, 52.80944], [7.0581, 52.81249], [7.06438, 52.81599], [7.06125, 52.81846], [7.06497, 52.82081], [7.07998, 52.83315], [7.07942, 52.83445], [7.07723, 52.83445], [7.07444, 52.8336], [7.06106, 52.82248], [7.05708, 52.81933], [7.05047, 52.82216], [7.04862, 52.8208], [7.05026, 52.81994], [7.04403, 52.81664], [7.03157, 52.81276], [7.02921, 52.81252], [7.02732, 52.81929], [7.03135, 52.82164], [7.03305, 52.82173], [7.04252, 52.82256], [7.04228, 52.82356], [7.03666, 52.82335], [7.0388, 52.82543], [7.04626, 52.82812], [7.04695, 52.82927], [7.04796, 52.82981], [7.07086, 52.83776], [7.07164, 52.83928], [7.07238, 52.83851], [7.09274, 52.8382], [7.07951, 52.82162], [7.07155, 52.81042]]], [[[6.95714, 52.80516], [6.95782, 52.80272], [6.95074, 52.80269], [6.94821, 52.80705], [6.94647, 52.81294], [6.97285, 52.81582], [6.97261, 52.81765], [6.98257, 52.81874], [6.9827, 52.81967], [6.98519, 52.81994], [6.98765, 52.81653], [7.02379, 52.81997], [7.02597, 52.81214], [6.95714, 52.80516]]]]}}, {"type": "Feature", "properties": {"code": "BU01140400", "name": "Barger-Compascuum-Centrum"}, "geometry": {"type": "MultiPolygon", "coordinates": [[[[7.04415, 52.75015], [7.03946, 52.75008], [7.0396, 52.75188], [7.03106, 52.75176], [7.03153, 52.75722], [7.0341, 52.75811], [7.03991, 52.7582], [7.04024, 52.76271], [7.04421, 52.76277], [7.04413, 52.76187], [7.04863, 52.76194], [7.04887, 52.75653], [7.0511, 52.75657], [7.05117, 52.75483], [7.04894, 52.75479], [7.04914, 52.75022], [7.04415, 52.75015]]]]}}, {"type": "Feature", "properties": {"code": "BU01140401", "name": "Scholtenskanaal"}, "geometry": {"type": "MultiPolygon", "coordinates": [[[[7.00383, 52.77831], [7.00363, 52.77656], [7.00561, 52.77628], [7.00347, 52.75791], [7.0015, 52.758], [7.00046, 52.75437], [6.99799, 52.74183], [6.99621, 52.74185], [6.99981, 52.77254], [7.00116, 52.7725], [7.00177, 52.77839], [7.00055, 52.77884], [7.00387, 52.77872], [7.00383, 52.77831]]]]}}, {"type": "Feature", "properties": {"code": "BU01140402", "name": "Verlengde Oosterdiep"}, "geometry": {"type": "MultiPolygon", "coordinates": [[[[7.03799, 52.7316], [7.03946, 52.75008], [7.04415, 52.75015], [7.04279, 52.733], [7.03994, 52.73295], [7.03986, 52.732], [7.03799, 52.7316]]], [[[7.04024, 52.76271], [7.04171, 52.77987], [7.04568, 52.77994], [7.04421, 52.76277], [7.04024, 52.76271]]]]}}, {"type": "Feature", "properties": {"code": "BU01140408", "name": "Limietweg"}, "geometry": {"type": "MultiPolygon", "coordinates": [[[[7.05842, 52.76077], [7.05737, 52.76075], [7.05542, 52.73679], [7.05097, 52.73675], [7.05377, 52.77104], [7.05929, 52.77111], [7.05842, 52.76077]]]]}}, {"type": "Feature", "properties": {"code": "BU01140409", "name": "Verspreide huizen Barger-Compascuum"}, "geometry": {"type": "MultiPolygon", "coordinates": [[[[7.05906, 52.72406], [7.04065, 52.73006], [7.04083, 52.73127], [7.04265, 52.73119], [7.04279, 52.733], [7.04415, 52.75015], [7.04914, 52.75022], [7.04894, 52.75479], [7.05117, 52.75483], [7.0511, 52.75657], [7.04887, 52.75653], [7.04863, 52.76194], [7.04413, 52.76187], [7.04421, 52.76277], [7.04568, 52.77994], [7.06907, 52.78032], [7.06415, 52.7232], [7.05906, 52.72406]], [[7.05542, 52.73679], [7.05737, 52.76075], [7.05842, 52.76077], [7.05929, 52.77111], [7.05377, 52.77104], [7.05097, 52.73675], [7.05542, 52.73679]]], [[[7.03991, 52.7582], [7.0341, 52.75811], [7.03153, 52.75722], [7.03106, 52.75176], [7.0396, 52.75188], [7.03946, 52.75008], [7.03799, 52.7316], [7.03268, 52.73303], [7.02184, 52.73348], [7.02348, 52.74626], [7.02612, 52.7544], [7.02168, 52.75471], [7.02059, 52.75343], [7.00046, 52.75437], [7.0015, 52.758], [7.00347, 52.75791], [7.00561, 52.77628], [7.00363, 52.77656], [7.00383, 52.77831], [7.01329, 52.7779], [7.01964, 52.77952], [7.04085, 52.77985], [7.04171, 52.77987], [7.04024, 52.76271], [7.03991, 52.7582]]], [[[6.98782, 52.7422], [6.9868, 52.74526], [6.9779, 52.75113], [6.99104, 52.75569], [6.98955, 52.75671], [6.98714, 52.75687], [6.98215, 52.75723], [6.97905, 52.76429], [6.97694, 52.76995], [6.97455, 52.77332], [6.99981, 52.77254], [6.99621, 52.74185], [6.98782, 52.7422]]]]}}, {"type": "Feature", "properties": {"code": "BU01140500", "name": "Nieuw-Dordrecht-Centrum"}, "geometry": {"type": "MultiPolygon", "coordinates": [[[[6.97253, 52.75182], [6.97422, 52.74985], [6.97083, 52.74868], [6.97267, 52.74725], [6.9711, 52.74671], [6.97189, 52.74609], [6.97001, 52.74544], [6.96623, 52.74414], [6.96408, 52.74643], [6.96126, 52.74546], [6.95991, 52.74638], [6.95563, 52.74926], [6.96315, 52.7522], [6.96311, 52.75973], [6.96482, 52.75938], [6.96683, 52.76007], [6.96687, 52.75304], [6.97041, 52.75427], [6.97253, 52.75182]]]]}}, {"type": "Feature", "properties": {"code": "BU01140502", "name": "Oranjedorp"}, "geometry": {"type": "MultiPolygon", "coordinates": [[[[6.94897, 52.74262], [6.95107, 52.73883], [6.95928, 52.73301], [6.9579, 52.73267], [6.96829, 52.7257], [6.96558, 52.72416], [6.92481, 52.75142], [6.92562, 52.75366], [6.92648, 52.75254], [6.92855, 52.75358], [6.93185, 52.7529], [6.93685, 52.7496], [6.93602, 52.74916], [6.9365, 52.7483], [6.94479, 52.74294], [6.94775, 52.74354], [6.94897, 52.74262]]]]}}, {"type": "Feature", "properties": {"code": "BU01140503", "name": "Vastenow"}, "geometry": {"type": "MultiPolygon", "coordinates": [[[[6.98789, 52.73534], [6.98383, 52.73463], [6.97001, 52.74544], [6.97189, 52.74609], [6.9711, 52.74671], [6.97267, 52.74725], [6.98789, 52.73534]]]]}}, {"type": "Feature", "properties": {"code": "BU01140504", "name": "Herenstreek"}, "geometry": {"type": "MultiPolygon", "coordinates": [[[[6.9779, 52.75113], [6.97422, 52.74985], [6.97253, 52.75182], [6.98714, 52.75687], [6.98955, 52.75671], [6.99104, 52.75569], [6.9779, 52.75113]]]]}}, {"type": "Feature", "properties": {"code": "BU01140509", "name": "Verspreide huizen Nieuw-Dordrecht"}, "geometry": {"type": "MultiPolygon", "coordinates": [[[[6.9548, 52.71952], [6.95259, 52.71832], [6.93547, 52.74261], [6.92687, 52.7482], [6.92235, 52.75121], [6.92481, 52.75142], [6.96558, 52.72416], [6.96492, 52.7238], [6.95579, 52.71885], [6.9548, 52.71952]]], [[[6.97001, 52.74544], [6.98383, 52.73463], [6.97808, 52.73408], [6.96126, 52.74546], [6.96408, 52.74643], [6.96623, 52.74414], [6.97001, 52.74544]]], [[[6.98789, 52.73534], [6.97267, 52.74725], [6.97083, 52.74868], [6.97422, 52.74985], [6.9779, 52.75113], [6.9868, 52.74526], [6.98782, 52.7422], [6.98951, 52.73528], [6.98789, 52.73534]]], [[[6.96311, 52.75973], [6.96315, 52.7522], [6.95563, 52.74926], [6.94794, 52.75446], [6.96311, 52.75973]]], [[[6.96687, 52.75304], [6.96683, 52.76007], [6.97905, 52.76429], [6.98215, 52.75723], [6.98714, 52.75687], [6.97253, 52.75182], [6.97041, 52.75427], [6.96687, 52.75304]]]]}}, {"type": "Feature", "properties": {"code": "BU01140600", "name": "Nieuw-Amsterdam-Centrum"}, "geometry": {"type": "MultiPolygon", "coordinates": [[[[6.85193, 52.72475], [6.8528, 52.72468], [6.85385, 52.72188], [6.85721, 52.72227], [6.8578, 52.7206], [6.85573, 52.71982], [6.86706, 52.71884], [6.86644, 52.71629], [6.86657, 52.71395], [6.86582, 52.71394], [6.86492, 52.71101], [6.86842, 52.69916], [6.87877, 52.69806], [6.87443, 52.69646], [6.87157, 52.69626], [6.8705, 52.69258], [6.86779, 52.69485], [6.86687, 52.69671], [6.86243, 52.69526], [6.85831, 52.69538], [6.85794, 52.69627], [6.8466, 52.72519], [6.85193, 52.72475]]]]}}, {"type": "Feature", "properties": {"code": "BU01140601", "name": "Barger-Erfscheidenveen"}, "geometry": {"type": "MultiPolygon", "coordinates": [[[[6.8528, 52.72468], [6.85193, 52.72475], [6.85653, 52.73393], [6.85673, 52.73395], [6.85955, 52.72773], [6.86612, 52.72846], [6.86592, 52.72913], [6.86788, 52.72935], [6.87008, 52.7282], [6.87037, 52.72717], [6.85798, 52.72592], [6.85854, 52.72425], [6.8528, 52.72468]]]]}}, {"type": "Feature", "properties": {"code": "BU01140608", "name": "Langs de Vaart"}, "geometry": {"type": "MultiPolygon", "coordinates": [[[[6.90058, 52.7131], [6.9004, 52.71171], [6.89985, 52.71028], [6.88442, 52.71158], [6.88461, 52.71238], [6.88172, 52.71263], [6.86657, 52.71395], [6.86644, 52.71629], [6.90058, 52.7131]]]]}}, {"type": "Feature", "properties": {"code": "BU01140609", "name": "Verspreide huizen Nieuw-Amsterdam"}, "geometry": {"type": "MultiPolygon", "coordinates": [[[[6.89441, 52.69516], [6.89422, 52.69409], [6.88961, 52.69409], [6.88593, 52.68327], [6.87834, 52.68792], [6.8705, 52.69258], [6.87157, 52.69626], [6.87443, 52.69646], [6.87877, 52.69806], [6.89708, 52.69612], [6.89441, 52.69516]]], [[[6.86492, 52.71101], [6.86582, 52.71394], [6.86657, 52.71395], [6.88172, 52.71263], [6.88082, 52.70906], [6.88126, 52.70649], [6.87877, 52.69806], [6.86842, 52.69916], [6.86492, 52.71101]]], [[[6.88666, 52.73692], [6.8895, 52.73169], [6.89526, 52.73453], [6.89518, 52.72901], [6.90008, 52.72634], [6.90448, 52.72633], [6.90701, 52.72698], [6.90789, 52.72561], [6.90338, 52.72476], [6.90058, 52.7131], [6.86644, 52.71629], [6.86706, 52.71884], [6.85573, 52.71982], [6.8578, 52.7206], [6.85721, 52.72227], [6.85385, 52.72188], [6.8528, 52.72468], [6.85854, 52.72425], [6.85798, 52.72592], [6.87037, 52.72717], [6.87008, 52.7282], [6.86788, 52.72935], [6.86592, 52.72913], [6.86612, 52.72846], [6.85955, 52.72773], [6.85673, 52.73395], [6.86617, 52.73493], [6.86615, 52.73586], [6.87625, 52.73691], [6.87621, 52.73525], [6.87743, 52.73521], [6.87832, 52.73545], [6.87854, 52.73749], [6.88059, 52.73803], [6.88184, 52.7366], [6.88666, 52.73692]]], [[[6.8466, 52.72519], [6.84521, 52.72885], [6.84425, 52.73137], [6.85023, 52.73324], [6.85653, 52.73393], [6.85193, 52.72475], [6.8466, 52.72519]]]]}}, {"type": "Feature", "properties": {"code": "BU01140700", "name": "Erica-Centrum"}, "geometry": {"type": "MultiPolygon", "coordinates": [[[[6.91896, 52.70946], [6.91964, 52.7123], [6.9201, 52.71424], [6.91391, 52.71476], [6.91441, 52.71705], [6.9172, 52.71682], [6.91777, 52.71919], [6.92609, 52.72134], [6.92988, 52.72183], [6.93829, 52.70986], [6.94374, 52.70938], [6.94634, 52.70975], [6.95107, 52.71236], [6.95217, 52.71162], [6.94638, 52.70843], [6.95063, 52.70804], [6.95032, 52.70674], [6.93856, 52.70777], [6.93451, 52.70727], [6.93402, 52.70512], [6.92299, 52.70605], [6.92332, 52.70733], [6.91896, 52.70946]]]]}}, {"type": "Feature", "properties": {"code": "BU01140701", "name": "Amsterdamscheveld"}, "geometry": {"type": "MultiPolygon", "coordinates": [[[[6.92347, 52.68394], [6.9119, 52.68724], [6.90917, 52.68827], [6.90976, 52.68902], [6.91187, 52.69088], [6.91616, 52.69044], [6.92203, 52.69799], [6.92513, 52.69711], [6.91895, 52.68916], [6.922, 52.68829], [6.92037, 52.68618], [6.92433, 52.68505], [6.92347, 52.68394]]]]}}, {"type": "Feature", "properties": {"code": "BU01140702", "name": "Beekweg"}, "geometry": {"type": "MultiPolygon", "coordinates": [[[[6.9004, 52.71171], [6.91275, 52.71065], [6.91261, 52.71], [6.91016, 52.69953], [6.92203, 52.69799], [6.91616, 52.69044], [6.91187, 52.69088], [6.90976, 52.68902], [6.90917, 52.68827], [6.9119, 52.68724], [6.90842, 52.6856], [6.89727, 52.69398], [6.89422, 52.69409], [6.89441, 52.69516], [6.89708, 52.69612], [6.87877, 52.69806], [6.88126, 52.70649], [6.88082, 52.70906], [6.88172, 52.71263], [6.88461, 52.71238], [6.88442, 52.71158], [6.89985, 52.71028], [6.9004, 52.71171]]]]}}, {"type": "Feature", "properties": {"code": "BU01140707", "name": "Verlengde Vaart"}, "geometry": {"type": "MultiPolygon", "coordinates": [[[[6.91964, 52.7123], [6.91896, 52.70946], [6.91261, 52.71], [6.91275, 52.71065], [6.9004, 52.71171], [6.90058, 52.7131], [6.91788, 52.71162], [6.91807, 52.71242], [6.91964, 52.7123]]]]}}, {"type": "Feature", "properties": {"code": "BU01140708", "name": "Ericasestraat"}, "geometry": {"type": "MultiPolygon", "coordinates": [[[[6.92988, 52.72183], [6.92609, 52.72134], [6.92144, 52.72797], [6.91786, 52.72705], [6.9172, 52.72799], [6.91843, 52.72915], [6.91807, 52.73156], [6.91497, 52.73611], [6.91691, 52.73662], [6.91152, 52.74304], [6.91026, 52.74272], [6.90937, 52.74382], [6.91234, 52.74455], [6.92319, 52.73038], [6.92803, 52.73164], [6.92917, 52.72998], [6.92503, 52.7289], [6.92988, 52.72183]]]]}}, {"type": "Feature", "properties": {"code": "BU01140709", "name": "Verspreide huizen Erica"}, "geometry": {"type": "MultiPolygon", "coordinates": [[[[6.95259, 52.71832], [6.9548, 52.71952], [6.95579, 52.71885], [6.95921, 52.71645], [6.95645, 52.71494], [6.95918, 52.71292], [6.95434, 52.7104], [6.95367, 52.70753], [6.95963, 52.70667], [6.96096, 52.70543], [6.96168, 52.69997], [6.95974, 52.68106], [6.95493, 52.68223], [6.95025, 52.67623], [6.92347, 52.68394], [6.92433, 52.68505], [6.92037, 52.68618], [6.922, 52.68829], [6.91895, 52.68916], [6.92513, 52.69711], [6.92203, 52.69799], [6.91016, 52.69953], [6.91261, 52.71], [6.91896, 52.70946], [6.92332, 52.70733], [6.92299, 52.70605], [6.93402, 52.70512], [6.93451, 52.70727], [6.93856, 52.70777], [6.95032, 52.70674], [6.95063, 52.70804], [6.94638, 52.70843], [6.95217, 52.71162], [6.95107, 52.71236], [6.94634, 52.70975], [6.94374, 52.70938], [6.93829, 52.70986], [6.92988, 52.72183], [6.92503, 52.7289], [6.92917, 52.72998], [6.92803, 52.73164], [6.92319, 52.73038], [6.91234, 52.74455], [6.92687, 52.7482], [6.93547, 52.74261], [6.95259, 52.71832]]], [[[6.92609, 52.72134], [6.91777, 52.71919], [6.9172, 52.71682], [6.91441, 52.71705], [6.91391, 52.71476], [6.9201, 52.71424], [6.91964, 52.7123], [6.91807, 52.71242], [6.91788, 52.71162], [6.90058, 52.7131], [6.90338, 52.72476], [6.90789, 52.72561], [6.9172, 52.72799], [6.91786, 52.72705], [6.92144, 52.72797], [6.92609, 52.72134]]]]}}, {"type": "Feature", "properties": {"code": "BU01140800", "name": "Klazienaveen-Noord"}, "geometry": {"type": "MultiPolygon", "coordinates": [[[[6.98951, 52.73528], [6.99696, 52.73455], [6.99674, 52.73094], [6.99933, 52.73083], [7.00126, 52.72894], [7.00104, 52.72692], [7.0043, 52.72522], [7.02402, 52.72444], [7.0239, 52.7234], [6.97516, 52.72543], [6.96822, 52.72164], [6.96492, 52.7238], [6.96558, 52.72416], [6.96829, 52.7257], [6.9579, 52.73267], [6.95928, 52.73301], [6.97004, 52.73487], [6.97875, 52.73278], [6.97947, 52.73316], [6.97808, 52.73408], [6.98383, 52.73463], [6.98789, 52.73534], [6.98951, 52.73528]]]]}}, {"type": "Feature", "properties": {"code": "BU01140801", "name": "Klazienaveen-Zuid"}, "geometry": {"type": "MultiPolygon", "coordinates": [[[[7.0239, 52.7234], [7.02521, 52.72335], [7.02466, 52.72089], [7.0221, 52.72075], [7.02182, 52.7183], [7.00567, 52.71893], [7.00249, 52.71907], [7.00206, 52.71541], [6.98621, 52.71607], [6.98308, 52.7171], [6.97157, 52.71758], [6.9698, 52.71766], [6.96996, 52.71904], [6.97007, 52.71999], [6.96822, 52.72164], [6.97516, 52.72543], [7.0239, 52.7234]]]]}}, {"type": "Feature", "properties": {"code": "BU01140802", "name": "Barger-Oosterveen"}, "geometry": {"type": "MultiPolygon", "coordinates": [[[[6.98493, 52.70637], [6.9845, 52.7035], [6.97885, 52.69921], [6.97785, 52.6966], [6.97481, 52.69673], [6.97573, 52.70469], [6.97475, 52.70473], [6.9748, 52.70574], [6.98124, 52.70546], [6.98138, 52.70652], [6.98493, 52.70637]]]]}}, {"type": "Feature", "properties": {"code": "BU01140803", "name": "Kloostermanswijk"}, "geometry": {"type": "MultiPolygon", "coordinates": [[[[7.00567, 52.71893], [7.00514, 52.7145], [7.00798, 52.71426], [7.00789, 52.71345], [7.0064, 52.71331], [7.00548, 52.70533], [7.00091, 52.70553], [7.00206, 52.71541], [7.00249, 52.71907], [7.00567, 52.71893]]]]}}, {"type": "Feature", "properties": {"code": "BU01140804", "name": "Dordsedijk"}, "geometry": {"type": "MultiPolygon", "coordinates": [[[[6.98621, 52.71607], [6.98493, 52.70637], [6.98138, 52.70652], [6.98308, 52.7171], [6.98621, 52.71607]]]]}}, {"type": "Feature", "properties": {"code": "BU01140806", "name": "Derksweg"}, "geometry": {"type": "MultiPolygon", "coordinates": [[[[6.97157, 52.71758], [6.96967, 52.70277], [6.9681, 52.70285], [6.9682, 52.70376], [6.96446, 52.70392], [6.96486, 52.70705], [6.96659, 52.70698], [6.96678, 52.70878], [6.9642, 52.70888], [6.9644, 52.71068], [6.9675, 52.71055], [6.96837, 52.7173], [6.96761, 52.71781], [6.96996, 52.71904], [6.9698, 52.71766], [6.97157, 52.71758]]]]}}, {"type": "Feature", "properties": {"code": "BU01140807", "name": "Tuinbouwcentrum Klazienaveen"}, "geometry": {"type": "MultiPolygon", "coordinates": [[[[7.02184, 52.73348], [6.99696, 52.73455], [6.99799, 52.74183], [7.00046, 52.75437], [7.02059, 52.75343], [7.02168, 52.75471], [7.02612, 52.7544], [7.02348, 52.74626], [7.02184, 52.73348]]]]}}, {"type": "Feature", "properties": {"code": "BU01140809", "name": "Verspreide huizen Klazienaveen"}, "geometry": {"type": "MultiPolygon", "coordinates": [[[[6.9644, 52.71068], [6.9642, 52.70888], [6.96678, 52.70878], [6.96659, 52.70698], [6.96486, 52.70705], [6.96446, 52.70392], [6.9682, 52.70376], [6.9681, 52.70285], [6.96967, 52.70277], [6.97157, 52.71758], [6.98308, 52.7171], [6.98138, 52.70652], [6.98124, 52.70546], [6.9748, 52.70574], [6.97475, 52.70473], [6.97573, 52.70469], [6.97481, 52.69673], [6.97785, 52.6966], [6.97885, 52.69921], [6.9845, 52.7035], [6.98493, 52.70637], [6.98621, 52.71607], [7.00206, 52.71541], [7.00091, 52.70553], [7.00548, 52.70533], [7.0064, 52.71331], [7.00789, 52.71345], [7.01968, 52.71275], [7.01865, 52.7038], [7.02587, 52.70401], [7.02499, 52.6946], [7.02647, 52.69453], [7.02554, 52.68634], [7.01745, 52.68671], [7.01705, 52.67854], [7.01156, 52.67878], [6.95974, 52.68106], [6.96168, 52.69997], [6.96096, 52.70543], [6.95963, 52.70667], [6.95367, 52.70753], [6.95434, 52.7104], [6.95918, 52.71292], [6.95645, 52.71494], [6.95921, 52.71645], [6.95579, 52.71885], [6.96492, 52.7238], [6.96822, 52.72164], [6.97007, 52.71999], [6.96996, 52.71904], [6.96761, 52.71781], [6.96837, 52.7173], [6.9675, 52.71055], [6.9644, 52.71068]]], [[[7.00798, 52.71426], [7.00514, 52.7145], [7.00567, 52.71893], [7.02182, 52.7183], [7.02129, 52.71379], [7.00798, 52.71426]]], [[[7.02177, 52.73292], [7.02953, 52.73229], [7.03481, 52.73107], [7.03664, 52.7295], [7.03704, 52.72739], [7.03623, 52.72741], [7.02441, 52.72788], [7.02402, 52.72444], [7.0043, 52.72522], [7.00104, 52.72692], [7.00126, 52.72894], [6.99933, 52.73083], [6.99674, 52.73094], [6.99696, 52.73455], [7.02184, 52.73348], [7.02177, 52.73292]]], [[[6.98782, 52.7422], [6.99621, 52.74185], [6.99799, 52.74183], [6.99696, 52.73455], [6.98951, 52.73528], [6.98782, 52.7422]]]]}}, {"type": "Feature", "properties": {"code": "BU01140900", "name": "Zwartemeer-Centrum"}, "geometry": {"type": "MultiPolygon", "coordinates": [[[[7.03799, 52.7316], [7.03986, 52.732], [7.03994, 52.73295], [7.04279, 52.733], [7.04265, 52.73119], [7.04083, 52.73127], [7.04065, 52.73006], [7.05906, 52.72406], [7.05873, 52.72019], [7.05186, 52.72047], [7.05165, 52.71777], [7.04914, 52.71788], [7.04841, 52.7117], [7.04184, 52.71199], [7.03742, 52.71218], [7.03792, 52.71627], [7.03657, 52.71751], [7.03223, 52.71769], [7.03257, 52.72049], [7.02917, 52.72067], [7.02754, 52.72233], [7.02776, 52.72324], [7.03392, 52.72297], [7.03582, 52.7239], [7.03623, 52.72741], [7.03704, 52.72739], [7.03664, 52.7295], [7.03481, 52.73107], [7.02953, 52.73229], [7.02177, 52.73292], [7.02184, 52.73348], [7.03268, 52.73303], [7.03799, 52.7316]]]]}}, {"type": "Feature", "properties": {"code": "BU01140901", "name": "Kamerlingswijk"}, "geometry": {"type": "MultiPolygon", "coordinates": [[[[7.04841, 52.7117], [7.04733, 52.70264], [7.0408, 52.703], [7.04184, 52.71199], [7.04841, 52.7117]]]]}}, {"type": "Feature", "properties": {"code": "BU01140909", "name": "Verspreide huizen Zwartemeer"}, "geometry": {"type": "MultiPolygon", "coordinates": [[[[7.03623, 52.72741], [7.03582, 52.7239], [7.03392, 52.72297], [7.02776, 52.72324], [7.02754, 52.72233], [7.02917, 52.72067], [7.03257, 52.72049], [7.03223, 52.71769], [7.03657, 52.71751], [7.03792, 52.71627], [7.03742, 52.71218], [7.04184, 52.71199], [7.0408, 52.703], [7.04733, 52.70264], [7.04841, 52.7117], [7.04914, 52.71788], [7.05165, 52.71777], [7.05186, 52.72047], [7.05873, 52.72019], [7.05906, 52.72406], [7.06415, 52.7232], [7.05859, 52.6767], [7.03004, 52.67796], [7.02984, 52.67255], [7.02856, 52.66977], [7.02621, 52.66988], [7.01063, 52.6707], [7.01156, 52.67878], [7.01705, 52.67854], [7.01745, 52.68671], [7.02554, 52.68634], [7.02647, 52.69453], [7.02499, 52.6946], [7.02587, 52.70401], [7.01865, 52.7038], [7.01968, 52.71275], [7.00789, 52.71345], [7.00798, 52.71426], [7.02129, 52.71379], [7.02182, 52.7183], [7.0221, 52.72075], [7.02466, 52.72089], [7.02521, 52.72335], [7.0239, 52.7234], [7.02402, 52.72444], [7.02441, 52.72788], [7.03623, 52.72741]]]]}}, {"type": "Feature", "properties": {"code": "BU01141000", "name": "Schoonebeek"}, "geometry": {"type": "MultiPolygon", "coordinates": [[[[6.89162, 52.6666], [6.88966, 52.66452], [6.89391, 52.66302], [6.89739, 52.66096], [6.896, 52.65822], [6.89542, 52.65768], [6.8906, 52.65847], [6.88865, 52.65771], [6.8869, 52.65579], [6.88136, 52.65551], [6.87828, 52.6562], [6.87998, 52.65807], [6.87615, 52.65927], [6.87526, 52.66281], [6.86915, 52.66216], [6.86802, 52.66693], [6.8744, 52.66757], [6.8732, 52.67237], [6.883, 52.67213], [6.88893, 52.6704], [6.88995, 52.66982], [6.88832, 52.66835], [6.88853, 52.6677], [6.89162, 52.6666]]]]}}, {"type": "Feature", "properties": {"code": "BU01141001", "name": "Oosterse Bos en Middendorp"}, "geometry": {"type": "MultiPolygon", "coordinates": [[[[6.92836, 52.64969], [6.92583, 52.64996], [6.91742, 52.65237], [6.90803, 52.65377], [6.896, 52.65822], [6.89739, 52.66096], [6.89391, 52.66302], [6.88966, 52.66452], [6.89162, 52.6666], [6.90003, 52.66466], [6.90657, 52.66229], [6.90341, 52.65903], [6.90667, 52.65786], [6.90749, 52.65872], [6.91689, 52.65489], [6.91943, 52.65461], [6.92015, 52.65534], [6.92206, 52.65521], [6.92576, 52.65398], [6.93032, 52.65042], [6.92836, 52.64969]]]]}}, {"type": "Feature", "properties": {"code": "BU01141002", "name": "Westerse Bos"}, "geometry": {"type": "MultiPolygon", "coordinates": [[[[6.8732, 52.67237], [6.8744, 52.66757], [6.86802, 52.66693], [6.86915, 52.66216], [6.85885, 52.66106], [6.85603, 52.67168], [6.87297, 52.67326], [6.8732, 52.67237]]]]}}, {"type": "Feature", "properties": {"code": "BU01141003", "name": "Zandpol"}, "geometry": {"type": "MultiPolygon", "coordinates": [[[[6.8705, 52.69258], [6.87834, 52.68792], [6.87666, 52.68735], [6.87172, 52.68718], [6.86987, 52.68826], [6.86932, 52.69067], [6.86041, 52.68971], [6.85524, 52.68927], [6.85215, 52.68764], [6.85161, 52.69009], [6.85016, 52.69658], [6.8517, 52.69652], [6.85494, 52.69306], [6.85678, 52.69329], [6.85608, 52.69635], [6.85794, 52.69627], [6.85831, 52.69538], [6.86243, 52.69526], [6.86687, 52.69671], [6.86779, 52.69485], [6.8705, 52.69258]]]]}}, {"type": "Feature", "properties": {"code": "BU01141004", "name": "Industrieterrein De Vierslagen"}, "geometry": {"type": "MultiPolygon", "coordinates": [[[[6.87666, 52.68735], [6.87711, 52.68246], [6.87001, 52.68174], [6.86234, 52.68189], [6.86041, 52.68971], [6.86932, 52.69067], [6.86987, 52.68826], [6.87172, 52.68718], [6.87666, 52.68735]]]]}}, {"type": "Feature", "properties": {"code": "BU01141009", "name": "Verspreide huizen Schoonebeek"}, "geometry": {"type": "MultiPolygon", "coordinates": [[[[6.88136, 52.65551], [6.8869, 52.65579], [6.88865, 52.65771], [6.8906, 52.65847], [6.89542, 52.65768], [6.896, 52.65822], [6.90803, 52.65377], [6.91742, 52.65237], [6.92583, 52.64996], [6.92653, 52.64937], [6.91634, 52.64133], [6.91446, 52.64648], [6.90294, 52.64859], [6.89718, 52.65137], [6.8915, 52.65152], [6.87995, 52.65055], [6.87281, 52.65327], [6.86474, 52.64986], [6.86188, 52.64969], [6.85885, 52.66106], [6.86915, 52.66216], [6.87526, 52.66281], [6.87615, 52.65927], [6.87998, 52.65807], [6.87828, 52.6562], [6.88136, 52.65551]]], [[[6.90842, 52.6856], [6.9119, 52.68724], [6.92347, 52.68394], [6.95025, 52.67623], [6.95937, 52.67349], [6.95843, 52.67246], [6.94838, 52.66154], [6.93933, 52.65153], [6.93803, 52.65183], [6.93486, 52.65115], [6.93386, 52.64918], [6.92836, 52.64969], [6.93032, 52.65042], [6.92576, 52.65398], [6.92206, 52.65521], [6.92015, 52.65534], [6.91943, 52.65461], [6.91689, 52.65489], [6.90749, 52.65872], [6.90667, 52.65786], [6.90341, 52.65903], [6.90657, 52.66229], [6.90003, 52.66466], [6.89162, 52.6666], [6.88853, 52.6677], [6.88832, 52.66835], [6.88995, 52.66982], [6.88893, 52.6704], [6.883, 52.67213], [6.8732, 52.67237], [6.87297, 52.67326], [6.85603, 52.67168], [6.85467, 52.67631], [6.85253, 52.68596], [6.85215, 52.68764], [6.85524, 52.68927], [6.86041, 52.68971], [6.86234, 52.68189], [6.87001, 52.68174], [6.87711, 52.68246], [6.87666, 52.68735], [6.87834, 52.68792], [6.88593, 52.68327], [6.88961, 52.69409], [6.89422, 52.69409], [6.89727, 52.69398], [6.90842, 52.6856]]]]}}, {"type": "Feature", "properties": {"code": "BU01141300", "name": "Veenoord"}, "geometry": {"type": "MultiPolygon", "coordinates": [[[[6.8466, 52.72519], [6.85794, 52.69627], [6.85608, 52.69635], [6.85678, 52.69329], [6.85494, 52.69306], [6.8517, 52.69652], [6.85016, 52.69658], [6.84881, 52.69937], [6.84608, 52.70549], [6.84239, 52.70487], [6.83949, 52.71435], [6.84187, 52.71477], [6.84031, 52.71812], [6.83274, 52.71951], [6.82991, 52.72598], [6.82832, 52.72631], [6.84178, 52.72575], [6.84076, 52.72818], [6.84521, 52.72885], [6.8466, 52.72519]]]]}}, {"type": "Feature", "properties": {"code": "BU01141308", "name": "Ermerveen"}, "geometry": {"type": "MultiPolygon", "coordinates": [[[[6.84425, 52.73137], [6.84521, 52.72885], [6.84076, 52.72818], [6.83735, 52.73441], [6.83485, 52.73811], [6.83911, 52.73981], [6.84072, 52.73933], [6.84425, 52.73137]]]]}}, {"type": "Feature", "properties": {"code": "BU01141309", "name": "Verspreide huizen Veenoord"}, "geometry": {"type": "MultiPolygon", "coordinates": [[[[6.84239, 52.70487], [6.84608, 52.70549], [6.84881, 52.69937], [6.84087, 52.69957], [6.83274, 52.71951], [6.84031, 52.71812], [6.84187, 52.71477], [6.83949, 52.71435], [6.84239, 52.70487]]], [[[6.82832, 52.72631], [6.82636, 52.73088], [6.83735, 52.73441], [6.84076, 52.72818], [6.84178, 52.72575], [6.82832, 52.72631]]], [[[6.83097, 52.74195], [6.83277, 52.74405], [6.83689, 52.74234], [6.83911, 52.73981], [6.83485, 52.73811], [6.83097, 52.74195]]]]}}, {"type": "Feature", "properties": {"code": "BU01142100", "name": "Nieuw-Schoonebeek"}, "geometry": {"type": "MultiPolygon", "coordinates": [[[[6.99528, 52.64676], [6.99385, 52.64467], [6.98752, 52.64532], [6.97898, 52.64714], [6.9806, 52.64898], [6.98303, 52.65296], [6.99121, 52.65129], [6.98993, 52.64896], [6.99575, 52.64777], [6.99528, 52.64676]]]]}}, {"type": "Feature", "properties": {"code": "BU01142101", "name": "Westelijk Nieuw-Schoonebeek"}, "geometry": {"type": "MultiPolygon", "coordinates": [[[[6.9806, 52.64898], [6.97898, 52.64714], [6.97141, 52.64804], [6.96152, 52.64725], [6.93681, 52.64807], [6.9337, 52.64829], [6.93386, 52.64918], [6.93486, 52.65115], [6.93803, 52.65183], [6.93933, 52.65153], [6.93925, 52.65075], [6.96137, 52.65004], [6.97464, 52.65061], [6.97532, 52.65163], [6.98013, 52.6505], [6.97933, 52.64921], [6.9806, 52.64898]]]]}}, {"type": "Feature", "properties": {"code": "BU01142102", "name": "Oostelijk Nieuw-Schoonebeek"}, "geometry": {"type": "MultiPolygon", "coordinates": [[[[7.05572, 52.6435], [7.02543, 52.63797], [7.01947, 52.63821], [6.99385, 52.64467], [6.99528, 52.64676], [6.99967, 52.64596], [7.00004, 52.64677], [7.00456, 52.64605], [7.00397, 52.64468], [7.01251, 52.64279], [7.02548, 52.64167], [7.02522, 52.64076], [7.03061, 52.64124], [7.03277, 52.64201], [7.03313, 52.64351], [7.03741, 52.64577], [7.03956, 52.64561], [7.03935, 52.64441], [7.04558, 52.64411], [7.04573, 52.6457], [7.05506, 52.64708], [7.05476, 52.64442], [7.05564, 52.64436], [7.05572, 52.6435]]]]}}, {"type": "Feature", "properties": {"code": "BU01142109", "name": "Verspreide huizen Nieuw-Schoonebeek"}, "geometry": {"type": "MultiPolygon", "coordinates": [[[[6.96152, 52.64725], [6.97141, 52.64804], [6.97898, 52.64714], [6.98752, 52.64532], [6.99385, 52.64467], [7.01947, 52.63821], [7.02543, 52.63797], [7.05572, 52.6435], [7.04173, 52.63271], [7.03861, 52.63287], [7.03547, 52.63485], [7.02876, 52.63464], [7.01249, 52.63678], [7.0066, 52.63852], [7.00449, 52.64088], [7.00188, 52.64192], [6.99923, 52.64215], [6.99246, 52.64133], [6.98427, 52.64364], [6.98192, 52.64501], [6.97599, 52.64625], [6.97493, 52.64611], [6.96832, 52.64183], [6.95923, 52.64173], [6.95356, 52.63899], [6.94543, 52.63934], [6.9386, 52.63789], [6.93465, 52.63832], [6.92852, 52.64019], [6.91926, 52.63985], [6.91634, 52.64133], [6.92653, 52.64937], [6.92583, 52.64996], [6.92836, 52.64969], [6.93386, 52.64918], [6.9337, 52.64829], [6.93681, 52.64807], [6.96152, 52.64725]]], [[[7.0233, 52.65519], [7.03977, 52.65613], [7.05605, 52.65539], [7.05506, 52.64708], [7.04573, 52.6457], [7.04558, 52.64411], [7.03935, 52.64441], [7.03956, 52.64561], [7.03741, 52.64577], [7.03313, 52.64351], [7.03277, 52.64201], [7.03061, 52.64124], [7.02522, 52.64076], [7.02548, 52.64167], [7.01251, 52.64279], [7.00397, 52.64468], [7.00456, 52.64605], [7.00004, 52.64677], [6.99967, 52.64596], [6.99528, 52.64676], [6.99575, 52.64777], [6.98993, 52.64896], [6.99121, 52.65129], [6.98303, 52.65296], [6.9806, 52.64898], [6.97933, 52.64921], [6.98013, 52.6505], [6.97532, 52.65163], [6.97464, 52.65061], [6.96137, 52.65004], [6.93925, 52.65075], [6.93933, 52.65153], [6.94838, 52.66154], [6.99345, 52.65916], [7.0233, 52.65519]]]]}}, {"type": "Feature", "properties": {"code": "BU01143200", "name": "Weiteveen"}, "geometry": {"type": "MultiPolygon", "coordinates": [[[[7.00442, 52.67097], [7.00374, 52.66974], [7.00029, 52.66989], [6.99828, 52.66623], [6.99611, 52.66668], [6.99789, 52.66982], [6.97583, 52.67081], [6.97418, 52.66865], [6.97067, 52.66975], [6.97197, 52.67138], [6.97198, 52.67222], [6.97263, 52.67573], [6.99588, 52.67468], [6.99746, 52.6756], [7.00488, 52.67527], [7.00442, 52.67097]]]]}}, {"type": "Feature", "properties": {"code": "BU01143201", "name": "Westelijk en oostelijk Weiteveen"}, "geometry": {"type": "MultiPolygon", "coordinates": [[[[7.02176, 52.6685], [7.00374, 52.66974], [7.00442, 52.67097], [7.01063, 52.6707], [7.02621, 52.66988], [7.02588, 52.66889], [7.02176, 52.6685]]], [[[6.97197, 52.67138], [6.96373, 52.67174], [6.96319, 52.67112], [6.95843, 52.67246], [6.95937, 52.67349], [6.96281, 52.67262], [6.97198, 52.67222], [6.97197, 52.67138]]]]}}, {"type": "Feature", "properties": {"code": "BU01143209", "name": "Verspreide huizen Weiteveen"}, "geometry": {"type": "MultiPolygon", "coordinates": [[[[7.05605, 52.65539], [7.03977, 52.65613], [7.0233, 52.65519], [6.99345, 52.65916], [6.94838, 52.66154], [6.95843, 52.67246], [6.96319, 52.67112], [6.96373, 52.67174], [6.97197, 52.67138], [6.97067, 52.66975], [6.97418, 52.66865], [6.97583, 52.67081], [6.99789, 52.66982], [6.99611, 52.66668], [6.99828, 52.66623], [7.00029, 52.66989], [7.00374, 52.66974], [7.02176, 52.6685], [7.02588, 52.66889], [7.02621, 52.66988], [7.02856, 52.66977], [7.02984, 52.67255], [7.03004, 52.67796], [7.05859, 52.6767], [7.05605, 52.65539]]], [[[7.01063, 52.6707], [7.00442, 52.67097], [7.00488, 52.67527], [6.99746, 52.6756], [6.99588, 52.67468], [6.97263, 52.67573], [6.97198, 52.67222], [6.96281, 52.67262], [6.95937, 52.67349], [6.95025, 52.67623], [6.95493, 52.68223], [6.95974, 52.68106], [7.01156, 52.67878], [7.01063, 52.6707]]]]}}, {"type": "Feature", "properties": {"code": "BU01144000", "name": "Emmen-Centrum"}, "geometry": {"type": "MultiPolygon", "coordinates": [[[[6.89967, 52.78939], [6.90143, 52.78217], [6.90057, 52.77708], [6.88876, 52.77711], [6.88941, 52.78088], [6.88642, 52.7883], [6.88862, 52.78857], [6.89218, 52.78876], [6.89726, 52.79115], [6.89924, 52.79485], [6.90104, 52.79465], [6.89967, 52.78939]]]]}}, {"type": "Feature", "properties": {"code": "BU01144100", "name": "Emmen-omgeving Oude Roswinkelerweg"}, "geometry": {"type": "MultiPolygon", "coordinates": [[[[6.9093, 52.79033], [6.89967, 52.78939], [6.90104, 52.79465], [6.89924, 52.79485], [6.90431, 52.80471], [6.9089, 52.80372], [6.91113, 52.80192], [6.91198, 52.80011], [6.91229, 52.7981], [6.9069, 52.79518], [6.90922, 52.79257], [6.9093, 52.79033]]]]}}, {"type": "Feature", "properties": {"code": "BU01144101", "name": "Emmen over 't spoor"}, "geometry": {"type": "MultiPolygon", "coordinates": [[[[6.91627, 52.78403], [6.91695, 52.78106], [6.9119, 52.77752], [6.90057, 52.77708], [6.90143, 52.78217], [6.89967, 52.78939], [6.9093, 52.79033], [6.91039, 52.78728], [6.91513, 52.78724], [6.91627, 52.78403]]]]}}, {"type": "Feature", "properties": {"code": "BU01144200", "name": "Emmermeer"}, "geometry": {"type": "MultiPolygon", "coordinates": [[[[6.90431, 52.80471], [6.89924, 52.79485], [6.89726, 52.79115], [6.89218, 52.78876], [6.88862, 52.78857], [6.88836, 52.79217], [6.88333, 52.80146], [6.88195, 52.8026], [6.88425, 52.80533], [6.88684, 52.80357], [6.89663, 52.80602], [6.90431, 52.80471]]]]}}, {"type": "Feature", "properties": {"code": "BU01144300", "name": "Angelslo"}, "geometry": {"type": "MultiPolygon", "coordinates": [[[[6.94885, 52.78569], [6.94551, 52.78114], [6.93185, 52.77014], [6.92268, 52.77489], [6.9119, 52.77752], [6.91695, 52.78106], [6.91627, 52.78403], [6.92618, 52.78485], [6.94297, 52.78626], [6.94853, 52.78624], [6.94885, 52.78569]]]]}}, {"type": "Feature", "properties": {"code": "BU01144400", "name": "Emmerhout"}, "geometry": {"type": "MultiPolygon", "coordinates": [[[[6.94908, 52.79785], [6.94988, 52.79145], [6.94885, 52.78569], [6.94853, 52.78624], [6.94297, 52.78626], [6.92618, 52.78485], [6.9243, 52.79138], [6.92474, 52.79274], [6.93107, 52.79713], [6.93229, 52.79526], [6.93813, 52.7971], [6.93968, 52.79852], [6.94908, 52.79785]]]]}}, {"type": "Feature", "properties": {"code": "BU01144500", "name": "Emmerschans"}, "geometry": {"type": "MultiPolygon", "coordinates": [[[[6.94908, 52.79785], [6.93968, 52.79852], [6.93813, 52.7971], [6.93229, 52.79526], [6.93107, 52.79713], [6.92868, 52.80151], [6.9315, 52.8026], [6.93211, 52.80203], [6.93755, 52.80415], [6.93988, 52.80377], [6.94195, 52.80231], [6.94196, 52.80039], [6.94851, 52.80009], [6.94908, 52.79785]]]]}}, {"type": "Feature", "properties": {"code": "BU01144600", "name": "Bargeres"}, "geometry": {"type": "MultiPolygon", "coordinates": [[[[6.89549, 52.77191], [6.8969, 52.76961], [6.89608, 52.76615], [6.89676, 52.76408], [6.89475, 52.76127], [6.88917, 52.75749], [6.87492, 52.74902], [6.87487, 52.74936], [6.87452, 52.75115], [6.87359, 52.75786], [6.87564, 52.76258], [6.87549, 52.76707], [6.87814, 52.76774], [6.87905, 52.76915], [6.88465, 52.77141], [6.89495, 52.77262], [6.89549, 52.77191]]]]}}, {"type": "Feature", "properties": {"code": "BU01144700", "name": "Rietlanden"}, "geometry": {"type": "MultiPolygon", "coordinates": [[[[6.90738, 52.74499], [6.88827, 52.74002], [6.88849, 52.73719], [6.88666, 52.73692], [6.88184, 52.7366], [6.88059, 52.73803], [6.87854, 52.73749], [6.87704, 52.73815], [6.87492, 52.74902], [6.88917, 52.75749], [6.89292, 52.75818], [6.89896, 52.75136], [6.90337, 52.7487], [6.90811, 52.74723], [6.90951, 52.74554], [6.90738, 52.74499]]]]}}, {"type": "Feature", "properties": {"code": "BU01144800", "name": "Parc Sandur"}, "geometry": {"type": "MultiPolygon", "coordinates": [[[[6.90937, 52.74382], [6.91026, 52.74272], [6.91152, 52.74304], [6.91691, 52.73662], [6.91497, 52.73611], [6.91807, 52.73156], [6.91843, 52.72915], [6.9172, 52.72799], [6.90789, 52.72561], [6.90701, 52.72698], [6.90448, 52.72633], [6.90008, 52.72634], [6.89518, 52.72901], [6.89526, 52.73453], [6.8895, 52.73169], [6.88666, 52.73692], [6.88849, 52.73719], [6.88827, 52.74002], [6.90738, 52.74499], [6.90937, 52.74382]]]]}}, {"type": "Feature", "properties": {"code": "BU01144900", "name": "Delftlanden"}, "geometry": {"type": "MultiPolygon", "coordinates": [[[[6.87359, 52.75786], [6.87452, 52.75115], [6.87487, 52.74936], [6.86597, 52.7441], [6.86157, 52.74329], [6.86101, 52.74681], [6.86, 52.74801], [6.85082, 52.75082], [6.84934, 52.7527], [6.84838, 52.75735], [6.84554, 52.75827], [6.84725, 52.76145], [6.85891, 52.75926], [6.87359, 52.75786]]]]}}, {"type": "Feature", "properties": {"code": "BU01145000", "name": "Barger-Oosterveld"}, "geometry": {"type": "MultiPolygon", "coordinates": [[[[6.96683, 52.76007], [6.96482, 52.75938], [6.96311, 52.75973], [6.95689, 52.76538], [6.94462, 52.77124], [6.9461, 52.7732], [6.94988, 52.77348], [6.95124, 52.77931], [6.95292, 52.78171], [6.95588, 52.78143], [6.95934, 52.77942], [6.96166, 52.77622], [6.9679, 52.77639], [6.97002, 52.77369], [6.96956, 52.77111], [6.96198, 52.76544], [6.96683, 52.76007]]]]}}, {"type": "Feature", "properties": {"code": "BU01145100", "name": "Weerdinge"}, "geometry": {"type": "MultiPolygon", "coordinates": [[[[6.92839, 52.82505], [6.92657, 52.82445], [6.92387, 52.82524], [6.92058, 52.82169], [6.92595, 52.81959], [6.92117, 52.81648], [6.91964, 52.81455], [6.91042, 52.81258], [6.90838, 52.80881], [6.90655, 52.80916], [6.907, 52.81002], [6.90393, 52.80992], [6.90432, 52.81178], [6.906, 52.81144], [6.90702, 52.81557], [6.91538, 52.81906], [6.91423, 52.82507], [6.9153, 52.82581], [6.91182, 52.8296], [6.91362, 52.83034], [6.91648, 52.82723], [6.91977, 52.82599], [6.9232, 52.82844], [6.92714, 52.82645], [6.92839, 52.82505]]]]}}, {"type": "Feature", "properties": {"code": "BU01145101", "name": "Westenesch"}, "geometry": {"type": "MultiPolygon", "coordinates": [[[[6.87445, 52.78929], [6.87481, 52.78687], [6.88255, 52.78604], [6.88272, 52.78528], [6.88042, 52.78311], [6.87019, 52.78155], [6.86406, 52.78685], [6.86521, 52.78995], [6.87445, 52.78929]]]]}}, {"type": "Feature", "properties": {"code": "BU01145109", "name": "Verspreide huizen Emmen"}, "geometry": {"type": "MultiPolygon", "coordinates": [[[[6.92265, 52.7518], [6.92562, 52.75366], [6.92481, 52.75142], [6.92235, 52.75121], [6.92687, 52.7482], [6.91234, 52.74455], [6.90915, 52.74846], [6.91159, 52.74872], [6.91118, 52.75046], [6.90853, 52.75042], [6.90545, 52.75484], [6.90666, 52.75611], [6.90519, 52.75954], [6.90052, 52.75883], [6.90002, 52.76024], [6.90931, 52.76186], [6.91769, 52.75067], [6.92265, 52.7518]]], [[[6.93227, 52.82631], [6.92839, 52.82505], [6.92714, 52.82645], [6.9232, 52.82844], [6.91977, 52.82599], [6.91648, 52.82723], [6.91362, 52.83034], [6.91182, 52.8296], [6.9153, 52.82581], [6.91423, 52.82507], [6.91538, 52.81906], [6.90702, 52.81557], [6.906, 52.81144], [6.90432, 52.81178], [6.90393, 52.80992], [6.907, 52.81002], [6.90655, 52.80916], [6.90838, 52.80881], [6.91042, 52.81258], [6.91964, 52.81455], [6.92117, 52.81648], [6.92595, 52.81959], [6.92058, 52.82169], [6.92387, 52.82524], [6.92657, 52.82445], [6.9338, 52.82041], [6.93511, 52.81732], [6.94647, 52.81816], [6.94587, 52.81574], [6.94647, 52.81294], [6.94821, 52.80705], [6.95074, 52.80269], [6.95782, 52.80272], [6.96025, 52.8009], [6.9603, 52.79526], [6.96652, 52.79486], [6.96698, 52.78464], [6.96568, 52.78458], [6.97455, 52.77332], [6.97694, 52.76995], [6.97905, 52.76429], [6.96683, 52.76007], [6.96198, 52.76544], [6.96956, 52.77111], [6.97002, 52.77369], [6.9679, 52.77639], [6.96166, 52.77622], [6.95934, 52.77942], [6.95588, 52.78143], [6.95292, 52.78171], [6.95124, 52.77931], [6.94988, 52.77348], [6.9461, 52.7732], [6.94462, 52.77124], [6.95689, 52.76538], [6.96311, 52.75973], [6.94794, 52.75446], [6.9385, 52.76079], [6.93543, 52.7669], [6.93185, 52.77014], [6.94551, 52.78114], [6.94885, 52.78569], [6.94988, 52.79145], [6.94908, 52.79785], [6.94851, 52.80009], [6.94196, 52.80039], [6.94195, 52.80231], [6.93988, 52.80377], [6.93755, 52.80415], [6.93211, 52.80203], [6.9315, 52.8026], [6.92868, 52.80151], [6.93107, 52.79713], [6.92474, 52.79274], [6.9243, 52.79138], [6.92618, 52.78485], [6.91627, 52.78403], [6.91513, 52.78724], [6.91039, 52.78728], [6.9093, 52.79033], [6.90922, 52.79257], [6.9069, 52.79518], [6.91229, 52.7981], [6.91198, 52.80011], [6.91113, 52.80192], [6.9089, 52.80372], [6.90431, 52.80471], [6.89663, 52.80602], [6.88684, 52.80357], [6.88425, 52.80533], [6.88195, 52.8026], [6.88333, 52.80146], [6.88836, 52.79217], [6.88862, 52.78857], [6.88642, 52.7883], [6.88941, 52.78088], [6.88876, 52.77711], [6.88276, 52.77671], [6.87926, 52.776], [6.87953, 52.77544], [6.87756, 52.77496], [6.87475, 52.77724], [6.87137, 52.77612], [6.87067, 52.77412], [6.8743, 52.77064], [6.87549, 52.76707], [6.87564, 52.76258], [6.87359, 52.75786], [6.85891, 52.75926], [6.84725, 52.76145], [6.84554, 52.75827], [6.84838, 52.75735], [6.84934, 52.7527], [6.85082, 52.75082], [6.86, 52.74801], [6.86101, 52.74681], [6.86157, 52.74329], [6.86597, 52.7441], [6.87487, 52.74936], [6.87492, 52.74902], [6.87704, 52.73815], [6.87854, 52.73749], [6.87832, 52.73545], [6.87743, 52.73521], [6.87621, 52.73525], [6.87625, 52.73691], [6.86615, 52.73586], [6.86617, 52.73493], [6.85673, 52.73395], [6.85653, 52.73393], [6.85023, 52.73324], [6.84425, 52.73137], [6.84072, 52.73933], [6.83911, 52.73981], [6.83689, 52.74234], [6.83277, 52.74405], [6.83358, 52.74731], [6.83837, 52.7514], [6.83808, 52.75582], [6.83497, 52.75612], [6.83792, 52.75835], [6.83969, 52.761], [6.83122, 52.76677], [6.83107, 52.7683], [6.83422, 52.77143], [6.83105, 52.77583], [6.83105, 52.77816], [6.83238, 52.78008], [6.84586, 52.79854], [6.84981, 52.80463], [6.85562, 52.81158], [6.85881, 52.81379], [6.86506, 52.81582], [6.869, 52.81929], [6.87142, 52.82005], [6.88494, 52.8245], [6.91093, 52.8354], [6.9124, 52.83372], [6.91397, 52.83397], [6.92557, 52.8379], [6.93039, 52.83256], [6.92683, 52.82925], [6.93227, 52.82631]], [[6.87019, 52.78155], [6.88042, 52.78311], [6.88272, 52.78528], [6.88255, 52.78604], [6.87481, 52.78687], [6.87445, 52.78929], [6.86521, 52.78995], [6.86406, 52.78685], [6.87019, 52.78155]]]]}}, {"type": "Feature", "properties": {"code": "BU01145200", "name": "Noordbarge"}, "geometry": {"type": "MultiPolygon", "coordinates": [[[[6.89549, 52.77191], [6.89495, 52.77262], [6.88465, 52.77141], [6.87905, 52.76915], [6.87814, 52.76774], [6.87549, 52.76707], [6.8743, 52.77064], [6.87067, 52.77412], [6.87137, 52.77612], [6.87475, 52.77724], [6.87756, 52.77496], [6.87953, 52.77544], [6.87926, 52.776], [6.88276, 52.77671], [6.88876, 52.77711], [6.90057, 52.77708], [6.89952, 52.77345], [6.89552, 52.77277], [6.89549, 52.77191]]]]}}, {"type": "Feature", "properties": {"code": "BU01145201", "name": "Zuidbarge"}, "geometry": {"type": "MultiPolygon", "coordinates": [[[[6.91234, 52.74455], [6.90937, 52.74382], [6.90738, 52.74499], [6.90951, 52.74554], [6.90811, 52.74723], [6.90337, 52.7487], [6.89896, 52.75136], [6.89292, 52.75818], [6.90002, 52.76024], [6.90052, 52.75883], [6.90519, 52.75954], [6.90666, 52.75611], [6.90545, 52.75484], [6.90853, 52.75042], [6.91118, 52.75046], [6.91159, 52.74872], [6.90915, 52.74846], [6.91234, 52.74455]]]]}}, {"type": "Feature", "properties": {"code": "BU01145300", "name": "Industrieterrein Bargermeer"}, "geometry": {"type": "MultiPolygon", "coordinates": [[[[6.93185, 52.77014], [6.93543, 52.7669], [6.9385, 52.76079], [6.94794, 52.75446], [6.95563, 52.74926], [6.95991, 52.74638], [6.94897, 52.74262], [6.94775, 52.74354], [6.94479, 52.74294], [6.9365, 52.7483], [6.93602, 52.74916], [6.93685, 52.7496], [6.93185, 52.7529], [6.92855, 52.75358], [6.92648, 52.75254], [6.92562, 52.75366], [6.92265, 52.7518], [6.91769, 52.75067], [6.90931, 52.76186], [6.90002, 52.76024], [6.89292, 52.75818], [6.88917, 52.75749], [6.89475, 52.76127], [6.89676, 52.76408], [6.89608, 52.76615], [6.8969, 52.76961], [6.89549, 52.77191], [6.89552, 52.77277], [6.89952, 52.77345], [6.90057, 52.77708], [6.9119, 52.77752], [6.92268, 52.77489], [6.93185, 52.77014]]]]}}, {"type": "Feature", "properties": {"code": "BU01145301", "name": "Bedrijvenpark A37"}, "geometry": {"type": "MultiPolygon", "coordinates": [[[[6.96126, 52.74546], [6.97808, 52.73408], [6.97947, 52.73316], [6.97875, 52.73278], [6.97004, 52.73487], [6.95928, 52.73301], [6.95107, 52.73883], [6.94897, 52.74262], [6.95991, 52.74638], [6.96126, 52.74546]]]]}}]}