{"type": "FeatureCollection", "features": [{"type": "Feature", "properties": {"code": "WK015300", "name": "Wijk 00 Binnensingelgebied"}, "geometry": {"type": "MultiPolygon", "coordinates": [[[[6.90874, 52.22773], [6.90956, 52.22449], [6.90974, 52.22336], [6.91142, 52.22312], [6.91193, 52.22229], [6.91212, 52.21893], [6.9109, 52.21688], [6.90939, 52.21409], [6.90766, 52.21276], [6.90271, 52.21209], [6.89915, 52.21041], [6.89345, 52.20939], [6.88936, 52.21003], [6.88184, 52.21083], [6.87931, 52.21109], [6.87683, 52.2129], [6.8775, 52.21599], [6.87411, 52.21727], [6.87475, 52.22101], [6.87851, 52.22138], [6.87912, 52.22551], [6.88048, 52.22631], [6.88997, 52.22839], [6.89638, 52.22743], [6.90026, 52.22774], [6.90391, 52.22867], [6.90874, 52.22773]]]]}}, {"type": "Feature", "properties": {"code": "WK015301", "name": "Wijk 01 Hogeland - Velve"}, "geometry": {"type": "MultiPolygon", "coordinates": [[[[6.94013, 52.22574], [6.94011, 52.22247], [6.93919, 52.2175], [6.93869, 52.21372], [6.9292, 52.21381], [6.92594, 52.21446], [6.92277, 52.21283], [6.91916, 52.21236], [6.9152, 52.21329], [6.9141, 52.21202], [6.9168, 52.20959], [6.91688, 52.20721], [6.91092, 52.20613], [6.9119, 52.20264], [6.89431, 52.19998], [6.89069, 52.20011], [6.88936, 52.21003], [6.89345, 52.20939], [6.89915, 52.21041], [6.90271, 52.21209], [6.90766, 52.21276], [6.90939, 52.21409], [6.9109, 52.21688], [6.91212, 52.21893], [6.91193, 52.22229], [6.91142, 52.22312], [6.90974, 52.22336], [6.90956, 52.22449], [6.91654, 52.22489], [6.92861, 52.22376], [6.92873, 52.22599], [6.92677, 52.22836], [6.94013, 52.22574]]]]}}, {"type": "Feature", "properties": {"code": "WK015302", "name": "Wijk 02 Boswinkel - Stadsveld"}, "geometry": {"type": "MultiPolygon", "coordinates": [[[[6.88936, 52.21003], [6.89069, 52.20011], [6.87968, 52.20106], [6.87389, 52.20142], [6.85869, 52.20211], [6.85429, 52.20528], [6.8442, 52.21281], [6.84824, 52.21418], [6.85073, 52.21659], [6.85105, 52.21807], [6.85687, 52.21881], [6.86384, 52.21922], [6.86607, 52.22009], [6.86711, 52.22143], [6.87475, 52.22101], [6.87411, 52.21727], [6.8775, 52.21599], [6.87683, 52.2129], [6.87931, 52.21109], [6.88184, 52.21083], [6.88936, 52.21003]]]]}}, {"type": "Feature", "properties": {"code": "WK015303", "name": "Wijk 03 Twekkelerveld - T.H.T."}, "geometry": {"type": "MultiPolygon", "coordinates": [[[[6.84971, 52.23622], [6.85443, 52.23411], [6.85648, 52.2355], [6.85924, 52.23444], [6.86608, 52.2318], [6.86917, 52.23066], [6.88048, 52.22631], [6.87912, 52.22551], [6.87851, 52.22138], [6.87475, 52.22101], [6.86711, 52.22143], [6.86297, 52.22262], [6.85858, 52.22504], [6.84463, 52.23384], [6.84971, 52.23622]]]]}}, {"type": "Feature", "properties": {"code": "WK015304", "name": "Wijk 04 Enschede-Noord"}, "geometry": {"type": "MultiPolygon", "coordinates": [[[[6.85871, 52.25176], [6.85784, 52.25078], [6.85648, 52.2509], [6.8551, 52.25025], [6.8537, 52.24771], [6.85682, 52.24405], [6.85684, 52.24264], [6.86541, 52.24174], [6.86554, 52.24289], [6.86722, 52.24293], [6.86919, 52.24129], [6.87345, 52.2416], [6.8731, 52.24403], [6.87668, 52.24399], [6.8789, 52.24393], [6.87872, 52.24203], [6.88287, 52.24198], [6.88326, 52.24136], [6.88856, 52.24319], [6.89085, 52.24233], [6.89753, 52.24297], [6.90024, 52.24263], [6.90038, 52.24214], [6.90326, 52.24277], [6.90564, 52.24379], [6.90763, 52.24572], [6.90902, 52.245], [6.91301, 52.24451], [6.91473, 52.24439], [6.91519, 52.24522], [6.91689, 52.24445], [6.91694, 52.24086], [6.90644, 52.23357], [6.90093, 52.2295], [6.90026, 52.22774], [6.89638, 52.22743], [6.88997, 52.22839], [6.88048, 52.22631], [6.86917, 52.23066], [6.86608, 52.2318], [6.85924, 52.23444], [6.85648, 52.2355], [6.83662, 52.24296], [6.82706, 52.24818], [6.84256, 52.25391], [6.84411, 52.25272], [6.85871, 52.25176]]]]}}, {"type": "Feature", "properties": {"code": "WK015305", "name": "Wijk 05 Ribbelt - Stokhorst"}, "geometry": {"type": "MultiPolygon", "coordinates": [[[[6.91742, 52.24073], [6.92171, 52.23912], [6.92885, 52.23982], [6.92793, 52.23618], [6.92842, 52.23396], [6.92708, 52.2323], [6.92476, 52.23081], [6.92677, 52.22836], [6.92873, 52.22599], [6.92861, 52.22376], [6.91654, 52.22489], [6.90956, 52.22449], [6.90874, 52.22773], [6.90391, 52.22867], [6.90026, 52.22774], [6.90093, 52.2295], [6.90644, 52.23357], [6.91694, 52.24086], [6.91742, 52.24073]]]]}}, {"type": "Feature", "properties": {"code": "WK015306", "name": "Wijk 06 Enschede-Zuid"}, "geometry": {"type": "MultiPolygon", "coordinates": [[[[6.9131, 52.19986], [6.91291, 52.19618], [6.90605, 52.19413], [6.91112, 52.18963], [6.91024, 52.18847], [6.90584, 52.18751], [6.89892, 52.18744], [6.89898, 52.18632], [6.89425, 52.18566], [6.89287, 52.18492], [6.88689, 52.1844], [6.88658, 52.18258], [6.88502, 52.18194], [6.8735, 52.18136], [6.86335, 52.18306], [6.8692, 52.18573], [6.85995, 52.18742], [6.85715, 52.18659], [6.85366, 52.18753], [6.84925, 52.18992], [6.84418, 52.19053], [6.84849, 52.19344], [6.84977, 52.19487], [6.84883, 52.19577], [6.84961, 52.19946], [6.85294, 52.20248], [6.85869, 52.20211], [6.87389, 52.20142], [6.87968, 52.20106], [6.89069, 52.20011], [6.89431, 52.19998], [6.9119, 52.20264], [6.9131, 52.19986]]]]}}, {"type": "Feature", "properties": {"code": "WK015307", "name": "Wijk 07 Bedrijfsterreinen Enschede-West"}, "geometry": {"type": "MultiPolygon", "coordinates": [[[[6.83662, 52.24296], [6.85648, 52.2355], [6.85443, 52.23411], [6.84971, 52.23622], [6.84463, 52.23384], [6.85858, 52.22504], [6.86297, 52.22262], [6.86711, 52.22143], [6.86607, 52.22009], [6.86384, 52.21922], [6.85687, 52.21881], [6.85105, 52.21807], [6.84559, 52.2173], [6.83856, 52.21504], [6.83278, 52.2137], [6.82926, 52.21187], [6.82338, 52.20697], [6.81119, 52.21102], [6.80269, 52.21581], [6.83168, 52.21772], [6.83605, 52.21721], [6.83347, 52.22137], [6.83723, 52.22424], [6.83792, 52.22948], [6.82998, 52.23076], [6.82861, 52.23405], [6.82306, 52.23988], [6.81845, 52.24101], [6.81954, 52.24366], [6.8243, 52.24652], [6.82706, 52.24818], [6.83662, 52.24296]]]]}}, {"type": "Feature", "properties": {"code": "WK015308", "name": "Wijk 08 Glanerbrug en omgeving"}, "geometry": {"type": "MultiPolygon", "coordinates": [[[[6.95882, 52.22802], [6.96072, 52.22562], [6.96597, 52.22589], [6.97029, 52.22774], [6.97521, 52.22461], [6.97644, 52.2238], [6.97667, 52.22365], [6.9811, 52.22074], [6.9797, 52.21813], [6.97968, 52.21514], [6.97849, 52.21219], [6.97598, 52.20949], [6.97409, 52.2054], [6.9709, 52.20298], [6.96441, 52.20398], [6.96107, 52.2054], [6.9597, 52.20631], [6.96118, 52.20826], [6.96066, 52.20884], [6.95582, 52.20932], [6.94218, 52.21238], [6.93869, 52.21372], [6.93919, 52.2175], [6.94011, 52.22247], [6.94013, 52.22574], [6.94069, 52.22725], [6.94803, 52.22612], [6.94831, 52.22766], [6.95402, 52.22712], [6.95521, 52.22728], [6.95554, 52.22835], [6.95882, 52.22802]]]]}}, {"type": "Feature", "properties": {"code": "WK015309", "name": "Wijk 09 Landelijk gebied en kernen"}, "geometry": {"type": "MultiPolygon", "coordinates": [[[[6.83723, 52.22424], [6.83347, 52.22137], [6.83605, 52.21721], [6.83168, 52.21772], [6.80269, 52.21581], [6.81119, 52.21102], [6.82338, 52.20697], [6.82926, 52.21187], [6.83278, 52.2137], [6.83856, 52.21504], [6.84559, 52.2173], [6.85105, 52.21807], [6.85073, 52.21659], [6.84824, 52.21418], [6.8442, 52.21281], [6.85429, 52.20528], [6.85869, 52.20211], [6.85294, 52.20248], [6.84961, 52.19946], [6.84883, 52.19577], [6.84977, 52.19487], [6.84849, 52.19344], [6.84418, 52.19053], [6.84925, 52.18992], [6.85366, 52.18753], [6.85715, 52.18659], [6.85995, 52.18742], [6.8692, 52.18573], [6.86335, 52.18306], [6.8735, 52.18136], [6.88502, 52.18194], [6.88658, 52.18258], [6.88689, 52.1844], [6.89287, 52.18492], [6.89425, 52.18566], [6.89898, 52.18632], [6.89892, 52.18744], [6.90584, 52.18751], [6.91024, 52.18847], [6.91112, 52.18963], [6.90605, 52.19413], [6.91291, 52.19618], [6.9131, 52.19986], [6.9119, 52.20264], [6.91092, 52.20613], [6.91688, 52.20721], [6.9168, 52.20959], [6.9141, 52.21202], [6.9152, 52.21329], [6.91916, 52.21236], [6.92277, 52.21283], [6.92594, 52.21446], [6.9292, 52.21381], [6.93869, 52.21372], [6.94218, 52.21238], [6.95582, 52.20932], [6.96066, 52.20884], [6.96118, 52.20826], [6.9597, 52.20631], [6.96107, 52.2054], [6.96441, 52.20398], [6.9709, 52.20298], [6.9674, 52.19789], [6.96239, 52.1943], [6.96228, 52.19341], [6.96248, 52.19138], [6.95125, 52.18106], [6.94951, 52.1805], [6.93788, 52.17947], [6.93374, 52.17845], [6.91563, 52.17761], [6.90955, 52.17645], [6.90675, 52.17507], [6.90588, 52.17387], [6.90572, 52.16991], [6.88975, 52.16121], [6.86987, 52.16269], [6.82799, 52.17101], [6.81428, 52.17086], [6.8056, 52.16661], [6.78817, 52.17629], [6.7766, 52.18431], [6.7668, 52.19106], [6.76632, 52.20314], [6.76287, 52.20728], [6.75962, 52.21003], [6.75589, 52.2174], [6.76906, 52.22701], [6.76519, 52.23314], [6.7681, 52.23478], [6.76832, 52.23491], [6.77443, 52.23846], [6.78858, 52.23523], [6.80236, 52.23208], [6.81375, 52.22948], [6.81845, 52.24101], [6.82306, 52.23988], [6.82861, 52.23405], [6.82998, 52.23076], [6.83792, 52.22948], [6.83723, 52.22424]]], [[[6.91359, 52.28217], [6.91875, 52.28361], [6.93917, 52.28387], [6.94099, 52.2839], [6.94928, 52.27949], [6.96782, 52.26816], [6.96913, 52.26686], [6.97092, 52.25832], [6.97303, 52.2485], [6.97165, 52.24407], [6.96496, 52.23626], [6.96589, 52.23042], [6.97029, 52.22774], [6.96597, 52.22589], [6.96072, 52.22562], [6.95882, 52.22802], [6.95554, 52.22835], [6.95521, 52.22728], [6.95402, 52.22712], [6.94831, 52.22766], [6.94803, 52.22612], [6.94069, 52.22725], [6.94013, 52.22574], [6.92677, 52.22836], [6.92476, 52.23081], [6.92708, 52.2323], [6.92842, 52.23396], [6.92793, 52.23618], [6.92885, 52.23982], [6.92171, 52.23912], [6.91742, 52.24073], [6.91694, 52.24086], [6.91689, 52.24445], [6.91519, 52.24522], [6.91473, 52.24439], [6.91301, 52.24451], [6.90902, 52.245], [6.90763, 52.24572], [6.90564, 52.24379], [6.90326, 52.24277], [6.90038, 52.24214], [6.90024, 52.24263], [6.89753, 52.24297], [6.89085, 52.24233], [6.88856, 52.24319], [6.88326, 52.24136], [6.88287, 52.24198], [6.87872, 52.24203], [6.8789, 52.24393], [6.87668, 52.24399], [6.8731, 52.24403], [6.87345, 52.2416], [6.86919, 52.24129], [6.86722, 52.24293], [6.86554, 52.24289], [6.86541, 52.24174], [6.85684, 52.24264], [6.85682, 52.24405], [6.8537, 52.24771], [6.8551, 52.25025], [6.85648, 52.2509], [6.85784, 52.25078], [6.85871, 52.25176], [6.84411, 52.25272], [6.84256, 52.25391], [6.84029, 52.26109], [6.8407, 52.26208], [6.84335, 52.2637], [6.8438, 52.26555], [6.84352, 52.26659], [6.84028, 52.26908], [6.83185, 52.27345], [6.83785, 52.27663], [6.84049, 52.27631], [6.86833, 52.27296], [6.8765, 52.27472], [6.88124, 52.27936], [6.88002, 52.2814], [6.88326, 52.28221], [6.88321, 52.28317], [6.88781, 52.28345], [6.88957, 52.28098], [6.89022, 52.2822], [6.89537, 52.28383], [6.91213, 52.28551], [6.91359, 52.28217]]]]}}]}