{"type": "FeatureCollection", "features": [{"type": "Feature", "properties": {"code": "WK019310", "name": "Wijk 10 Binnenstad"}, "geometry": {"type": "MultiPolygon", "coordinates": [[[[6.10123, 52.51313], [6.09723, 52.50889], [6.09591, 52.50902], [6.0941, 52.50936], [6.09112, 52.50857], [6.08942, 52.5103], [6.08633, 52.51058], [6.0886, 52.51403], [6.08901, 52.51463], [6.09344, 52.51597], [6.09538, 52.51697], [6.09873, 52.5161], [6.09915, 52.51519], [6.10178, 52.51467], [6.10056, 52.51332], [6.10123, 52.51313]]]]}}, {"type": "Feature", "properties": {"code": "WK019311", "name": "Wijk 11 Diezerpoort"}, "geometry": {"type": "MultiPolygon", "coordinates": [[[[6.11309, 52.51735], [6.10887, 52.51469], [6.10408, 52.51204], [6.10123, 52.51313], [6.10056, 52.51332], [6.10178, 52.51467], [6.09915, 52.51519], [6.09873, 52.5161], [6.09538, 52.51697], [6.09344, 52.51597], [6.08901, 52.51463], [6.08371, 52.51697], [6.08532, 52.51777], [6.09182, 52.52091], [6.09631, 52.52269], [6.10247, 52.52415], [6.11617, 52.52586], [6.11717, 52.52312], [6.11866, 52.51849], [6.11309, 52.51735]]]]}}, {"type": "Feature", "properties": {"code": "WK019312", "name": "Wijk 12 Wipstrik"}, "geometry": {"type": "MultiPolygon", "coordinates": [[[[6.13071, 52.50214], [6.12694, 52.50035], [6.12309, 52.50415], [6.12177, 52.50557], [6.11599, 52.50723], [6.11027, 52.50898], [6.10408, 52.51204], [6.10887, 52.51469], [6.11309, 52.51735], [6.11866, 52.51849], [6.12138, 52.51074], [6.12593, 52.50529], [6.13071, 52.50214]]]]}}, {"type": "Feature", "properties": {"code": "WK019313", "name": "Wijk 13 Assendorp"}, "geometry": {"type": "MultiPolygon", "coordinates": [[[[6.11027, 52.50898], [6.11599, 52.50723], [6.12177, 52.50557], [6.12309, 52.50415], [6.12694, 52.50035], [6.12259, 52.49875], [6.11308, 52.49809], [6.10863, 52.49863], [6.10542, 52.49957], [6.10822, 52.49736], [6.10221, 52.50004], [6.09408, 52.50086], [6.08415, 52.5014], [6.07749, 52.50245], [6.07989, 52.50596], [6.08189, 52.50691], [6.08487, 52.50713], [6.08293, 52.50795], [6.08633, 52.51058], [6.08942, 52.5103], [6.09112, 52.50857], [6.0941, 52.50936], [6.09591, 52.50902], [6.09723, 52.50889], [6.10123, 52.51313], [6.10408, 52.51204], [6.11027, 52.50898]]]]}}, {"type": "Feature", "properties": {"code": "WK019314", "name": "Wijk 14 Kamperpoort-Veerallee"}, "geometry": {"type": "MultiPolygon", "coordinates": [[[[6.07989, 52.50596], [6.07749, 52.50245], [6.07462, 52.50316], [6.06719, 52.50662], [6.07588, 52.51239], [6.08371, 52.51697], [6.08901, 52.51463], [6.0886, 52.51403], [6.08633, 52.51058], [6.08293, 52.50795], [6.08487, 52.50713], [6.08189, 52.50691], [6.07989, 52.50596]]]]}}, {"type": "Feature", "properties": {"code": "WK019320", "name": "Wijk 20 Poort van Zwolle"}, "geometry": {"type": "MultiPolygon", "coordinates": [[[[6.06719, 52.50662], [6.05422, 52.49979], [6.04619, 52.50386], [6.05038, 52.50671], [6.05465, 52.50988], [6.0552, 52.51029], [6.06622, 52.51867], [6.06996, 52.52184], [6.0717, 52.52468], [6.07392, 52.52369], [6.07625, 52.52039], [6.08371, 52.51697], [6.07588, 52.51239], [6.06719, 52.50662]]]]}}, {"type": "Feature", "properties": {"code": "WK019321", "name": "Wijk 21 Westenholte"}, "geometry": {"type": "MultiPolygon", "coordinates": [[[[6.03009, 52.53082], [6.04437, 52.52728], [6.05162, 52.52755], [6.06124, 52.52177], [6.06622, 52.51867], [6.0552, 52.51029], [6.05465, 52.50988], [6.05038, 52.50671], [6.04619, 52.50386], [6.04051, 52.50626], [6.02786, 52.50961], [6.01881, 52.51388], [6.01507, 52.51791], [6.01477, 52.52046], [6.01551, 52.52277], [6.01897, 52.52601], [6.02364, 52.52737], [6.02501, 52.5263], [6.03017, 52.52675], [6.03009, 52.53082]]]]}}, {"type": "Feature", "properties": {"code": "WK019322", "name": "Wijk 22 Stadshagen"}, "geometry": {"type": "MultiPolygon", "coordinates": [[[[6.06315, 52.56728], [6.07016, 52.55823], [6.07355, 52.55918], [6.07419, 52.5564], [6.08105, 52.55388], [6.0894, 52.55184], [6.08982, 52.55157], [6.07728, 52.54412], [6.07511, 52.54141], [6.07434, 52.53729], [6.07411, 52.53512], [6.07387, 52.53289], [6.07098, 52.52933], [6.07043, 52.52861], [6.0717, 52.52468], [6.06996, 52.52184], [6.06622, 52.51867], [6.06124, 52.52177], [6.05162, 52.52755], [6.04437, 52.52728], [6.03009, 52.53082], [6.03046, 52.53806], [6.01965, 52.54189], [6.00699, 52.54554], [6.00362, 52.55039], [6.03304, 52.5594], [6.03355, 52.55903], [6.06315, 52.56728]]]]}}, {"type": "Feature", "properties": {"code": "WK019330", "name": "Wijk 30 Holtenbroek"}, "geometry": {"type": "MultiPolygon", "coordinates": [[[[6.08532, 52.51777], [6.08371, 52.51697], [6.07625, 52.52039], [6.07392, 52.52369], [6.0717, 52.52468], [6.07043, 52.52861], [6.07098, 52.52933], [6.07387, 52.53289], [6.07411, 52.53512], [6.07434, 52.53729], [6.07863, 52.53665], [6.08227, 52.53496], [6.08399, 52.53415], [6.09126, 52.53185], [6.09292, 52.52987], [6.09331, 52.52769], [6.09515, 52.52402], [6.09631, 52.52269], [6.09182, 52.52091], [6.08532, 52.51777]]]]}}, {"type": "Feature", "properties": {"code": "WK019331", "name": "Wijk 31 Aa-landen"}, "geometry": {"type": "MultiPolygon", "coordinates": [[[[6.10247, 52.52415], [6.09631, 52.52269], [6.09515, 52.52402], [6.09331, 52.52769], [6.09292, 52.52987], [6.09126, 52.53185], [6.08399, 52.53415], [6.08521, 52.53576], [6.09024, 52.53858], [6.09743, 52.54156], [6.10225, 52.54134], [6.10697, 52.54084], [6.11144, 52.53866], [6.1124, 52.53846], [6.11421, 52.53622], [6.11524, 52.53279], [6.11433, 52.53004], [6.11153, 52.52993], [6.11546, 52.52836], [6.11663, 52.52592], [6.11617, 52.52586], [6.10247, 52.52415]]]]}}, {"type": "Feature", "properties": {"code": "WK019332", "name": "Wijk 32 Vechtlanden"}, "geometry": {"type": "MultiPolygon", "coordinates": [[[[6.17485, 52.5553], [6.16607, 52.54203], [6.16165, 52.53735], [6.15435, 52.53283], [6.14411, 52.5295], [6.12371, 52.52679], [6.11663, 52.52592], [6.11546, 52.52836], [6.11153, 52.52993], [6.11433, 52.53004], [6.11524, 52.53279], [6.11421, 52.53622], [6.1124, 52.53846], [6.11144, 52.53866], [6.10697, 52.54084], [6.10225, 52.54134], [6.09743, 52.54156], [6.09024, 52.53858], [6.08521, 52.53576], [6.08399, 52.53415], [6.08227, 52.53496], [6.07863, 52.53665], [6.07434, 52.53729], [6.07511, 52.54141], [6.07728, 52.54412], [6.08982, 52.55157], [6.0894, 52.55184], [6.09241, 52.55352], [6.09768, 52.55863], [6.10079, 52.56376], [6.10368, 52.56735], [6.11006, 52.56741], [6.10979, 52.56111], [6.11396, 52.56081], [6.11596, 52.55887], [6.11722, 52.5585], [6.11808, 52.5574], [6.119, 52.55767], [6.12669, 52.55611], [6.12782, 52.55673], [6.14053, 52.5521], [6.16681, 52.56525], [6.15871, 52.57593], [6.15743, 52.58078], [6.15507, 52.58271], [6.14753, 52.5838], [6.14742, 52.58441], [6.14758, 52.5852], [6.15661, 52.58597], [6.17684, 52.5877], [6.17705, 52.58772], [6.18269, 52.58781], [6.19356, 52.58433], [6.19361, 52.58432], [6.17485, 52.5553]]]]}}, {"type": "Feature", "properties": {"code": "WK019340", "name": "Wijk 40 Berkum"}, "geometry": {"type": "MultiPolygon", "coordinates": [[[[6.20214, 52.58495], [6.20566, 52.57508], [6.20948, 52.56853], [6.21081, 52.5678], [6.19697, 52.54724], [6.18963, 52.53616], [6.19297, 52.53197], [6.18744, 52.52478], [6.18785, 52.52352], [6.18614, 52.52269], [6.18611, 52.52267], [6.17869, 52.52223], [6.17328, 52.51959], [6.17094, 52.51973], [6.16959, 52.5206], [6.13684, 52.50508], [6.13071, 52.50214], [6.12593, 52.50529], [6.12138, 52.51074], [6.11866, 52.51849], [6.11717, 52.52312], [6.11617, 52.52586], [6.11663, 52.52592], [6.12371, 52.52679], [6.14411, 52.5295], [6.15435, 52.53283], [6.16165, 52.53735], [6.16607, 52.54203], [6.17485, 52.5553], [6.19361, 52.58432], [6.19509, 52.58411], [6.20214, 52.58495]]]]}}, {"type": "Feature", "properties": {"code": "WK019341", "name": "Wijk 41 Marsweteringlanden"}, "geometry": {"type": "MultiPolygon", "coordinates": [[[[6.18311, 52.52089], [6.18258, 52.51951], [6.18297, 52.51945], [6.18295, 52.51934], [6.17332, 52.51883], [6.18407, 52.50774], [6.18772, 52.50056], [6.18909, 52.49901], [6.19683, 52.49553], [6.19791, 52.49576], [6.19971, 52.49527], [6.19995, 52.49318], [6.19874, 52.49282], [6.20017, 52.49088], [6.20097, 52.49106], [6.19652, 52.48968], [6.19368, 52.48625], [6.19239, 52.48562], [6.19367, 52.48296], [6.19214, 52.48173], [6.18953, 52.48068], [6.18283, 52.48081], [6.1822, 52.4791], [6.17753, 52.47982], [6.17701, 52.47941], [6.17766, 52.47786], [6.17473, 52.47821], [6.17358, 52.4768], [6.17132, 52.47726], [6.1625, 52.47439], [6.15223, 52.47084], [6.13775, 52.4799], [6.13025, 52.48462], [6.12344, 52.48902], [6.11543, 52.49402], [6.10542, 52.49957], [6.10863, 52.49863], [6.11308, 52.49809], [6.12259, 52.49875], [6.12694, 52.50035], [6.13071, 52.50214], [6.13684, 52.50508], [6.16959, 52.5206], [6.17094, 52.51973], [6.17328, 52.51959], [6.17869, 52.52223], [6.18611, 52.52267], [6.18311, 52.52089]]]]}}, {"type": "Feature", "properties": {"code": "WK019350", "name": "Wijk 50 Schelle"}, "geometry": {"type": "MultiPolygon", "coordinates": [[[[6.11319, 52.47214], [6.10314, 52.47021], [6.09915, 52.47031], [6.09425, 52.47411], [6.08927, 52.47681], [6.07642, 52.48022], [6.07143, 52.48211], [6.06637, 52.48517], [6.06343, 52.48805], [6.06178, 52.4904], [6.0584, 52.496], [6.05422, 52.49979], [6.06719, 52.50662], [6.07462, 52.50316], [6.07749, 52.50245], [6.08415, 52.5014], [6.09408, 52.50086], [6.10221, 52.50004], [6.10822, 52.49736], [6.10817, 52.49522], [6.10643, 52.49239], [6.10628, 52.49216], [6.10473, 52.48847], [6.10713, 52.48295], [6.11165, 52.47487], [6.11319, 52.47214]]]]}}, {"type": "Feature", "properties": {"code": "WK019351", "name": "Wijk 51 Ittersum"}, "geometry": {"type": "MultiPolygon", "coordinates": [[[[6.13025, 52.48462], [6.13775, 52.4799], [6.13716, 52.47889], [6.13783, 52.47615], [6.12762, 52.47787], [6.12742, 52.48108], [6.12638, 52.48268], [6.12101, 52.48213], [6.11913, 52.48064], [6.12014, 52.47963], [6.12876, 52.47283], [6.12091, 52.47261], [6.11359, 52.47143], [6.11319, 52.47214], [6.11165, 52.47487], [6.10713, 52.48295], [6.10473, 52.48847], [6.10628, 52.49216], [6.10643, 52.49239], [6.10817, 52.49522], [6.10822, 52.49736], [6.10542, 52.49957], [6.11543, 52.49402], [6.12344, 52.48902], [6.13025, 52.48462]]]]}}, {"type": "Feature", "properties": {"code": "WK019352", "name": "Wijk 52 Soestweteringlanden"}, "geometry": {"type": "MultiPolygon", "coordinates": [[[[6.12762, 52.47787], [6.13783, 52.47615], [6.13716, 52.47889], [6.13775, 52.4799], [6.15223, 52.47084], [6.15132, 52.47109], [6.14415, 52.46767], [6.14749, 52.46573], [6.15159, 52.46177], [6.15229, 52.4578], [6.15492, 52.45318], [6.15313, 52.45023], [6.14768, 52.44444], [6.14044, 52.44341], [6.13966, 52.44162], [6.13708, 52.44076], [6.13591, 52.44157], [6.13027, 52.44161], [6.12041, 52.44231], [6.10958, 52.44053], [6.10502, 52.44259], [6.1023, 52.44577], [6.10199, 52.4478], [6.10355, 52.45396], [6.1017, 52.46635], [6.09915, 52.47031], [6.10314, 52.47021], [6.11319, 52.47214], [6.11359, 52.47143], [6.12091, 52.47261], [6.12876, 52.47283], [6.12014, 52.47963], [6.11913, 52.48064], [6.12101, 52.48213], [6.12638, 52.48268], [6.12742, 52.48108], [6.12762, 52.47787]]]]}}]}