{"type": "FeatureCollection", "features": [{"type": "Feature", "properties": {"code": "BU02020100", "name": "Markt"}, "geometry": {"type": "MultiPolygon", "coordinates": [[[[5.91403, 51.98327], [5.91558, 51.98065], [5.9155, 51.97835], [5.91324, 51.97648], [5.91179, 51.97496], [5.90819, 51.97608], [5.90881, 51.98032], [5.90792, 51.98158], [5.91162, 51.98383], [5.91177, 51.98426], [5.91403, 51.98327]]]]}}, {"type": "Feature", "properties": {"code": "BU02020101", "name": "Weverstraat"}, "geometry": {"type": "MultiPolygon", "coordinates": [[[[5.90819, 51.97608], [5.90054, 51.97926], [5.90277, 51.9814], [5.90792, 51.98158], [5.90881, 51.98032], [5.90819, 51.97608]]]]}}, {"type": "Feature", "properties": {"code": "BU02020102", "name": "Rijnstraat"}, "geometry": {"type": "MultiPolygon", "coordinates": [[[[5.90792, 51.98158], [5.90277, 51.9814], [5.90621, 51.98358], [5.91162, 51.98383], [5.90792, 51.98158]]]]}}, {"type": "Feature", "properties": {"code": "BU02020103", "name": "Janssingel"}, "geometry": {"type": "MultiPolygon", "coordinates": [[[[5.91177, 51.98426], [5.91162, 51.98383], [5.90621, 51.98358], [5.90515, 51.98486], [5.91071, 51.98555], [5.91177, 51.98426]]]]}}, {"type": "Feature", "properties": {"code": "BU02020104", "name": "Stationsplein"}, "geometry": {"type": "MultiPolygon", "coordinates": [[[[5.90515, 51.98486], [5.90621, 51.98358], [5.90277, 51.9814], [5.90054, 51.97926], [5.89831, 51.9806], [5.89946, 51.98214], [5.89891, 51.9847], [5.89696, 51.98543], [5.90515, 51.98486]]]]}}, {"type": "Feature", "properties": {"code": "BU02020170", "name": "Utrechtsestraat"}, "geometry": {"type": "MultiPolygon", "coordinates": [[[[5.89438, 51.98577], [5.89696, 51.98543], [5.89891, 51.9847], [5.89946, 51.98214], [5.89831, 51.9806], [5.89231, 51.98284], [5.88594, 51.98292], [5.88293, 51.98377], [5.89259, 51.98598], [5.89438, 51.98577]]]]}}, {"type": "Feature", "properties": {"code": "BU02020210", "name": "Hommelstraat"}, "geometry": {"type": "MultiPolygon", "coordinates": [[[[5.91543, 51.98579], [5.92091, 51.98488], [5.91403, 51.98327], [5.91177, 51.98426], [5.91071, 51.98555], [5.91422, 51.98582], [5.91543, 51.98579]]]]}}, {"type": "Feature", "properties": {"code": "BU02020211", "name": "Spijkerbuurt"}, "geometry": {"type": "MultiPolygon", "coordinates": [[[[5.92641, 51.98354], [5.92673, 51.98346], [5.92404, 51.98125], [5.92352, 51.98205], [5.91558, 51.98065], [5.91403, 51.98327], [5.92091, 51.98488], [5.92641, 51.98354]]]]}}, {"type": "Feature", "properties": {"code": "BU02020212", "name": "Boulevardwijk"}, "geometry": {"type": "MultiPolygon", "coordinates": [[[[5.92404, 51.98125], [5.92053, 51.97844], [5.92062, 51.9781], [5.91799, 51.97763], [5.9155, 51.97835], [5.91558, 51.98065], [5.92352, 51.98205], [5.92404, 51.98125]]]]}}, {"type": "Feature", "properties": {"code": "BU02020314", "name": "Statenkwartier"}, "geometry": {"type": "MultiPolygon", "coordinates": [[[[5.93585, 51.98122], [5.94392, 51.97894], [5.93754, 51.9785], [5.93144, 51.97972], [5.92053, 51.97844], [5.92404, 51.98125], [5.92673, 51.98346], [5.93585, 51.98122]]]]}}, {"type": "Feature", "properties": {"code": "BU02020320", "name": "Arnhemse Broek"}, "geometry": {"type": "MultiPolygon", "coordinates": [[[[5.93754, 51.9785], [5.92136, 51.97613], [5.92062, 51.9781], [5.92053, 51.97844], [5.93144, 51.97972], [5.93754, 51.9785]]]]}}, {"type": "Feature", "properties": {"code": "BU02020321", "name": "Van Verschuerbuurt"}, "geometry": {"type": "MultiPolygon", "coordinates": [[[[5.92136, 51.97613], [5.91765, 51.97567], [5.91799, 51.97763], [5.92062, 51.9781], [5.92136, 51.97613]]]]}}, {"type": "Feature", "properties": {"code": "BU02020322", "name": "Industrieterrein"}, "geometry": {"type": "MultiPolygon", "coordinates": [[[[5.94715, 51.9775], [5.95572, 51.97199], [5.95949, 51.96947], [5.95243, 51.96457], [5.94939, 51.959], [5.95011, 51.95423], [5.95523, 51.94875], [5.94033, 51.95604], [5.9356, 51.96042], [5.93179, 51.96685], [5.92878, 51.96881], [5.92495, 51.97002], [5.92244, 51.97039], [5.9231, 51.97167], [5.92136, 51.97613], [5.93754, 51.9785], [5.94392, 51.97894], [5.94715, 51.9775]]]]}}, {"type": "Feature", "properties": {"code": "BU02020338", "name": "Bij de John Frostbrug"}, "geometry": {"type": "MultiPolygon", "coordinates": [[[[5.91799, 51.97763], [5.91765, 51.97567], [5.91324, 51.97648], [5.9155, 51.97835], [5.91799, 51.97763]]]]}}, {"type": "Feature", "properties": {"code": "BU02020339", "name": "Nieuwe Kadekwartier"}, "geometry": {"type": "MultiPolygon", "coordinates": [[[[5.91765, 51.97567], [5.92136, 51.97613], [5.9231, 51.97167], [5.92244, 51.97039], [5.91978, 51.97086], [5.91179, 51.97496], [5.91324, 51.97648], [5.91765, 51.97567]]]]}}, {"type": "Feature", "properties": {"code": "BU02020423", "name": "Presikhaaf I"}, "geometry": {"type": "MultiPolygon", "coordinates": [[[[5.9453, 51.98317], [5.93585, 51.98122], [5.92673, 51.98346], [5.92641, 51.98354], [5.9312, 51.98345], [5.9377, 51.98557], [5.94219, 51.98731], [5.9453, 51.98317]]]]}}, {"type": "Feature", "properties": {"code": "BU02020424", "name": "Presikhaaf II"}, "geometry": {"type": "MultiPolygon", "coordinates": [[[[5.94744, 51.9814], [5.94954, 51.97915], [5.94715, 51.9775], [5.94392, 51.97894], [5.93585, 51.98122], [5.9453, 51.98317], [5.94744, 51.9814]]]]}}, {"type": "Feature", "properties": {"code": "BU02020425", "name": "Presikhaaf III"}, "geometry": {"type": "MultiPolygon", "coordinates": [[[[5.96364, 51.97648], [5.95572, 51.97199], [5.94715, 51.9775], [5.94954, 51.97915], [5.94744, 51.9814], [5.95583, 51.98385], [5.96364, 51.97648]]]]}}, {"type": "Feature", "properties": {"code": "BU02020526", "name": "Over het Lange Water"}, "geometry": {"type": "MultiPolygon", "coordinates": [[[[5.96383, 51.98705], [5.97124, 51.9847], [5.97216, 51.98369], [5.97614, 51.98225], [5.97634, 51.98077], [5.96364, 51.97648], [5.95583, 51.98385], [5.95422, 51.98566], [5.96094, 51.98849], [5.96383, 51.98705]]]]}}, {"type": "Feature", "properties": {"code": "BU02020527", "name": "Elsweide"}, "geometry": {"type": "MultiPolygon", "coordinates": [[[[5.96094, 51.98849], [5.95422, 51.98566], [5.94959, 51.99093], [5.95519, 51.99336], [5.96094, 51.98849]]]]}}, {"type": "Feature", "properties": {"code": "BU02020528", "name": "Winkelcentrum"}, "geometry": {"type": "MultiPolygon", "coordinates": [[[[5.95422, 51.98566], [5.95583, 51.98385], [5.94744, 51.9814], [5.9453, 51.98317], [5.94219, 51.98731], [5.94617, 51.98919], [5.94959, 51.99093], [5.95422, 51.98566]]]]}}, {"type": "Feature", "properties": {"code": "BU02020529", "name": "Ijsseloord"}, "geometry": {"type": "MultiPolygon", "coordinates": [[[[5.98093, 51.98132], [5.98501, 51.9789], [5.99034, 51.97441], [5.96841, 51.97208], [5.96363, 51.97114], [5.95949, 51.96947], [5.95572, 51.97199], [5.96364, 51.97648], [5.97634, 51.98077], [5.97614, 51.98225], [5.97216, 51.98369], [5.97124, 51.9847], [5.98093, 51.98132]]]]}}, {"type": "Feature", "properties": {"code": "BU02020630", "name": "St. Marten"}, "geometry": {"type": "MultiPolygon", "coordinates": [[[[5.91422, 51.98582], [5.91071, 51.98555], [5.90875, 51.98782], [5.91554, 51.98902], [5.91422, 51.98582]]]]}}, {"type": "Feature", "properties": {"code": "BU02020631", "name": "Graaf Ottoplein e.o."}, "geometry": {"type": "MultiPolygon", "coordinates": [[[[5.91578, 51.98931], [5.91554, 51.98902], [5.90875, 51.98782], [5.90814, 51.98865], [5.90839, 51.99077], [5.90937, 51.99012], [5.91087, 51.99013], [5.91879, 51.99281], [5.91578, 51.98931]]]]}}, {"type": "Feature", "properties": {"code": "BU02020650", "name": "Sonsbeek-Noord"}, "geometry": {"type": "MultiPolygon", "coordinates": [[[[5.91951, 51.99563], [5.92234, 51.99358], [5.91879, 51.99281], [5.91087, 51.99013], [5.90937, 51.99012], [5.90839, 51.99077], [5.90991, 51.99337], [5.91813, 51.99593], [5.91951, 51.99563]]]]}}, {"type": "Feature", "properties": {"code": "BU02020732", "name": "Klarendal-Zuid"}, "geometry": {"type": "MultiPolygon", "coordinates": [[[[5.92587, 51.98894], [5.92548, 51.98802], [5.92165, 51.98622], [5.92175, 51.98522], [5.92091, 51.98488], [5.91543, 51.98579], [5.92478, 51.98995], [5.92587, 51.98894]]]]}}, {"type": "Feature", "properties": {"code": "BU02020733", "name": "Klarendal-Noord"}, "geometry": {"type": "MultiPolygon", "coordinates": [[[[5.92478, 51.98995], [5.91543, 51.98579], [5.91422, 51.98582], [5.91554, 51.98902], [5.91578, 51.98931], [5.92299, 51.99165], [5.92478, 51.98995]]]]}}, {"type": "Feature", "properties": {"code": "BU02020734", "name": "Onder de Linden"}, "geometry": {"type": "MultiPolygon", "coordinates": [[[[5.92299, 51.99165], [5.91578, 51.98931], [5.91879, 51.99281], [5.92234, 51.99358], [5.92723, 51.99365], [5.92299, 51.99165]]]]}}, {"type": "Feature", "properties": {"code": "BU02020735", "name": "St. Janskerkstraat e.o."}, "geometry": {"type": "MultiPolygon", "coordinates": [[[[5.93196, 51.99257], [5.93206, 51.99196], [5.92852, 51.98968], [5.92587, 51.98894], [5.92478, 51.98995], [5.92299, 51.99165], [5.92723, 51.99365], [5.93196, 51.99257]]]]}}, {"type": "Feature", "properties": {"code": "BU02020840", "name": "Velperweg-Noord"}, "geometry": {"type": "MultiPolygon", "coordinates": [[[[5.93378, 51.98876], [5.92905, 51.98805], [5.92175, 51.98522], [5.92165, 51.98622], [5.92548, 51.98802], [5.92587, 51.98894], [5.92852, 51.98968], [5.93206, 51.99196], [5.93422, 51.99068], [5.93328, 51.99036], [5.93378, 51.98876]]]]}}, {"type": "Feature", "properties": {"code": "BU02020841", "name": "Molenbeke"}, "geometry": {"type": "MultiPolygon", "coordinates": [[[[5.9312, 51.98345], [5.92641, 51.98354], [5.92091, 51.98488], [5.92175, 51.98522], [5.92905, 51.98805], [5.9312, 51.98345]]]]}}, {"type": "Feature", "properties": {"code": "BU02020842", "name": "Terrein ENKA"}, "geometry": {"type": "MultiPolygon", "coordinates": [[[[5.9377, 51.98557], [5.9312, 51.98345], [5.92905, 51.98805], [5.93378, 51.98876], [5.9377, 51.98557]]]]}}, {"type": "Feature", "properties": {"code": "BU02020843", "name": "Plattenburg"}, "geometry": {"type": "MultiPolygon", "coordinates": [[[[5.94617, 51.98919], [5.94219, 51.98731], [5.9377, 51.98557], [5.93378, 51.98876], [5.94376, 51.99132], [5.94617, 51.98919]]]]}}, {"type": "Feature", "properties": {"code": "BU02020844", "name": "Angerenstein"}, "geometry": {"type": "MultiPolygon", "coordinates": [[[[5.94014, 51.99723], [5.94239, 51.99584], [5.94394, 51.9963], [5.94515, 51.99596], [5.94574, 51.99199], [5.94376, 51.99132], [5.93378, 51.98876], [5.93328, 51.99036], [5.93422, 51.99068], [5.93206, 51.99196], [5.93196, 51.99257], [5.93342, 51.99465], [5.93879, 51.99805], [5.94014, 51.99723]]]]}}, {"type": "Feature", "properties": {"code": "BU02020845", "name": "Paasberg"}, "geometry": {"type": "MultiPolygon", "coordinates": [[[[5.95097, 52.00135], [5.95153, 51.99964], [5.95361, 51.995], [5.95537, 51.99361], [5.95519, 51.99336], [5.94959, 51.99093], [5.94617, 51.98919], [5.94376, 51.99132], [5.94574, 51.99199], [5.94515, 51.99596], [5.94394, 51.9963], [5.94239, 51.99584], [5.94014, 51.99723], [5.94631, 52.00098], [5.94554, 52.00146], [5.94982, 52.00411], [5.95097, 52.00135]]]]}}, {"type": "Feature", "properties": {"code": "BU02020951", "name": "Hazegrietje"}, "geometry": {"type": "MultiPolygon", "coordinates": [[[[5.91951, 51.99563], [5.91813, 51.99593], [5.90991, 51.99337], [5.91063, 51.99449], [5.90768, 51.99738], [5.91034, 51.99961], [5.91652, 51.99962], [5.91951, 51.99563]]]]}}, {"type": "Feature", "properties": {"code": "BU02020952", "name": "Alteveer/Cranevelt"}, "geometry": {"type": "MultiPolygon", "coordinates": [[[[5.91652, 51.99962], [5.91034, 51.99961], [5.90768, 51.99738], [5.90752, 51.99928], [5.90119, 51.99844], [5.89823, 52.00643], [5.90505, 52.00751], [5.91434, 52.00805], [5.91366, 52.00656], [5.91734, 52.00129], [5.91652, 51.99962]]]]}}, {"type": "Feature", "properties": {"code": "BU02021053", "name": "Geitenkamp"}, "geometry": {"type": "MultiPolygon", "coordinates": [[[[5.94554, 52.00146], [5.94631, 52.00098], [5.94014, 51.99723], [5.93879, 51.99805], [5.93375, 52.00542], [5.94207, 52.00795], [5.94269, 52.00158], [5.9443, 52.00065], [5.94554, 52.00146]]]]}}, {"type": "Feature", "properties": {"code": "BU02021154", "name": "Monnikenhuizen"}, "geometry": {"type": "MultiPolygon", "coordinates": [[[[5.93879, 51.99805], [5.93342, 51.99465], [5.93135, 51.99601], [5.92846, 52.00372], [5.93375, 52.00542], [5.93879, 51.99805]]]]}}, {"type": "Feature", "properties": {"code": "BU02021155", "name": "Arnhemse Allee"}, "geometry": {"type": "MultiPolygon", "coordinates": [[[[5.94982, 52.00411], [5.94554, 52.00146], [5.9443, 52.00065], [5.94269, 52.00158], [5.94207, 52.00795], [5.94331, 52.01013], [5.94769, 52.00688], [5.94982, 52.00411]]]]}}, {"type": "Feature", "properties": {"code": "BU02021159", "name": "Klarenbeek"}, "geometry": {"type": "MultiPolygon", "coordinates": [[[[5.94331, 52.01013], [5.94207, 52.00795], [5.93375, 52.00542], [5.92846, 52.00372], [5.93135, 51.99601], [5.93342, 51.99465], [5.93196, 51.99257], [5.92723, 51.99365], [5.92234, 51.99358], [5.91951, 51.99563], [5.91652, 51.99962], [5.91734, 52.00129], [5.91366, 52.00656], [5.91434, 52.00805], [5.94605, 52.0105], [5.94331, 52.01013]]]]}}, {"type": "Feature", "properties": {"code": "BU02021260", "name": "Transvaalbuurt"}, "geometry": {"type": "MultiPolygon", "coordinates": [[[[5.90875, 51.98782], [5.91071, 51.98555], [5.90515, 51.98486], [5.90457, 51.98583], [5.90814, 51.98865], [5.90875, 51.98782]]]]}}, {"type": "Feature", "properties": {"code": "BU02021261", "name": "Burgemeesterswijk"}, "geometry": {"type": "MultiPolygon", "coordinates": [[[[5.90457, 51.98583], [5.90515, 51.98486], [5.89696, 51.98543], [5.89438, 51.98577], [5.89624, 51.98749], [5.89156, 51.98898], [5.88937, 51.99126], [5.89744, 51.99285], [5.90105, 51.98776], [5.90457, 51.98583]]]]}}, {"type": "Feature", "properties": {"code": "BU02021262", "name": "Gulden Bodem"}, "geometry": {"type": "MultiPolygon", "coordinates": [[[[5.89259, 51.99661], [5.89242, 51.99528], [5.89744, 51.99285], [5.88937, 51.99126], [5.88497, 51.99583], [5.88463, 51.99618], [5.88586, 51.99664], [5.89259, 51.99661]]]]}}, {"type": "Feature", "properties": {"code": "BU02021263", "name": "Sterrenberg"}, "geometry": {"type": "MultiPolygon", "coordinates": [[[[5.88937, 51.99126], [5.89156, 51.98898], [5.89064, 51.98921], [5.88739, 51.99067], [5.87695, 51.99373], [5.88497, 51.99583], [5.88937, 51.99126]]]]}}, {"type": "Feature", "properties": {"code": "BU02021264", "name": "Hoogkamp"}, "geometry": {"type": "MultiPolygon", "coordinates": [[[[5.89259, 51.99661], [5.88586, 51.99664], [5.88463, 51.99618], [5.88497, 51.99583], [5.87695, 51.99373], [5.87095, 51.99639], [5.87329, 51.99666], [5.87872, 51.9993], [5.8877, 52.00355], [5.88822, 52.00376], [5.89085, 52.00227], [5.89312, 51.99736], [5.89259, 51.99661]]]]}}, {"type": "Feature", "properties": {"code": "BU02021269", "name": "Sonsbeek/Zijpendaal"}, "geometry": {"type": "MultiPolygon", "coordinates": [[[[5.90768, 51.99738], [5.91063, 51.99449], [5.90991, 51.99337], [5.90839, 51.99077], [5.90814, 51.98865], [5.90457, 51.98583], [5.90105, 51.98776], [5.89744, 51.99285], [5.89242, 51.99528], [5.89259, 51.99661], [5.89312, 51.99736], [5.89085, 52.00227], [5.88822, 52.00376], [5.89494, 52.00606], [5.89823, 52.00643], [5.90119, 51.99844], [5.90752, 51.99928], [5.90768, 51.99738]]]]}}, {"type": "Feature", "properties": {"code": "BU02021365", "name": "Bakenberg"}, "geometry": {"type": "MultiPolygon", "coordinates": [[[[5.8877, 52.00355], [5.87872, 51.9993], [5.87085, 52.00615], [5.87279, 52.01311], [5.8775, 52.01417], [5.87855, 52.01192], [5.8877, 52.00355]]]]}}, {"type": "Feature", "properties": {"code": "BU02021366", "name": "Schaarsbergen"}, "geometry": {"type": "MultiPolygon", "coordinates": [[[[5.8775, 52.01417], [5.87279, 52.01311], [5.86663, 52.03191], [5.87103, 52.03182], [5.87546, 52.03252], [5.87779, 52.02624], [5.87693, 52.0248], [5.87322, 52.02583], [5.8775, 52.01417]]]]}}, {"type": "Feature", "properties": {"code": "BU02021367", "name": "West van Schaarsbergen"}, "geometry": {"type": "MultiPolygon", "coordinates": [[[[5.86663, 52.03191], [5.87279, 52.01311], [5.87085, 52.00615], [5.87872, 51.9993], [5.87329, 51.99666], [5.87095, 51.99639], [5.86371, 51.99577], [5.85619, 51.99611], [5.8474, 51.99832], [5.83381, 51.99872], [5.82034, 52.00081], [5.80296, 52.00405], [5.80723, 52.0117], [5.80834, 52.01876], [5.81337, 52.02407], [5.81865, 52.02959], [5.8242, 52.03484], [5.83401, 52.03311], [5.86663, 52.03191]]]]}}, {"type": "Feature", "properties": {"code": "BU02021368", "name": "N.O. van Schaarsbergen"}, "geometry": {"type": "MultiPolygon", "coordinates": [[[[5.95593, 52.07334], [5.94325, 52.0623], [5.9371, 52.04853], [5.9414, 52.01149], [5.9424, 52.01083], [5.94605, 52.0105], [5.91434, 52.00805], [5.90505, 52.00751], [5.89823, 52.00643], [5.89494, 52.00606], [5.88822, 52.00376], [5.8877, 52.00355], [5.87855, 52.01192], [5.8775, 52.01417], [5.87322, 52.02583], [5.87693, 52.0248], [5.87779, 52.02624], [5.87546, 52.03252], [5.87103, 52.03182], [5.86663, 52.03191], [5.83401, 52.03311], [5.8242, 52.03484], [5.83792, 52.04663], [5.85003, 52.05159], [5.85967, 52.05202], [5.88206, 52.04941], [5.8994, 52.04996], [5.89812, 52.06336], [5.90974, 52.0621], [5.9461, 52.07789], [5.95593, 52.07334]]]]}}, {"type": "Feature", "properties": {"code": "BU02021471", "name": "Lombok"}, "geometry": {"type": "MultiPolygon", "coordinates": [[[[5.88924, 51.98625], [5.89259, 51.98598], [5.88293, 51.98377], [5.87691, 51.98338], [5.8774, 51.98692], [5.88924, 51.98625]]]]}}, {"type": "Feature", "properties": {"code": "BU02021473", "name": "Brouwerijweg e.o."}, "geometry": {"type": "MultiPolygon", "coordinates": [[[[5.89156, 51.98898], [5.89624, 51.98749], [5.89438, 51.98577], [5.89259, 51.98598], [5.88924, 51.98625], [5.89064, 51.98921], [5.89156, 51.98898]]]]}}, {"type": "Feature", "properties": {"code": "BU02021474", "name": "Heijenoord"}, "geometry": {"type": "MultiPolygon", "coordinates": [[[[5.89064, 51.98921], [5.88924, 51.98625], [5.8774, 51.98692], [5.87721, 51.98806], [5.87825, 51.989], [5.88616, 51.98935], [5.88739, 51.99067], [5.89064, 51.98921]]]]}}, {"type": "Feature", "properties": {"code": "BU02021572", "name": "Klingelbeek"}, "geometry": {"type": "MultiPolygon", "coordinates": [[[[5.8774, 51.98692], [5.87691, 51.98338], [5.88293, 51.98377], [5.88594, 51.98292], [5.87756, 51.98032], [5.87086, 51.97511], [5.86919, 51.97599], [5.86687, 51.9753], [5.86472, 51.97627], [5.86374, 51.97796], [5.86737, 51.98029], [5.86622, 51.98401], [5.86527, 51.98456], [5.86316, 51.98533], [5.86376, 51.98754], [5.86376, 51.98754], [5.8774, 51.98692]]]]}}, {"type": "Feature", "properties": {"code": "BU02021579", "name": "Het Dorp/Mariëndaal"}, "geometry": {"type": "MultiPolygon", "coordinates": [[[[5.87695, 51.99373], [5.88739, 51.99067], [5.88616, 51.98935], [5.87825, 51.989], [5.87721, 51.98806], [5.8774, 51.98692], [5.86376, 51.98754], [5.8647, 51.99108], [5.86256, 51.99122], [5.86371, 51.99577], [5.87095, 51.99639], [5.87695, 51.99373]]]]}}, {"type": "Feature", "properties": {"code": "BU02021681", "name": "Meinerswijk/De Praets"}, "geometry": {"type": "MultiPolygon", "coordinates": [[[[5.89831, 51.9806], [5.90054, 51.97926], [5.90819, 51.97608], [5.91179, 51.97496], [5.90878, 51.97191], [5.89351, 51.9726], [5.88971, 51.96592], [5.8828, 51.96703], [5.87888, 51.9664], [5.87533, 51.96843], [5.86786, 51.96897], [5.86367, 51.96849], [5.85369, 51.96877], [5.8543, 51.96984], [5.85436, 51.96983], [5.85947, 51.96955], [5.86418, 51.9705], [5.86714, 51.97195], [5.87086, 51.97511], [5.87756, 51.98032], [5.88594, 51.98292], [5.89231, 51.98284], [5.89831, 51.9806]]]]}}, {"type": "Feature", "properties": {"code": "BU02021682", "name": "Malburgen-West"}, "geometry": {"type": "MultiPolygon", "coordinates": [[[[5.90878, 51.97191], [5.90553, 51.96873], [5.90389, 51.9673], [5.90146, 51.96535], [5.89737, 51.96301], [5.89373, 51.9649], [5.88971, 51.96592], [5.89351, 51.9726], [5.90878, 51.97191]]]]}}, {"type": "Feature", "properties": {"code": "BU02021780", "name": "Groene Weide"}, "geometry": {"type": "MultiPolygon", "coordinates": [[[[5.91978, 51.97086], [5.91466, 51.96535], [5.90553, 51.96873], [5.90878, 51.97191], [5.91179, 51.97496], [5.91978, 51.97086]]]]}}, {"type": "Feature", "properties": {"code": "BU02021783", "name": "Kamillehof"}, "geometry": {"type": "MultiPolygon", "coordinates": [[[[5.92244, 51.97039], [5.92495, 51.97002], [5.92312, 51.96366], [5.92152, 51.96163], [5.92054, 51.96216], [5.91466, 51.96535], [5.91978, 51.97086], [5.92244, 51.97039]]]]}}, {"type": "Feature", "properties": {"code": "BU02021798", "name": "Bakenhof"}, "geometry": {"type": "MultiPolygon", "coordinates": [[[[5.9356, 51.96042], [5.93183, 51.95948], [5.93162, 51.95673], [5.92886, 51.95632], [5.92742, 51.95863], [5.92152, 51.96163], [5.92312, 51.96366], [5.92495, 51.97002], [5.92878, 51.96881], [5.93179, 51.96685], [5.9356, 51.96042]]]]}}, {"type": "Feature", "properties": {"code": "BU02021815", "name": "'t Duifje"}, "geometry": {"type": "MultiPolygon", "coordinates": [[[[5.92952, 51.95075], [5.92838, 51.9508], [5.9283, 51.95082], [5.92201, 51.95084], [5.92197, 51.95644], [5.92886, 51.95632], [5.93162, 51.95673], [5.93072, 51.95287], [5.92952, 51.95075]]]]}}, {"type": "Feature", "properties": {"code": "BU02021884", "name": "Immerloo I"}, "geometry": {"type": "MultiPolygon", "coordinates": [[[[5.92054, 51.96216], [5.91685, 51.95886], [5.90978, 51.96046], [5.91232, 51.96337], [5.91466, 51.96535], [5.92054, 51.96216]]]]}}, {"type": "Feature", "properties": {"code": "BU02021885", "name": "Middelgraaflaan e.o."}, "geometry": {"type": "MultiPolygon", "coordinates": [[[[5.91466, 51.96535], [5.91232, 51.96337], [5.90389, 51.9673], [5.90553, 51.96873], [5.91466, 51.96535]]]]}}, {"type": "Feature", "properties": {"code": "BU02021886", "name": "Zeegsingel e.o."}, "geometry": {"type": "MultiPolygon", "coordinates": [[[[5.91232, 51.96337], [5.90978, 51.96046], [5.90657, 51.96375], [5.90146, 51.96535], [5.90389, 51.9673], [5.91232, 51.96337]]]]}}, {"type": "Feature", "properties": {"code": "BU02021887", "name": "Eimersweide"}, "geometry": {"type": "MultiPolygon", "coordinates": [[[[5.90978, 51.96046], [5.91685, 51.95886], [5.91717, 51.95669], [5.90809, 51.95761], [5.9024, 51.96003], [5.89737, 51.96301], [5.90146, 51.96535], [5.90657, 51.96375], [5.90978, 51.96046]]]]}}, {"type": "Feature", "properties": {"code": "BU02021888", "name": "Immerloo II"}, "geometry": {"type": "MultiPolygon", "coordinates": [[[[5.92152, 51.96163], [5.92742, 51.95863], [5.92886, 51.95632], [5.92197, 51.95644], [5.91717, 51.95669], [5.91685, 51.95886], [5.92054, 51.96216], [5.92152, 51.96163]]]]}}, {"type": "Feature", "properties": {"code": "BU02021989", "name": "Holthuizen"}, "geometry": {"type": "MultiPolygon", "coordinates": [[[[5.91717, 51.95669], [5.92197, 51.95644], [5.92201, 51.95084], [5.91517, 51.94997], [5.91417, 51.94861], [5.91219, 51.94791], [5.91133, 51.94734], [5.91172, 51.94702], [5.91096, 51.94591], [5.90517, 51.94707], [5.90809, 51.95761], [5.91717, 51.95669]]]]}}, {"type": "Feature", "properties": {"code": "BU02021990", "name": "Kronenburg"}, "geometry": {"type": "MultiPolygon", "coordinates": [[[[5.9024, 51.96003], [5.89083, 51.95406], [5.88869, 51.95836], [5.89737, 51.96301], [5.9024, 51.96003]]]]}}, {"type": "Feature", "properties": {"code": "BU02021993", "name": "Vredenburg"}, "geometry": {"type": "MultiPolygon", "coordinates": [[[[5.90809, 51.95761], [5.90517, 51.94707], [5.8997, 51.94837], [5.89468, 51.95131], [5.89083, 51.95406], [5.9024, 51.96003], [5.90809, 51.95761]]]]}}, {"type": "Feature", "properties": {"code": "BU02022092", "name": "Elden"}, "geometry": {"type": "MultiPolygon", "coordinates": [[[[5.88971, 51.96592], [5.89373, 51.9649], [5.89737, 51.96301], [5.88869, 51.95836], [5.88146, 51.9545], [5.87898, 51.9508], [5.87599, 51.95119], [5.86779, 51.9539], [5.87061, 51.95778], [5.87567, 51.96402], [5.87888, 51.9664], [5.8828, 51.96703], [5.88971, 51.96592]]]]}}, {"type": "Feature", "properties": {"code": "BU02022191", "name": "Elderveld-Zuid"}, "geometry": {"type": "MultiPolygon", "coordinates": [[[[5.86535, 51.95929], [5.87061, 51.95778], [5.86779, 51.9539], [5.86038, 51.95514], [5.85192, 51.95484], [5.85135, 51.96261], [5.86535, 51.95929]]]]}}, {"type": "Feature", "properties": {"code": "BU02022194", "name": "Elderveld-Noord"}, "geometry": {"type": "MultiPolygon", "coordinates": [[[[5.86367, 51.96849], [5.86535, 51.95929], [5.85135, 51.96261], [5.85139, 51.96323], [5.85369, 51.96877], [5.86367, 51.96849]]]]}}, {"type": "Feature", "properties": {"code": "BU02022197", "name": "Elderhof"}, "geometry": {"type": "MultiPolygon", "coordinates": [[[[5.87888, 51.9664], [5.87567, 51.96402], [5.87061, 51.95778], [5.86535, 51.95929], [5.86367, 51.96849], [5.86786, 51.96897], [5.87533, 51.96843], [5.87888, 51.9664]]]]}}, {"type": "Feature", "properties": {"code": "BU02022295", "name": "De Laar-West"}, "geometry": {"type": "MultiPolygon", "coordinates": [[[[5.86779, 51.9539], [5.86414, 51.94863], [5.86151, 51.94258], [5.85282, 51.94408], [5.85245, 51.94859], [5.85192, 51.95484], [5.86038, 51.95514], [5.86779, 51.9539]]]]}}, {"type": "Feature", "properties": {"code": "BU02022296", "name": "De Laar-Oost"}, "geometry": {"type": "MultiPolygon", "coordinates": [[[[5.87898, 51.9508], [5.87837, 51.93877], [5.87581, 51.94038], [5.87189, 51.94152], [5.86224, 51.94289], [5.86151, 51.94258], [5.86414, 51.94863], [5.86779, 51.9539], [5.87599, 51.95119], [5.87898, 51.9508]]]]}}, {"type": "Feature", "properties": {"code": "BU02022316", "name": "Rijkerswoerd-Oost"}, "geometry": {"type": "MultiPolygon", "coordinates": [[[[5.91242, 51.94491], [5.90186, 51.93346], [5.89792, 51.93436], [5.89498, 51.93512], [5.90257, 51.94351], [5.89772, 51.94483], [5.89337, 51.94721], [5.89206, 51.94899], [5.89468, 51.95131], [5.8997, 51.94837], [5.90517, 51.94707], [5.91096, 51.94591], [5.91242, 51.94491]]]]}}, {"type": "Feature", "properties": {"code": "BU02022317", "name": "Rijkerswoerd-Midden"}, "geometry": {"type": "MultiPolygon", "coordinates": [[[[5.89049, 51.94331], [5.89321, 51.94235], [5.89601, 51.94321], [5.89772, 51.94483], [5.90257, 51.94351], [5.89498, 51.93512], [5.89267, 51.93573], [5.88777, 51.93614], [5.88479, 51.93745], [5.88365, 51.93765], [5.88637, 51.94084], [5.88398, 51.94163], [5.88781, 51.9452], [5.88982, 51.94441], [5.89049, 51.94331]]]]}}, {"type": "Feature", "properties": {"code": "BU02022318", "name": "Rijkerswoerd-West"}, "geometry": {"type": "MultiPolygon", "coordinates": [[[[5.89468, 51.95131], [5.89206, 51.94899], [5.89337, 51.94721], [5.89772, 51.94483], [5.89601, 51.94321], [5.89321, 51.94235], [5.89049, 51.94331], [5.88982, 51.94441], [5.88781, 51.9452], [5.88398, 51.94163], [5.88637, 51.94084], [5.88365, 51.93765], [5.87837, 51.93877], [5.87898, 51.9508], [5.88482, 51.95099], [5.89083, 51.95406], [5.89468, 51.95131]]]]}}, {"type": "Feature", "properties": {"code": "BU02022319", "name": "De Overmaat"}, "geometry": {"type": "MultiPolygon", "coordinates": [[[[5.89083, 51.95406], [5.88482, 51.95099], [5.87898, 51.9508], [5.88146, 51.9545], [5.88869, 51.95836], [5.89083, 51.95406]]]]}}, {"type": "Feature", "properties": {"code": "BU02022447", "name": "Schuytgraaf-Noord"}, "geometry": {"type": "MultiPolygon", "coordinates": [[[[5.8543, 51.96984], [5.85369, 51.96877], [5.85139, 51.96323], [5.85061, 51.96325], [5.84693, 51.9554], [5.84536, 51.9559], [5.84266, 51.95459], [5.8314, 51.95406], [5.83051, 51.95327], [5.82991, 51.95343], [5.83008, 51.95385], [5.83133, 51.95604], [5.83134, 51.95862], [5.8302, 51.95862], [5.82934, 51.96085], [5.83442, 51.96303], [5.83595, 51.96616], [5.83537, 51.9707], [5.8362, 51.97092], [5.83534, 51.97356], [5.84403, 51.9725], [5.8543, 51.96984]]]]}}, {"type": "Feature", "properties": {"code": "BU02022448", "name": "Schuytgraaf-Centrum"}, "geometry": {"type": "MultiPolygon", "coordinates": [[[[5.85139, 51.96323], [5.85135, 51.96261], [5.85192, 51.95484], [5.85245, 51.94859], [5.84461, 51.94989], [5.84693, 51.9554], [5.85061, 51.96325], [5.85139, 51.96323]]]]}}, {"type": "Feature", "properties": {"code": "BU02022449", "name": "Schuytgraaf-Zuid"}, "geometry": {"type": "MultiPolygon", "coordinates": [[[[5.84693, 51.9554], [5.84461, 51.94989], [5.85245, 51.94859], [5.85282, 51.94408], [5.85039, 51.94451], [5.84968, 51.94294], [5.8394, 51.94436], [5.8374, 51.94416], [5.83717, 51.94518], [5.82993, 51.94524], [5.82863, 51.94848], [5.83051, 51.95327], [5.8314, 51.95406], [5.84266, 51.95459], [5.84536, 51.9559], [5.84693, 51.9554]]]]}}]}