{"type": "FeatureCollection", "features": [{"type": "Feature", "properties": {"code": "BU02280101", "name": "Centrum Ede"}, "geometry": {"type": "MultiPolygon", "coordinates": [[[[5.67617, 52.05096], [5.67312, 52.04329], [5.67108, 52.03812], [5.66598, 52.03926], [5.66683, 52.04209], [5.66922, 52.04473], [5.66909, 52.04599], [5.66863, 52.04678], [5.66696, 52.05169], [5.67231, 52.05182], [5.67617, 52.05096]]]]}}, {"type": "Feature", "properties": {"code": "BU02280102", "name": "Bosrand"}, "geometry": {"type": "MultiPolygon", "coordinates": [[[[5.68267, 52.04697], [5.67617, 52.05096], [5.67231, 52.05182], [5.66696, 52.05169], [5.65971, 52.05127], [5.65776, 52.05287], [5.66407, 52.05392], [5.67212, 52.05526], [5.67916, 52.0531], [5.68382, 52.05126], [5.68267, 52.04697]]]]}}, {"type": "Feature", "properties": {"code": "BU02280103", "name": "Komponistenbuurt"}, "geometry": {"type": "MultiPolygon", "coordinates": [[[[5.68267, 52.04697], [5.68812, 52.04324], [5.69213, 52.04173], [5.69199, 52.04136], [5.67312, 52.04329], [5.67617, 52.05096], [5.68267, 52.04697]]]]}}, {"type": "Feature", "properties": {"code": "BU02280104", "name": "Burgemeestersbuurt"}, "geometry": {"type": "MultiPolygon", "coordinates": [[[[5.69199, 52.04136], [5.69083, 52.03923], [5.68385, 52.03842], [5.68026, 52.0371], [5.67401, 52.03693], [5.67108, 52.03812], [5.67312, 52.04329], [5.69199, 52.04136]]]]}}, {"type": "Feature", "properties": {"code": "BU02280105", "name": "Stationsbuurt"}, "geometry": {"type": "MultiPolygon", "coordinates": [[[[5.67108, 52.03812], [5.67401, 52.03693], [5.67323, 52.03611], [5.6748, 52.03254], [5.67341, 52.02768], [5.669, 52.02849], [5.66691, 52.03039], [5.66598, 52.03926], [5.67108, 52.03812]]]]}}, {"type": "Feature", "properties": {"code": "BU02280201", "name": "Zeeheldenbuurt"}, "geometry": {"type": "MultiPolygon", "coordinates": [[[[5.66863, 52.04678], [5.66275, 52.04611], [5.65449, 52.0466], [5.65174, 52.04589], [5.64979, 52.05061], [5.65382, 52.05045], [5.65971, 52.05127], [5.66696, 52.05169], [5.66863, 52.04678]]]]}}, {"type": "Feature", "properties": {"code": "BU02280202", "name": "Indische buurt"}, "geometry": {"type": "MultiPolygon", "coordinates": [[[[5.66909, 52.04599], [5.65473, 52.04047], [5.65174, 52.04589], [5.65449, 52.0466], [5.66275, 52.04611], [5.66863, 52.04678], [5.66909, 52.04599]]]]}}, {"type": "Feature", "properties": {"code": "BU02280203", "name": "Vogelbuurt"}, "geometry": {"type": "MultiPolygon", "coordinates": [[[[5.66598, 52.03926], [5.65742, 52.03813], [5.65643, 52.03836], [5.65473, 52.04047], [5.66909, 52.04599], [5.66922, 52.04473], [5.66683, 52.04209], [5.66598, 52.03926]]]]}}, {"type": "Feature", "properties": {"code": "BU02280204", "name": "Bloemenbuurt"}, "geometry": {"type": "MultiPolygon", "coordinates": [[[[5.66598, 52.03926], [5.65701, 52.03291], [5.65402, 52.03196], [5.65493, 52.03356], [5.64981, 52.03883], [5.65473, 52.04047], [5.65643, 52.03836], [5.65742, 52.03813], [5.66598, 52.03926]]]]}}, {"type": "Feature", "properties": {"code": "BU02280205", "name": "Beatrixpark"}, "geometry": {"type": "MultiPolygon", "coordinates": [[[[5.669, 52.02849], [5.65872, 52.03039], [5.65323, 52.0314], [5.65402, 52.03196], [5.65701, 52.03291], [5.66598, 52.03926], [5.66691, 52.03039], [5.669, 52.02849]]]]}}, {"type": "Feature", "properties": {"code": "BU02280206", "name": "Klaphek"}, "geometry": {"type": "MultiPolygon", "coordinates": [[[[5.65402, 52.03196], [5.65323, 52.0314], [5.64601, 52.03271], [5.64477, 52.03808], [5.64981, 52.03883], [5.65493, 52.03356], [5.65402, 52.03196]]]]}}, {"type": "Feature", "properties": {"code": "BU02280301", "name": "De Horsten"}, "geometry": {"type": "MultiPolygon", "coordinates": [[[[5.64596, 52.04428], [5.64215, 52.04334], [5.64011, 52.04283], [5.63657, 52.04812], [5.64239, 52.0496], [5.64254, 52.04964], [5.64596, 52.04428]]]]}}, {"type": "Feature", "properties": {"code": "BU02280302", "name": "De Burgen"}, "geometry": {"type": "MultiPolygon", "coordinates": [[[[5.65174, 52.04589], [5.64596, 52.04428], [5.64254, 52.04964], [5.64979, 52.05061], [5.65174, 52.04589]]]]}}, {"type": "Feature", "properties": {"code": "BU02280303", "name": "De Steinen"}, "geometry": {"type": "MultiPolygon", "coordinates": [[[[5.65473, 52.04047], [5.64981, 52.03883], [5.64477, 52.03808], [5.64215, 52.04334], [5.64596, 52.04428], [5.65174, 52.04589], [5.65473, 52.04047]]]]}}, {"type": "Feature", "properties": {"code": "BU02280305", "name": "De Dalen"}, "geometry": {"type": "MultiPolygon", "coordinates": [[[[5.64477, 52.03808], [5.64601, 52.03271], [5.63246, 52.03524], [5.6321, 52.03717], [5.63378, 52.03998], [5.63629, 52.04005], [5.63795, 52.04227], [5.64011, 52.04283], [5.64215, 52.04334], [5.64477, 52.03808]]]]}}, {"type": "Feature", "properties": {"code": "BU02280306", "name": "De Velden en Beken"}, "geometry": {"type": "MultiPolygon", "coordinates": [[[[5.63378, 52.03998], [5.6321, 52.03717], [5.63246, 52.03524], [5.62748, 52.03617], [5.6178, 52.03798], [5.61915, 52.04157], [5.61877, 52.04529], [5.63018, 52.04696], [5.63232, 52.04349], [5.62925, 52.04239], [5.63041, 52.04064], [5.63378, 52.03998]]]]}}, {"type": "Feature", "properties": {"code": "BU02280307", "name": "De Hoven"}, "geometry": {"type": "MultiPolygon", "coordinates": [[[[5.64011, 52.04283], [5.63795, 52.04227], [5.63629, 52.04005], [5.63378, 52.03998], [5.63041, 52.04064], [5.62925, 52.04239], [5.63232, 52.04349], [5.63018, 52.04696], [5.63206, 52.04722], [5.63657, 52.04812], [5.64011, 52.04283]]]]}}, {"type": "Feature", "properties": {"code": "BU02280401", "name": "De Bergen"}, "geometry": {"type": "MultiPolygon", "coordinates": [[[[5.64979, 52.05061], [5.64254, 52.04964], [5.64239, 52.0496], [5.63984, 52.05358], [5.64924, 52.0544], [5.64979, 52.05061]]]]}}, {"type": "Feature", "properties": {"code": "BU02280402", "name": "De Bossen"}, "geometry": {"type": "MultiPolygon", "coordinates": [[[[5.64239, 52.0496], [5.63657, 52.04812], [5.63206, 52.04722], [5.63344, 52.0527], [5.63984, 52.05358], [5.64239, 52.0496]]]]}}, {"type": "Feature", "properties": {"code": "BU02280403", "name": "De Venen en Zanden"}, "geometry": {"type": "MultiPolygon", "coordinates": [[[[5.63344, 52.0527], [5.63206, 52.04722], [5.63018, 52.04696], [5.61877, 52.04529], [5.61905, 52.04844], [5.61795, 52.05347], [5.63344, 52.0527]]]]}}, {"type": "Feature", "properties": {"code": "BU02280501", "name": "Veluwse Poort"}, "geometry": {"type": "MultiPolygon", "coordinates": [[[[5.68283, 52.02594], [5.67341, 52.02768], [5.6748, 52.03254], [5.67323, 52.03611], [5.67401, 52.03693], [5.68026, 52.0371], [5.68385, 52.03842], [5.69083, 52.03923], [5.69199, 52.04136], [5.69213, 52.04173], [5.69753, 52.04072], [5.69625, 52.03653], [5.69331, 52.0354], [5.69144, 52.03527], [5.69006, 52.03591], [5.68012, 52.03408], [5.68283, 52.02594]]]]}}, {"type": "Feature", "properties": {"code": "BU02281001", "name": "Uitvindersbuurt"}, "geometry": {"type": "MultiPolygon", "coordinates": [[[[5.65323, 52.0314], [5.65872, 52.03039], [5.65948, 52.0272], [5.64958, 52.02595], [5.64936, 52.02694], [5.64725, 52.02674], [5.64601, 52.03271], [5.65323, 52.0314]]]]}}, {"type": "Feature", "properties": {"code": "BU02281002", "name": "Hoogbouw-Zuid"}, "geometry": {"type": "MultiPolygon", "coordinates": [[[[5.66018, 52.02478], [5.65406, 52.02449], [5.64781, 52.02404], [5.64771, 52.02453], [5.64725, 52.02674], [5.64936, 52.02694], [5.64958, 52.02595], [5.65948, 52.0272], [5.66018, 52.02478]]]]}}, {"type": "Feature", "properties": {"code": "BU02281003", "name": "Reehorst"}, "geometry": {"type": "MultiPolygon", "coordinates": [[[[5.669, 52.02849], [5.67341, 52.02768], [5.6719, 52.02348], [5.67229, 52.01932], [5.67298, 52.01265], [5.66134, 52.01373], [5.6623, 52.01459], [5.66156, 52.01876], [5.66018, 52.02478], [5.65948, 52.0272], [5.65872, 52.03039], [5.669, 52.02849]]]]}}, {"type": "Feature", "properties": {"code": "BU02281004", "name": "Enka"}, "geometry": {"type": "MultiPolygon", "coordinates": [[[[5.68283, 52.02594], [5.69676, 52.02332], [5.69615, 52.02246], [5.69421, 52.01983], [5.67229, 52.01932], [5.6719, 52.02348], [5.67341, 52.02768], [5.68283, 52.02594]]]]}}, {"type": "Feature", "properties": {"code": "BU02281101", "name": "Elskamp"}, "geometry": {"type": "MultiPolygon", "coordinates": [[[[5.65842, 52.01824], [5.65636, 52.01707], [5.65056, 52.01673], [5.64857, 52.02217], [5.64778, 52.02404], [5.64781, 52.02404], [5.65406, 52.02449], [5.65395, 52.02335], [5.65747, 52.02029], [5.65842, 52.01824]]]]}}, {"type": "Feature", "properties": {"code": "BU02281102", "name": "Maandereng-Oost"}, "geometry": {"type": "MultiPolygon", "coordinates": [[[[5.66156, 52.01876], [5.65842, 52.01824], [5.65747, 52.02029], [5.65395, 52.02335], [5.65406, 52.02449], [5.66018, 52.02478], [5.66156, 52.01876]]]]}}, {"type": "Feature", "properties": {"code": "BU02281103", "name": "De Hoef"}, "geometry": {"type": "MultiPolygon", "coordinates": [[[[5.66134, 52.01373], [5.65104, 52.01468], [5.65056, 52.01673], [5.65636, 52.01707], [5.65842, 52.01824], [5.66156, 52.01876], [5.6623, 52.01459], [5.66134, 52.01373]]]]}}, {"type": "Feature", "properties": {"code": "BU02281201", "name": "De Parken"}, "geometry": {"type": "MultiPolygon", "coordinates": [[[[5.64771, 52.02453], [5.64781, 52.02404], [5.64778, 52.02404], [5.63549, 52.02326], [5.63198, 52.02342], [5.63172, 52.02533], [5.63115, 52.02789], [5.63665, 52.02679], [5.64279, 52.0244], [5.64771, 52.02453]]]]}}, {"type": "Feature", "properties": {"code": "BU02281202", "name": "De Dreven"}, "geometry": {"type": "MultiPolygon", "coordinates": [[[[5.64857, 52.02217], [5.64665, 52.0188], [5.63911, 52.02051], [5.63437, 52.02183], [5.63549, 52.02326], [5.64778, 52.02404], [5.64857, 52.02217]]]]}}, {"type": "Feature", "properties": {"code": "BU02281203", "name": "De Singels"}, "geometry": {"type": "MultiPolygon", "coordinates": [[[[5.65056, 52.01673], [5.65104, 52.01468], [5.63932, 52.01641], [5.63647, 52.01703], [5.63911, 52.02051], [5.64665, 52.0188], [5.64857, 52.02217], [5.65056, 52.01673]]]]}}, {"type": "Feature", "properties": {"code": "BU02281204", "name": "De States"}, "geometry": {"type": "MultiPolygon", "coordinates": [[[[5.63549, 52.02326], [5.63437, 52.02183], [5.63911, 52.02051], [5.63647, 52.01703], [5.63144, 52.01845], [5.63296, 52.02079], [5.628, 52.02275], [5.62792, 52.02511], [5.63172, 52.02533], [5.63198, 52.02342], [5.63549, 52.02326]]]]}}, {"type": "Feature", "properties": {"code": "BU02281301", "name": "Frankeneng"}, "geometry": {"type": "MultiPolygon", "coordinates": [[[[5.63246, 52.03524], [5.64601, 52.03271], [5.64725, 52.02674], [5.64771, 52.02453], [5.64279, 52.0244], [5.63665, 52.02679], [5.63115, 52.02789], [5.62903, 52.028], [5.62791, 52.03014], [5.62748, 52.03617], [5.63246, 52.03524]]]]}}, {"type": "Feature", "properties": {"code": "BU02281302", "name": "Heestereng"}, "geometry": {"type": "MultiPolygon", "coordinates": [[[[5.62748, 52.03617], [5.62791, 52.03014], [5.62903, 52.028], [5.62259, 52.02812], [5.62192, 52.02193], [5.61048, 52.02636], [5.61563, 52.034], [5.61775, 52.03789], [5.6178, 52.03798], [5.62748, 52.03617]]]]}}, {"type": "Feature", "properties": {"code": "BU02281303", "name": "De Vallei"}, "geometry": {"type": "MultiPolygon", "coordinates": [[[[5.62903, 52.028], [5.63115, 52.02789], [5.63172, 52.02533], [5.62792, 52.02511], [5.628, 52.02275], [5.63296, 52.02079], [5.63144, 52.01845], [5.62192, 52.02193], [5.62259, 52.02812], [5.62903, 52.028]]]]}}, {"type": "Feature", "properties": {"code": "BU02281304", "name": "Schuttersveld-Zuid"}, "geometry": {"type": "MultiPolygon", "coordinates": [[[[5.61048, 52.02636], [5.59391, 52.03352], [5.59764, 52.03362], [5.61563, 52.034], [5.61048, 52.02636]]]]}}, {"type": "Feature", "properties": {"code": "BU02281305", "name": "Schuttersveld-Noord"}, "geometry": {"type": "MultiPolygon", "coordinates": [[[[5.61775, 52.03789], [5.61563, 52.034], [5.59764, 52.03362], [5.59615, 52.03444], [5.5959, 52.03737], [5.59813, 52.03845], [5.59962, 52.04141], [5.61775, 52.03789]]]]}}, {"type": "Feature", "properties": {"code": "BU02281306", "name": "Kievitsmeent"}, "geometry": {"type": "MultiPolygon", "coordinates": [[[[5.60393, 52.04608], [5.61877, 52.04529], [5.61915, 52.04157], [5.6178, 52.03798], [5.61775, 52.03789], [5.59962, 52.04141], [5.60156, 52.04534], [5.60065, 52.04626], [5.60393, 52.04608]]]]}}, {"type": "Feature", "properties": {"code": "BU02282031", "name": "Maanderbroek"}, "geometry": {"type": "MultiPolygon", "coordinates": [[[[5.59391, 52.03352], [5.61048, 52.02636], [5.62192, 52.02193], [5.63144, 52.01845], [5.63647, 52.01703], [5.63932, 52.01641], [5.60361, 52.01304], [5.58993, 52.01388], [5.58918, 52.0129], [5.59003, 52.01203], [5.58742, 52.01092], [5.58601, 52.01178], [5.58675, 52.01229], [5.58692, 52.01571], [5.58962, 52.01559], [5.59024, 52.02027], [5.5872, 52.02045], [5.58745, 52.02664], [5.58735, 52.02726], [5.58671, 52.03129], [5.58959, 52.03118], [5.58976, 52.0327], [5.58991, 52.03269], [5.59002, 52.0343], [5.59391, 52.03352]]]]}}, {"type": "Feature", "properties": {"code": "BU02282032", "name": "Doesburg"}, "geometry": {"type": "MultiPolygon", "coordinates": [[[[5.66407, 52.05392], [5.65776, 52.05287], [5.65971, 52.05127], [5.65382, 52.05045], [5.64979, 52.05061], [5.64924, 52.0544], [5.63984, 52.05358], [5.63344, 52.0527], [5.61795, 52.05347], [5.61905, 52.04844], [5.61877, 52.04529], [5.60393, 52.04608], [5.60706, 52.05514], [5.60625, 52.06124], [5.60796, 52.06639], [5.61081, 52.06838], [5.63491, 52.07234], [5.6475, 52.07559], [5.64973, 52.07275], [5.64862, 52.07159], [5.65228, 52.06575], [5.6522, 52.06268], [5.66407, 52.05392]]]]}}, {"type": "Feature", "properties": {"code": "BU02282051", "name": "Driesprong/Ginkel"}, "geometry": {"type": "MultiPolygon", "coordinates": [[[[5.72701, 52.08059], [5.73076, 52.0744], [5.7278, 52.07018], [5.73682, 52.07075], [5.75176, 52.05611], [5.76751, 52.04736], [5.76897, 52.04611], [5.77208, 52.03606], [5.77799, 52.03663], [5.78863, 52.03645], [5.79542, 52.0326], [5.81555, 52.03416], [5.81865, 52.02959], [5.81337, 52.02407], [5.80243, 52.02236], [5.80422, 52.02114], [5.80363, 52.02068], [5.79814, 52.02202], [5.77766, 52.02188], [5.77089, 52.02158], [5.77047, 52.02116], [5.76988, 52.02154], [5.75657, 52.02106], [5.74736, 52.02002], [5.74514, 52.01977], [5.74103, 52.01932], [5.72388, 52.02115], [5.71853, 52.02783], [5.70656, 52.02824], [5.69872, 52.02196], [5.69615, 52.02246], [5.69676, 52.02332], [5.68283, 52.02594], [5.68012, 52.03408], [5.69006, 52.03591], [5.69144, 52.03527], [5.69331, 52.0354], [5.69625, 52.03653], [5.69753, 52.04072], [5.69213, 52.04173], [5.68812, 52.04324], [5.68267, 52.04697], [5.68382, 52.05126], [5.67916, 52.0531], [5.67212, 52.05526], [5.66407, 52.05392], [5.6522, 52.06268], [5.65228, 52.06575], [5.64862, 52.07159], [5.64973, 52.07275], [5.6475, 52.07559], [5.67693, 52.08526], [5.67978, 52.08246], [5.67944, 52.08754], [5.68635, 52.08897], [5.69388, 52.0923], [5.69835, 52.09196], [5.71434, 52.08871], [5.7161, 52.08473], [5.72024, 52.08266], [5.72349, 52.0796], [5.72701, 52.08059]]]]}}, {"type": "Feature", "properties": {"code": "BU02283001", "name": "De Laar"}, "geometry": {"type": "MultiPolygon", "coordinates": [[[[5.68787, 52.00499], [5.68565, 52.00259], [5.67569, 52.0016], [5.67298, 52.01265], [5.68684, 52.0126], [5.68687, 52.00478], [5.68787, 52.00499]]]]}}, {"type": "Feature", "properties": {"code": "BU02283002", "name": "Bennekom-Zuidoost"}, "geometry": {"type": "MultiPolygon", "coordinates": [[[[5.68888, 51.99492], [5.68762, 51.99456], [5.68472, 51.99393], [5.68309, 51.99391], [5.68269, 51.99255], [5.6783, 51.9914], [5.67561, 51.99849], [5.67569, 52.0016], [5.68565, 52.00259], [5.68787, 52.00499], [5.68988, 52.00368], [5.68945, 52.00256], [5.69045, 51.99962], [5.68888, 51.99492]]]]}}, {"type": "Feature", "properties": {"code": "BU02283003", "name": "Boekelo"}, "geometry": {"type": "MultiPolygon", "coordinates": [[[[5.6783, 51.9914], [5.67537, 51.99095], [5.67254, 51.99352], [5.6696, 51.99467], [5.66453, 51.99413], [5.66284, 51.99495], [5.65873, 52.00085], [5.66487, 52.00122], [5.66925, 52.00067], [5.67569, 52.0016], [5.67561, 51.99849], [5.6783, 51.9914]]]]}}, {"type": "Feature", "properties": {"code": "BU02283004", "name": "Halderbrink"}, "geometry": {"type": "MultiPolygon", "coordinates": [[[[5.66134, 52.01373], [5.67298, 52.01265], [5.67569, 52.0016], [5.66925, 52.00067], [5.66487, 52.00122], [5.65873, 52.00085], [5.6531, 52.00784], [5.65104, 52.01468], [5.66134, 52.01373]]]]}}, {"type": "Feature", "properties": {"code": "BU02283031", "name": "De Kraats/Nergena"}, "geometry": {"type": "MultiPolygon", "coordinates": [[[[5.65104, 52.01468], [5.6531, 52.00784], [5.65873, 52.00085], [5.66284, 51.99495], [5.65542, 51.99331], [5.65394, 51.99516], [5.63722, 51.99192], [5.6333, 51.9952], [5.62725, 51.99314], [5.62495, 51.99514], [5.61931, 51.99274], [5.61449, 51.99965], [5.60683, 51.99742], [5.60602, 51.99416], [5.60251, 51.995], [5.59656, 51.9992], [5.592, 52.00139], [5.59081, 52.00302], [5.59111, 52.0073], [5.58949, 52.00946], [5.58742, 52.01092], [5.59003, 52.01203], [5.58918, 52.0129], [5.58993, 52.01388], [5.60361, 52.01304], [5.63932, 52.01641], [5.65104, 52.01468]]]]}}, {"type": "Feature", "properties": {"code": "BU02283051", "name": "Dikkenberg"}, "geometry": {"type": "MultiPolygon", "coordinates": [[[[5.74514, 52.01977], [5.74116, 52.01644], [5.73818, 52.01229], [5.73928, 52.01017], [5.73881, 52.00814], [5.73757, 52.00716], [5.73414, 52.00642], [5.73588, 52.00232], [5.73278, 52.00074], [5.72436, 52.00071], [5.68888, 51.99492], [5.69045, 51.99962], [5.68945, 52.00256], [5.68988, 52.00368], [5.68787, 52.00499], [5.68687, 52.00478], [5.68684, 52.0126], [5.67298, 52.01265], [5.67229, 52.01932], [5.69421, 52.01983], [5.69615, 52.02246], [5.69872, 52.02196], [5.70656, 52.02824], [5.71853, 52.02783], [5.72388, 52.02115], [5.74103, 52.01932], [5.74514, 52.01977]]]]}}, {"type": "Feature", "properties": {"code": "BU02284001", "name": "Centrum Lunteren"}, "geometry": {"type": "MultiPolygon", "coordinates": [[[[5.62972, 52.0795], [5.63234, 52.07759], [5.6282, 52.07694], [5.61383, 52.07768], [5.61098, 52.07998], [5.60709, 52.0854], [5.609, 52.08539], [5.62364, 52.08653], [5.6257, 52.0826], [5.62972, 52.0795]]]]}}, {"type": "Feature", "properties": {"code": "BU02284002", "name": "Wormshoef"}, "geometry": {"type": "MultiPolygon", "coordinates": [[[[5.62308, 52.09274], [5.6221, 52.09], [5.62364, 52.08653], [5.609, 52.08539], [5.61307, 52.09256], [5.61802, 52.09234], [5.62116, 52.09368], [5.62308, 52.09274]]]]}}, {"type": "Feature", "properties": {"code": "BU02284003", "name": "Lunteren-Oost"}, "geometry": {"type": "MultiPolygon", "coordinates": [[[[5.62972, 52.0795], [5.6257, 52.0826], [5.62364, 52.08653], [5.6221, 52.09], [5.62308, 52.09274], [5.62648, 52.09196], [5.62922, 52.08777], [5.63064, 52.08367], [5.63498, 52.08072], [5.62972, 52.0795]]]]}}, {"type": "Feature", "properties": {"code": "BU02284031", "name": "Nederwoud"}, "geometry": {"type": "MultiPolygon", "coordinates": [[[[5.60738, 52.125], [5.62278, 52.1139], [5.61947, 52.11253], [5.61799, 52.11356], [5.61532, 52.11219], [5.61337, 52.1132], [5.60608, 52.10933], [5.59987, 52.10272], [5.59408, 52.09524], [5.59571, 52.0918], [5.59797, 52.08202], [5.57755, 52.08746], [5.56946, 52.08467], [5.56075, 52.08421], [5.55669, 52.08548], [5.55742, 52.08618], [5.55705, 52.08687], [5.55591, 52.08712], [5.55493, 52.08651], [5.55472, 52.0915], [5.55587, 52.09182], [5.55443, 52.09347], [5.55443, 52.09539], [5.55054, 52.09668], [5.55424, 52.10015], [5.55306, 52.10095], [5.55034, 52.10542], [5.54674, 52.11137], [5.55097, 52.11182], [5.55296, 52.11328], [5.55359, 52.11326], [5.56124, 52.12025], [5.56189, 52.12168], [5.56522, 52.122], [5.56766, 52.11832], [5.56862, 52.11821], [5.56775, 52.11975], [5.56947, 52.12218], [5.57125, 52.1221], [5.57673, 52.12046], [5.58445, 52.12182], [5.58908, 52.12399], [5.59037, 52.12362], [5.59139, 52.12444], [5.59249, 52.12403], [5.59767, 52.12421], [5.60158, 52.12544], [5.60738, 52.125]]]]}}, {"type": "Feature", "properties": {"code": "BU02284032", "name": "De Veenen"}, "geometry": {"type": "MultiPolygon", "coordinates": [[[[5.59797, 52.08202], [5.60508, 52.07136], [5.60402, 52.07126], [5.59416, 52.07062], [5.59315, 52.0717], [5.59081, 52.07188], [5.58624, 52.07037], [5.58416, 52.06864], [5.58198, 52.0682], [5.5781, 52.07097], [5.57563, 52.06927], [5.57536, 52.06825], [5.57655, 52.06695], [5.57587, 52.06704], [5.57454, 52.06824], [5.56031, 52.07215], [5.56144, 52.07329], [5.56275, 52.07828], [5.56071, 52.08141], [5.56075, 52.08421], [5.56946, 52.08467], [5.57755, 52.08746], [5.59797, 52.08202]]]]}}, {"type": "Feature", "properties": {"code": "BU02284033", "name": "Lunterse Veld"}, "geometry": {"type": "MultiPolygon", "coordinates": [[[[5.6305, 52.0942], [5.63721, 52.0821], [5.63966, 52.07965], [5.641, 52.07993], [5.64487, 52.0793], [5.6475, 52.07559], [5.63491, 52.07234], [5.61081, 52.06838], [5.60796, 52.06639], [5.60402, 52.07126], [5.60508, 52.07136], [5.59797, 52.08202], [5.59571, 52.0918], [5.59408, 52.09524], [5.59987, 52.10272], [5.60608, 52.10933], [5.61337, 52.1132], [5.61532, 52.11219], [5.61799, 52.11356], [5.61947, 52.11253], [5.62278, 52.1139], [5.62811, 52.1101], [5.63002, 52.10655], [5.6293, 52.1009], [5.62651, 52.09711], [5.62735, 52.09582], [5.63171, 52.09607], [5.6305, 52.0942]], [[5.60709, 52.0854], [5.61098, 52.07998], [5.61383, 52.07768], [5.6282, 52.07694], [5.63234, 52.07759], [5.62972, 52.0795], [5.63498, 52.08072], [5.63064, 52.08367], [5.62922, 52.08777], [5.62648, 52.09196], [5.62308, 52.09274], [5.62116, 52.09368], [5.61802, 52.09234], [5.61307, 52.09256], [5.609, 52.08539], [5.60709, 52.0854]]]]}}, {"type": "Feature", "properties": {"code": "BU02284034", "name": "Meulunteren/De Valk"}, "geometry": {"type": "MultiPolygon", "coordinates": [[[[5.67939, 52.13206], [5.67926, 52.1316], [5.68247, 52.13178], [5.68393, 52.13214], [5.68891, 52.12885], [5.68688, 52.12664], [5.69072, 52.12536], [5.69692, 52.12708], [5.69572, 52.1246], [5.69342, 52.12434], [5.69154, 52.12206], [5.69376, 52.11543], [5.6921, 52.11415], [5.68866, 52.11371], [5.68734, 52.11436], [5.68679, 52.11136], [5.68009, 52.11223], [5.67542, 52.11184], [5.66543, 52.10827], [5.66004, 52.10929], [5.65264, 52.10804], [5.64636, 52.10624], [5.64237, 52.10179], [5.63687, 52.09957], [5.63171, 52.09607], [5.62735, 52.09582], [5.62651, 52.09711], [5.6293, 52.1009], [5.63002, 52.10655], [5.62811, 52.1101], [5.62278, 52.1139], [5.60738, 52.125], [5.61043, 52.12551], [5.6165, 52.12779], [5.62273, 52.12755], [5.63497, 52.12971], [5.63824, 52.13077], [5.64292, 52.13043], [5.64529, 52.1308], [5.64677, 52.13027], [5.64711, 52.13066], [5.64836, 52.13091], [5.65633, 52.13174], [5.65695, 52.13258], [5.66165, 52.13204], [5.6657, 52.13276], [5.66902, 52.13469], [5.67569, 52.13335], [5.67845, 52.13216], [5.67939, 52.13206]]]]}}, {"type": "Feature", "properties": {"code": "BU02284051", "name": "Lunterse Buurtbos"}, "geometry": {"type": "MultiPolygon", "coordinates": [[[[5.66543, 52.10827], [5.66508, 52.10525], [5.67889, 52.08978], [5.67944, 52.08754], [5.67978, 52.08246], [5.67693, 52.08526], [5.6475, 52.07559], [5.64487, 52.0793], [5.641, 52.07993], [5.63966, 52.07965], [5.63721, 52.0821], [5.6305, 52.0942], [5.63171, 52.09607], [5.63687, 52.09957], [5.64237, 52.10179], [5.64636, 52.10624], [5.65264, 52.10804], [5.66004, 52.10929], [5.66543, 52.10827]]]]}}, {"type": "Feature", "properties": {"code": "BU02285001", "name": "Ederveen dorp"}, "geometry": {"type": "MultiPolygon", "coordinates": [[[[5.58198, 52.0682], [5.58155, 52.0668], [5.58336, 52.06319], [5.58573, 52.0632], [5.58591, 52.06223], [5.58505, 52.05921], [5.58315, 52.05932], [5.58298, 52.05798], [5.5798, 52.05826], [5.57936, 52.05767], [5.57123, 52.05851], [5.56901, 52.06108], [5.56984, 52.06373], [5.57193, 52.0664], [5.57587, 52.06704], [5.57655, 52.06695], [5.57536, 52.06825], [5.57563, 52.06927], [5.5781, 52.07097], [5.58198, 52.0682]]]]}}, {"type": "Feature", "properties": {"code": "BU02285031", "name": "Ederveen buitengebied"}, "geometry": {"type": "MultiPolygon", "coordinates": [[[[5.57587, 52.06704], [5.57193, 52.0664], [5.56984, 52.06373], [5.56901, 52.06108], [5.57123, 52.05851], [5.57936, 52.05767], [5.5798, 52.05826], [5.58298, 52.05798], [5.58315, 52.05932], [5.58505, 52.05921], [5.58591, 52.06223], [5.58573, 52.0632], [5.58336, 52.06319], [5.58155, 52.0668], [5.58198, 52.0682], [5.58416, 52.06864], [5.58624, 52.07037], [5.59081, 52.07188], [5.59315, 52.0717], [5.59416, 52.07062], [5.60402, 52.07126], [5.60796, 52.06639], [5.60625, 52.06124], [5.60706, 52.05514], [5.60393, 52.04608], [5.60065, 52.04626], [5.57607, 52.04783], [5.57085, 52.048], [5.5579, 52.04887], [5.56073, 52.0675], [5.55921, 52.07103], [5.56031, 52.07215], [5.57454, 52.06824], [5.57587, 52.06704]]]]}}, {"type": "Feature", "properties": {"code": "BU02286001", "name": "De Klomp dorp"}, "geometry": {"type": "MultiPolygon", "coordinates": [[[[5.57607, 52.04783], [5.57583, 52.04315], [5.57004, 52.0434], [5.57015, 52.04444], [5.57001, 52.04449], [5.56998, 52.04564], [5.57085, 52.048], [5.57607, 52.04783]]]]}}, {"type": "Feature", "properties": {"code": "BU02286031", "name": "De Klomp buitengebied"}, "geometry": {"type": "MultiPolygon", "coordinates": [[[[5.60156, 52.04534], [5.59962, 52.04141], [5.59813, 52.03845], [5.5959, 52.03737], [5.59615, 52.03444], [5.59764, 52.03362], [5.59391, 52.03352], [5.59002, 52.0343], [5.58996, 52.03441], [5.57729, 52.03833], [5.56831, 52.04027], [5.5674, 52.04062], [5.56866, 52.0424], [5.56975, 52.04341], [5.57004, 52.0434], [5.57583, 52.04315], [5.57607, 52.04783], [5.60065, 52.04626], [5.60156, 52.04534]]]]}}, {"type": "Feature", "properties": {"code": "BU02287001", "name": "Harskamp dorp"}, "geometry": {"type": "MultiPolygon", "coordinates": [[[[5.76315, 52.12834], [5.75139, 52.12595], [5.75193, 52.12396], [5.75207, 52.12347], [5.74963, 52.12346], [5.74773, 52.12505], [5.74725, 52.12713], [5.74285, 52.12646], [5.74169, 52.12919], [5.74903, 52.12993], [5.74875, 52.13225], [5.74496, 52.13572], [5.7468, 52.13677], [5.74991, 52.14057], [5.75382, 52.14261], [5.76883, 52.14061], [5.76853, 52.13829], [5.76681, 52.13595], [5.76817, 52.13146], [5.76448, 52.12855], [5.76315, 52.12834]]]]}}, {"type": "Feature", "properties": {"code": "BU02287002", "name": "Legerplaats Harskamp"}, "geometry": {"type": "MultiPolygon", "coordinates": [[[[5.76151, 52.12107], [5.75989, 52.12048], [5.75744, 52.12383], [5.75278, 52.12306], [5.75193, 52.12396], [5.75139, 52.12595], [5.76315, 52.12834], [5.76555, 52.12243], [5.76151, 52.12107]]]]}}, {"type": "Feature", "properties": {"code": "BU02287031", "name": "Westeneng"}, "geometry": {"type": "MultiPolygon", "coordinates": [[[[5.74991, 52.14057], [5.7468, 52.13677], [5.74496, 52.13572], [5.74875, 52.13225], [5.74903, 52.12993], [5.74169, 52.12919], [5.74285, 52.12646], [5.74725, 52.12713], [5.74773, 52.12505], [5.74963, 52.12346], [5.75207, 52.12347], [5.75193, 52.12396], [5.75278, 52.12306], [5.75744, 52.12383], [5.75989, 52.12048], [5.76151, 52.12107], [5.76692, 52.11354], [5.76805, 52.11029], [5.7684, 52.10952], [5.75626, 52.10908], [5.75134, 52.11187], [5.74911, 52.11223], [5.74889, 52.11308], [5.75396, 52.11371], [5.74692, 52.11662], [5.73892, 52.116], [5.73836, 52.11427], [5.73675, 52.11343], [5.73309, 52.11362], [5.72973, 52.1118], [5.72812, 52.11197], [5.72234, 52.11256], [5.7244, 52.11504], [5.72147, 52.11559], [5.72119, 52.11724], [5.71755, 52.12053], [5.71458, 52.12192], [5.69979, 52.12486], [5.69572, 52.1246], [5.69692, 52.12708], [5.69072, 52.12536], [5.68688, 52.12664], [5.68891, 52.12885], [5.68393, 52.13214], [5.68585, 52.13527], [5.68882, 52.13703], [5.69252, 52.13739], [5.69512, 52.13651], [5.70025, 52.13612], [5.70183, 52.13538], [5.71728, 52.13645], [5.7173, 52.13748], [5.72152, 52.13799], [5.72194, 52.1386], [5.72093, 52.14106], [5.72185, 52.14482], [5.72061, 52.14499], [5.72035, 52.14626], [5.73579, 52.14788], [5.73806, 52.14642], [5.74252, 52.14756], [5.74626, 52.14391], [5.74816, 52.14424], [5.74991, 52.14057]]]]}}, {"type": "Feature", "properties": {"code": "BU02287051", "name": "Harskampse Zand"}, "geometry": {"type": "MultiPolygon", "coordinates": [[[[5.80984, 52.15141], [5.84576, 52.15161], [5.85955, 52.14875], [5.86114, 52.14526], [5.86232, 52.13479], [5.86421, 52.12756], [5.86435, 52.12699], [5.85731, 52.13299], [5.84473, 52.13378], [5.84442, 52.12938], [5.8376, 52.12663], [5.831, 52.12499], [5.83125, 52.12441], [5.81518, 52.12146], [5.79341, 52.12165], [5.78773, 52.12055], [5.77175, 52.11469], [5.76692, 52.11354], [5.76151, 52.12107], [5.76555, 52.12243], [5.76315, 52.12834], [5.76448, 52.12855], [5.76817, 52.13146], [5.76681, 52.13595], [5.76853, 52.13829], [5.76883, 52.14061], [5.75382, 52.14261], [5.74991, 52.14057], [5.74816, 52.14424], [5.74626, 52.14391], [5.74252, 52.14756], [5.73806, 52.14642], [5.73579, 52.14788], [5.73608, 52.14791], [5.7433, 52.1487], [5.76211, 52.1476], [5.77469, 52.15223], [5.78533, 52.15127], [5.80984, 52.15141]]]]}}, {"type": "Feature", "properties": {"code": "BU02288001", "name": "Wekerom dorp"}, "geometry": {"type": "MultiPolygon", "coordinates": [[[[5.72234, 52.11256], [5.72079, 52.11326], [5.71819, 52.11035], [5.71247, 52.1079], [5.70603, 52.11036], [5.71755, 52.12053], [5.72119, 52.11724], [5.72147, 52.11559], [5.7244, 52.11504], [5.72234, 52.11256]]]]}}, {"type": "Feature", "properties": {"code": "BU02288031", "name": "Wekeromse Meent"}, "geometry": {"type": "MultiPolygon", "coordinates": [[[[5.71755, 52.12053], [5.70603, 52.11036], [5.71247, 52.1079], [5.71819, 52.11035], [5.72079, 52.11326], [5.72234, 52.11256], [5.72812, 52.11197], [5.72679, 52.10962], [5.73016, 52.1074], [5.73245, 52.10684], [5.73329, 52.10869], [5.74175, 52.10709], [5.74095, 52.10546], [5.73803, 52.10322], [5.73816, 52.10105], [5.73531, 52.09935], [5.73356, 52.10096], [5.73137, 52.10064], [5.73337, 52.09775], [5.73164, 52.09703], [5.7318, 52.09839], [5.72967, 52.10132], [5.72457, 52.10296], [5.71947, 52.10331], [5.70206, 52.09781], [5.70056, 52.09445], [5.69517, 52.09484], [5.69853, 52.10501], [5.69782, 52.10851], [5.69449, 52.11042], [5.68679, 52.11136], [5.68734, 52.11436], [5.68866, 52.11371], [5.6921, 52.11415], [5.69376, 52.11543], [5.69154, 52.12206], [5.69342, 52.12434], [5.69572, 52.1246], [5.69979, 52.12486], [5.71458, 52.12192], [5.71755, 52.12053]]]]}}, {"type": "Feature", "properties": {"code": "BU02288051", "name": "Wekeromse Zand"}, "geometry": {"type": "MultiPolygon", "coordinates": [[[[5.68679, 52.11136], [5.69449, 52.11042], [5.69782, 52.10851], [5.69853, 52.10501], [5.69517, 52.09484], [5.70056, 52.09445], [5.70206, 52.09781], [5.71947, 52.10331], [5.72457, 52.10296], [5.72967, 52.10132], [5.7318, 52.09839], [5.73164, 52.09703], [5.73189, 52.09432], [5.73137, 52.09374], [5.73508, 52.09333], [5.74154, 52.09014], [5.73389, 52.08172], [5.72906, 52.08305], [5.72603, 52.08586], [5.72701, 52.08059], [5.72349, 52.0796], [5.72024, 52.08266], [5.7161, 52.08473], [5.71434, 52.08871], [5.69835, 52.09196], [5.69388, 52.0923], [5.68635, 52.08897], [5.67944, 52.08754], [5.67889, 52.08978], [5.66508, 52.10525], [5.66543, 52.10827], [5.67542, 52.11184], [5.68009, 52.11223], [5.68679, 52.11136]]]]}}, {"type": "Feature", "properties": {"code": "BU02289001", "name": "Otterlo dorp"}, "geometry": {"type": "MultiPolygon", "coordinates": [[[[5.77144, 52.09065], [5.76899, 52.09397], [5.7687, 52.09755], [5.77055, 52.10388], [5.77615, 52.10709], [5.78158, 52.10005], [5.77955, 52.09903], [5.78045, 52.09703], [5.78328, 52.09549], [5.78172, 52.09311], [5.78342, 52.08958], [5.78159, 52.08803], [5.77716, 52.08666], [5.77513, 52.09121], [5.77144, 52.09065]]]]}}, {"type": "Feature", "properties": {"code": "BU02289031", "name": "Eschoter Veld"}, "geometry": {"type": "MultiPolygon", "coordinates": [[[[5.76805, 52.11029], [5.77615, 52.11133], [5.77874, 52.11083], [5.77615, 52.10709], [5.77055, 52.10388], [5.7687, 52.09755], [5.76899, 52.09397], [5.77144, 52.09065], [5.76549, 52.08994], [5.76589, 52.09511], [5.76423, 52.09514], [5.75971, 52.09241], [5.75163, 52.09438], [5.74888, 52.09147], [5.74171, 52.09315], [5.74172, 52.09408], [5.74072, 52.0946], [5.73189, 52.09432], [5.73164, 52.09703], [5.73337, 52.09775], [5.73137, 52.10064], [5.73356, 52.10096], [5.73531, 52.09935], [5.73816, 52.10105], [5.73803, 52.10322], [5.74095, 52.10546], [5.74175, 52.10709], [5.73329, 52.10869], [5.73245, 52.10684], [5.73016, 52.1074], [5.72679, 52.10962], [5.72812, 52.11197], [5.72973, 52.1118], [5.73309, 52.11362], [5.73675, 52.11343], [5.73836, 52.11427], [5.73892, 52.116], [5.74692, 52.11662], [5.75396, 52.11371], [5.74889, 52.11308], [5.74911, 52.11223], [5.75134, 52.11187], [5.75626, 52.10908], [5.7684, 52.10952], [5.76805, 52.11029]]]]}}, {"type": "Feature", "properties": {"code": "BU02289051", "name": "Reemst"}, "geometry": {"type": "MultiPolygon", "coordinates": [[[[5.85736, 52.09633], [5.85204, 52.09177], [5.84748, 52.0909], [5.84991, 52.08572], [5.85568, 52.08215], [5.85536, 52.08084], [5.85895, 52.07317], [5.83778, 52.06565], [5.85003, 52.05159], [5.83792, 52.04663], [5.8242, 52.03484], [5.81865, 52.02959], [5.81555, 52.03416], [5.79542, 52.0326], [5.78863, 52.03645], [5.77799, 52.03663], [5.77208, 52.03606], [5.76897, 52.04611], [5.76751, 52.04736], [5.75176, 52.05611], [5.73682, 52.07075], [5.7278, 52.07018], [5.73076, 52.0744], [5.72701, 52.08059], [5.72603, 52.08586], [5.72906, 52.08305], [5.73389, 52.08172], [5.74154, 52.09014], [5.73508, 52.09333], [5.73137, 52.09374], [5.73189, 52.09432], [5.74072, 52.0946], [5.74172, 52.09408], [5.74171, 52.09315], [5.74888, 52.09147], [5.75163, 52.09438], [5.75971, 52.09241], [5.76423, 52.09514], [5.76589, 52.09511], [5.76549, 52.08994], [5.77144, 52.09065], [5.77513, 52.09121], [5.77716, 52.08666], [5.78159, 52.08803], [5.78342, 52.08958], [5.78172, 52.09311], [5.78328, 52.09549], [5.78045, 52.09703], [5.77955, 52.09903], [5.78158, 52.10005], [5.77615, 52.10709], [5.77874, 52.11083], [5.77615, 52.11133], [5.76805, 52.11029], [5.76692, 52.11354], [5.77175, 52.11469], [5.78773, 52.12055], [5.79341, 52.12165], [5.81518, 52.12146], [5.83125, 52.12441], [5.8322, 52.12387], [5.83006, 52.12048], [5.82722, 52.11803], [5.82696, 52.11621], [5.82792, 52.1145], [5.83408, 52.11224], [5.83164, 52.10779], [5.83402, 52.10503], [5.83905, 52.10074], [5.85282, 52.09874], [5.85629, 52.09746], [5.85736, 52.09633]]]]}}, {"type": "Feature", "properties": {"code": "BU02289052", "name": "Hoog Baarlo"}, "geometry": {"type": "MultiPolygon", "coordinates": [[[[5.86435, 52.12699], [5.86476, 52.12554], [5.87418, 52.11668], [5.87627, 52.11446], [5.88345, 52.10634], [5.89379, 52.10478], [5.89013, 52.0968], [5.88885, 52.09627], [5.88167, 52.09595], [5.87749, 52.09717], [5.87423, 52.09896], [5.87054, 52.09969], [5.86034, 52.09853], [5.85736, 52.09633], [5.85629, 52.09746], [5.85282, 52.09874], [5.83905, 52.10074], [5.83402, 52.10503], [5.83164, 52.10779], [5.83408, 52.11224], [5.82792, 52.1145], [5.82696, 52.11621], [5.82722, 52.11803], [5.83006, 52.12048], [5.8322, 52.12387], [5.83125, 52.12441], [5.831, 52.12499], [5.8376, 52.12663], [5.84442, 52.12938], [5.84473, 52.13378], [5.85731, 52.13299], [5.86435, 52.12699]]]]}}, {"type": "Feature", "properties": {"code": "BU02289053", "name": "Deelen"}, "geometry": {"type": "MultiPolygon", "coordinates": [[[[5.92726, 52.10027], [5.94618, 52.0993], [5.95146, 52.09989], [5.94822, 52.09083], [5.9461, 52.07789], [5.90974, 52.0621], [5.89812, 52.06336], [5.8994, 52.04996], [5.88206, 52.04941], [5.85967, 52.05202], [5.85003, 52.05159], [5.83778, 52.06565], [5.85895, 52.07317], [5.85536, 52.08084], [5.85568, 52.08215], [5.84991, 52.08572], [5.84748, 52.0909], [5.85204, 52.09177], [5.85736, 52.09633], [5.86034, 52.09853], [5.87054, 52.09969], [5.87423, 52.09896], [5.87749, 52.09717], [5.88167, 52.09595], [5.88885, 52.09627], [5.89013, 52.0968], [5.89379, 52.10478], [5.9001, 52.10379], [5.91147, 52.10031], [5.92726, 52.10027]]]]}}]}