{"type": "FeatureCollection", "features": [{"type": "Feature", "properties": {"code": "BU02680100", "name": "Benedenstad"}, "geometry": {"type": "MultiPolygon", "coordinates": [[[[5.86424, 51.85131], [5.87135, 51.85157], [5.87285, 51.84867], [5.87176, 51.84765], [5.86734, 51.8468], [5.85497, 51.84877], [5.85673, 51.85213], [5.86424, 51.85131]]]]}}, {"type": "Feature", "properties": {"code": "BU02680101", "name": "Stadscentrum"}, "geometry": {"type": "MultiPolygon", "coordinates": [[[[5.86734, 51.8468], [5.87176, 51.84765], [5.87285, 51.84867], [5.87471, 51.84613], [5.87439, 51.84508], [5.87049, 51.84284], [5.86791, 51.84112], [5.86243, 51.84058], [5.85958, 51.84067], [5.85828, 51.84176], [5.85375, 51.84215], [5.85119, 51.83898], [5.85111, 51.84094], [5.85239, 51.84362], [5.85497, 51.84877], [5.86734, 51.8468]]]]}}, {"type": "Feature", "properties": {"code": "BU02680202", "name": "Bottendaal"}, "geometry": {"type": "MultiPolygon", "coordinates": [[[[5.85828, 51.84176], [5.85958, 51.84067], [5.85819, 51.83292], [5.85274, 51.83642], [5.85119, 51.83898], [5.85375, 51.84215], [5.85828, 51.84176]]]]}}, {"type": "Feature", "properties": {"code": "BU02680203", "name": "Galgenveld"}, "geometry": {"type": "MultiPolygon", "coordinates": [[[[5.86243, 51.84058], [5.87128, 51.83498], [5.87189, 51.83349], [5.87799, 51.83034], [5.87547, 51.82998], [5.87487, 51.8295], [5.86859, 51.82908], [5.86552, 51.82827], [5.85869, 51.83261], [5.85819, 51.83292], [5.85958, 51.84067], [5.86243, 51.84058]]]]}}, {"type": "Feature", "properties": {"code": "BU02680204", "name": "Altrade"}, "geometry": {"type": "MultiPolygon", "coordinates": [[[[5.87512, 51.84178], [5.87742, 51.83968], [5.88273, 51.83772], [5.8841, 51.83657], [5.88306, 51.83597], [5.87979, 51.83647], [5.87538, 51.83628], [5.87128, 51.83498], [5.86243, 51.84058], [5.86791, 51.84112], [5.87049, 51.84284], [5.87512, 51.84178]]]]}}, {"type": "Feature", "properties": {"code": "BU02680205", "name": "Hunnerberg"}, "geometry": {"type": "MultiPolygon", "coordinates": [[[[5.88426, 51.84343], [5.88457, 51.84384], [5.89453, 51.84056], [5.89217, 51.84001], [5.89809, 51.8364], [5.89579, 51.83358], [5.89589, 51.83258], [5.8951, 51.83223], [5.8876, 51.83541], [5.88916, 51.83738], [5.88713, 51.8389], [5.88526, 51.83686], [5.8841, 51.83657], [5.88273, 51.83772], [5.87742, 51.83968], [5.87512, 51.84178], [5.87049, 51.84284], [5.87439, 51.84508], [5.87471, 51.84613], [5.88426, 51.84343]]]]}}, {"type": "Feature", "properties": {"code": "BU02680206", "name": "Hengstdal"}, "geometry": {"type": "MultiPolygon", "coordinates": [[[[5.89589, 51.83258], [5.89698, 51.83217], [5.89531, 51.83117], [5.88433, 51.83042], [5.88243, 51.82887], [5.87799, 51.83034], [5.87189, 51.83349], [5.87128, 51.83498], [5.87538, 51.83628], [5.87979, 51.83647], [5.88306, 51.83597], [5.8841, 51.83657], [5.88526, 51.83686], [5.88713, 51.8389], [5.88916, 51.83738], [5.8876, 51.83541], [5.8951, 51.83223], [5.89589, 51.83258]]]]}}, {"type": "Feature", "properties": {"code": "BU02680207", "name": "Kwakkenberg"}, "geometry": {"type": "MultiPolygon", "coordinates": [[[[5.90394, 51.83134], [5.90651, 51.83059], [5.90825, 51.82935], [5.9053, 51.82745], [5.90143, 51.82739], [5.90033, 51.82572], [5.89909, 51.82462], [5.89371, 51.82393], [5.89352, 51.82428], [5.89234, 51.82389], [5.88875, 51.82269], [5.88831, 51.8231], [5.88806, 51.823], [5.88261, 51.82116], [5.88256, 51.82124], [5.88054, 51.82458], [5.87944, 51.82905], [5.87721, 51.82802], [5.87547, 51.82998], [5.87799, 51.83034], [5.88243, 51.82887], [5.88433, 51.83042], [5.89531, 51.83117], [5.89698, 51.83217], [5.90394, 51.83134]]]]}}, {"type": "Feature", "properties": {"code": "BU02680208", "name": "Groenewoud"}, "geometry": {"type": "MultiPolygon", "coordinates": [[[[5.88261, 51.82116], [5.88193, 51.82104], [5.88049, 51.82033], [5.88152, 51.8174], [5.88409, 51.81386], [5.88596, 51.8125], [5.88615, 51.81085], [5.88555, 51.8102], [5.88245, 51.8095], [5.87911, 51.80953], [5.8767, 51.80986], [5.87634, 51.8206], [5.87434, 51.82278], [5.86552, 51.82827], [5.86859, 51.82908], [5.87487, 51.8295], [5.87547, 51.82998], [5.87721, 51.82802], [5.87944, 51.82905], [5.88054, 51.82458], [5.88256, 51.82124], [5.88261, 51.82116]]]]}}, {"type": "Feature", "properties": {"code": "BU02680209", "name": "Ooyse Schependom"}, "geometry": {"type": "MultiPolygon", "coordinates": [[[[5.88457, 51.84384], [5.88426, 51.84343], [5.87471, 51.84613], [5.87285, 51.84867], [5.87135, 51.85157], [5.87781, 51.85437], [5.88158, 51.8591], [5.88158, 51.8591], [5.88737, 51.85881], [5.88741, 51.85454], [5.88462, 51.85017], [5.88734, 51.84969], [5.88549, 51.84766], [5.88039, 51.84505], [5.88457, 51.84384]]]]}}, {"type": "Feature", "properties": {"code": "BU02680320", "name": "Biezen"}, "geometry": {"type": "MultiPolygon", "coordinates": [[[[5.85288, 51.85309], [5.85673, 51.85213], [5.85497, 51.84877], [5.85239, 51.84362], [5.84812, 51.84347], [5.84094, 51.84451], [5.83672, 51.84585], [5.83915, 51.84879], [5.84058, 51.8527], [5.84416, 51.85682], [5.85288, 51.85309]]]]}}, {"type": "Feature", "properties": {"code": "BU02680321", "name": "Wolfskuil"}, "geometry": {"type": "MultiPolygon", "coordinates": [[[[5.84812, 51.84347], [5.85239, 51.84362], [5.85111, 51.84094], [5.84779, 51.83673], [5.84257, 51.83378], [5.83778, 51.8365], [5.83646, 51.8378], [5.83669, 51.83913], [5.83853, 51.83926], [5.84075, 51.84206], [5.84094, 51.84451], [5.84812, 51.84347]]]]}}, {"type": "Feature", "properties": {"code": "BU02680422", "name": "Hees"}, "geometry": {"type": "MultiPolygon", "coordinates": [[[[5.83097, 51.84565], [5.83255, 51.84494], [5.83672, 51.84585], [5.84094, 51.84451], [5.84075, 51.84206], [5.83853, 51.83926], [5.83669, 51.83913], [5.83325, 51.84072], [5.82811, 51.83927], [5.82637, 51.83688], [5.8224, 51.83515], [5.81995, 51.83742], [5.8253, 51.84111], [5.82749, 51.84592], [5.83097, 51.84565]]]]}}, {"type": "Feature", "properties": {"code": "BU02680423", "name": "Heseveld"}, "geometry": {"type": "MultiPolygon", "coordinates": [[[[5.83669, 51.83913], [5.83646, 51.8378], [5.83778, 51.8365], [5.84257, 51.83378], [5.835, 51.83104], [5.82813, 51.82857], [5.8262, 51.83134], [5.82166, 51.8349], [5.8224, 51.83515], [5.82637, 51.83688], [5.82811, 51.83927], [5.83325, 51.84072], [5.83669, 51.83913]]]]}}, {"type": "Feature", "properties": {"code": "BU02680424", "name": "Neerbosch-Oost"}, "geometry": {"type": "MultiPolygon", "coordinates": [[[[5.81995, 51.83742], [5.8224, 51.83515], [5.82166, 51.8349], [5.8262, 51.83134], [5.82813, 51.82857], [5.8224, 51.82728], [5.80842, 51.82562], [5.80714, 51.83118], [5.80931, 51.83752], [5.81292, 51.84206], [5.81995, 51.83742]]]]}}, {"type": "Feature", "properties": {"code": "BU02680425", "name": "Haven- en industrieterrein"}, "geometry": {"type": "MultiPolygon", "coordinates": [[[[5.83144, 51.86333], [5.84416, 51.85682], [5.84058, 51.8527], [5.83915, 51.84879], [5.83672, 51.84585], [5.83255, 51.84494], [5.83097, 51.84565], [5.82749, 51.84592], [5.8253, 51.84111], [5.81995, 51.83742], [5.81292, 51.84206], [5.81727, 51.84732], [5.81737, 51.84949], [5.82033, 51.85387], [5.82151, 51.8556], [5.82215, 51.85542], [5.82539, 51.86013], [5.82549, 51.86269], [5.82369, 51.86431], [5.82569, 51.86621], [5.83144, 51.86333]]]]}}, {"type": "Feature", "properties": {"code": "BU02680510", "name": "Nije Veld"}, "geometry": {"type": "MultiPolygon", "coordinates": [[[[5.85119, 51.83898], [5.85274, 51.83642], [5.85819, 51.83292], [5.85869, 51.83261], [5.85738, 51.831], [5.84621, 51.83181], [5.8434, 51.83153], [5.84161, 51.82911], [5.84186, 51.82789], [5.83799, 51.82648], [5.83487, 51.82966], [5.835, 51.83104], [5.84257, 51.83378], [5.84779, 51.83673], [5.85111, 51.84094], [5.85119, 51.83898]]]]}}, {"type": "Feature", "properties": {"code": "BU02680511", "name": "Hazenkamp"}, "geometry": {"type": "MultiPolygon", "coordinates": [[[[5.85738, 51.831], [5.85774, 51.82867], [5.85699, 51.82883], [5.84034, 51.81872], [5.84186, 51.82789], [5.84161, 51.82911], [5.8434, 51.83153], [5.84621, 51.83181], [5.85738, 51.831]]]]}}, {"type": "Feature", "properties": {"code": "BU02680512", "name": "Goffert"}, "geometry": {"type": "MultiPolygon", "coordinates": [[[[5.83487, 51.82966], [5.83799, 51.82648], [5.84186, 51.82789], [5.84034, 51.81872], [5.84097, 51.81681], [5.83992, 51.8161], [5.83896, 51.81664], [5.8324, 51.81259], [5.83154, 51.81316], [5.82724, 51.81335], [5.82279, 51.8119], [5.81421, 51.81112], [5.81164, 51.8176], [5.80842, 51.82562], [5.8224, 51.82728], [5.82813, 51.82857], [5.835, 51.83104], [5.83487, 51.82966]]]]}}, {"type": "Feature", "properties": {"code": "BU02680513", "name": "St. Anna"}, "geometry": {"type": "MultiPolygon", "coordinates": [[[[5.85699, 51.82883], [5.85774, 51.82867], [5.85563, 51.81912], [5.84688, 51.82028], [5.84097, 51.81681], [5.84034, 51.81872], [5.85699, 51.82883]]]]}}, {"type": "Feature", "properties": {"code": "BU02680517", "name": "Heijendaal"}, "geometry": {"type": "MultiPolygon", "coordinates": [[[[5.86552, 51.82827], [5.87434, 51.82278], [5.87634, 51.8206], [5.87443, 51.82003], [5.87026, 51.81679], [5.86712, 51.8167], [5.86668, 51.81852], [5.86236, 51.8185], [5.86203, 51.81643], [5.85491, 51.8165], [5.85563, 51.81912], [5.85774, 51.82867], [5.85738, 51.831], [5.85869, 51.83261], [5.86552, 51.82827]]]]}}, {"type": "Feature", "properties": {"code": "BU02680614", "name": "Hatertse Hei"}, "geometry": {"type": "MultiPolygon", "coordinates": [[[[5.84688, 51.82028], [5.85563, 51.81912], [5.85491, 51.8165], [5.85429, 51.81387], [5.84166, 51.81424], [5.83835, 51.81503], [5.83992, 51.8161], [5.84097, 51.81681], [5.84688, 51.82028]]]]}}, {"type": "Feature", "properties": {"code": "BU02680615", "name": "Grootstal"}, "geometry": {"type": "MultiPolygon", "coordinates": [[[[5.83992, 51.8161], [5.83835, 51.81503], [5.84166, 51.81424], [5.85429, 51.81387], [5.85263, 51.8075], [5.84696, 51.80811], [5.84094, 51.8072], [5.8395, 51.80674], [5.83762, 51.80714], [5.83279, 51.80975], [5.83046, 51.81159], [5.8324, 51.81259], [5.83896, 51.81664], [5.83992, 51.8161]]]]}}, {"type": "Feature", "properties": {"code": "BU02680616", "name": "Hatert"}, "geometry": {"type": "MultiPolygon", "coordinates": [[[[5.83762, 51.80714], [5.8395, 51.80674], [5.84094, 51.8072], [5.84133, 51.8059], [5.83917, 51.80461], [5.83696, 51.80611], [5.82551, 51.80013], [5.82686, 51.79954], [5.82468, 51.79809], [5.81978, 51.80179], [5.81612, 51.80633], [5.81421, 51.81112], [5.82279, 51.8119], [5.82724, 51.81335], [5.83154, 51.81316], [5.8324, 51.81259], [5.83046, 51.81159], [5.83279, 51.80975], [5.83762, 51.80714]]]]}}, {"type": "Feature", "properties": {"code": "BU02680618", "name": "Brakkenstein"}, "geometry": {"type": "MultiPolygon", "coordinates": [[[[5.8767, 51.80986], [5.86476, 51.8098], [5.85303, 51.80785], [5.85263, 51.8075], [5.85429, 51.81387], [5.85491, 51.8165], [5.86203, 51.81643], [5.86236, 51.8185], [5.86668, 51.81852], [5.86712, 51.8167], [5.87026, 51.81679], [5.87443, 51.82003], [5.87634, 51.8206], [5.8767, 51.80986]]]]}}, {"type": "Feature", "properties": {"code": "BU02680731", "name": "Tolhuis"}, "geometry": {"type": "MultiPolygon", "coordinates": [[[[5.79389, 51.82075], [5.80266, 51.81676], [5.80279, 51.81548], [5.79667, 51.81486], [5.79607, 51.81548], [5.78917, 51.81425], [5.78773, 51.81387], [5.78264, 51.82071], [5.78046, 51.82158], [5.79216, 51.82368], [5.79389, 51.82075]]]]}}, {"type": "Feature", "properties": {"code": "BU02680732", "name": "Zwanenveld"}, "geometry": {"type": "MultiPolygon", "coordinates": [[[[5.81164, 51.8176], [5.80266, 51.81676], [5.79389, 51.82075], [5.79216, 51.82368], [5.80842, 51.82562], [5.81164, 51.8176]]]]}}, {"type": "Feature", "properties": {"code": "BU02680733", "name": "Meijhorst"}, "geometry": {"type": "MultiPolygon", "coordinates": [[[[5.80307, 51.81198], [5.80314, 51.81018], [5.794, 51.80784], [5.78917, 51.81425], [5.79607, 51.81548], [5.79667, 51.81486], [5.80279, 51.81548], [5.80307, 51.81198]]]]}}, {"type": "Feature", "properties": {"code": "BU02680734", "name": "Lankforst"}, "geometry": {"type": "MultiPolygon", "coordinates": [[[[5.81421, 51.81112], [5.81062, 51.81061], [5.80764, 51.81158], [5.80307, 51.81198], [5.80279, 51.81548], [5.80266, 51.81676], [5.81164, 51.8176], [5.81421, 51.81112]]]]}}, {"type": "Feature", "properties": {"code": "BU02680735", "name": "Aldenhof"}, "geometry": {"type": "MultiPolygon", "coordinates": [[[[5.8036, 51.80756], [5.80634, 51.80393], [5.80011, 51.80106], [5.79801, 51.80264], [5.794, 51.80784], [5.80314, 51.81018], [5.8036, 51.80756]]]]}}, {"type": "Feature", "properties": {"code": "BU02680736", "name": "Malvert"}, "geometry": {"type": "MultiPolygon", "coordinates": [[[[5.80764, 51.81158], [5.81062, 51.81061], [5.81421, 51.81112], [5.81612, 51.80633], [5.80634, 51.80393], [5.8036, 51.80756], [5.80314, 51.81018], [5.80307, 51.81198], [5.80764, 51.81158]]]]}}, {"type": "Feature", "properties": {"code": "BU02680737", "name": "Weezenhof"}, "geometry": {"type": "MultiPolygon", "coordinates": [[[[5.81978, 51.80179], [5.81546, 51.80054], [5.80831, 51.79481], [5.80192, 51.79896], [5.80011, 51.80106], [5.80634, 51.80393], [5.81612, 51.80633], [5.81978, 51.80179]]]]}}, {"type": "Feature", "properties": {"code": "BU02680738", "name": "Vogelzang"}, "geometry": {"type": "MultiPolygon", "coordinates": [[[[5.82468, 51.79809], [5.8245, 51.798], [5.81408, 51.79282], [5.81381, 51.79281], [5.80831, 51.79481], [5.81546, 51.80054], [5.81978, 51.80179], [5.82468, 51.79809]]]]}}, {"type": "Feature", "properties": {"code": "BU02680739", "name": "Staddijk"}, "geometry": {"type": "MultiPolygon", "coordinates": [[[[5.78917, 51.81425], [5.794, 51.80784], [5.79801, 51.80264], [5.80011, 51.80106], [5.80192, 51.79896], [5.80831, 51.79481], [5.81381, 51.79281], [5.81022, 51.79059], [5.80095, 51.79515], [5.79608, 51.79814], [5.79437, 51.79731], [5.79225, 51.79893], [5.79043, 51.80202], [5.7813, 51.80983], [5.77472, 51.82053], [5.77552, 51.82069], [5.78046, 51.82158], [5.78264, 51.82071], [5.78773, 51.81387], [5.78917, 51.81425]]]]}}, {"type": "Feature", "properties": {"code": "BU02680840", "name": "'t Acker"}, "geometry": {"type": "MultiPolygon", "coordinates": [[[[5.78998, 51.83975], [5.80116, 51.83842], [5.80196, 51.83835], [5.80146, 51.83618], [5.79622, 51.83344], [5.79619, 51.82964], [5.79241, 51.82764], [5.79149, 51.83177], [5.78017, 51.8336], [5.7739, 51.83554], [5.77645, 51.83891], [5.77917, 51.8406], [5.77979, 51.84213], [5.78998, 51.83975]]]]}}, {"type": "Feature", "properties": {"code": "BU02680841", "name": "De Kamp"}, "geometry": {"type": "MultiPolygon", "coordinates": [[[[5.80931, 51.83752], [5.80714, 51.83118], [5.80842, 51.82562], [5.79216, 51.82368], [5.79241, 51.82764], [5.79619, 51.82964], [5.79622, 51.83344], [5.80146, 51.83618], [5.80196, 51.83835], [5.80931, 51.83752]]]]}}, {"type": "Feature", "properties": {"code": "BU02680842", "name": "'t Broek"}, "geometry": {"type": "MultiPolygon", "coordinates": [[[[5.78017, 51.8336], [5.79149, 51.83177], [5.79241, 51.82764], [5.7888, 51.82888], [5.78626, 51.82872], [5.78512, 51.82744], [5.78237, 51.82727], [5.77895, 51.82845], [5.77432, 51.82306], [5.7724, 51.82965], [5.7739, 51.83554], [5.78017, 51.8336]]]]}}, {"type": "Feature", "properties": {"code": "BU02680843", "name": "Kerkenbos"}, "geometry": {"type": "MultiPolygon", "coordinates": [[[[5.79241, 51.82764], [5.79216, 51.82368], [5.78046, 51.82158], [5.77552, 51.82069], [5.77432, 51.82306], [5.77895, 51.82845], [5.78237, 51.82727], [5.78512, 51.82744], [5.78626, 51.82872], [5.7888, 51.82888], [5.79241, 51.82764]]]]}}, {"type": "Feature", "properties": {"code": "BU02680847", "name": "Westkanaaldijk"}, "geometry": {"type": "MultiPolygon", "coordinates": [[[[5.81232, 51.84964], [5.81737, 51.84949], [5.81727, 51.84732], [5.81292, 51.84206], [5.80931, 51.83752], [5.80196, 51.83835], [5.80116, 51.83842], [5.80386, 51.84155], [5.79793, 51.84619], [5.8061, 51.85046], [5.80733, 51.85184], [5.81236, 51.85033], [5.81232, 51.84964]]]]}}, {"type": "Feature", "properties": {"code": "BU02680848", "name": "Neerbosch-West"}, "geometry": {"type": "MultiPolygon", "coordinates": [[[[5.80386, 51.84155], [5.80116, 51.83842], [5.78998, 51.83975], [5.77979, 51.84213], [5.77715, 51.84447], [5.77965, 51.84457], [5.7812, 51.84298], [5.78359, 51.842], [5.7865, 51.84092], [5.79793, 51.84619], [5.80386, 51.84155]]]]}}, {"type": "Feature", "properties": {"code": "BU02680849", "name": "Bijsterhuizen"}, "geometry": {"type": "MultiPolygon", "coordinates": [[[[5.77979, 51.84213], [5.77917, 51.8406], [5.77645, 51.83891], [5.7739, 51.83554], [5.7724, 51.82965], [5.77432, 51.82306], [5.77552, 51.82069], [5.77472, 51.82053], [5.77471, 51.82055], [5.77406, 51.82159], [5.77133, 51.82306], [5.75762, 51.82399], [5.76473, 51.83229], [5.77508, 51.84425], [5.77715, 51.84447], [5.77979, 51.84213]]]]}}, {"type": "Feature", "properties": {"code": "BU02680950", "name": "Oosterhout"}, "geometry": {"type": "MultiPolygon", "coordinates": [[[[5.85036, 51.87387], [5.84329, 51.86558], [5.83965, 51.8656], [5.83591, 51.8666], [5.83144, 51.86333], [5.82569, 51.86621], [5.81707, 51.87026], [5.82697, 51.87319], [5.83161, 51.87223], [5.83258, 51.87344], [5.83417, 51.87562], [5.83515, 51.87762], [5.83281, 51.87843], [5.83779, 51.88343], [5.83682, 51.88366], [5.83587, 51.88603], [5.83594, 51.88815], [5.83439, 51.89034], [5.83043, 51.89165], [5.83024, 51.89368], [5.83672, 51.89375], [5.83685, 51.89375], [5.83922, 51.88941], [5.84924, 51.87942], [5.85036, 51.87387]]]]}}, {"type": "Feature", "properties": {"code": "BU02680960", "name": "Ressen"}, "geometry": {"type": "MultiPolygon", "coordinates": [[[[5.87614, 51.8766], [5.87284, 51.87713], [5.86388, 51.88039], [5.85736, 51.87795], [5.85036, 51.87387], [5.84924, 51.87942], [5.83922, 51.88941], [5.83685, 51.89375], [5.85712, 51.89462], [5.85763, 51.88839], [5.85949, 51.88867], [5.86131, 51.88877], [5.8641, 51.88872], [5.86549, 51.88898], [5.86542, 51.88854], [5.8687, 51.8882], [5.87148, 51.88865], [5.8742, 51.88458], [5.87584, 51.88086], [5.87614, 51.8766]]]]}}, {"type": "Feature", "properties": {"code": "BU02680970", "name": "Lent"}, "geometry": {"type": "MultiPolygon", "coordinates": [[[[5.87614, 51.8766], [5.87695, 51.8765], [5.88027, 51.86921], [5.88195, 51.8671], [5.88299, 51.86667], [5.88253, 51.86629], [5.88274, 51.86614], [5.88435, 51.86702], [5.88677, 51.8652], [5.88158, 51.8591], [5.87781, 51.85437], [5.87135, 51.85157], [5.86424, 51.85131], [5.85673, 51.85213], [5.85288, 51.85309], [5.84416, 51.85682], [5.83144, 51.86333], [5.83591, 51.8666], [5.83965, 51.8656], [5.84329, 51.86558], [5.85036, 51.87387], [5.85736, 51.87795], [5.86388, 51.88039], [5.87284, 51.87713], [5.87614, 51.8766]]]]}}]}