{"type": "FeatureCollection", "features": [{"type": "Feature", "properties": {"code": "WK020001", "name": "Centrum"}, "geometry": {"type": "MultiPolygon", "coordinates": [[[[5.96042, 52.21684], [5.96448, 52.21675], [5.97022, 52.21677], [5.96954, 52.21409], [5.97517, 52.21229], [5.97776, 52.20906], [5.96994, 52.20933], [5.96282, 52.20919], [5.95785, 52.20777], [5.95506, 52.21279], [5.9539, 52.21687], [5.95471, 52.21993], [5.95565, 52.21974], [5.95749, 52.21914], [5.96042, 52.21684]]]]}}, {"type": "Feature", "properties": {"code": "WK020002", "name": "West"}, "geometry": {"type": "MultiPolygon", "coordinates": [[[[5.92965, 52.2272], [5.93889, 52.22675], [5.94579, 52.22746], [5.94617, 52.22738], [5.94622, 52.22029], [5.95471, 52.21993], [5.9539, 52.21687], [5.95506, 52.21279], [5.95785, 52.20777], [5.95784, 52.20777], [5.952, 52.20499], [5.94608, 52.20216], [5.94607, 52.20215], [5.93381, 52.19629], [5.93015, 52.19454], [5.9264, 52.19273], [5.92372, 52.19317], [5.91898, 52.19284], [5.91664, 52.19396], [5.91977, 52.19644], [5.92272, 52.19503], [5.92336, 52.19704], [5.91341, 52.1997], [5.91172, 52.20497], [5.8962, 52.20286], [5.89271, 52.20883], [5.9039, 52.21706], [5.90328, 52.22451], [5.90093, 52.22881], [5.92965, 52.2272]]]]}}, {"type": "Feature", "properties": {"code": "WK020003", "name": "Zuidwest"}, "geometry": {"type": "MultiPolygon", "coordinates": [[[[5.96208, 52.1789], [5.96201, 52.17266], [5.95468, 52.17357], [5.94933, 52.17508], [5.93782, 52.17879], [5.93412, 52.17686], [5.93193, 52.17897], [5.93016, 52.17869], [5.92737, 52.17671], [5.92567, 52.17634], [5.91794, 52.17717], [5.9106, 52.1761], [5.90807, 52.17629], [5.90638, 52.17765], [5.91311, 52.17964], [5.91518, 52.18217], [5.91679, 52.18494], [5.91896, 52.1868], [5.92837, 52.19058], [5.93195, 52.19184], [5.93015, 52.19454], [5.93381, 52.19629], [5.94607, 52.20215], [5.94608, 52.20216], [5.952, 52.20499], [5.95784, 52.20777], [5.95853, 52.20538], [5.95913, 52.20105], [5.95921, 52.20044], [5.95957, 52.199], [5.96192, 52.19671], [5.96226, 52.19456], [5.9621, 52.1851], [5.96208, 52.1789]]]]}}, {"type": "Feature", "properties": {"code": "WK020004", "name": "Zuid"}, "geometry": {"type": "MultiPolygon", "coordinates": [[[[5.97327, 52.17352], [5.96201, 52.17266], [5.96208, 52.1789], [5.9621, 52.1851], [5.96226, 52.19456], [5.96192, 52.19671], [5.95957, 52.199], [5.95921, 52.20044], [5.95913, 52.20105], [5.95853, 52.20538], [5.95784, 52.20777], [5.95785, 52.20777], [5.96282, 52.20919], [5.96994, 52.20933], [5.97776, 52.20906], [5.97835, 52.20805], [5.98, 52.20449], [5.98293, 52.19364], [5.98539, 52.18991], [5.98789, 52.18717], [5.99171, 52.18024], [5.98232, 52.17643], [5.98229, 52.17349], [5.97327, 52.17352]]]]}}, {"type": "Feature", "properties": {"code": "WK020005", "name": "Zuidoost"}, "geometry": {"type": "MultiPolygon", "coordinates": [[[[5.99819, 52.18172], [5.99171, 52.18024], [5.98789, 52.18717], [5.98539, 52.18991], [5.98293, 52.19364], [5.98, 52.20449], [5.97835, 52.20805], [5.97776, 52.20906], [5.97966, 52.20899], [5.98667, 52.20875], [5.9926, 52.20777], [5.99973, 52.20552], [6.01894, 52.19904], [6.01913, 52.19494], [6.02267, 52.18785], [6.01594, 52.18567], [6.00617, 52.18348], [5.99819, 52.18172]]]]}}, {"type": "Feature", "properties": {"code": "WK020006", "name": "Oost"}, "geometry": {"type": "MultiPolygon", "coordinates": [[[[6.02291, 52.2141], [6.02136, 52.20734], [6.01939, 52.20096], [6.0259, 52.20109], [6.03272, 52.20318], [6.04159, 52.19904], [6.04769, 52.19801], [6.03645, 52.19343], [6.01894, 52.19904], [5.99973, 52.20552], [5.9926, 52.20777], [5.98667, 52.20875], [5.97966, 52.20899], [5.97776, 52.20906], [5.97517, 52.21229], [5.96954, 52.21409], [5.97022, 52.21677], [5.98616, 52.21386], [5.98814, 52.21438], [5.99994, 52.21989], [6.00817, 52.22375], [6.01316, 52.2261], [6.01735, 52.22805], [6.02107, 52.2206], [6.02291, 52.2141]]]]}}, {"type": "Feature", "properties": {"code": "WK020007", "name": "Noordoost"}, "geometry": {"type": "MultiPolygon", "coordinates": [[[[6.00617, 52.25028], [6.01259, 52.23752], [6.01735, 52.22805], [6.01316, 52.2261], [6.00817, 52.22375], [5.99994, 52.21989], [5.98814, 52.21438], [5.98616, 52.21386], [5.97022, 52.21677], [5.97283, 52.22101], [5.97451, 52.22785], [5.97505, 52.23102], [5.97578, 52.23525], [5.97545, 52.23914], [5.9778, 52.24536], [5.98698, 52.24522], [6.00617, 52.25028]]]]}}, {"type": "Feature", "properties": {"code": "WK020008", "name": "Noord"}, "geometry": {"type": "MultiPolygon", "coordinates": [[[[5.97545, 52.23914], [5.97578, 52.23525], [5.97505, 52.23102], [5.97451, 52.22785], [5.97283, 52.22101], [5.97022, 52.21677], [5.96448, 52.21675], [5.96042, 52.21684], [5.95749, 52.21914], [5.95565, 52.21974], [5.95471, 52.21993], [5.94622, 52.22029], [5.94617, 52.22738], [5.94579, 52.22746], [5.93889, 52.22675], [5.92965, 52.2272], [5.92389, 52.2365], [5.92392, 52.23986], [5.93978, 52.2393], [5.94279, 52.23701], [5.94973, 52.2384], [5.95619, 52.23907], [5.95729, 52.23896], [5.95736, 52.23959], [5.95866, 52.2404], [5.96606, 52.24151], [5.96551, 52.24414], [5.96654, 52.24727], [5.97849, 52.24701], [5.9778, 52.24536], [5.97545, 52.23914]]]]}}, {"type": "Feature", "properties": {"code": "WK020010", "name": "Uddel en omgeving"}, "geometry": {"type": "MultiPolygon", "coordinates": [[[[5.82974, 52.27128], [5.84272, 52.26715], [5.85081, 52.2687], [5.85452, 52.2601], [5.86089, 52.25581], [5.86487, 52.2526], [5.86941, 52.25168], [5.87155, 52.24976], [5.87274, 52.24083], [5.87676, 52.23787], [5.87994, 52.23396], [5.86622, 52.2339], [5.84938, 52.2303], [5.8484, 52.23207], [5.84562, 52.23241], [5.84405, 52.22877], [5.83025, 52.22442], [5.81541, 52.22356], [5.81495, 52.2224], [5.81267, 52.21635], [5.81495, 52.21104], [5.81999, 52.20742], [5.83657, 52.20081], [5.82855, 52.20001], [5.79203, 52.19699], [5.75059, 52.19373], [5.74108, 52.20188], [5.73077, 52.2086], [5.72859, 52.21555], [5.72744, 52.2193], [5.74167, 52.21988], [5.74303, 52.22349], [5.73821, 52.23158], [5.73336, 52.23177], [5.73092, 52.23157], [5.72955, 52.23892], [5.72639, 52.2425], [5.75168, 52.24608], [5.76145, 52.2483], [5.74923, 52.26827], [5.75126, 52.26956], [5.773, 52.27035], [5.78004, 52.2706], [5.79246, 52.26998], [5.79724, 52.2697], [5.80223, 52.2705], [5.80999, 52.2703], [5.82143, 52.27267], [5.82974, 52.27128]]]]}}, {"type": "Feature", "properties": {"code": "WK020011", "name": "Hoog Soeren en Radio Kootwijk"}, "geometry": {"type": "MultiPolygon", "coordinates": [[[[5.89003, 52.23276], [5.90093, 52.22881], [5.90328, 52.22451], [5.9039, 52.21706], [5.89271, 52.20883], [5.8962, 52.20286], [5.91172, 52.20497], [5.91341, 52.1997], [5.92336, 52.19704], [5.92272, 52.19503], [5.91977, 52.19644], [5.91664, 52.19396], [5.91898, 52.19284], [5.92372, 52.19317], [5.9264, 52.19273], [5.92023, 52.19026], [5.91195, 52.18913], [5.90665, 52.18941], [5.89202, 52.19168], [5.88061, 52.19345], [5.8717, 52.18671], [5.86265, 52.1799], [5.86174, 52.17037], [5.86602, 52.15509], [5.85955, 52.14875], [5.84576, 52.15161], [5.80984, 52.15141], [5.80965, 52.16669], [5.80196, 52.17736], [5.81193, 52.18488], [5.79966, 52.19465], [5.79626, 52.19634], [5.79203, 52.19699], [5.82855, 52.20001], [5.83657, 52.20081], [5.81999, 52.20742], [5.81495, 52.21104], [5.81267, 52.21635], [5.81495, 52.2224], [5.81541, 52.22356], [5.83025, 52.22442], [5.84405, 52.22877], [5.84562, 52.23241], [5.8484, 52.23207], [5.84938, 52.2303], [5.86622, 52.2339], [5.87994, 52.23396], [5.88131, 52.23284], [5.89003, 52.23276]]]]}}, {"type": "Feature", "properties": {"code": "WK020012", "name": "Hoenderloo en omgeving"}, "geometry": {"type": "MultiPolygon", "coordinates": [[[[5.92837, 52.19058], [5.91896, 52.1868], [5.91679, 52.18494], [5.91518, 52.18217], [5.91311, 52.17964], [5.90638, 52.17765], [5.90807, 52.17629], [5.9106, 52.1761], [5.91794, 52.17717], [5.92567, 52.17634], [5.92737, 52.17671], [5.93016, 52.17869], [5.93193, 52.17897], [5.93412, 52.17686], [5.93782, 52.17879], [5.94933, 52.17508], [5.94529, 52.1754], [5.93909, 52.17151], [5.93737, 52.1683], [5.93586, 52.16111], [5.93177, 52.15306], [5.93111, 52.15166], [5.94461, 52.12523], [5.95656, 52.12582], [5.95584, 52.12275], [5.95353, 52.12032], [5.95197, 52.1169], [5.95191, 52.11348], [5.95304, 52.11055], [5.95462, 52.10666], [5.95466, 52.10381], [5.9532, 52.10019], [5.95146, 52.09989], [5.94618, 52.0993], [5.92726, 52.10027], [5.91147, 52.10031], [5.9001, 52.10379], [5.89379, 52.10478], [5.88345, 52.10634], [5.87627, 52.11446], [5.87418, 52.11668], [5.86476, 52.12554], [5.86435, 52.12699], [5.86421, 52.12756], [5.86232, 52.13479], [5.86114, 52.14526], [5.85955, 52.14875], [5.86602, 52.15509], [5.86174, 52.17037], [5.86265, 52.1799], [5.8717, 52.18671], [5.88061, 52.19345], [5.89202, 52.19168], [5.90665, 52.18941], [5.91195, 52.18913], [5.92023, 52.19026], [5.9264, 52.19273], [5.93015, 52.19454], [5.93195, 52.19184], [5.92837, 52.19058]]]]}}, {"type": "Feature", "properties": {"code": "WK020013", "name": "Loenen en omgeving"}, "geometry": {"type": "MultiPolygon", "coordinates": [[[[6.04113, 52.11237], [6.03582, 52.10947], [6.03545, 52.10767], [6.03523, 52.10717], [6.03421, 52.10613], [6.03391, 52.10419], [6.03483, 52.1029], [6.03247, 52.10151], [6.03426, 52.09835], [6.03405, 52.09572], [6.03159, 52.09561], [6.02535, 52.08997], [6.01739, 52.08302], [6.00885, 52.07401], [5.99048, 52.07916], [5.97704, 52.07831], [5.96465, 52.07632], [5.95593, 52.07334], [5.9461, 52.07789], [5.94822, 52.09083], [5.95146, 52.09989], [5.9532, 52.10019], [5.95466, 52.10381], [5.95462, 52.10666], [5.95304, 52.11055], [5.9563, 52.11127], [5.96016, 52.11028], [5.9641, 52.11302], [5.9692, 52.11362], [5.98652, 52.11928], [5.98367, 52.12137], [6.0114, 52.13526], [6.01963, 52.13672], [6.04072, 52.14368], [6.04086, 52.14457], [6.06738, 52.15391], [6.07267, 52.15007], [6.07473, 52.14816], [6.07437, 52.1473], [6.07607, 52.14394], [6.07848, 52.13888], [6.07267, 52.13534], [6.07139, 52.13457], [6.06962, 52.13131], [6.05173, 52.12448], [6.05155, 52.1244], [6.04765, 52.11919], [6.04317, 52.11691], [6.04058, 52.11457], [6.04113, 52.11237]]]]}}, {"type": "Feature", "properties": {"code": "WK020014", "name": "Beekbergen en omgeving"}, "geometry": {"type": "MultiPolygon", "coordinates": [[[[5.95468, 52.17357], [5.96201, 52.17266], [5.97327, 52.17352], [5.98229, 52.17349], [5.9825, 52.16527], [5.9843, 52.16205], [5.98856, 52.15881], [6.00125, 52.15006], [6.00413, 52.14804], [6.01963, 52.13672], [6.0114, 52.13526], [5.98367, 52.12137], [5.98652, 52.11928], [5.9692, 52.11362], [5.9641, 52.11302], [5.96016, 52.11028], [5.9563, 52.11127], [5.95304, 52.11055], [5.95191, 52.11348], [5.95197, 52.1169], [5.95353, 52.12032], [5.95584, 52.12275], [5.95656, 52.12582], [5.94461, 52.12523], [5.93111, 52.15166], [5.93177, 52.15306], [5.93586, 52.16111], [5.93737, 52.1683], [5.93909, 52.17151], [5.94529, 52.1754], [5.94933, 52.17508], [5.95468, 52.17357]]]]}}, {"type": "Feature", "properties": {"code": "WK020015", "name": "Lieren en omgeving"}, "geometry": {"type": "MultiPolygon", "coordinates": [[[[6.04072, 52.14368], [6.01963, 52.13672], [6.00413, 52.14804], [6.00125, 52.15006], [5.98856, 52.15881], [5.9843, 52.16205], [5.9825, 52.16527], [5.98229, 52.17349], [5.98232, 52.17643], [5.99171, 52.18024], [5.99428, 52.17748], [5.99994, 52.16604], [6.00257, 52.16323], [6.01116, 52.15894], [6.01725, 52.15734], [6.03022, 52.15347], [6.03657, 52.15017], [6.04011, 52.14674], [6.04086, 52.14457], [6.04072, 52.14368]]]]}}, {"type": "Feature", "properties": {"code": "WK020016", "name": "Klarenbeek en omgeving"}, "geometry": {"type": "MultiPolygon", "coordinates": [[[[6.03446, 52.22779], [6.03342, 52.22408], [6.03546, 52.22448], [6.0409, 52.22413], [6.04241, 52.22247], [6.04691, 52.22137], [6.04684, 52.22039], [6.04824, 52.21642], [6.04791, 52.213], [6.05024, 52.21002], [6.05375, 52.20088], [6.05729, 52.19666], [6.05825, 52.19617], [6.05824, 52.19594], [6.05609, 52.19606], [6.05387, 52.195], [6.05317, 52.19261], [6.05107, 52.18875], [6.05097, 52.18714], [6.04939, 52.18521], [6.05013, 52.18329], [6.05164, 52.18214], [6.05381, 52.18135], [6.05535, 52.17949], [6.05979, 52.17622], [6.06136, 52.17395], [6.06245, 52.17171], [6.06266, 52.17128], [6.06286, 52.17089], [6.06563, 52.16534], [6.06581, 52.16465], [6.06642, 52.16152], [6.06426, 52.15739], [6.06738, 52.15391], [6.04086, 52.14457], [6.04011, 52.14674], [6.03657, 52.15017], [6.03022, 52.15347], [6.01725, 52.15734], [6.01116, 52.15894], [6.00257, 52.16323], [5.99994, 52.16604], [5.99428, 52.17748], [5.99171, 52.18024], [5.99819, 52.18172], [6.00617, 52.18348], [6.01594, 52.18567], [6.02267, 52.18785], [6.01913, 52.19494], [6.01894, 52.19904], [6.03645, 52.19343], [6.04769, 52.19801], [6.04159, 52.19904], [6.03272, 52.20318], [6.0259, 52.20109], [6.01939, 52.20096], [6.02136, 52.20734], [6.02291, 52.2141], [6.02107, 52.2206], [6.01735, 52.22805], [6.0234, 52.2306], [6.03364, 52.23152], [6.03424, 52.23135], [6.03446, 52.22779]]]]}}, {"type": "Feature", "properties": {"code": "WK020017", "name": "Wenum Wiesel Beemte"}, "geometry": {"type": "MultiPolygon", "coordinates": [[[[5.98936, 52.27404], [5.99337, 52.27393], [6.00916, 52.27634], [6.02886, 52.27681], [6.0304, 52.2762], [6.03126, 52.27524], [6.02976, 52.27261], [6.02893, 52.27232], [6.02853, 52.27099], [6.03105, 52.27092], [6.03031, 52.26923], [6.03435, 52.26911], [6.0364, 52.26853], [6.03485, 52.26552], [6.03768, 52.26361], [6.03749, 52.26092], [6.03651, 52.25949], [6.0358, 52.25951], [6.03566, 52.25931], [6.03515, 52.25831], [6.03429, 52.2581], [6.03177, 52.25855], [6.03116, 52.2531], [6.02847, 52.24866], [6.0248, 52.24894], [6.02734, 52.24581], [6.0284, 52.24539], [6.02789, 52.24486], [6.02893, 52.24439], [6.02651, 52.2429], [6.02833, 52.24168], [6.02847, 52.23904], [6.03255, 52.23559], [6.03441, 52.23431], [6.03604, 52.23192], [6.03497, 52.23139], [6.03364, 52.23152], [6.0234, 52.2306], [6.01735, 52.22805], [6.01259, 52.23752], [6.00617, 52.25028], [5.98698, 52.24522], [5.9778, 52.24536], [5.97849, 52.24701], [5.96654, 52.24727], [5.96551, 52.24414], [5.96606, 52.24151], [5.95866, 52.2404], [5.95736, 52.23959], [5.95729, 52.23896], [5.95619, 52.23907], [5.94973, 52.2384], [5.94279, 52.23701], [5.93978, 52.2393], [5.92392, 52.23986], [5.92389, 52.2365], [5.92965, 52.2272], [5.90093, 52.22881], [5.89003, 52.23276], [5.88131, 52.23284], [5.87994, 52.23396], [5.87676, 52.23787], [5.87274, 52.24083], [5.87155, 52.24976], [5.86941, 52.25168], [5.86487, 52.2526], [5.86089, 52.25581], [5.86739, 52.25987], [5.87959, 52.26499], [5.9229, 52.27199], [5.93621, 52.27442], [5.95792, 52.27237], [5.9596, 52.27246], [5.97389, 52.27321], [5.98114, 52.2807], [5.98217, 52.28383], [5.98536, 52.28459], [5.98574, 52.28567], [5.9914, 52.28554], [5.99242, 52.2849], [5.98936, 52.27404]]]]}}]}