{"type": "FeatureCollection", "features": [{"type": "Feature", "properties": {"code": "BU02000101", "name": "Binnenstad"}, "geometry": {"type": "MultiPolygon", "coordinates": [[[[5.95565, 52.21974], [5.95749, 52.21914], [5.96042, 52.21684], [5.96448, 52.21675], [5.96994, 52.20933], [5.96282, 52.20919], [5.95785, 52.20777], [5.95506, 52.21279], [5.9539, 52.21687], [5.95471, 52.21993], [5.95565, 52.21974]]]]}}, {"type": "Feature", "properties": {"code": "BU02000102", "name": "De Haven"}, "geometry": {"type": "MultiPolygon", "coordinates": [[[[5.97022, 52.21677], [5.96954, 52.21409], [5.97517, 52.21229], [5.97776, 52.20906], [5.96994, 52.20933], [5.96448, 52.21675], [5.97022, 52.21677]]]]}}, {"type": "Feature", "properties": {"code": "BU02000201", "name": "Brinkhorst"}, "geometry": {"type": "MultiPolygon", "coordinates": [[[[5.9539, 52.21687], [5.95506, 52.21279], [5.95785, 52.20777], [5.95784, 52.20777], [5.952, 52.20499], [5.95021, 52.20706], [5.94717, 52.21502], [5.94728, 52.21508], [5.95228, 52.21718], [5.9539, 52.21687]]]]}}, {"type": "Feature", "properties": {"code": "BU02000202", "name": "Sprengenweg-Noord"}, "geometry": {"type": "MultiPolygon", "coordinates": [[[[5.95471, 52.21993], [5.9539, 52.21687], [5.95228, 52.21718], [5.94728, 52.21508], [5.94622, 52.22029], [5.95471, 52.21993]]]]}}, {"type": "Feature", "properties": {"code": "BU02000203", "name": "Sprengenbos"}, "geometry": {"type": "MultiPolygon", "coordinates": [[[[5.94617, 52.22738], [5.94622, 52.22029], [5.94728, 52.21508], [5.94717, 52.21502], [5.94074, 52.21175], [5.93123, 52.21042], [5.93324, 52.21573], [5.94579, 52.22746], [5.94617, 52.22738]]]]}}, {"type": "Feature", "properties": {"code": "BU02000204", "name": "Berg en Bos"}, "geometry": {"type": "MultiPolygon", "coordinates": [[[[5.94579, 52.22746], [5.93324, 52.21573], [5.93123, 52.21042], [5.93027, 52.20736], [5.92386, 52.20851], [5.92367, 52.21123], [5.92855, 52.21283], [5.92694, 52.21388], [5.92317, 52.21451], [5.92021, 52.21639], [5.92238, 52.21689], [5.92233, 52.2235], [5.93059, 52.22334], [5.92965, 52.2272], [5.93889, 52.22675], [5.94579, 52.22746]]]]}}, {"type": "Feature", "properties": {"code": "BU02000205", "name": "Driehuizen"}, "geometry": {"type": "MultiPolygon", "coordinates": [[[[5.95021, 52.20706], [5.952, 52.20499], [5.94608, 52.20216], [5.9354, 52.20791], [5.93027, 52.20736], [5.93123, 52.21042], [5.94074, 52.21175], [5.94717, 52.21502], [5.95021, 52.20706]]]]}}, {"type": "Feature", "properties": {"code": "BU02000206", "name": "Orden"}, "geometry": {"type": "MultiPolygon", "coordinates": [[[[5.93027, 52.20736], [5.9354, 52.20791], [5.94608, 52.20216], [5.94607, 52.20215], [5.93381, 52.19629], [5.93015, 52.19454], [5.9264, 52.19273], [5.92372, 52.19317], [5.91898, 52.19284], [5.91664, 52.19396], [5.91977, 52.19644], [5.92272, 52.19503], [5.92336, 52.19704], [5.91341, 52.1997], [5.91172, 52.20497], [5.9245, 52.2068], [5.92386, 52.20851], [5.93027, 52.20736]]]]}}, {"type": "Feature", "properties": {"code": "BU02000207", "name": "Park Berg en Bos"}, "geometry": {"type": "MultiPolygon", "coordinates": [[[[5.92965, 52.2272], [5.93059, 52.22334], [5.92233, 52.2235], [5.92238, 52.21689], [5.92021, 52.21639], [5.92317, 52.21451], [5.92694, 52.21388], [5.92855, 52.21283], [5.92367, 52.21123], [5.92386, 52.20851], [5.9245, 52.2068], [5.91172, 52.20497], [5.8962, 52.20286], [5.89271, 52.20883], [5.9039, 52.21706], [5.90328, 52.22451], [5.90093, 52.22881], [5.92965, 52.2272]]]]}}, {"type": "Feature", "properties": {"code": "BU02000301", "name": "Ugchelen"}, "geometry": {"type": "MultiPolygon", "coordinates": [[[[5.93176, 52.1886], [5.93403, 52.18826], [5.93423, 52.18877], [5.93757, 52.1888], [5.94141, 52.18839], [5.94138, 52.1876], [5.9436, 52.18186], [5.94448, 52.18063], [5.93916, 52.18013], [5.93668, 52.179], [5.91518, 52.18217], [5.91679, 52.18494], [5.91896, 52.1868], [5.92837, 52.19058], [5.93176, 52.1886]]]]}}, {"type": "Feature", "properties": {"code": "BU02000302", "name": "Ugchelen-Zuid"}, "geometry": {"type": "MultiPolygon", "coordinates": [[[[5.93668, 52.179], [5.93782, 52.17879], [5.93412, 52.17686], [5.93193, 52.17897], [5.93016, 52.17869], [5.92737, 52.17671], [5.92567, 52.17634], [5.91794, 52.17717], [5.9106, 52.1761], [5.90807, 52.17629], [5.90638, 52.17765], [5.91311, 52.17964], [5.91518, 52.18217], [5.93668, 52.179]]]]}}, {"type": "Feature", "properties": {"code": "BU02000303", "name": "De Heeze"}, "geometry": {"type": "MultiPolygon", "coordinates": [[[[5.95913, 52.20105], [5.95921, 52.20044], [5.94953, 52.19868], [5.9478, 52.20056], [5.95362, 52.20373], [5.95853, 52.20538], [5.95913, 52.20105]]]]}}, {"type": "Feature", "properties": {"code": "BU02000304", "name": "Westenenk"}, "geometry": {"type": "MultiPolygon", "coordinates": [[[[5.95957, 52.199], [5.96192, 52.19671], [5.96226, 52.19456], [5.95711, 52.19323], [5.94998, 52.18991], [5.94448, 52.19058], [5.94953, 52.19868], [5.95921, 52.20044], [5.95957, 52.199]]]]}}, {"type": "Feature", "properties": {"code": "BU02000305", "name": "Winkewijert"}, "geometry": {"type": "MultiPolygon", "coordinates": [[[[5.96226, 52.19456], [5.9621, 52.1851], [5.9556, 52.1848], [5.95375, 52.18279], [5.94998, 52.18991], [5.95711, 52.19323], [5.96226, 52.19456]]]]}}, {"type": "Feature", "properties": {"code": "BU02000306", "name": "De Bouwhof"}, "geometry": {"type": "MultiPolygon", "coordinates": [[[[5.94998, 52.18991], [5.95375, 52.18279], [5.9538, 52.18256], [5.9436, 52.18186], [5.94138, 52.1876], [5.94448, 52.19058], [5.94998, 52.18991]]]]}}, {"type": "Feature", "properties": {"code": "BU02000307", "name": "Brouwersmolen-Noord"}, "geometry": {"type": "MultiPolygon", "coordinates": [[[[5.9478, 52.20056], [5.94953, 52.19868], [5.94448, 52.19058], [5.9397, 52.19082], [5.93764, 52.19145], [5.93381, 52.19629], [5.94607, 52.20215], [5.9478, 52.20056]]]]}}, {"type": "Feature", "properties": {"code": "BU02000308", "name": "Dennenheuvel"}, "geometry": {"type": "MultiPolygon", "coordinates": [[[[5.9538, 52.18256], [5.95424, 52.18056], [5.95544, 52.17957], [5.96208, 52.1789], [5.96201, 52.17266], [5.95468, 52.17357], [5.94933, 52.17508], [5.93782, 52.17879], [5.93668, 52.179], [5.93916, 52.18013], [5.94448, 52.18063], [5.9436, 52.18186], [5.9538, 52.18256]]]]}}, {"type": "Feature", "properties": {"code": "BU02000309", "name": "Holthuizen"}, "geometry": {"type": "MultiPolygon", "coordinates": [[[[5.95853, 52.20538], [5.95362, 52.20373], [5.9478, 52.20056], [5.94607, 52.20215], [5.94608, 52.20216], [5.952, 52.20499], [5.95784, 52.20777], [5.95853, 52.20538]]]]}}, {"type": "Feature", "properties": {"code": "BU02000310", "name": "Brouwersmolen-Zuid"}, "geometry": {"type": "MultiPolygon", "coordinates": [[[[5.93764, 52.19145], [5.9397, 52.19082], [5.94448, 52.19058], [5.94138, 52.1876], [5.94141, 52.18839], [5.93757, 52.1888], [5.93423, 52.18877], [5.93403, 52.18826], [5.93176, 52.1886], [5.92837, 52.19058], [5.93195, 52.19184], [5.93015, 52.19454], [5.93381, 52.19629], [5.93764, 52.19145]]]]}}, {"type": "Feature", "properties": {"code": "BU02000311", "name": "Wernem"}, "geometry": {"type": "MultiPolygon", "coordinates": [[[[5.9621, 52.1851], [5.96208, 52.1789], [5.95544, 52.17957], [5.95424, 52.18056], [5.9538, 52.18256], [5.95375, 52.18279], [5.9556, 52.1848], [5.9621, 52.1851]]]]}}, {"type": "Feature", "properties": {"code": "BU02000401", "name": "Brummelhof"}, "geometry": {"type": "MultiPolygon", "coordinates": [[[[5.96994, 52.20933], [5.97776, 52.20906], [5.97835, 52.20805], [5.97397, 52.20819], [5.9757, 52.20575], [5.96939, 52.204], [5.95913, 52.20105], [5.95853, 52.20538], [5.95784, 52.20777], [5.95785, 52.20777], [5.96282, 52.20919], [5.96994, 52.20933]]]]}}, {"type": "Feature", "properties": {"code": "BU02000402", "name": "Vogelkwartier"}, "geometry": {"type": "MultiPolygon", "coordinates": [[[[5.96958, 52.2027], [5.97304, 52.20112], [5.97471, 52.19903], [5.97472, 52.19727], [5.97158, 52.19741], [5.97134, 52.19411], [5.96992, 52.19417], [5.96226, 52.19456], [5.96192, 52.19671], [5.95957, 52.199], [5.95921, 52.20044], [5.95913, 52.20105], [5.96939, 52.204], [5.96958, 52.2027]]]]}}, {"type": "Feature", "properties": {"code": "BU02000403", "name": "Staatsliedenkwartier"}, "geometry": {"type": "MultiPolygon", "coordinates": [[[[5.97984, 52.19996], [5.9779, 52.19526], [5.97837, 52.19345], [5.97134, 52.19411], [5.97158, 52.19741], [5.97472, 52.19727], [5.97471, 52.19903], [5.97304, 52.20112], [5.96958, 52.2027], [5.96939, 52.204], [5.9757, 52.20575], [5.97984, 52.19996]]]]}}, {"type": "Feature", "properties": {"code": "BU02000404", "name": "Componistenkwartier"}, "geometry": {"type": "MultiPolygon", "coordinates": [[[[5.96992, 52.19417], [5.96996, 52.18535], [5.9621, 52.1851], [5.96226, 52.19456], [5.96992, 52.19417]]]]}}, {"type": "Feature", "properties": {"code": "BU02000405", "name": "Rivierenkwartier"}, "geometry": {"type": "MultiPolygon", "coordinates": [[[[5.97134, 52.19411], [5.97837, 52.19345], [5.98229, 52.186], [5.96996, 52.18535], [5.96992, 52.19417], [5.97134, 52.19411]]]]}}, {"type": "Feature", "properties": {"code": "BU02000406", "name": "Malkenschoten"}, "geometry": {"type": "MultiPolygon", "coordinates": [[[[5.98232, 52.17643], [5.98229, 52.17349], [5.97327, 52.17352], [5.96201, 52.17266], [5.96208, 52.1789], [5.9621, 52.1851], [5.96996, 52.18535], [5.98229, 52.186], [5.98232, 52.17643]]]]}}, {"type": "Feature", "properties": {"code": "BU02000407", "name": "Kayersmolen-Noord"}, "geometry": {"type": "MultiPolygon", "coordinates": [[[[5.97835, 52.20805], [5.98, 52.20449], [5.98293, 52.19364], [5.97837, 52.19345], [5.9779, 52.19526], [5.97984, 52.19996], [5.9757, 52.20575], [5.97397, 52.20819], [5.97835, 52.20805]]]]}}, {"type": "Feature", "properties": {"code": "BU02000408", "name": "Kayersmolen-Midden"}, "geometry": {"type": "MultiPolygon", "coordinates": [[[[5.98539, 52.18991], [5.98789, 52.18717], [5.98229, 52.186], [5.97837, 52.19345], [5.98293, 52.19364], [5.98539, 52.18991]]]]}}, {"type": "Feature", "properties": {"code": "BU02000409", "name": "Kayersmolen-Zuid"}, "geometry": {"type": "MultiPolygon", "coordinates": [[[[5.99171, 52.18024], [5.98232, 52.17643], [5.98229, 52.186], [5.98789, 52.18717], [5.99171, 52.18024]]]]}}, {"type": "Feature", "properties": {"code": "BU02000501", "name": "Matendreef"}, "geometry": {"type": "MultiPolygon", "coordinates": [[[[5.98752, 52.20454], [5.99124, 52.20222], [5.99021, 52.19949], [5.99151, 52.19612], [5.98635, 52.1942], [5.98293, 52.19364], [5.98, 52.20449], [5.98493, 52.20476], [5.98752, 52.20454]]]]}}, {"type": "Feature", "properties": {"code": "BU02000502", "name": "Matenhorst"}, "geometry": {"type": "MultiPolygon", "coordinates": [[[[5.9926, 52.20777], [5.99973, 52.20552], [5.99748, 52.20212], [5.99124, 52.20222], [5.98752, 52.20454], [5.98493, 52.20476], [5.98479, 52.20631], [5.98667, 52.20875], [5.9926, 52.20777]]]]}}, {"type": "Feature", "properties": {"code": "BU02000503", "name": "Matendonk"}, "geometry": {"type": "MultiPolygon", "coordinates": [[[[6.01894, 52.19904], [6.01913, 52.19494], [6.01083, 52.1941], [6.00769, 52.19587], [6.0044, 52.19738], [6.00067, 52.20113], [5.99748, 52.20212], [5.99973, 52.20552], [6.01894, 52.19904]]]]}}, {"type": "Feature", "properties": {"code": "BU02000504", "name": "Matenhoeve"}, "geometry": {"type": "MultiPolygon", "coordinates": [[[[6.01083, 52.1941], [6.01913, 52.19494], [6.02267, 52.18785], [6.01594, 52.18567], [6.00617, 52.18348], [6.00201, 52.19144], [6.00769, 52.19587], [6.01083, 52.1941]]]]}}, {"type": "Feature", "properties": {"code": "BU02000505", "name": "Matenveld"}, "geometry": {"type": "MultiPolygon", "coordinates": [[[[5.99392, 52.19416], [6.00035, 52.1925], [6.00201, 52.19144], [6.00617, 52.18348], [5.99819, 52.18172], [5.99466, 52.1867], [5.98993, 52.19079], [5.98539, 52.18991], [5.98293, 52.19364], [5.98635, 52.1942], [5.99151, 52.19612], [5.99392, 52.19416]]]]}}, {"type": "Feature", "properties": {"code": "BU02000506", "name": "Matengaarde"}, "geometry": {"type": "MultiPolygon", "coordinates": [[[[5.99748, 52.20212], [6.00067, 52.20113], [6.0044, 52.19738], [6.00769, 52.19587], [6.00201, 52.19144], [6.00035, 52.1925], [5.99392, 52.19416], [5.99151, 52.19612], [5.99021, 52.19949], [5.99124, 52.20222], [5.99748, 52.20212]]]]}}, {"type": "Feature", "properties": {"code": "BU02000507", "name": "Matenhoek"}, "geometry": {"type": "MultiPolygon", "coordinates": [[[[5.97966, 52.20899], [5.98667, 52.20875], [5.98479, 52.20631], [5.98493, 52.20476], [5.98, 52.20449], [5.97835, 52.20805], [5.97776, 52.20906], [5.97966, 52.20899]]]]}}, {"type": "Feature", "properties": {"code": "BU02000508", "name": "Kuipersveld"}, "geometry": {"type": "MultiPolygon", "coordinates": [[[[5.99466, 52.1867], [5.99819, 52.18172], [5.99171, 52.18024], [5.98789, 52.18717], [5.98539, 52.18991], [5.98993, 52.19079], [5.99466, 52.1867]]]]}}, {"type": "Feature", "properties": {"code": "BU02000601", "name": "Welgelegen"}, "geometry": {"type": "MultiPolygon", "coordinates": [[[[5.98616, 52.21386], [5.99493, 52.21225], [5.98546, 52.20943], [5.97966, 52.20899], [5.97776, 52.20906], [5.97517, 52.21229], [5.96954, 52.21409], [5.97022, 52.21677], [5.98616, 52.21386]]]]}}, {"type": "Feature", "properties": {"code": "BU02000602", "name": "Osseveld-West"}, "geometry": {"type": "MultiPolygon", "coordinates": [[[[6.00213, 52.21764], [6.00241, 52.21462], [5.99981, 52.21133], [5.99493, 52.21225], [5.98616, 52.21386], [5.98814, 52.21438], [5.99994, 52.21989], [6.00213, 52.21764]]]]}}, {"type": "Feature", "properties": {"code": "BU02000603", "name": "Osseveld-Oost"}, "geometry": {"type": "MultiPolygon", "coordinates": [[[[6.0165, 52.22399], [6.01862, 52.21967], [6.00241, 52.21462], [6.00213, 52.21764], [5.99994, 52.21989], [6.00817, 52.22375], [6.01316, 52.2261], [6.0165, 52.22399]]]]}}, {"type": "Feature", "properties": {"code": "BU02000604", "name": "Woudhuis"}, "geometry": {"type": "MultiPolygon", "coordinates": [[[[6.02291, 52.2141], [6.02136, 52.20734], [5.99981, 52.21133], [6.00241, 52.21462], [6.01862, 52.21967], [6.02107, 52.2206], [6.02291, 52.2141]]]]}}, {"type": "Feature", "properties": {"code": "BU02000605", "name": "Groot Zonnehoeve"}, "geometry": {"type": "MultiPolygon", "coordinates": [[[[6.02136, 52.20734], [6.01939, 52.20096], [6.01894, 52.19904], [5.99973, 52.20552], [5.99892, 52.20883], [5.99981, 52.21133], [6.02136, 52.20734]]]]}}, {"type": "Feature", "properties": {"code": "BU02000606", "name": "De Voorwaarts"}, "geometry": {"type": "MultiPolygon", "coordinates": [[[[5.99981, 52.21133], [5.99892, 52.20883], [5.99973, 52.20552], [5.9926, 52.20777], [5.98667, 52.20875], [5.97966, 52.20899], [5.98546, 52.20943], [5.99493, 52.21225], [5.99981, 52.21133]]]]}}, {"type": "Feature", "properties": {"code": "BU02000607", "name": "Bedrijvenpark Ecofactorij"}, "geometry": {"type": "MultiPolygon", "coordinates": [[[[6.04159, 52.19904], [6.04769, 52.19801], [6.03645, 52.19343], [6.01894, 52.19904], [6.01939, 52.20096], [6.0259, 52.20109], [6.03272, 52.20318], [6.04159, 52.19904]]]]}}, {"type": "Feature", "properties": {"code": "BU02000608", "name": "Bedrijvenpark Oost"}, "geometry": {"type": "MultiPolygon", "coordinates": [[[[6.02107, 52.2206], [6.01862, 52.21967], [6.0165, 52.22399], [6.01316, 52.2261], [6.01735, 52.22805], [6.02107, 52.2206]]]]}}, {"type": "Feature", "properties": {"code": "BU02000701", "name": "Zevenhuizen"}, "geometry": {"type": "MultiPolygon", "coordinates": [[[[5.97431, 52.22084], [5.97853, 52.21984], [5.98355, 52.21735], [5.98604, 52.21487], [5.98814, 52.21438], [5.98616, 52.21386], [5.97022, 52.21677], [5.97283, 52.22101], [5.97431, 52.22084]]]]}}, {"type": "Feature", "properties": {"code": "BU02000702", "name": "Sluisoord"}, "geometry": {"type": "MultiPolygon", "coordinates": [[[[5.98299, 52.22931], [5.99001, 52.22564], [5.99443, 52.2233], [5.98355, 52.21735], [5.97853, 52.21984], [5.97431, 52.22084], [5.97628, 52.22355], [5.97844, 52.23066], [5.98299, 52.22931]]]]}}, {"type": "Feature", "properties": {"code": "BU02000703", "name": "De Mheen"}, "geometry": {"type": "MultiPolygon", "coordinates": [[[[5.99994, 52.21989], [5.98814, 52.21438], [5.98604, 52.21487], [5.98355, 52.21735], [5.99443, 52.2233], [5.99994, 52.21989]]]]}}, {"type": "Feature", "properties": {"code": "BU02000704", "name": "Anklaar"}, "geometry": {"type": "MultiPolygon", "coordinates": [[[[5.98719, 52.23346], [5.98836, 52.23313], [5.98914, 52.23447], [5.99166, 52.23387], [5.99655, 52.23101], [5.99001, 52.22564], [5.98299, 52.22931], [5.97844, 52.23066], [5.97755, 52.2308], [5.97807, 52.23515], [5.98719, 52.23346]]]]}}, {"type": "Feature", "properties": {"code": "BU02000705", "name": "Sprenkelaar"}, "geometry": {"type": "MultiPolygon", "coordinates": [[[[6.00197, 52.22863], [6.00817, 52.22375], [5.99994, 52.21989], [5.99443, 52.2233], [5.99001, 52.22564], [5.99655, 52.23101], [6.00032, 52.23357], [6.00197, 52.22863]]]]}}, {"type": "Feature", "properties": {"code": "BU02000706", "name": "Bedrijvenpark Apeldoorn-Noord"}, "geometry": {"type": "MultiPolygon", "coordinates": [[[[6.01259, 52.23752], [6.00878, 52.23712], [6.00489, 52.24484], [5.99357, 52.24319], [5.98719, 52.23346], [5.97807, 52.23515], [5.97755, 52.2308], [5.97505, 52.23102], [5.97578, 52.23525], [5.97545, 52.23914], [5.9778, 52.24536], [5.98698, 52.24522], [6.00617, 52.25028], [6.01259, 52.23752]]]]}}, {"type": "Feature", "properties": {"code": "BU02000707", "name": "Sleutelbloem"}, "geometry": {"type": "MultiPolygon", "coordinates": [[[[5.97755, 52.2308], [5.97844, 52.23066], [5.97628, 52.22355], [5.97431, 52.22084], [5.97283, 52.22101], [5.97451, 52.22785], [5.97505, 52.23102], [5.97755, 52.2308]]]]}}, {"type": "Feature", "properties": {"code": "BU02000708", "name": "Zuidbroek - Mozaïek & Rooster"}, "geometry": {"type": "MultiPolygon", "coordinates": [[[[6.00878, 52.23712], [6.00903, 52.23622], [6.00032, 52.23357], [5.99655, 52.23101], [5.99166, 52.23387], [5.98914, 52.23447], [5.98836, 52.23313], [5.98719, 52.23346], [5.99357, 52.24319], [6.00489, 52.24484], [6.00878, 52.23712]]]]}}, {"type": "Feature", "properties": {"code": "BU02000709", "name": "Zuidbroek - De Wellen"}, "geometry": {"type": "MultiPolygon", "coordinates": [[[[6.01735, 52.22805], [6.01316, 52.2261], [6.00817, 52.22375], [6.00197, 52.22863], [6.00032, 52.23357], [6.00903, 52.23622], [6.00878, 52.23712], [6.01259, 52.23752], [6.01735, 52.22805]]]]}}, {"type": "Feature", "properties": {"code": "BU02000801", "name": "De Parken"}, "geometry": {"type": "MultiPolygon", "coordinates": [[[[5.97186, 52.22802], [5.97451, 52.22785], [5.97283, 52.22101], [5.97022, 52.21677], [5.96448, 52.21675], [5.96042, 52.21684], [5.95749, 52.21914], [5.95565, 52.21974], [5.95753, 52.22733], [5.95791, 52.22799], [5.96071, 52.2273], [5.97137, 52.22645], [5.97186, 52.22802]]]]}}, {"type": "Feature", "properties": {"code": "BU02000802", "name": "Spainkbos"}, "geometry": {"type": "MultiPolygon", "coordinates": [[[[5.95421, 52.22131], [5.95471, 52.21993], [5.94622, 52.22029], [5.94617, 52.22738], [5.95421, 52.22131]]]]}}, {"type": "Feature", "properties": {"code": "BU02000803", "name": "Loolaan-Noord"}, "geometry": {"type": "MultiPolygon", "coordinates": [[[[5.95328, 52.22786], [5.95753, 52.22733], [5.95565, 52.21974], [5.95471, 52.21993], [5.95421, 52.22131], [5.94617, 52.22738], [5.94579, 52.22746], [5.94935, 52.22937], [5.95085, 52.23006], [5.95328, 52.22786]]]]}}, {"type": "Feature", "properties": {"code": "BU02000804", "name": "Het Loo"}, "geometry": {"type": "MultiPolygon", "coordinates": [[[[5.95729, 52.23896], [5.95781, 52.23473], [5.95745, 52.23326], [5.95085, 52.23006], [5.94935, 52.22937], [5.94843, 52.23399], [5.95056, 52.23407], [5.94973, 52.2384], [5.95619, 52.23907], [5.95729, 52.23896]]]]}}, {"type": "Feature", "properties": {"code": "BU02000805", "name": "Kerschoten-West"}, "geometry": {"type": "MultiPolygon", "coordinates": [[[[5.95945, 52.23337], [5.95791, 52.22799], [5.95753, 52.22733], [5.95328, 52.22786], [5.95085, 52.23006], [5.95745, 52.23326], [5.95781, 52.23473], [5.96125, 52.2349], [5.95945, 52.23337]]]]}}, {"type": "Feature", "properties": {"code": "BU02000806", "name": "Kerschoten"}, "geometry": {"type": "MultiPolygon", "coordinates": [[[[5.97505, 52.23102], [5.97451, 52.22785], [5.97186, 52.22802], [5.97137, 52.22645], [5.96071, 52.2273], [5.95791, 52.22799], [5.95945, 52.23337], [5.96125, 52.2349], [5.96977, 52.23508], [5.97578, 52.23525], [5.97505, 52.23102]]]]}}, {"type": "Feature", "properties": {"code": "BU02000807", "name": "Paleispark"}, "geometry": {"type": "MultiPolygon", "coordinates": [[[[5.93978, 52.2393], [5.94279, 52.23701], [5.94973, 52.2384], [5.95056, 52.23407], [5.94843, 52.23399], [5.94935, 52.22937], [5.94579, 52.22746], [5.93889, 52.22675], [5.92965, 52.2272], [5.92389, 52.2365], [5.92392, 52.23986], [5.93978, 52.2393]]]]}}, {"type": "Feature", "properties": {"code": "BU02000808", "name": "Stadhoudersmolen"}, "geometry": {"type": "MultiPolygon", "coordinates": [[[[5.97849, 52.24701], [5.9778, 52.24536], [5.97545, 52.23914], [5.97578, 52.23525], [5.96977, 52.23508], [5.96981, 52.237], [5.9673, 52.23698], [5.96606, 52.24151], [5.96551, 52.24414], [5.96654, 52.24727], [5.97849, 52.24701]]]]}}, {"type": "Feature", "properties": {"code": "BU02000809", "name": "Hommelbrink"}, "geometry": {"type": "MultiPolygon", "coordinates": [[[[5.96606, 52.24151], [5.9673, 52.23698], [5.96981, 52.237], [5.96977, 52.23508], [5.96125, 52.2349], [5.95781, 52.23473], [5.95729, 52.23896], [5.95736, 52.23959], [5.95866, 52.2404], [5.96606, 52.24151]]]]}}, {"type": "Feature", "properties": {"code": "BU02001001", "name": "Uddel"}, "geometry": {"type": "MultiPolygon", "coordinates": [[[[5.78882, 52.26116], [5.78626, 52.25704], [5.78655, 52.25631], [5.78663, 52.25485], [5.78432, 52.25435], [5.78246, 52.25462], [5.77621, 52.2527], [5.77565, 52.25439], [5.77396, 52.25922], [5.77618, 52.26332], [5.78159, 52.26238], [5.78161, 52.26533], [5.7848, 52.26589], [5.7849, 52.26665], [5.78882, 52.26116]]]]}}, {"type": "Feature", "properties": {"code": "BU02001002", "name": "Agrarischgebied Uddel"}, "geometry": {"type": "MultiPolygon", "coordinates": [[[[5.79246, 52.26998], [5.79601, 52.26643], [5.79819, 52.2626], [5.79817, 52.26034], [5.79609, 52.25735], [5.78913, 52.25618], [5.78655, 52.25631], [5.78626, 52.25704], [5.78882, 52.26116], [5.7849, 52.26665], [5.7848, 52.26589], [5.78161, 52.26533], [5.78159, 52.26238], [5.77618, 52.26332], [5.77396, 52.25922], [5.77565, 52.25439], [5.76696, 52.25227], [5.76145, 52.2483], [5.74923, 52.26827], [5.75126, 52.26956], [5.773, 52.27035], [5.78004, 52.2706], [5.79246, 52.26998]]]]}}, {"type": "Feature", "properties": {"code": "BU02001003", "name": "Bosgebied Meerveld"}, "geometry": {"type": "MultiPolygon", "coordinates": [[[[5.82974, 52.27128], [5.84272, 52.26715], [5.85081, 52.2687], [5.85452, 52.2601], [5.86089, 52.25581], [5.86487, 52.2526], [5.86941, 52.25168], [5.87155, 52.24976], [5.87274, 52.24083], [5.87676, 52.23787], [5.87994, 52.23396], [5.86622, 52.2339], [5.84938, 52.2303], [5.8484, 52.23207], [5.84562, 52.23241], [5.84405, 52.22877], [5.83025, 52.22442], [5.81541, 52.22356], [5.81495, 52.2224], [5.74167, 52.21988], [5.74303, 52.22349], [5.73821, 52.23158], [5.73336, 52.23177], [5.73092, 52.23157], [5.72955, 52.23892], [5.72639, 52.2425], [5.75168, 52.24608], [5.76145, 52.2483], [5.76696, 52.25227], [5.77565, 52.25439], [5.77621, 52.2527], [5.78246, 52.25462], [5.78432, 52.25435], [5.78663, 52.25485], [5.78655, 52.25631], [5.78913, 52.25618], [5.79609, 52.25735], [5.79817, 52.26034], [5.79819, 52.2626], [5.79601, 52.26643], [5.79246, 52.26998], [5.79724, 52.2697], [5.80223, 52.2705], [5.80999, 52.2703], [5.82143, 52.27267], [5.82974, 52.27128]]]]}}, {"type": "Feature", "properties": {"code": "BU02001004", "name": "Bosgebied Nieuw Milligen"}, "geometry": {"type": "MultiPolygon", "coordinates": [[[[5.82855, 52.20001], [5.79203, 52.19699], [5.75059, 52.19373], [5.74108, 52.20188], [5.73077, 52.2086], [5.72859, 52.21555], [5.72744, 52.2193], [5.74167, 52.21988], [5.81495, 52.2224], [5.81267, 52.21635], [5.81495, 52.21104], [5.81999, 52.20742], [5.83657, 52.20081], [5.82855, 52.20001]]]]}}, {"type": "Feature", "properties": {"code": "BU02001101", "name": "Orderbos"}, "geometry": {"type": "MultiPolygon", "coordinates": [[[[5.91341, 52.1997], [5.92336, 52.19704], [5.92272, 52.19503], [5.91977, 52.19644], [5.91664, 52.19396], [5.91898, 52.19284], [5.92372, 52.19317], [5.9264, 52.19273], [5.92023, 52.19026], [5.91195, 52.18913], [5.90665, 52.18941], [5.89202, 52.19168], [5.90133, 52.1945], [5.8962, 52.20286], [5.91172, 52.20497], [5.91341, 52.1997]]]]}}, {"type": "Feature", "properties": {"code": "BU02001102", "name": "Hoog Soeren"}, "geometry": {"type": "MultiPolygon", "coordinates": [[[[5.86867, 52.22303], [5.8709, 52.2214], [5.86874, 52.22126], [5.86902, 52.21979], [5.8704, 52.2191], [5.87507, 52.21954], [5.874, 52.22148], [5.87996, 52.22152], [5.88041, 52.2201], [5.87783, 52.21663], [5.87318, 52.21629], [5.86732, 52.2177], [5.86627, 52.22268], [5.86867, 52.22303]]]]}}, {"type": "Feature", "properties": {"code": "BU02001103", "name": "Bosgebied Hoog Soeren"}, "geometry": {"type": "MultiPolygon", "coordinates": [[[[5.89003, 52.23276], [5.90093, 52.22881], [5.90328, 52.22451], [5.9039, 52.21706], [5.89271, 52.20883], [5.8962, 52.20286], [5.90133, 52.1945], [5.89202, 52.19168], [5.88061, 52.19345], [5.8717, 52.18671], [5.85626, 52.18793], [5.84777, 52.18971], [5.84042, 52.19267], [5.82855, 52.20001], [5.83657, 52.20081], [5.81999, 52.20742], [5.81495, 52.21104], [5.81267, 52.21635], [5.81495, 52.2224], [5.81541, 52.22356], [5.83025, 52.22442], [5.84405, 52.22877], [5.84562, 52.23241], [5.8484, 52.23207], [5.84938, 52.2303], [5.86622, 52.2339], [5.87994, 52.23396], [5.88131, 52.23284], [5.89003, 52.23276]], [[5.86732, 52.2177], [5.87318, 52.21629], [5.87783, 52.21663], [5.88041, 52.2201], [5.87996, 52.22152], [5.874, 52.22148], [5.87507, 52.21954], [5.8704, 52.2191], [5.86902, 52.21979], [5.86874, 52.22126], [5.8709, 52.2214], [5.86867, 52.22303], [5.86627, 52.22268], [5.86732, 52.2177]]]]}}, {"type": "Feature", "properties": {"code": "BU02001104", "name": "Bosgebied Hoog Buurloo"}, "geometry": {"type": "MultiPolygon", "coordinates": [[[[5.84042, 52.19267], [5.84777, 52.18971], [5.85626, 52.18793], [5.8717, 52.18671], [5.86265, 52.1799], [5.86174, 52.17037], [5.86602, 52.15509], [5.85955, 52.14875], [5.84576, 52.15161], [5.80984, 52.15141], [5.80965, 52.16669], [5.80196, 52.17736], [5.81193, 52.18488], [5.79966, 52.19465], [5.79626, 52.19634], [5.79203, 52.19699], [5.82855, 52.20001], [5.84042, 52.19267]]]]}}, {"type": "Feature", "properties": {"code": "BU02001201", "name": "Hoenderloo"}, "geometry": {"type": "MultiPolygon", "coordinates": [[[[5.8897, 52.1185], [5.88289, 52.11863], [5.88135, 52.1157], [5.87627, 52.11446], [5.87418, 52.11668], [5.87371, 52.11955], [5.87453, 52.12049], [5.88174, 52.1205], [5.88299, 52.11884], [5.88756, 52.12177], [5.8897, 52.1185]]]]}}, {"type": "Feature", "properties": {"code": "BU02001202", "name": "Bosgebied Ugchelen"}, "geometry": {"type": "MultiPolygon", "coordinates": [[[[5.93195, 52.19184], [5.92837, 52.19058], [5.91896, 52.1868], [5.91679, 52.18494], [5.91518, 52.18217], [5.91311, 52.17964], [5.90638, 52.17765], [5.90807, 52.17629], [5.9106, 52.1761], [5.91794, 52.17717], [5.92567, 52.17634], [5.92737, 52.17671], [5.93016, 52.17869], [5.93193, 52.17897], [5.93412, 52.17686], [5.93782, 52.17879], [5.94933, 52.17508], [5.94529, 52.1754], [5.93909, 52.17151], [5.93737, 52.1683], [5.93586, 52.16111], [5.93177, 52.15306], [5.91599, 52.14921], [5.91271, 52.14897], [5.91196, 52.15009], [5.90541, 52.1489], [5.90332, 52.15128], [5.88644, 52.14647], [5.88534, 52.14964], [5.87297, 52.14802], [5.86114, 52.14526], [5.85955, 52.14875], [5.86602, 52.15509], [5.86174, 52.17037], [5.86265, 52.1799], [5.8717, 52.18671], [5.88061, 52.19345], [5.89202, 52.19168], [5.90665, 52.18941], [5.91195, 52.18913], [5.92023, 52.19026], [5.9264, 52.19273], [5.93015, 52.19454], [5.93195, 52.19184]]]]}}, {"type": "Feature", "properties": {"code": "BU02001203", "name": "Bosgebied Hoenderloo"}, "geometry": {"type": "MultiPolygon", "coordinates": [[[[5.93111, 52.15166], [5.94461, 52.12523], [5.95656, 52.12582], [5.95584, 52.12275], [5.95353, 52.12032], [5.95197, 52.1169], [5.95191, 52.11348], [5.95304, 52.11055], [5.95462, 52.10666], [5.95466, 52.10381], [5.9532, 52.10019], [5.95146, 52.09989], [5.94618, 52.0993], [5.92726, 52.10027], [5.91147, 52.10031], [5.9001, 52.10379], [5.89379, 52.10478], [5.88345, 52.10634], [5.87627, 52.11446], [5.88135, 52.1157], [5.88289, 52.11863], [5.8897, 52.1185], [5.89719, 52.11838], [5.89871, 52.11936], [5.89839, 52.12026], [5.90587, 52.12106], [5.90025, 52.12449], [5.89858, 52.12339], [5.89603, 52.12437], [5.88897, 52.12882], [5.89535, 52.13379], [5.88623, 52.14038], [5.884, 52.14132], [5.88331, 52.13748], [5.8788, 52.13317], [5.8772, 52.1287], [5.87403, 52.12545], [5.87043, 52.12557], [5.86421, 52.12756], [5.86232, 52.13479], [5.86114, 52.14526], [5.87297, 52.14802], [5.88534, 52.14964], [5.88644, 52.14647], [5.90332, 52.15128], [5.90541, 52.1489], [5.91196, 52.15009], [5.91271, 52.14897], [5.91599, 52.14921], [5.93177, 52.15306], [5.93111, 52.15166]]]]}}, {"type": "Feature", "properties": {"code": "BU02001204", "name": "Miggelenberg"}, "geometry": {"type": "MultiPolygon", "coordinates": [[[[5.88623, 52.14038], [5.89535, 52.13379], [5.88897, 52.12882], [5.89603, 52.12437], [5.89858, 52.12339], [5.90025, 52.12449], [5.90587, 52.12106], [5.89839, 52.12026], [5.89871, 52.11936], [5.89719, 52.11838], [5.8897, 52.1185], [5.88756, 52.12177], [5.88299, 52.11884], [5.88174, 52.1205], [5.87453, 52.12049], [5.87371, 52.11955], [5.87418, 52.11668], [5.86476, 52.12554], [5.86435, 52.12699], [5.86421, 52.12756], [5.87043, 52.12557], [5.87403, 52.12545], [5.8772, 52.1287], [5.8788, 52.13317], [5.88331, 52.13748], [5.884, 52.14132], [5.88623, 52.14038]]]]}}, {"type": "Feature", "properties": {"code": "BU02001301", "name": "Het Goreld"}, "geometry": {"type": "MultiPolygon", "coordinates": [[[[6.07473, 52.14816], [6.07437, 52.1473], [6.07607, 52.14394], [6.07848, 52.13888], [6.07267, 52.13534], [6.07139, 52.13457], [6.06962, 52.13131], [6.05173, 52.12448], [6.04749, 52.1264], [6.04529, 52.12846], [6.04048, 52.14064], [6.04072, 52.14368], [6.04086, 52.14457], [6.06738, 52.15391], [6.07267, 52.15007], [6.07473, 52.14816]]]]}}, {"type": "Feature", "properties": {"code": "BU02001302", "name": "Loenen"}, "geometry": {"type": "MultiPolygon", "coordinates": [[[[6.02299, 52.12417], [6.02504, 52.12338], [6.02606, 52.11977], [6.02549, 52.11176], [6.03139, 52.1103], [6.02903, 52.10792], [6.02435, 52.10662], [6.01648, 52.11066], [6.01533, 52.1161], [6.01682, 52.11738], [6.014, 52.12163], [6.01909, 52.12155], [6.02299, 52.12417]]]]}}, {"type": "Feature", "properties": {"code": "BU02001303", "name": "Bosgebied Loenen"}, "geometry": {"type": "MultiPolygon", "coordinates": [[[[6.04529, 52.12846], [6.04749, 52.1264], [6.05173, 52.12448], [6.05155, 52.1244], [6.04765, 52.11919], [6.04317, 52.11691], [6.04058, 52.11457], [6.04113, 52.11237], [6.03582, 52.10947], [6.03545, 52.10767], [6.03523, 52.10717], [6.03421, 52.10613], [6.03391, 52.10419], [6.03483, 52.1029], [6.03247, 52.10151], [6.03426, 52.09835], [6.03405, 52.09572], [6.03159, 52.09561], [6.02535, 52.08997], [6.01739, 52.08302], [6.00885, 52.07401], [5.99048, 52.07916], [5.97704, 52.07831], [5.96465, 52.07632], [5.95593, 52.07334], [5.9461, 52.07789], [5.94822, 52.09083], [5.95146, 52.09989], [5.9532, 52.10019], [5.95466, 52.10381], [5.95462, 52.10666], [5.95304, 52.11055], [5.9563, 52.11127], [5.96016, 52.11028], [5.9641, 52.11302], [5.9692, 52.11362], [5.98652, 52.11928], [5.98367, 52.12137], [6.0114, 52.13526], [6.01963, 52.13672], [6.04072, 52.14368], [6.04048, 52.14064], [6.04529, 52.12846]], [[6.014, 52.12163], [6.01682, 52.11738], [6.01533, 52.1161], [6.01648, 52.11066], [6.02435, 52.10662], [6.02903, 52.10792], [6.03139, 52.1103], [6.02549, 52.11176], [6.02606, 52.11977], [6.02504, 52.12338], [6.02299, 52.12417], [6.01909, 52.12155], [6.014, 52.12163]]]]}}, {"type": "Feature", "properties": {"code": "BU02001401", "name": "Beekbergen"}, "geometry": {"type": "MultiPolygon", "coordinates": [[[[5.96391, 52.16739], [5.96781, 52.16561], [5.96901, 52.16408], [5.9691, 52.16057], [5.97138, 52.15932], [5.97502, 52.15941], [5.97245, 52.15515], [5.9698, 52.1553], [5.96826, 52.15409], [5.96376, 52.15543], [5.96294, 52.1572], [5.96019, 52.15846], [5.95946, 52.15857], [5.95931, 52.1575], [5.95665, 52.1575], [5.95711, 52.15979], [5.95923, 52.16415], [5.95943, 52.1687], [5.96205, 52.16959], [5.96391, 52.16739]]]]}}, {"type": "Feature", "properties": {"code": "BU02001402", "name": "Bosgebied Beekbergen-West"}, "geometry": {"type": "MultiPolygon", "coordinates": [[[[5.94933, 52.17508], [5.95468, 52.17357], [5.96201, 52.17266], [5.96205, 52.16959], [5.95943, 52.1687], [5.95923, 52.16415], [5.95711, 52.15979], [5.95665, 52.1575], [5.95931, 52.1575], [5.95835, 52.15516], [5.96167, 52.14832], [5.95656, 52.12582], [5.94461, 52.12523], [5.93111, 52.15166], [5.93177, 52.15306], [5.93586, 52.16111], [5.93737, 52.1683], [5.93909, 52.17151], [5.94529, 52.1754], [5.94933, 52.17508]]]]}}, {"type": "Feature", "properties": {"code": "BU02001403", "name": "Agrarischgebied Beekbergen"}, "geometry": {"type": "MultiPolygon", "coordinates": [[[[5.98229, 52.17349], [5.9825, 52.16527], [5.9843, 52.16205], [5.98856, 52.15881], [6.00125, 52.15006], [5.99909, 52.14901], [5.99244, 52.14805], [5.97872, 52.15107], [5.98123, 52.15403], [5.97245, 52.15515], [5.97502, 52.15941], [5.97138, 52.15932], [5.9691, 52.16057], [5.96901, 52.16408], [5.96781, 52.16561], [5.96391, 52.16739], [5.96205, 52.16959], [5.96201, 52.17266], [5.97327, 52.17352], [5.98229, 52.17349]]]]}}, {"type": "Feature", "properties": {"code": "BU02001404", "name": "Bosgebied Beekbergen-Zuid"}, "geometry": {"type": "MultiPolygon", "coordinates": [[[[5.96019, 52.15846], [5.96294, 52.1572], [5.96376, 52.15543], [5.96826, 52.15409], [5.9698, 52.1553], [5.97245, 52.15515], [5.98123, 52.15403], [5.97872, 52.15107], [5.99244, 52.14805], [5.99909, 52.14901], [6.00125, 52.15006], [6.00413, 52.14804], [6.01963, 52.13672], [6.0114, 52.13526], [5.98367, 52.12137], [5.98652, 52.11928], [5.9692, 52.11362], [5.9641, 52.11302], [5.96016, 52.11028], [5.9563, 52.11127], [5.95304, 52.11055], [5.95191, 52.11348], [5.95197, 52.1169], [5.95353, 52.12032], [5.95584, 52.12275], [5.95656, 52.12582], [5.96167, 52.14832], [5.95835, 52.15516], [5.95931, 52.1575], [5.95946, 52.15857], [5.96019, 52.15846]]]]}}, {"type": "Feature", "properties": {"code": "BU02001501", "name": "Lieren"}, "geometry": {"type": "MultiPolygon", "coordinates": [[[[5.98757, 52.16503], [5.99248, 52.16258], [5.99775, 52.16165], [5.99672, 52.15869], [5.98856, 52.15881], [5.9843, 52.16205], [5.9825, 52.16527], [5.98757, 52.16503]]]]}}, {"type": "Feature", "properties": {"code": "BU02001502", "name": "Agrarischgebied Lieren-Oosterhuizen"}, "geometry": {"type": "MultiPolygon", "coordinates": [[[[5.99428, 52.17748], [5.99994, 52.16604], [6.00257, 52.16323], [6.01116, 52.15894], [6.01725, 52.15734], [6.01112, 52.15238], [6.00413, 52.14804], [6.00125, 52.15006], [5.98856, 52.15881], [5.99672, 52.15869], [5.99775, 52.16165], [5.99248, 52.16258], [5.98757, 52.16503], [5.9825, 52.16527], [5.98229, 52.17349], [5.98232, 52.17643], [5.99171, 52.18024], [5.99428, 52.17748]]]]}}, {"type": "Feature", "properties": {"code": "BU02001503", "name": "Bosgebied Oosterhuizen"}, "geometry": {"type": "MultiPolygon", "coordinates": [[[[6.03022, 52.15347], [6.03657, 52.15017], [6.04011, 52.14674], [6.04086, 52.14457], [6.04072, 52.14368], [6.01963, 52.13672], [6.00413, 52.14804], [6.01112, 52.15238], [6.01725, 52.15734], [6.03022, 52.15347]]]]}}, {"type": "Feature", "properties": {"code": "BU02001601", "name": "Wolthuis"}, "geometry": {"type": "MultiPolygon", "coordinates": [[[[6.03446, 52.22779], [6.03342, 52.22408], [6.03546, 52.22448], [6.0409, 52.22413], [6.04241, 52.22247], [6.04691, 52.22137], [6.04684, 52.22039], [6.04824, 52.21642], [6.04791, 52.213], [6.05024, 52.21002], [6.05375, 52.20088], [6.05729, 52.19666], [6.05825, 52.19617], [6.05824, 52.19594], [6.05609, 52.19606], [6.05387, 52.195], [6.05317, 52.19261], [6.05107, 52.18875], [6.03645, 52.19343], [6.04769, 52.19801], [6.04159, 52.19904], [6.03272, 52.20318], [6.0259, 52.20109], [6.01939, 52.20096], [6.02136, 52.20734], [6.02291, 52.2141], [6.02107, 52.2206], [6.01735, 52.22805], [6.0234, 52.2306], [6.03364, 52.23152], [6.03424, 52.23135], [6.03446, 52.22779]]]]}}, {"type": "Feature", "properties": {"code": "BU02001602", "name": "Klarenbeek"}, "geometry": {"type": "MultiPolygon", "coordinates": [[[[6.06581, 52.16465], [6.05217, 52.16262], [6.04972, 52.16393], [6.06036, 52.16761], [6.06223, 52.16931], [6.0616, 52.1706], [6.06286, 52.17089], [6.06563, 52.16534], [6.06581, 52.16465]]]]}}, {"type": "Feature", "properties": {"code": "BU02001603", "name": "De Hooilanden"}, "geometry": {"type": "MultiPolygon", "coordinates": [[[[6.03645, 52.19343], [6.05107, 52.18875], [6.05097, 52.18714], [6.04939, 52.18521], [6.05013, 52.18329], [6.05164, 52.18214], [6.05381, 52.18135], [6.05535, 52.17949], [6.05979, 52.17622], [6.06136, 52.17395], [6.06245, 52.17171], [6.06266, 52.17128], [6.06286, 52.17089], [6.0616, 52.1706], [6.06223, 52.16931], [6.06036, 52.16761], [6.04972, 52.16393], [6.05217, 52.16262], [6.06581, 52.16465], [6.06642, 52.16152], [6.06426, 52.15739], [6.06738, 52.15391], [6.04086, 52.14457], [6.04011, 52.14674], [6.03657, 52.15017], [6.04621, 52.15155], [6.05101, 52.15641], [6.05151, 52.15823], [6.04621, 52.16022], [6.03418, 52.1599], [6.03447, 52.16418], [5.99994, 52.16604], [5.99428, 52.17748], [5.99171, 52.18024], [5.99819, 52.18172], [6.00617, 52.18348], [6.01594, 52.18567], [6.02267, 52.18785], [6.01913, 52.19494], [6.01894, 52.19904], [6.03645, 52.19343]]]]}}, {"type": "Feature", "properties": {"code": "BU02001604", "name": "De Hooilanden-Oosterhuizen"}, "geometry": {"type": "MultiPolygon", "coordinates": [[[[6.03447, 52.16418], [6.03418, 52.1599], [6.04621, 52.16022], [6.05151, 52.15823], [6.05101, 52.15641], [6.04621, 52.15155], [6.03657, 52.15017], [6.03022, 52.15347], [6.01725, 52.15734], [6.01116, 52.15894], [6.00257, 52.16323], [5.99994, 52.16604], [6.03447, 52.16418]]]]}}, {"type": "Feature", "properties": {"code": "BU02001701", "name": "Wenum"}, "geometry": {"type": "MultiPolygon", "coordinates": [[[[5.96905, 52.25898], [5.96759, 52.25381], [5.96273, 52.25226], [5.96166, 52.24988], [5.95624, 52.24765], [5.95649, 52.24663], [5.95463, 52.24659], [5.95267, 52.24721], [5.95189, 52.25065], [5.95041, 52.2506], [5.95022, 52.25436], [5.95185, 52.25564], [5.96905, 52.25898]]]]}}, {"type": "Feature", "properties": {"code": "BU02001702", "name": "Beemte"}, "geometry": {"type": "MultiPolygon", "coordinates": [[[[5.99265, 52.25706], [5.9922, 52.25343], [5.98959, 52.25265], [5.98094, 52.25324], [5.98204, 52.25515], [5.98251, 52.25695], [5.98581, 52.25751], [5.99265, 52.25706]]]]}}, {"type": "Feature", "properties": {"code": "BU02001703", "name": "Bosgebied Wiesel"}, "geometry": {"type": "MultiPolygon", "coordinates": [[[[5.92442, 52.2659], [5.92649, 52.26492], [5.93219, 52.26476], [5.93315, 52.26413], [5.93281, 52.26209], [5.92698, 52.25975], [5.91744, 52.25739], [5.91631, 52.25666], [5.91694, 52.25441], [5.91937, 52.25227], [5.92557, 52.25066], [5.93307, 52.2469], [5.93652, 52.24702], [5.94688, 52.24513], [5.95593, 52.24038], [5.95619, 52.23907], [5.94973, 52.2384], [5.94279, 52.23701], [5.93978, 52.2393], [5.92392, 52.23986], [5.92389, 52.2365], [5.92965, 52.2272], [5.90093, 52.22881], [5.89003, 52.23276], [5.88131, 52.23284], [5.87994, 52.23396], [5.87676, 52.23787], [5.87274, 52.24083], [5.87155, 52.24976], [5.86941, 52.25168], [5.86487, 52.2526], [5.86089, 52.25581], [5.86739, 52.25987], [5.87959, 52.26499], [5.9229, 52.27199], [5.92442, 52.2659]]]]}}, {"type": "Feature", "properties": {"code": "BU02001704", "name": "Agrarischgebied Wiesel"}, "geometry": {"type": "MultiPolygon", "coordinates": [[[[5.9596, 52.27246], [5.9519, 52.25741], [5.95185, 52.25564], [5.95022, 52.25436], [5.95041, 52.2506], [5.95189, 52.25065], [5.95267, 52.24721], [5.95463, 52.24659], [5.95736, 52.23959], [5.95729, 52.23896], [5.95619, 52.23907], [5.95593, 52.24038], [5.94688, 52.24513], [5.93652, 52.24702], [5.93307, 52.2469], [5.92557, 52.25066], [5.91937, 52.25227], [5.91694, 52.25441], [5.91631, 52.25666], [5.91744, 52.25739], [5.92698, 52.25975], [5.93281, 52.26209], [5.93315, 52.26413], [5.93219, 52.26476], [5.92649, 52.26492], [5.92442, 52.2659], [5.9229, 52.27199], [5.93621, 52.27442], [5.95792, 52.27237], [5.9596, 52.27246]]]]}}, {"type": "Feature", "properties": {"code": "BU02001705", "name": "Agrarischgebied Wenum"}, "geometry": {"type": "MultiPolygon", "coordinates": [[[[5.9914, 52.28554], [5.99242, 52.2849], [5.98936, 52.27404], [5.98251, 52.25695], [5.98204, 52.25515], [5.98094, 52.25324], [5.97849, 52.24701], [5.96654, 52.24727], [5.96551, 52.24414], [5.96606, 52.24151], [5.95866, 52.2404], [5.95736, 52.23959], [5.95463, 52.24659], [5.95649, 52.24663], [5.95624, 52.24765], [5.96166, 52.24988], [5.96273, 52.25226], [5.96759, 52.25381], [5.96905, 52.25898], [5.95185, 52.25564], [5.9519, 52.25741], [5.9596, 52.27246], [5.97389, 52.27321], [5.98114, 52.2807], [5.98217, 52.28383], [5.98536, 52.28459], [5.98574, 52.28567], [5.9914, 52.28554]]]]}}, {"type": "Feature", "properties": {"code": "BU02001706", "name": "Agrarischgebied Beemte Broekland"}, "geometry": {"type": "MultiPolygon", "coordinates": [[[[6.03126, 52.27524], [6.02976, 52.27261], [6.02893, 52.27232], [6.02853, 52.27099], [6.03105, 52.27092], [6.03031, 52.26923], [6.03435, 52.26911], [6.0364, 52.26853], [6.03485, 52.26552], [6.03768, 52.26361], [6.03749, 52.26092], [6.03651, 52.25949], [6.0358, 52.25951], [6.03566, 52.25931], [6.03515, 52.25831], [6.03429, 52.2581], [6.03177, 52.25855], [6.03116, 52.2531], [6.02847, 52.24866], [6.0248, 52.24894], [6.02734, 52.24581], [6.0284, 52.24539], [6.02789, 52.24486], [6.02893, 52.24439], [6.02651, 52.2429], [6.02833, 52.24168], [6.02847, 52.23904], [6.03255, 52.23559], [6.03441, 52.23431], [6.03604, 52.23192], [6.03497, 52.23139], [6.03364, 52.23152], [6.0234, 52.2306], [6.01735, 52.22805], [6.01259, 52.23752], [6.00617, 52.25028], [5.98698, 52.24522], [5.9778, 52.24536], [5.97849, 52.24701], [5.98094, 52.25324], [5.98959, 52.25265], [5.9922, 52.25343], [5.99265, 52.25706], [5.98581, 52.25751], [5.98251, 52.25695], [5.98936, 52.27404], [5.99337, 52.27393], [6.00916, 52.27634], [6.02886, 52.27681], [6.0304, 52.2762], [6.03126, 52.27524]]]]}}]}