{"type": "FeatureCollection", "features": [{"type": "Feature", "properties": {"code": "WK0363AA", "name": "Haarlemmerbuurt"}, "geometry": {"type": "MultiPolygon", "coordinates": [[[[4.89508, 52.38869], [4.89624, 52.38565], [4.89877, 52.38297], [4.8958, 52.38014], [4.89546, 52.37985], [4.894, 52.37877], [4.88843, 52.38052], [4.88806, 52.38073], [4.88296, 52.38365], [4.8826, 52.38389], [4.88166, 52.38418], [4.88258, 52.38546], [4.88303, 52.386], [4.88323, 52.38624], [4.88448, 52.38838], [4.88574, 52.38817], [4.89101, 52.38844], [4.89508, 52.38869]]]]}}, {"type": "Feature", "properties": {"code": "WK0363AB", "name": "Jordaan"}, "geometry": {"type": "MultiPolygon", "coordinates": [[[[4.88071, 52.36543], [4.87922, 52.36492], [4.87751, 52.36677], [4.8768, 52.3685], [4.8745, 52.37189], [4.87548, 52.37341], [4.87551, 52.37408], [4.87659, 52.37549], [4.87816, 52.3785], [4.87963, 52.38193], [4.88166, 52.38418], [4.8826, 52.38389], [4.88296, 52.38365], [4.88806, 52.38073], [4.88843, 52.38052], [4.88712, 52.37909], [4.8862, 52.37809], [4.88477, 52.37653], [4.88306, 52.37399], [4.88261, 52.36893], [4.8826, 52.36875], [4.88279, 52.36618], [4.88091, 52.36549], [4.88071, 52.36543]]]]}}, {"type": "Feature", "properties": {"code": "WK0363AC", "name": "Grachtengordel-West"}, "geometry": {"type": "MultiPolygon", "coordinates": [[[[4.88805, 52.3685], [4.88279, 52.36618], [4.8826, 52.36875], [4.88261, 52.36893], [4.88306, 52.37399], [4.88477, 52.37653], [4.8862, 52.37809], [4.88712, 52.37909], [4.88843, 52.38052], [4.894, 52.37877], [4.89208, 52.37703], [4.89131, 52.37632], [4.88885, 52.37326], [4.88783, 52.36876], [4.88805, 52.3685]]]]}}, {"type": "Feature", "properties": {"code": "WK0363AD", "name": "Burgwallen-Nieuwe Zijde"}, "geometry": {"type": "MultiPolygon", "coordinates": [[[[4.9064, 52.38004], [4.90325, 52.37659], [4.89969, 52.3773], [4.89707, 52.3755], [4.89647, 52.37576], [4.893, 52.37271], [4.89297, 52.37271], [4.89201, 52.36905], [4.89239, 52.36908], [4.89414, 52.36729], [4.89346, 52.36704], [4.88963, 52.36728], [4.88853, 52.36813], [4.88805, 52.3685], [4.88783, 52.36876], [4.88885, 52.37326], [4.89131, 52.37632], [4.89208, 52.37703], [4.894, 52.37877], [4.89546, 52.37985], [4.8958, 52.38014], [4.89877, 52.38297], [4.90005, 52.38215], [4.90209, 52.38119], [4.9064, 52.38004]]]]}}, {"type": "Feature", "properties": {"code": "WK0363AE", "name": "Burgwallen-Oude Zijde"}, "geometry": {"type": "MultiPolygon", "coordinates": [[[[4.90325, 52.37659], [4.90126, 52.37417], [4.90093, 52.37349], [4.89985, 52.37222], [4.89875, 52.37099], [4.89526, 52.36737], [4.89414, 52.36729], [4.89239, 52.36908], [4.89201, 52.36905], [4.89297, 52.37271], [4.893, 52.37271], [4.89647, 52.37576], [4.89707, 52.3755], [4.89969, 52.3773], [4.90325, 52.37659]]]]}}, {"type": "Feature", "properties": {"code": "WK0363AF", "name": "Nieuwmarkt/Lastage"}, "geometry": {"type": "MultiPolygon", "coordinates": [[[[4.91115, 52.37764], [4.91137, 52.37494], [4.91272, 52.37506], [4.91306, 52.37452], [4.91341, 52.37147], [4.91112, 52.36997], [4.91068, 52.3697], [4.9071, 52.36734], [4.90611, 52.36676], [4.90121, 52.36578], [4.89824, 52.36732], [4.89526, 52.36737], [4.89875, 52.37099], [4.89985, 52.37222], [4.90093, 52.37349], [4.90126, 52.37417], [4.90325, 52.37659], [4.9064, 52.38004], [4.91059, 52.37991], [4.91115, 52.37764]]]]}}, {"type": "Feature", "properties": {"code": "WK0363AG", "name": "Grachtengordel-Zuid"}, "geometry": {"type": "MultiPolygon", "coordinates": [[[[4.88963, 52.36728], [4.89346, 52.36704], [4.89414, 52.36729], [4.89526, 52.36737], [4.89824, 52.36732], [4.90121, 52.36578], [4.90276, 52.3628], [4.89608, 52.36162], [4.88803, 52.36269], [4.88787, 52.36277], [4.88446, 52.36502], [4.88279, 52.36618], [4.88805, 52.3685], [4.88853, 52.36813], [4.88963, 52.36728]]]]}}, {"type": "Feature", "properties": {"code": "WK0363AH", "name": "De Weteringschans"}, "geometry": {"type": "MultiPolygon", "coordinates": [[[[4.88803, 52.36269], [4.89608, 52.36162], [4.90276, 52.3628], [4.90334, 52.36165], [4.90341, 52.36153], [4.90463, 52.35921], [4.89924, 52.3581], [4.89825, 52.35795], [4.89617, 52.35805], [4.89087, 52.35837], [4.88738, 52.36023], [4.88629, 52.36078], [4.88538, 52.36123], [4.88239, 52.36196], [4.88209, 52.36205], [4.88123, 52.36327], [4.87931, 52.36434], [4.87922, 52.36492], [4.88071, 52.36543], [4.88091, 52.36549], [4.88279, 52.36618], [4.88446, 52.36502], [4.88787, 52.36277], [4.88803, 52.36269]]]]}}, {"type": "Feature", "properties": {"code": "WK0363AJ", "name": "Weesperbuurt/Plantage"}, "geometry": {"type": "MultiPolygon", "coordinates": [[[[4.90832, 52.36059], [4.90463, 52.35921], [4.90341, 52.36153], [4.90334, 52.36165], [4.90276, 52.3628], [4.90121, 52.36578], [4.90611, 52.36676], [4.9071, 52.36734], [4.91068, 52.3697], [4.92162, 52.36557], [4.92055, 52.36482], [4.92231, 52.36376], [4.91748, 52.36213], [4.91507, 52.36179], [4.90832, 52.36059]]]]}}, {"type": "Feature", "properties": {"code": "WK0363AK", "name": "Oostelijke Eilanden/Kadijken"}, "geometry": {"type": "MultiPolygon", "coordinates": [[[[4.92141, 52.3756], [4.92493, 52.3748], [4.92769, 52.37391], [4.9279, 52.37385], [4.93197, 52.37216], [4.93294, 52.37055], [4.93198, 52.36723], [4.93158, 52.36657], [4.92713, 52.36646], [4.92231, 52.36376], [4.92055, 52.36482], [4.92162, 52.36557], [4.91068, 52.3697], [4.91112, 52.36997], [4.91341, 52.37147], [4.91306, 52.37452], [4.91272, 52.37506], [4.91137, 52.37494], [4.91115, 52.37764], [4.91355, 52.37677], [4.92141, 52.3756]]]]}}, {"type": "Feature", "properties": {"code": "WK0363BA", "name": "Havens-West"}, "geometry": {"type": "MultiPolygon", "coordinates": [[[[4.7532, 52.42924], [4.76476, 52.42778], [4.76754, 52.4285], [4.78348, 52.42641], [4.80994, 52.42302], [4.82661, 52.42092], [4.82772, 52.42078], [4.84264, 52.4188], [4.85608, 52.41666], [4.85571, 52.41632], [4.86362, 52.4139], [4.85556, 52.40628], [4.84934, 52.40111], [4.84582, 52.39802], [4.84431, 52.3953], [4.84066, 52.39421], [4.84176, 52.39508], [4.83885, 52.39617], [4.83789, 52.39543], [4.83613, 52.39543], [4.83566, 52.39378], [4.83386, 52.39194], [4.81878, 52.39189], [4.81435, 52.39231], [4.80965, 52.3948], [4.80598, 52.39444], [4.80138, 52.39973], [4.79914, 52.40028], [4.79271, 52.39914], [4.775, 52.39912], [4.77298, 52.39482], [4.77063, 52.39737], [4.77124, 52.39839], [4.75981, 52.40021], [4.75936, 52.39891], [4.75828, 52.3992], [4.75748, 52.39688], [4.72876, 52.40071], [4.73857, 52.42922], [4.73921, 52.43106], [4.75008, 52.42964], [4.7532, 52.42924]]]]}}, {"type": "Feature", "properties": {"code": "WK0363BB", "name": "Coenhaven/Minervahaven"}, "geometry": {"type": "MultiPolygon", "coordinates": [[[[4.88585, 52.39938], [4.87657, 52.39461], [4.87517, 52.39456], [4.87281, 52.39477], [4.86721, 52.39334], [4.86601, 52.39361], [4.86554, 52.39315], [4.86422, 52.39287], [4.86095, 52.39478], [4.8569, 52.3954], [4.8552, 52.39551], [4.84431, 52.3953], [4.84582, 52.39802], [4.84934, 52.40111], [4.85556, 52.40628], [4.86362, 52.4139], [4.87343, 52.40838], [4.87777, 52.40525], [4.8827, 52.4017], [4.88338, 52.4012], [4.88585, 52.39938]]]]}}, {"type": "Feature", "properties": {"code": "WK0363EA", "name": "Sloterdijk-West"}, "geometry": {"type": "MultiPolygon", "coordinates": [[[[4.85749, 52.39218], [4.85916, 52.38893], [4.86496, 52.38897], [4.86491, 52.38806], [4.86318, 52.38803], [4.86396, 52.38611], [4.8642, 52.38545], [4.86067, 52.38539], [4.85667, 52.38532], [4.8475, 52.38516], [4.84481, 52.38511], [4.84468, 52.38892], [4.84421, 52.39181], [4.84431, 52.3953], [4.8552, 52.39551], [4.8569, 52.3954], [4.85749, 52.39218]]]]}}, {"type": "Feature", "properties": {"code": "WK0363EB", "name": "Spaarndammerbuurt/Zeeheldenbuurt"}, "geometry": {"type": "MultiPolygon", "coordinates": [[[[4.86095, 52.39478], [4.86422, 52.39287], [4.86554, 52.39315], [4.86631, 52.39312], [4.87631, 52.39281], [4.87746, 52.39222], [4.8782, 52.39166], [4.88552, 52.39047], [4.88566, 52.39076], [4.89136, 52.39003], [4.89193, 52.38909], [4.89101, 52.38844], [4.88574, 52.38817], [4.88448, 52.38838], [4.88323, 52.38624], [4.88303, 52.386], [4.88258, 52.38546], [4.88124, 52.38571], [4.87499, 52.38564], [4.87149, 52.38558], [4.86941, 52.38554], [4.86687, 52.3855], [4.8642, 52.38545], [4.86396, 52.38611], [4.86318, 52.38803], [4.86491, 52.38806], [4.86496, 52.38897], [4.85916, 52.38893], [4.85749, 52.39218], [4.8569, 52.3954], [4.86095, 52.39478]]]]}}, {"type": "Feature", "properties": {"code": "WK0363EC", "name": "Houthavens"}, "geometry": {"type": "MultiPolygon", "coordinates": [[[[4.89155, 52.39511], [4.89321, 52.39356], [4.89467, 52.38994], [4.89508, 52.38869], [4.89101, 52.38844], [4.89193, 52.38909], [4.89136, 52.39003], [4.88566, 52.39076], [4.88552, 52.39047], [4.8782, 52.39166], [4.87746, 52.39222], [4.87631, 52.39281], [4.86631, 52.39312], [4.86554, 52.39315], [4.86601, 52.39361], [4.86721, 52.39334], [4.87281, 52.39477], [4.87517, 52.39456], [4.87657, 52.39461], [4.88585, 52.39938], [4.89155, 52.39511]]]]}}, {"type": "Feature", "properties": {"code": "WK0363ED", "name": "De Kolenkit"}, "geometry": {"type": "MultiPolygon", "coordinates": [[[[4.84457, 52.3851], [4.84406, 52.3779], [4.84608, 52.37795], [4.84741, 52.37547], [4.84678, 52.37241], [4.84303, 52.37221], [4.84213, 52.37224], [4.83533, 52.37315], [4.83669, 52.37635], [4.83772, 52.37886], [4.83903, 52.38201], [4.83925, 52.38502], [4.84457, 52.3851]]]]}}, {"type": "Feature", "properties": {"code": "WK0363EE", "name": "Landlust"}, "geometry": {"type": "MultiPolygon", "coordinates": [[[[4.86262, 52.38039], [4.86443, 52.37541], [4.86286, 52.3752], [4.85856, 52.37465], [4.85556, 52.37436], [4.85466, 52.3766], [4.8568, 52.37685], [4.85636, 52.37816], [4.85361, 52.38007], [4.84608, 52.37795], [4.84406, 52.3779], [4.84457, 52.3851], [4.84481, 52.38511], [4.8475, 52.38516], [4.85667, 52.38532], [4.86067, 52.38539], [4.86211, 52.38171], [4.86262, 52.38039]]]]}}, {"type": "Feature", "properties": {"code": "WK0363EF", "name": "Erasmuspark"}, "geometry": {"type": "MultiPolygon", "coordinates": [[[[4.84887, 52.37274], [4.84678, 52.37241], [4.84741, 52.37547], [4.84608, 52.37795], [4.85361, 52.38007], [4.85636, 52.37816], [4.8568, 52.37685], [4.85466, 52.3766], [4.85556, 52.37436], [4.85241, 52.3734], [4.84999, 52.37294], [4.84887, 52.37274]]]]}}, {"type": "Feature", "properties": {"code": "WK0363EG", "name": "Centrale Markt"}, "geometry": {"type": "MultiPolygon", "coordinates": [[[[4.86981, 52.37541], [4.86723, 52.37254], [4.86443, 52.37541], [4.86262, 52.38039], [4.86211, 52.38171], [4.86067, 52.38539], [4.8642, 52.38545], [4.86687, 52.3855], [4.86941, 52.38554], [4.87067, 52.38253], [4.86803, 52.38208], [4.86781, 52.38201], [4.86831, 52.38046], [4.87016, 52.37587], [4.86981, 52.37541]]]]}}, {"type": "Feature", "properties": {"code": "WK0363EH", "name": "Staatsliedenbuurt"}, "geometry": {"type": "MultiPolygon", "coordinates": [[[[4.87237, 52.37836], [4.87016, 52.37587], [4.86831, 52.38046], [4.86781, 52.38201], [4.86803, 52.38208], [4.87067, 52.38253], [4.86941, 52.38554], [4.87149, 52.38558], [4.87499, 52.38564], [4.88124, 52.38571], [4.88258, 52.38546], [4.88166, 52.38418], [4.87963, 52.38193], [4.87909, 52.38179], [4.87399, 52.38057], [4.87237, 52.37836]]]]}}, {"type": "Feature", "properties": {"code": "WK0363EJ", "name": "Frederik Hendrikbuurt"}, "geometry": {"type": "MultiPolygon", "coordinates": [[[[4.8674, 52.3718], [4.86635, 52.37159], [4.86723, 52.37254], [4.86981, 52.37541], [4.87016, 52.37587], [4.87237, 52.37836], [4.87399, 52.38057], [4.87909, 52.38179], [4.87963, 52.38193], [4.87816, 52.3785], [4.87659, 52.37549], [4.87551, 52.37408], [4.87548, 52.37341], [4.86964, 52.37224], [4.8674, 52.3718]]]]}}, {"type": "Feature", "properties": {"code": "WK0363EK", "name": "Van Galenbuurt"}, "geometry": {"type": "MultiPolygon", "coordinates": [[[[4.84835, 52.36971], [4.84256, 52.36959], [4.84303, 52.37221], [4.84678, 52.37241], [4.84887, 52.37274], [4.84999, 52.37294], [4.85241, 52.3734], [4.85556, 52.37436], [4.85655, 52.37112], [4.85369, 52.37063], [4.85026, 52.37004], [4.84835, 52.36971]]]]}}, {"type": "Feature", "properties": {"code": "WK0363EL", "name": "Geuzenbuurt"}, "geometry": {"type": "MultiPolygon", "coordinates": [[[[4.86635, 52.37159], [4.86502, 52.37014], [4.86365, 52.37067], [4.8596, 52.37151], [4.85889, 52.37144], [4.85655, 52.37112], [4.85556, 52.37436], [4.85856, 52.37465], [4.86286, 52.3752], [4.86443, 52.37541], [4.86723, 52.37254], [4.86635, 52.37159]]]]}}, {"type": "Feature", "properties": {"code": "WK0363EM", "name": "Hoofdweg e.o."}, "geometry": {"type": "MultiPolygon", "coordinates": [[[[4.85318, 52.36355], [4.84945, 52.36336], [4.84918, 52.36422], [4.8497, 52.3667], [4.84835, 52.36971], [4.85026, 52.37004], [4.85369, 52.37063], [4.85655, 52.37112], [4.85736, 52.36846], [4.85825, 52.36421], [4.85318, 52.36355]]]]}}, {"type": "Feature", "properties": {"code": "WK0363EN", "name": "Chassébuurt"}, "geometry": {"type": "MultiPolygon", "coordinates": [[[[4.86006, 52.3646], [4.85923, 52.36367], [4.85825, 52.36421], [4.85736, 52.36846], [4.85655, 52.37112], [4.85889, 52.37144], [4.8596, 52.37151], [4.86365, 52.37067], [4.86502, 52.37014], [4.86328, 52.36824], [4.86225, 52.36712], [4.86006, 52.3646]]]]}}, {"type": "Feature", "properties": {"code": "WK0363EP", "name": "Bellamybuurt"}, "geometry": {"type": "MultiPolygon", "coordinates": [[[[4.86268, 52.36481], [4.86006, 52.3646], [4.86225, 52.36712], [4.86328, 52.36824], [4.86502, 52.37014], [4.86635, 52.37159], [4.8674, 52.3718], [4.86958, 52.3686], [4.8708, 52.36685], [4.86268, 52.36481]]]]}}, {"type": "Feature", "properties": {"code": "WK0363EQ", "name": "Da Costabuurt"}, "geometry": {"type": "MultiPolygon", "coordinates": [[[[4.8745, 52.37189], [4.8768, 52.3685], [4.8708, 52.36685], [4.86958, 52.3686], [4.8674, 52.3718], [4.86964, 52.37224], [4.87548, 52.37341], [4.8745, 52.37189]]]]}}, {"type": "Feature", "properties": {"code": "WK0363ER", "name": "Westindische Buurt"}, "geometry": {"type": "MultiPolygon", "coordinates": [[[[4.85745, 52.36155], [4.85486, 52.35786], [4.85478, 52.35775], [4.85389, 52.35802], [4.85028, 52.35792], [4.84889, 52.35791], [4.84888, 52.35804], [4.84945, 52.36336], [4.85318, 52.36355], [4.85825, 52.36421], [4.85923, 52.36367], [4.85745, 52.36155]]]]}}, {"type": "Feature", "properties": {"code": "WK0363ES", "name": "Van Lennepbuurt"}, "geometry": {"type": "MultiPolygon", "coordinates": [[[[4.86378, 52.36307], [4.85745, 52.36155], [4.85923, 52.36367], [4.86006, 52.3646], [4.86268, 52.36481], [4.8708, 52.36685], [4.8768, 52.3685], [4.87751, 52.36677], [4.87335, 52.36555], [4.87198, 52.36515], [4.86671, 52.36378], [4.86378, 52.36307]]]]}}, {"type": "Feature", "properties": {"code": "WK0363ET", "name": "Overtoomse Sluis"}, "geometry": {"type": "MultiPolygon", "coordinates": [[[[4.86545, 52.35901], [4.85508, 52.35641], [4.85412, 52.35652], [4.85478, 52.35775], [4.85486, 52.35786], [4.85745, 52.36155], [4.86378, 52.36307], [4.86553, 52.36029], [4.86469, 52.3601], [4.86545, 52.35901]]]]}}, {"type": "Feature", "properties": {"code": "WK0363EU", "name": "Helmersbuurt"}, "geometry": {"type": "MultiPolygon", "coordinates": [[[[4.86791, 52.36083], [4.86553, 52.36029], [4.86378, 52.36307], [4.86671, 52.36378], [4.87198, 52.36515], [4.87335, 52.36555], [4.87751, 52.36677], [4.87922, 52.36492], [4.87931, 52.36434], [4.87529, 52.36275], [4.87362, 52.36232], [4.86791, 52.36083]]]]}}, {"type": "Feature", "properties": {"code": "WK0363EV", "name": "Vondelparkbuurt"}, "geometry": {"type": "MultiPolygon", "coordinates": [[[[4.88209, 52.36205], [4.87745, 52.36078], [4.87393, 52.361], [4.86553, 52.35885], [4.86545, 52.35901], [4.86469, 52.3601], [4.86553, 52.36029], [4.86791, 52.36083], [4.87362, 52.36232], [4.87529, 52.36275], [4.87931, 52.36434], [4.88123, 52.36327], [4.88209, 52.36205]]]]}}, {"type": "Feature", "properties": {"code": "WK0363FA", "name": "Sloterdijk Nieuw-West"}, "geometry": {"type": "MultiPolygon", "coordinates": [[[[4.75981, 52.40021], [4.77124, 52.39839], [4.77063, 52.39737], [4.77298, 52.39482], [4.775, 52.39912], [4.79271, 52.39914], [4.79914, 52.40028], [4.80138, 52.39973], [4.80598, 52.39444], [4.80965, 52.3948], [4.81435, 52.39231], [4.81878, 52.39189], [4.83386, 52.39194], [4.83566, 52.39378], [4.83613, 52.39543], [4.83789, 52.39543], [4.83885, 52.39617], [4.84176, 52.39508], [4.84066, 52.39421], [4.84431, 52.3953], [4.84421, 52.39181], [4.84468, 52.38892], [4.84481, 52.38511], [4.84457, 52.3851], [4.83925, 52.38502], [4.83152, 52.38488], [4.82717, 52.38483], [4.81873, 52.38473], [4.812, 52.38465], [4.80708, 52.3846], [4.80194, 52.38453], [4.79422, 52.38444], [4.78734, 52.38438], [4.75895, 52.38412], [4.75851, 52.38719], [4.75831, 52.3879], [4.7583, 52.38795], [4.75786, 52.39659], [4.75748, 52.39688], [4.75828, 52.3992], [4.75936, 52.39891], [4.75981, 52.40021]]]]}}, {"type": "Feature", "properties": {"code": "WK0363FB", "name": "Geuzenveld"}, "geometry": {"type": "MultiPolygon", "coordinates": [[[[4.812, 52.38465], [4.81216, 52.38056], [4.80938, 52.38037], [4.8094, 52.37939], [4.80871, 52.37672], [4.8086, 52.37629], [4.80758, 52.37244], [4.80527, 52.37267], [4.80128, 52.37306], [4.79299, 52.37379], [4.79213, 52.37484], [4.78922, 52.376], [4.78093, 52.36964], [4.76372, 52.37956], [4.76017, 52.38139], [4.75908, 52.38094], [4.75895, 52.38412], [4.78734, 52.38438], [4.79422, 52.38444], [4.80194, 52.38453], [4.80708, 52.3846], [4.812, 52.38465]]]]}}, {"type": "Feature", "properties": {"code": "WK0363FC", "name": "Slotermeer-West"}, "geometry": {"type": "MultiPolygon", "coordinates": [[[[4.81903, 52.37571], [4.81736, 52.37197], [4.80758, 52.37244], [4.8086, 52.37629], [4.80871, 52.37672], [4.8094, 52.37939], [4.80938, 52.38037], [4.81216, 52.38056], [4.812, 52.38465], [4.81873, 52.38473], [4.81897, 52.38214], [4.8214, 52.38138], [4.82064, 52.37955], [4.82013, 52.37833], [4.81903, 52.37571]]]]}}, {"type": "Feature", "properties": {"code": "WK0363FD", "name": "Slotermeer-Noordoost"}, "geometry": {"type": "MultiPolygon", "coordinates": [[[[4.83772, 52.37886], [4.83669, 52.37635], [4.82423, 52.3783], [4.82064, 52.37955], [4.8214, 52.38138], [4.81897, 52.38214], [4.81873, 52.38473], [4.82717, 52.38483], [4.83152, 52.38488], [4.83925, 52.38502], [4.83903, 52.38201], [4.83772, 52.37886]]]]}}, {"type": "Feature", "properties": {"code": "WK0363FE", "name": "Slotermeer-Zuidoost"}, "geometry": {"type": "MultiPolygon", "coordinates": [[[[4.83533, 52.37315], [4.83441, 52.37038], [4.82932, 52.37056], [4.82715, 52.37213], [4.82565, 52.37088], [4.81718, 52.36389], [4.81218, 52.35972], [4.81128, 52.36146], [4.80753, 52.36692], [4.80527, 52.37267], [4.80758, 52.37244], [4.81736, 52.37197], [4.81903, 52.37571], [4.82013, 52.37833], [4.82064, 52.37955], [4.82423, 52.3783], [4.83669, 52.37635], [4.83533, 52.37315]]]]}}, {"type": "Feature", "properties": {"code": "WK0363FF", "name": "Lutkemeer/Ookmeer"}, "geometry": {"type": "MultiPolygon", "coordinates": [[[[4.76372, 52.37956], [4.78093, 52.36964], [4.78922, 52.376], [4.79213, 52.37484], [4.79299, 52.37379], [4.80128, 52.37306], [4.80527, 52.37267], [4.80753, 52.36692], [4.802, 52.3658], [4.79532, 52.36444], [4.78665, 52.36272], [4.78165, 52.36051], [4.78082, 52.35974], [4.77728, 52.35722], [4.77248, 52.35482], [4.76739, 52.35127], [4.75568, 52.35615], [4.75484, 52.35791], [4.75588, 52.36181], [4.75784, 52.36872], [4.75847, 52.37109], [4.75838, 52.37402], [4.75672, 52.37784], [4.75726, 52.37798], [4.75912, 52.37933], [4.75908, 52.38094], [4.76017, 52.38139], [4.76372, 52.37956]]]]}}, {"type": "Feature", "properties": {"code": "WK0363FG", "name": "De Aker"}, "geometry": {"type": "MultiPolygon", "coordinates": [[[[4.77698, 52.35676], [4.78797, 52.35264], [4.79181, 52.35319], [4.79189, 52.35304], [4.79557, 52.34625], [4.7911, 52.3415], [4.7808, 52.34585], [4.7733, 52.34892], [4.76739, 52.35127], [4.77248, 52.35482], [4.77728, 52.35722], [4.77698, 52.35676]]]]}}, {"type": "Feature", "properties": {"code": "WK0363FH", "name": "De Punt"}, "geometry": {"type": "MultiPolygon", "coordinates": [[[[4.79181, 52.35319], [4.78797, 52.35264], [4.77698, 52.35676], [4.77728, 52.35722], [4.78082, 52.35974], [4.78165, 52.36051], [4.78665, 52.36272], [4.78811, 52.36005], [4.78829, 52.35974], [4.7902, 52.35621], [4.79181, 52.35319]]]]}}, {"type": "Feature", "properties": {"code": "WK0363FJ", "name": "Osdorp-Midden"}, "geometry": {"type": "MultiPolygon", "coordinates": [[[[4.79774, 52.34835], [4.79557, 52.34625], [4.79189, 52.35304], [4.79181, 52.35319], [4.7902, 52.35621], [4.78829, 52.35974], [4.78811, 52.36005], [4.78665, 52.36272], [4.79532, 52.36444], [4.79691, 52.36149], [4.79815, 52.35918], [4.79925, 52.35803], [4.80079, 52.35518], [4.80097, 52.35485], [4.80224, 52.3525], [4.8036, 52.34997], [4.79774, 52.34835]]]]}}, {"type": "Feature", "properties": {"code": "WK0363FK", "name": "Osdorp-Oost"}, "geometry": {"type": "MultiPolygon", "coordinates": [[[[4.80815, 52.35089], [4.8036, 52.34997], [4.80224, 52.3525], [4.80097, 52.35485], [4.80079, 52.35518], [4.79925, 52.35803], [4.79815, 52.35918], [4.79691, 52.36149], [4.79532, 52.36444], [4.802, 52.3658], [4.80753, 52.36692], [4.81128, 52.36146], [4.81218, 52.35972], [4.81305, 52.35803], [4.81857, 52.35771], [4.81858, 52.35752], [4.81806, 52.35617], [4.82043, 52.35174], [4.81223, 52.35163], [4.80815, 52.35089]]]]}}, {"type": "Feature", "properties": {"code": "WK0363FL", "name": "Slotervaart-Noord"}, "geometry": {"type": "MultiPolygon", "coordinates": [[[[4.83419, 52.35789], [4.82725, 52.35762], [4.81857, 52.35771], [4.81305, 52.35803], [4.81218, 52.35972], [4.81718, 52.36389], [4.82565, 52.37088], [4.82715, 52.37213], [4.82932, 52.37056], [4.83441, 52.37038], [4.83435, 52.3701], [4.83387, 52.36406], [4.83407, 52.35927], [4.83419, 52.35789]]]]}}, {"type": "Feature", "properties": {"code": "WK0363FM", "name": "Overtoomse Veld"}, "geometry": {"type": "MultiPolygon", "coordinates": [[[[4.84303, 52.37221], [4.84256, 52.36959], [4.84835, 52.36971], [4.8497, 52.3667], [4.84918, 52.36422], [4.84945, 52.36336], [4.84888, 52.35804], [4.84249, 52.35798], [4.83419, 52.35789], [4.83407, 52.35927], [4.83387, 52.36406], [4.83435, 52.3701], [4.83441, 52.37038], [4.83533, 52.37315], [4.84213, 52.37224], [4.84303, 52.37221]]]]}}, {"type": "Feature", "properties": {"code": "WK0363FN", "name": "Slotervaart-Zuid"}, "geometry": {"type": "MultiPolygon", "coordinates": [[[[4.83419, 52.35789], [4.83415, 52.35605], [4.8342, 52.35189], [4.8344, 52.34578], [4.83441, 52.34563], [4.82757, 52.34559], [4.82759, 52.34515], [4.82294, 52.34484], [4.8221, 52.34653], [4.82117, 52.35174], [4.82043, 52.35174], [4.81806, 52.35617], [4.81858, 52.35752], [4.81857, 52.35771], [4.82725, 52.35762], [4.83419, 52.35789]]]]}}, {"type": "Feature", "properties": {"code": "WK0363FP", "name": "Westlandgracht"}, "geometry": {"type": "MultiPolygon", "coordinates": [[[[4.84697, 52.33814], [4.84703, 52.33769], [4.8402, 52.33771], [4.83749, 52.33882], [4.83548, 52.34059], [4.83441, 52.34563], [4.8344, 52.34578], [4.8342, 52.35189], [4.83415, 52.35605], [4.83419, 52.35789], [4.84249, 52.35798], [4.84888, 52.35804], [4.84889, 52.35791], [4.84893, 52.3555], [4.84473, 52.35548], [4.84479, 52.35209], [4.84555, 52.35158], [4.84564, 52.34688], [4.84565, 52.34632], [4.84194, 52.34598], [4.84224, 52.33944], [4.84406, 52.33825], [4.84697, 52.33814]]]]}}, {"type": "Feature", "properties": {"code": "WK0363FQ", "name": "Sloten/Nieuw-Sloten"}, "geometry": {"type": "MultiPolygon", "coordinates": [[[[4.8221, 52.34653], [4.82294, 52.34484], [4.82759, 52.34515], [4.82757, 52.34559], [4.83441, 52.34563], [4.83548, 52.34059], [4.83749, 52.33882], [4.8402, 52.33771], [4.84703, 52.33769], [4.84622, 52.33413], [4.83555, 52.331], [4.82213, 52.33082], [4.81712, 52.32693], [4.8164, 52.32741], [4.80305, 52.33303], [4.7988, 52.3348], [4.79822, 52.33504], [4.79733, 52.3356], [4.7911, 52.3415], [4.79557, 52.34625], [4.79774, 52.34835], [4.8036, 52.34997], [4.80815, 52.35089], [4.81223, 52.35163], [4.82043, 52.35174], [4.82117, 52.35174], [4.8221, 52.34653]]]]}}, {"type": "Feature", "properties": {"code": "WK0363KA", "name": "Hoofddorppleinbuurt"}, "geometry": {"type": "MultiPolygon", "coordinates": [[[[4.85389, 52.35802], [4.85478, 52.35775], [4.85412, 52.35652], [4.85355, 52.35477], [4.85236, 52.35095], [4.85137, 52.34805], [4.84818, 52.34277], [4.84697, 52.33814], [4.84406, 52.33825], [4.84224, 52.33944], [4.84194, 52.34598], [4.84565, 52.34632], [4.84564, 52.34688], [4.84555, 52.35158], [4.84479, 52.35209], [4.84473, 52.35548], [4.84893, 52.3555], [4.84889, 52.35791], [4.85028, 52.35792], [4.85389, 52.35802]]]]}}, {"type": "Feature", "properties": {"code": "WK0363KB", "name": "Schinkelbuurt"}, "geometry": {"type": "MultiPolygon", "coordinates": [[[[4.85202, 52.3434], [4.84818, 52.34277], [4.85137, 52.34805], [4.85236, 52.35095], [4.85355, 52.35477], [4.85412, 52.35652], [4.85508, 52.35641], [4.85584, 52.35462], [4.8566, 52.35152], [4.85741, 52.34983], [4.85757, 52.34742], [4.85242, 52.34642], [4.85146, 52.34526], [4.85202, 52.3434]]]]}}, {"type": "Feature", "properties": {"code": "WK0363KC", "name": "Willemspark"}, "geometry": {"type": "MultiPolygon", "coordinates": [[[[4.8653, 52.35069], [4.86158, 52.34973], [4.85741, 52.34983], [4.8566, 52.35152], [4.85584, 52.35462], [4.85508, 52.35641], [4.86545, 52.35901], [4.86553, 52.35885], [4.86713, 52.3561], [4.86719, 52.35602], [4.86797, 52.35527], [4.86994, 52.35309], [4.87056, 52.35207], [4.86607, 52.3509], [4.8653, 52.35069]]]]}}, {"type": "Feature", "properties": {"code": "WK0363KD", "name": "Museumkwartier"}, "geometry": {"type": "MultiPolygon", "coordinates": [[[[4.88538, 52.36123], [4.88629, 52.36078], [4.88738, 52.36023], [4.88672, 52.35873], [4.88669, 52.35529], [4.88675, 52.35462], [4.88648, 52.35223], [4.88628, 52.34847], [4.88478, 52.34955], [4.87905, 52.35119], [4.87749, 52.35147], [4.87056, 52.35207], [4.86994, 52.35309], [4.86797, 52.35527], [4.86719, 52.35602], [4.86713, 52.3561], [4.86553, 52.35885], [4.87393, 52.361], [4.87745, 52.36078], [4.88209, 52.36205], [4.88239, 52.36196], [4.88538, 52.36123]]]]}}, {"type": "Feature", "properties": {"code": "WK0363KE", "name": "Oude Pijp"}, "geometry": {"type": "MultiPolygon", "coordinates": [[[[4.89617, 52.35805], [4.89825, 52.35795], [4.89924, 52.3581], [4.90463, 52.35921], [4.90605, 52.35617], [4.90124, 52.35483], [4.89455, 52.35325], [4.89113, 52.35279], [4.88648, 52.35223], [4.88675, 52.35462], [4.88669, 52.35529], [4.88672, 52.35873], [4.88738, 52.36023], [4.89087, 52.35837], [4.89617, 52.35805]]]]}}, {"type": "Feature", "properties": {"code": "WK0363KF", "name": "Nieuwe Pijp"}, "geometry": {"type": "MultiPolygon", "coordinates": [[[[4.89474, 52.35132], [4.89526, 52.34801], [4.89128, 52.34823], [4.88628, 52.34847], [4.88648, 52.35223], [4.89113, 52.35279], [4.89455, 52.35325], [4.90124, 52.35483], [4.90605, 52.35617], [4.90655, 52.35538], [4.90836, 52.35339], [4.90303, 52.35217], [4.89758, 52.35172], [4.89474, 52.35132]]]]}}, {"type": "Feature", "properties": {"code": "WK0363KG", "name": "Zuid Pijp"}, "geometry": {"type": "MultiPolygon", "coordinates": [[[[4.8998, 52.34846], [4.89526, 52.34801], [4.89474, 52.35132], [4.89758, 52.35172], [4.90303, 52.35217], [4.90836, 52.35339], [4.91106, 52.35003], [4.90419, 52.34907], [4.8998, 52.34846]]]]}}, {"type": "Feature", "properties": {"code": "WK0363KH", "name": "Stadionbuurt"}, "geometry": {"type": "MultiPolygon", "coordinates": [[[[4.86677, 52.35039], [4.86739, 52.34868], [4.86816, 52.34656], [4.86708, 52.34645], [4.86797, 52.34398], [4.8648, 52.34316], [4.85805, 52.34236], [4.85729, 52.34225], [4.85709, 52.3389], [4.85077, 52.33865], [4.84697, 52.33814], [4.84818, 52.34277], [4.85202, 52.3434], [4.85146, 52.34526], [4.85242, 52.34642], [4.85757, 52.34742], [4.85741, 52.34983], [4.86158, 52.34973], [4.8653, 52.35069], [4.86677, 52.35039]]]]}}, {"type": "Feature", "properties": {"code": "WK0363KJ", "name": "Apollobuurt"}, "geometry": {"type": "MultiPolygon", "coordinates": [[[[4.88628, 52.34847], [4.88574, 52.3445], [4.88572, 52.34438], [4.8784, 52.34468], [4.8766, 52.34462], [4.86797, 52.34398], [4.86708, 52.34645], [4.86816, 52.34656], [4.86739, 52.34868], [4.86677, 52.35039], [4.8653, 52.35069], [4.86607, 52.3509], [4.87056, 52.35207], [4.87749, 52.35147], [4.87905, 52.35119], [4.88478, 52.34955], [4.88628, 52.34847]]]]}}, {"type": "Feature", "properties": {"code": "WK0363KK", "name": "Scheldebuurt"}, "geometry": {"type": "MultiPolygon", "coordinates": [[[[4.90523, 52.34629], [4.90654, 52.34279], [4.90206, 52.34286], [4.89718, 52.34238], [4.89743, 52.34061], [4.90176, 52.34038], [4.89914, 52.33817], [4.89274, 52.33458], [4.89013, 52.33617], [4.89188, 52.33762], [4.89228, 52.34084], [4.89068, 52.34425], [4.88574, 52.3445], [4.88628, 52.34847], [4.89128, 52.34823], [4.89526, 52.34801], [4.89512, 52.34694], [4.89999, 52.3467], [4.90523, 52.34629]]]]}}, {"type": "Feature", "properties": {"code": "WK0363KL", "name": "IJselbuurt"}, "geometry": {"type": "MultiPolygon", "coordinates": [[[[4.9127, 52.34734], [4.90523, 52.34629], [4.89999, 52.3467], [4.89512, 52.34694], [4.89526, 52.34801], [4.8998, 52.34846], [4.90419, 52.34907], [4.91106, 52.35003], [4.91223, 52.34811], [4.9127, 52.34734]]]]}}, {"type": "Feature", "properties": {"code": "WK0363KM", "name": "Rijnbuurt"}, "geometry": {"type": "MultiPolygon", "coordinates": [[[[4.91413, 52.34353], [4.91496, 52.34186], [4.91179, 52.33946], [4.90942, 52.33877], [4.90748, 52.33796], [4.90679, 52.33596], [4.90425, 52.33357], [4.9002, 52.33338], [4.89875, 52.33279], [4.89274, 52.33458], [4.89914, 52.33817], [4.90176, 52.34038], [4.89743, 52.34061], [4.89718, 52.34238], [4.90206, 52.34286], [4.90654, 52.34279], [4.90523, 52.34629], [4.9127, 52.34734], [4.91319, 52.3456], [4.91413, 52.34353]]]]}}, {"type": "Feature", "properties": {"code": "WK0363KN", "name": "Prinses Irenebuurt e.o."}, "geometry": {"type": "MultiPolygon", "coordinates": [[[[4.87831, 52.34179], [4.86498, 52.34139], [4.8648, 52.34316], [4.86797, 52.34398], [4.8766, 52.34462], [4.8784, 52.34468], [4.88572, 52.34438], [4.8854, 52.342], [4.87831, 52.34179]]]]}}, {"type": "Feature", "properties": {"code": "WK0363KP", "name": "Zuidas"}, "geometry": {"type": "MultiPolygon", "coordinates": [[[[4.89068, 52.34425], [4.89228, 52.34084], [4.89188, 52.33762], [4.89013, 52.33617], [4.88998, 52.33469], [4.87865, 52.33509], [4.86883, 52.33499], [4.86884, 52.3321], [4.85744, 52.3323], [4.85742, 52.33361], [4.85759, 52.337], [4.85709, 52.3389], [4.85729, 52.34225], [4.85805, 52.34236], [4.8648, 52.34316], [4.86498, 52.34139], [4.87831, 52.34179], [4.8854, 52.342], [4.88572, 52.34438], [4.88574, 52.3445], [4.89068, 52.34425]]]]}}, {"type": "Feature", "properties": {"code": "WK0363KQ", "name": "Buitenveldert-West"}, "geometry": {"type": "MultiPolygon", "coordinates": [[[[4.85744, 52.3323], [4.86884, 52.3321], [4.86883, 52.33499], [4.87865, 52.33509], [4.87945, 52.33312], [4.87947, 52.32938], [4.87794, 52.32479], [4.87811, 52.32209], [4.86935, 52.32194], [4.86914, 52.32193], [4.86914, 52.32193], [4.86149, 52.3218], [4.85764, 52.32174], [4.8576, 52.32142], [4.85675, 52.32141], [4.85647, 52.32177], [4.85633, 52.32176], [4.85639, 52.32493], [4.85652, 52.32941], [4.85594, 52.33026], [4.84799, 52.33057], [4.84762, 52.33007], [4.84511, 52.32973], [4.84396, 52.33022], [4.84048, 52.32958], [4.83948, 52.32915], [4.8394, 52.32736], [4.82518, 52.32573], [4.81875, 52.32556], [4.81712, 52.32693], [4.82213, 52.33082], [4.83555, 52.331], [4.84622, 52.33413], [4.84703, 52.33769], [4.84697, 52.33814], [4.85077, 52.33865], [4.85709, 52.3389], [4.85759, 52.337], [4.85742, 52.33361], [4.85744, 52.3323]]]]}}, {"type": "Feature", "properties": {"code": "WK0363KR", "name": "Buitenveldert-Oost"}, "geometry": {"type": "MultiPolygon", "coordinates": [[[[4.89013, 52.33617], [4.89274, 52.33458], [4.89875, 52.33279], [4.89825, 52.32897], [4.89525, 52.3242], [4.89629, 52.32242], [4.89516, 52.32241], [4.89492, 52.32242], [4.89301, 52.32237], [4.88218, 52.32216], [4.87812, 52.32209], [4.87811, 52.32209], [4.87794, 52.32479], [4.87947, 52.32938], [4.87945, 52.33312], [4.87865, 52.33509], [4.88998, 52.33469], [4.89013, 52.33617]]]]}}, {"type": "Feature", "properties": {"code": "WK0363MA", "name": "Oostelijk Havengebied"}, "geometry": {"type": "MultiPolygon", "coordinates": [[[[4.93209, 52.36657], [4.93158, 52.36657], [4.93198, 52.36723], [4.93294, 52.37055], [4.93197, 52.37216], [4.9279, 52.37385], [4.92769, 52.37391], [4.92493, 52.3748], [4.92141, 52.3756], [4.91355, 52.37677], [4.91115, 52.37764], [4.91059, 52.37991], [4.911, 52.37993], [4.91985, 52.38081], [4.93735, 52.38241], [4.94318, 52.38251], [4.95242, 52.38257], [4.95498, 52.37648], [4.95575, 52.37334], [4.95657, 52.36846], [4.95187, 52.36741], [4.94614, 52.36667], [4.93946, 52.36665], [4.93209, 52.36657]]]]}}, {"type": "Feature", "properties": {"code": "WK0363MB", "name": "Weesperzijde"}, "geometry": {"type": "MultiPolygon", "coordinates": [[[[4.91541, 52.34954], [4.91223, 52.34811], [4.91106, 52.35003], [4.90836, 52.35339], [4.90655, 52.35538], [4.90605, 52.35617], [4.90463, 52.35921], [4.90832, 52.36059], [4.91087, 52.3564], [4.91132, 52.35563], [4.91575, 52.35432], [4.91471, 52.35109], [4.91649, 52.35002], [4.91541, 52.34954]]]]}}, {"type": "Feature", "properties": {"code": "WK0363MC", "name": "Oosterparkbuurt"}, "geometry": {"type": "MultiPolygon", "coordinates": [[[[4.91918, 52.35565], [4.91575, 52.35432], [4.91132, 52.35563], [4.91087, 52.3564], [4.90832, 52.36059], [4.91507, 52.36179], [4.91748, 52.36213], [4.92231, 52.36376], [4.92398, 52.36193], [4.92529, 52.36003], [4.92669, 52.35787], [4.91918, 52.35565]]]]}}, {"type": "Feature", "properties": {"code": "WK0363MD", "name": "Transvaalbuurt"}, "geometry": {"type": "MultiPolygon", "coordinates": [[[[4.92161, 52.35233], [4.91649, 52.35002], [4.91471, 52.35109], [4.91575, 52.35432], [4.91918, 52.35565], [4.92669, 52.35787], [4.92823, 52.35534], [4.92161, 52.35233]]]]}}, {"type": "Feature", "properties": {"code": "WK0363ME", "name": "Dapperbuurt"}, "geometry": {"type": "MultiPolygon", "coordinates": [[[[4.93714, 52.35769], [4.92823, 52.35534], [4.92669, 52.35787], [4.92529, 52.36003], [4.92398, 52.36193], [4.92231, 52.36376], [4.92713, 52.36646], [4.93158, 52.36657], [4.93209, 52.36657], [4.93122, 52.36338], [4.9314, 52.36322], [4.93211, 52.3612], [4.93743, 52.35774], [4.93714, 52.35769]]]]}}, {"type": "Feature", "properties": {"code": "WK0363MF", "name": "Indische Buurt-West"}, "geometry": {"type": "MultiPolygon", "coordinates": [[[[4.94094, 52.35841], [4.93743, 52.35774], [4.93211, 52.3612], [4.9314, 52.36322], [4.93122, 52.36338], [4.93209, 52.36657], [4.93946, 52.36665], [4.93954, 52.36378], [4.93974, 52.36164], [4.94094, 52.35841]]]]}}, {"type": "Feature", "properties": {"code": "WK0363MG", "name": "Indische Buurt-Oost"}, "geometry": {"type": "MultiPolygon", "coordinates": [[[[4.9613, 52.35913], [4.95649, 52.35779], [4.94468, 52.35826], [4.94094, 52.35841], [4.93974, 52.36164], [4.93954, 52.36378], [4.93946, 52.36665], [4.94614, 52.36667], [4.95187, 52.36741], [4.95657, 52.36846], [4.9573, 52.3659], [4.9613, 52.35913]]]]}}, {"type": "Feature", "properties": {"code": "WK0363MH", "name": "Zeeburgereiland/Bovendiep"}, "geometry": {"type": "MultiPolygon", "coordinates": [[[[4.96108, 52.38133], [4.9614, 52.38117], [4.96137, 52.38115], [4.96088, 52.38135], [4.96074, 52.38123], [4.96085, 52.38118], [4.96084, 52.38116], [4.9603, 52.38139], [4.9602, 52.38131], [4.96037, 52.38123], [4.95997, 52.38097], [4.95959, 52.38093], [4.95899, 52.38107], [4.95886, 52.38096], [4.95914, 52.38084], [4.95876, 52.38061], [4.96187, 52.37978], [4.96174, 52.37961], [4.95883, 52.38038], [4.9587, 52.38016], [4.96163, 52.37939], [4.96139, 52.37906], [4.96115, 52.37913], [4.96125, 52.37928], [4.95996, 52.37964], [4.95986, 52.37947], [4.96478, 52.37684], [4.97225, 52.37292], [4.97363, 52.37218], [4.97394, 52.37434], [4.97436, 52.37411], [4.97407, 52.37194], [4.98032, 52.36905], [4.97873, 52.36873], [4.97366, 52.36857], [4.97329, 52.36756], [4.97686, 52.36527], [4.97664, 52.36514], [4.97639, 52.365], [4.97436, 52.36581], [4.97165, 52.3649], [4.97036, 52.36328], [4.96895, 52.36085], [4.9741, 52.36069], [4.97415, 52.35805], [4.97517, 52.35721], [4.98438, 52.35811], [4.98574, 52.35763], [4.98513, 52.35537], [4.99143, 52.35242], [4.9944, 52.35003], [4.99579, 52.34981], [4.997, 52.34869], [4.99839, 52.34635], [5.00254, 52.34412], [5.00581, 52.34356], [5.01064, 52.3441], [5.0123, 52.34385], [5.01226, 52.3438], [5.00907, 52.34189], [5.00416, 52.34258], [4.99932, 52.34154], [4.99834, 52.34201], [4.98991, 52.34646], [4.9838, 52.34971], [4.98036, 52.35154], [4.97671, 52.35349], [4.97248, 52.35546], [4.96959, 52.3561], [4.96454, 52.35747], [4.9613, 52.35913], [4.9573, 52.3659], [4.95657, 52.36846], [4.95575, 52.37334], [4.95498, 52.37648], [4.95242, 52.38257], [4.95841, 52.38247], [4.96061, 52.38166], [4.96115, 52.38141], [4.96108, 52.38133]], [[4.95818, 52.36687], [4.95969, 52.36714], [4.95956, 52.36646], [4.95822, 52.36617], [4.95826, 52.36601], [4.95831, 52.36581], [4.96108, 52.36599], [4.9623, 52.3647], [4.96227, 52.3642], [4.96132, 52.36368], [4.96835, 52.36095], [4.96974, 52.36353], [4.97021, 52.36488], [4.96843, 52.36673], [4.96989, 52.36821], [4.96916, 52.36862], [4.9623, 52.36857], [4.95801, 52.36843], [4.95818, 52.36687]]]]}}, {"type": "Feature", "properties": {"code": "WK0363MJ", "name": "IJburg-West"}, "geometry": {"type": "MultiPolygon", "coordinates": [[[[4.98469, 52.36567], [4.99078, 52.36377], [4.99062, 52.36365], [4.99024, 52.36379], [4.98908, 52.36296], [4.98939, 52.36279], [4.98661, 52.36082], [4.9858, 52.36124], [4.9854, 52.36092], [4.9863, 52.36043], [4.98617, 52.36032], [4.98663, 52.36008], [4.98708, 52.35986], [4.98739, 52.35997], [4.9877, 52.35979], [4.99208, 52.36166], [4.99715, 52.35936], [5.00576, 52.35481], [5.00613, 52.35506], [5.00659, 52.35482], [5.00624, 52.35455], [5.00535, 52.35376], [5.00388, 52.35451], [5.00074, 52.3523], [4.99908, 52.35114], [4.99901, 52.35117], [4.99756, 52.35031], [4.99188, 52.35288], [4.98931, 52.35472], [4.9902, 52.35493], [4.98672, 52.35664], [4.98652, 52.358], [4.98737, 52.35816], [4.98903, 52.3573], [4.98943, 52.35738], [4.9899, 52.35713], [4.99003, 52.35721], [4.98813, 52.35824], [4.9882, 52.35864], [4.9861, 52.35979], [4.98471, 52.36033], [4.98046, 52.35857], [4.97943, 52.35948], [4.97973, 52.35964], [4.97842, 52.36082], [4.97717, 52.36031], [4.9762, 52.36109], [4.97539, 52.36077], [4.97421, 52.36183], [4.97769, 52.36426], [4.97639, 52.365], [4.97664, 52.36514], [4.97686, 52.36527], [4.98092, 52.3633], [4.98355, 52.36439], [4.98352, 52.36473], [4.98386, 52.36475], [4.98393, 52.36454], [4.98474, 52.36488], [4.98422, 52.36522], [4.98469, 52.36567]]]]}}, {"type": "Feature", "properties": {"code": "WK0363MK", "name": "IJburg-Oost"}, "geometry": {"type": "MultiPolygon", "coordinates": [[[[5.02125, 52.3541], [5.0206, 52.35387], [5.01826, 52.35378], [5.01718, 52.35401], [5.0165, 52.35368], [5.0191, 52.35038], [5.01881, 52.34989], [5.01515, 52.34861], [5.01551, 52.34795], [5.01515, 52.34783], [5.01529, 52.34763], [5.01512, 52.34743], [5.01478, 52.34784], [5.01433, 52.34781], [5.00997, 52.35274], [5.00952, 52.35326], [5.01355, 52.35455], [5.01378, 52.35513], [5.01403, 52.35518], [5.0144, 52.35482], [5.01525, 52.35509], [5.01982, 52.35633], [5.02042, 52.35647], [5.02051, 52.3561], [5.02113, 52.35547], [5.02125, 52.3541]]], [[[5.002, 52.36628], [5.00155, 52.36682], [5.01453, 52.36797], [5.01275, 52.36729], [5.002, 52.36628]]]]}}, {"type": "Feature", "properties": {"code": "WK0363ML", "name": "IJburg-Zuid"}, "geometry": {"type": "MultiPolygon", "coordinates": [[[[5.00513, 52.34417], [4.9994, 52.34626], [4.99834, 52.34846], [5.00496, 52.34614], [5.00753, 52.34442], [5.00513, 52.34417]]], [[[5.00952, 52.35326], [5.00997, 52.35274], [5.01433, 52.34781], [5.01416, 52.34756], [5.01457, 52.34707], [5.00909, 52.34504], [5.00363, 52.34781], [4.99879, 52.3508], [4.99919, 52.35108], [4.99908, 52.35114], [5.00074, 52.3523], [5.00388, 52.35451], [5.00535, 52.35376], [5.00624, 52.35455], [5.00952, 52.35326]]]]}}, {"type": "Feature", "properties": {"code": "WK0363MM", "name": "Frankendael"}, "geometry": {"type": "MultiPolygon", "coordinates": [[[[4.94018, 52.34778], [4.93262, 52.34309], [4.92714, 52.33981], [4.92129, 52.3425], [4.92047, 52.34276], [4.91957, 52.34366], [4.91741, 52.3465], [4.91319, 52.3456], [4.9127, 52.34734], [4.91223, 52.34811], [4.91541, 52.34954], [4.91649, 52.35002], [4.92161, 52.35233], [4.92823, 52.35534], [4.93056, 52.35374], [4.93517, 52.35088], [4.94018, 52.34778]]]]}}, {"type": "Feature", "properties": {"code": "WK0363MN", "name": "Middenmeer"}, "geometry": {"type": "MultiPolygon", "coordinates": [[[[4.9613, 52.35913], [4.96454, 52.35747], [4.96959, 52.3561], [4.96931, 52.35561], [4.9695, 52.35558], [4.96952, 52.3555], [4.96887, 52.35515], [4.96624, 52.35416], [4.96586, 52.35465], [4.96454, 52.35277], [4.96043, 52.34794], [4.96038, 52.34789], [4.95636, 52.34368], [4.95627, 52.34359], [4.95273, 52.34016], [4.94563, 52.34434], [4.9453, 52.34455], [4.94018, 52.34778], [4.93517, 52.35088], [4.93056, 52.35374], [4.92823, 52.35534], [4.93714, 52.35769], [4.93743, 52.35774], [4.94094, 52.35841], [4.94468, 52.35826], [4.95649, 52.35779], [4.9613, 52.35913]]]]}}, {"type": "Feature", "properties": {"code": "WK0363MP", "name": "Betondorp"}, "geometry": {"type": "MultiPolygon", "coordinates": [[[[4.943, 52.33657], [4.9426, 52.33652], [4.92914, 52.33897], [4.92714, 52.33981], [4.93262, 52.34309], [4.94018, 52.34778], [4.9453, 52.34455], [4.94563, 52.34434], [4.95273, 52.34016], [4.9525, 52.34001], [4.9497, 52.33873], [4.94986, 52.33853], [4.94375, 52.33674], [4.9438, 52.33671], [4.943, 52.33657]]]]}}, {"type": "Feature", "properties": {"code": "WK0363MQ", "name": "Omval/Overamstel"}, "geometry": {"type": "MultiPolygon", "coordinates": [[[[4.92914, 52.33897], [4.9426, 52.33652], [4.94172, 52.33641], [4.9417, 52.33553], [4.93967, 52.33561], [4.93651, 52.33459], [4.93562, 52.33551], [4.93422, 52.3355], [4.92849, 52.33655], [4.92677, 52.33596], [4.92694, 52.33578], [4.92577, 52.33537], [4.92536, 52.33538], [4.92495, 52.33538], [4.92376, 52.33544], [4.92255, 52.33308], [4.91748, 52.33154], [4.91293, 52.33051], [4.91326, 52.3284], [4.91326, 52.3284], [4.91359, 52.32633], [4.91388, 52.32455], [4.9111, 52.3241], [4.91033, 52.32357], [4.91134, 52.32288], [4.91081, 52.32188], [4.91428, 52.32041], [4.91238, 52.31825], [4.90913, 52.31825], [4.90784, 52.31951], [4.90253, 52.32132], [4.89828, 52.32164], [4.89629, 52.32242], [4.89525, 52.3242], [4.89825, 52.32897], [4.89875, 52.33279], [4.9002, 52.33338], [4.90425, 52.33357], [4.90679, 52.33596], [4.90748, 52.33796], [4.90942, 52.33877], [4.91179, 52.33946], [4.91496, 52.34186], [4.91413, 52.34353], [4.91319, 52.3456], [4.91741, 52.3465], [4.91957, 52.34366], [4.92047, 52.34276], [4.92129, 52.3425], [4.92714, 52.33981], [4.92914, 52.33897]]]]}}, {"type": "Feature", "properties": {"code": "WK0363NA", "name": "Oostzanerwerf"}, "geometry": {"type": "MultiPolygon", "coordinates": [[[[4.86597, 52.43068], [4.86954, 52.42985], [4.87146, 52.4301], [4.87321, 52.42955], [4.87362, 52.42847], [4.87657, 52.42623], [4.87899, 52.4257], [4.88165, 52.42566], [4.88686, 52.42556], [4.88768, 52.42559], [4.88814, 52.42562], [4.89268, 52.42542], [4.89874, 52.42446], [4.89857, 52.42057], [4.89823, 52.41684], [4.89784, 52.41529], [4.89591, 52.41589], [4.886, 52.41472], [4.88301, 52.4168], [4.87926, 52.41909], [4.87501, 52.41613], [4.87299, 52.41612], [4.86776, 52.41827], [4.86362, 52.4139], [4.85571, 52.41632], [4.85608, 52.41666], [4.85986, 52.42047], [4.85783, 52.42398], [4.85795, 52.42472], [4.86221, 52.42856], [4.8627, 52.4296], [4.8628, 52.42962], [4.86268, 52.42994], [4.86419, 52.43026], [4.86421, 52.43037], [4.86501, 52.43055], [4.86526, 52.43054], [4.86597, 52.43068]]]]}}, {"type": "Feature", "properties": {"code": "WK0363NB", "name": "Noordelijke IJ-oevers-West"}, "geometry": {"type": "MultiPolygon", "coordinates": [[[[4.86776, 52.41827], [4.87299, 52.41612], [4.87501, 52.41613], [4.87934, 52.41393], [4.87984, 52.41336], [4.89051, 52.4082], [4.89254, 52.40706], [4.89461, 52.40414], [4.90019, 52.40147], [4.90211, 52.40378], [4.9024, 52.40405], [4.90891, 52.40095], [4.90913, 52.3998], [4.90917, 52.39774], [4.91067, 52.39699], [4.91274, 52.39355], [4.91273, 52.39215], [4.90856, 52.39333], [4.90624, 52.39097], [4.90605, 52.3889], [4.90721, 52.38648], [4.90661, 52.38528], [4.90005, 52.38215], [4.89877, 52.38297], [4.89624, 52.38565], [4.89508, 52.38869], [4.89467, 52.38994], [4.89321, 52.39356], [4.89155, 52.39511], [4.88585, 52.39938], [4.88338, 52.4012], [4.8827, 52.4017], [4.87777, 52.40525], [4.87343, 52.40838], [4.86362, 52.4139], [4.86776, 52.41827]]]]}}, {"type": "Feature", "properties": {"code": "WK0363NC", "name": "Tuindorp Oostzaan"}, "geometry": {"type": "MultiPolygon", "coordinates": [[[[4.88301, 52.4168], [4.886, 52.41472], [4.89591, 52.41589], [4.89784, 52.41529], [4.90204, 52.41229], [4.90738, 52.4079], [4.90522, 52.4056], [4.9024, 52.40405], [4.90211, 52.40378], [4.90019, 52.40147], [4.89461, 52.40414], [4.89254, 52.40706], [4.89051, 52.4082], [4.87984, 52.41336], [4.87934, 52.41393], [4.87501, 52.41613], [4.87926, 52.41909], [4.88301, 52.4168]]]]}}, {"type": "Feature", "properties": {"code": "WK0363ND", "name": "Kadoelen"}, "geometry": {"type": "MultiPolygon", "coordinates": [[[[4.90966, 52.42025], [4.9143, 52.4185], [4.91566, 52.41857], [4.92045, 52.41661], [4.91275, 52.41023], [4.90903, 52.40802], [4.90738, 52.4079], [4.90204, 52.41229], [4.89784, 52.41529], [4.89823, 52.41684], [4.89857, 52.42057], [4.89874, 52.42446], [4.89874, 52.42449], [4.90569, 52.42213], [4.90745, 52.42126], [4.90807, 52.4211], [4.90796, 52.42087], [4.90868, 52.42072], [4.90966, 52.42025]]]]}}, {"type": "Feature", "properties": {"code": "WK0363NE", "name": "Banne Buiksloot"}, "geometry": {"type": "MultiPolygon", "coordinates": [[[[4.92506, 52.4048], [4.9223, 52.39935], [4.9221, 52.39926], [4.91986, 52.4004], [4.91472, 52.4015], [4.91483, 52.4009], [4.91067, 52.40078], [4.90891, 52.40095], [4.9024, 52.40405], [4.90522, 52.4056], [4.90738, 52.4079], [4.90903, 52.40802], [4.91275, 52.41023], [4.92045, 52.41661], [4.92274, 52.41553], [4.93072, 52.41161], [4.92965, 52.41101], [4.92559, 52.40728], [4.92506, 52.4048]]]]}}, {"type": "Feature", "properties": {"code": "WK0363NF", "name": "Nieuwendammerdijk/Buiksloterdijk"}, "geometry": {"type": "MultiPolygon", "coordinates": [[[[4.91986, 52.4004], [4.9221, 52.39926], [4.9223, 52.39935], [4.92274, 52.39867], [4.92483, 52.39562], [4.92454, 52.39526], [4.92421, 52.39484], [4.92514, 52.39118], [4.93237, 52.39186], [4.93389, 52.39299], [4.93501, 52.39308], [4.94102, 52.39125], [4.94794, 52.38688], [4.95242, 52.38672], [4.95242, 52.38631], [4.94905, 52.38583], [4.94473, 52.3861], [4.94453, 52.38564], [4.93837, 52.38673], [4.93896, 52.38824], [4.93962, 52.38994], [4.9384, 52.39077], [4.93409, 52.39138], [4.92475, 52.39067], [4.92391, 52.39443], [4.92154, 52.39907], [4.91483, 52.4009], [4.91472, 52.4015], [4.91986, 52.4004]]]]}}, {"type": "Feature", "properties": {"code": "WK0363NG", "name": "Elzenhagen"}, "geometry": {"type": "MultiPolygon", "coordinates": [[[[4.92661, 52.39744], [4.92483, 52.39562], [4.92274, 52.39867], [4.9223, 52.39935], [4.92506, 52.4048], [4.92559, 52.40728], [4.92965, 52.41101], [4.93921, 52.40736], [4.93277, 52.40229], [4.92661, 52.39744]]]]}}, {"type": "Feature", "properties": {"code": "WK0363NH", "name": "Buikslotermeer"}, "geometry": {"type": "MultiPolygon", "coordinates": [[[[4.94733, 52.39863], [4.94656, 52.39791], [4.94478, 52.39807], [4.94237, 52.39581], [4.94093, 52.39447], [4.93677, 52.39357], [4.93501, 52.39308], [4.93389, 52.39299], [4.92454, 52.39526], [4.92483, 52.39562], [4.92661, 52.39744], [4.93277, 52.40229], [4.93921, 52.40736], [4.9518, 52.4028], [4.94733, 52.39863]]]]}}, {"type": "Feature", "properties": {"code": "WK0363NJ", "name": "Waterlandpleinbuurt"}, "geometry": {"type": "MultiPolygon", "coordinates": [[[[4.95491, 52.40109], [4.95971, 52.39776], [4.96354, 52.39389], [4.96686, 52.39], [4.9603, 52.38849], [4.95242, 52.38631], [4.95242, 52.38672], [4.95193, 52.39071], [4.94421, 52.39349], [4.94337, 52.39374], [4.94093, 52.39447], [4.94237, 52.39581], [4.94478, 52.39807], [4.94656, 52.39791], [4.94733, 52.39863], [4.9518, 52.4028], [4.95396, 52.40165], [4.95491, 52.40109]]]]}}, {"type": "Feature", "properties": {"code": "WK0363NK", "name": "Volewijck"}, "geometry": {"type": "MultiPolygon", "coordinates": [[[[4.90891, 52.40095], [4.91067, 52.40078], [4.91483, 52.4009], [4.92154, 52.39907], [4.92082, 52.39848], [4.92227, 52.39653], [4.92131, 52.39457], [4.91823, 52.38974], [4.91445, 52.38703], [4.90747, 52.3837], [4.90209, 52.38119], [4.90005, 52.38215], [4.90661, 52.38528], [4.90721, 52.38648], [4.90605, 52.3889], [4.90624, 52.39097], [4.90856, 52.39333], [4.91273, 52.39215], [4.91274, 52.39355], [4.91067, 52.39699], [4.90917, 52.39774], [4.90913, 52.3998], [4.90891, 52.40095]]]]}}, {"type": "Feature", "properties": {"code": "WK0363NL", "name": "IJplein/Vogelbuurt"}, "geometry": {"type": "MultiPolygon", "coordinates": [[[[4.92391, 52.39443], [4.92475, 52.39067], [4.93409, 52.39138], [4.9384, 52.39077], [4.93962, 52.38994], [4.93896, 52.38824], [4.93837, 52.38673], [4.93296, 52.38761], [4.9323, 52.38642], [4.92967, 52.38742], [4.92829, 52.38625], [4.92391, 52.38756], [4.91894, 52.38551], [4.91985, 52.38081], [4.911, 52.37993], [4.91059, 52.37991], [4.9064, 52.38004], [4.90209, 52.38119], [4.90747, 52.3837], [4.91445, 52.38703], [4.91823, 52.38974], [4.92131, 52.39457], [4.92227, 52.39653], [4.92082, 52.39848], [4.92154, 52.39907], [4.92391, 52.39443]]]]}}, {"type": "Feature", "properties": {"code": "WK0363NM", "name": "Tuindorp Buiksloot"}, "geometry": {"type": "MultiPolygon", "coordinates": [[[[4.93389, 52.39299], [4.93237, 52.39186], [4.92514, 52.39118], [4.92421, 52.39484], [4.92454, 52.39526], [4.93389, 52.39299]]]]}}, {"type": "Feature", "properties": {"code": "WK0363NN", "name": "Tuindorp Nieuwendam"}, "geometry": {"type": "MultiPolygon", "coordinates": [[[[4.95193, 52.39071], [4.95242, 52.38672], [4.94794, 52.38688], [4.94102, 52.39125], [4.93501, 52.39308], [4.93677, 52.39357], [4.94093, 52.39447], [4.94337, 52.39374], [4.94421, 52.39349], [4.95193, 52.39071]]]]}}, {"type": "Feature", "properties": {"code": "WK0363NP", "name": "Noordelijke IJ-oevers-Oost"}, "geometry": {"type": "MultiPolygon", "coordinates": [[[[4.93837, 52.38673], [4.94453, 52.38564], [4.94473, 52.3861], [4.94905, 52.38583], [4.95242, 52.38631], [4.95242, 52.38257], [4.94318, 52.38251], [4.93735, 52.38241], [4.91985, 52.38081], [4.91894, 52.38551], [4.92391, 52.38756], [4.92829, 52.38625], [4.92967, 52.38742], [4.9323, 52.38642], [4.93296, 52.38761], [4.93837, 52.38673]]]]}}, {"type": "Feature", "properties": {"code": "WK0363NQ", "name": "Waterland"}, "geometry": {"type": "MultiPolygon", "coordinates": [[[[5.01407, 52.37166], [5.01322, 52.37167], [5.01254, 52.37239], [5.01298, 52.373], [5.01323, 52.37309], [5.01456, 52.37296], [5.01479, 52.37262], [5.01447, 52.37176], [5.01407, 52.37166]]], [[[4.9871, 52.42284], [4.9891, 52.42331], [4.9904, 52.42452], [4.99049, 52.42543], [4.99558, 52.42547], [5.00029, 52.42541], [5.0182, 52.41906], [5.02114, 52.42105], [5.02836, 52.41942], [5.02973, 52.41771], [5.03004, 52.41564], [5.03293, 52.41646], [5.03524, 52.41825], [5.04011, 52.41731], [5.04918, 52.41513], [5.06541, 52.41724], [5.06826, 52.41656], [5.06727, 52.41342], [5.05763, 52.41482], [5.05221, 52.41318], [5.04625, 52.40673], [5.03748, 52.40425], [5.03131, 52.40068], [5.02931, 52.3985], [5.02488, 52.38795], [5.01894, 52.3865], [5.01748, 52.38453], [5.01616, 52.38424], [5.0142, 52.38457], [5.01297, 52.38424], [5.01307, 52.38348], [5.01085, 52.38306], [5.01123, 52.38216], [5.013, 52.38232], [5.0135, 52.38183], [5.01357, 52.37868], [5.01168, 52.37363], [5.00848, 52.37257], [5.00133, 52.37523], [4.99992, 52.37831], [4.99873, 52.37872], [4.9941, 52.37762], [4.99357, 52.3783], [4.99802, 52.37949], [4.9981, 52.37941], [4.99843, 52.37951], [4.99828, 52.37979], [4.99188, 52.37799], [4.99133, 52.37775], [4.99171, 52.37745], [4.99178, 52.37725], [4.99176, 52.3772], [4.99142, 52.37721], [4.98966, 52.3776], [4.98376, 52.37403], [4.98165, 52.37346], [4.98015, 52.3737], [4.9785, 52.37577], [4.97462, 52.37896], [4.97396, 52.37944], [4.97412, 52.37873], [4.97436, 52.37411], [4.97394, 52.37434], [4.97346, 52.37837], [4.97284, 52.37983], [4.96939, 52.37927], [4.9686, 52.37932], [4.96329, 52.38359], [4.96116, 52.3818], [4.9615, 52.38165], [4.96145, 52.38161], [4.96132, 52.38166], [4.96118, 52.38156], [4.96164, 52.38135], [4.96162, 52.38132], [4.96122, 52.38149], [4.96115, 52.38141], [4.96061, 52.38166], [4.95841, 52.38247], [4.95242, 52.38257], [4.95242, 52.38631], [4.9603, 52.38849], [4.96686, 52.39], [4.96354, 52.39389], [4.95971, 52.39776], [4.95491, 52.40109], [4.95396, 52.40165], [4.9518, 52.4028], [4.93921, 52.40736], [4.92965, 52.41101], [4.93072, 52.41161], [4.93514, 52.41204], [4.94265, 52.41386], [4.94478, 52.41502], [4.94779, 52.42156], [4.94881, 52.42146], [4.94968, 52.42198], [4.95148, 52.42193], [4.95172, 52.42251], [4.95134, 52.42323], [4.95233, 52.42352], [4.95356, 52.42226], [4.95578, 52.42243], [4.956, 52.42196], [4.97332, 52.4228], [4.97624, 52.42403], [4.98264, 52.42676], [4.9871, 52.42284]]]]}}, {"type": "Feature", "properties": {"code": "WK0363SA", "name": "Driemond"}, "geometry": {"type": "MultiPolygon", "coordinates": [[[[5.01613, 52.32451], [5.01665, 52.32299], [5.01793, 52.32319], [5.02046, 52.30821], [5.02127, 52.30418], [5.0215, 52.30281], [5.02154, 52.30246], [5.0177, 52.30272], [5.01617, 52.30314], [5.01426, 52.30368], [5.01272, 52.30358], [5.00967, 52.30577], [5.00994, 52.30827], [5.00754, 52.30978], [5.00186, 52.31082], [4.99808, 52.31404], [5.01613, 52.32451]]]]}}, {"type": "Feature", "properties": {"code": "WK0363SB", "name": "Bloemendalerpolder"}, "geometry": {"type": "MultiPolygon", "coordinates": [[[[5.04439, 52.32715], [5.04559, 52.32677], [5.04907, 52.32699], [5.05821, 52.32482], [5.06151, 52.32367], [5.06111, 52.32211], [5.06152, 52.3218], [5.06012, 52.32107], [5.05674, 52.3196], [5.05909, 52.31705], [5.05803, 52.31668], [5.05834, 52.31632], [5.05318, 52.31556], [5.05199, 52.31488], [5.052, 52.3135], [5.05663, 52.31139], [5.05692, 52.31069], [5.05488, 52.31015], [5.04774, 52.30997], [5.04578, 52.31121], [5.03159, 52.31841], [5.02971, 52.31934], [5.02336, 52.32222], [5.01842, 52.32434], [5.01727, 52.33019], [5.02159, 52.33086], [5.02895, 52.33077], [5.03979, 52.32903], [5.04395, 52.32796], [5.0448, 52.32747], [5.04439, 52.32715]]]]}}, {"type": "Feature", "properties": {"code": "WK0363SC", "name": "Weesp-Noordwest"}, "geometry": {"type": "MultiPolygon", "coordinates": [[[[5.03159, 52.31841], [5.04578, 52.31121], [5.04774, 52.30997], [5.04665, 52.30962], [5.04439, 52.30995], [5.04215, 52.31129], [5.03637, 52.31029], [5.03715, 52.30878], [5.0356, 52.30849], [5.03278, 52.30786], [5.02686, 52.30778], [5.02413, 52.30573], [5.02127, 52.30418], [5.02046, 52.30821], [5.01793, 52.32319], [5.01842, 52.32434], [5.02336, 52.32222], [5.02971, 52.31934], [5.03159, 52.31841]]]]}}, {"type": "Feature", "properties": {"code": "WK0363SD", "name": "Weesp Binnenstad/Zuid"}, "geometry": {"type": "MultiPolygon", "coordinates": [[[[5.05293, 52.30308], [5.05405, 52.30063], [5.05017, 52.29969], [5.04824, 52.30097], [5.047, 52.30153], [5.04276, 52.30252], [5.03668, 52.30237], [5.0215, 52.30281], [5.02127, 52.30418], [5.02413, 52.30573], [5.02686, 52.30778], [5.03278, 52.30786], [5.0356, 52.30849], [5.03715, 52.30878], [5.03637, 52.31029], [5.04215, 52.31129], [5.04439, 52.30995], [5.04665, 52.30962], [5.04835, 52.3056], [5.05293, 52.30308]]]]}}, {"type": "Feature", "properties": {"code": "WK0363SE", "name": "Aetsveld/Oostelijke Vechtoever"}, "geometry": {"type": "MultiPolygon", "coordinates": [[[[5.09679, 52.30044], [5.09894, 52.2987], [5.10197, 52.2978], [5.10627, 52.29834], [5.10767, 52.29729], [5.10606, 52.29467], [5.10292, 52.29447], [5.09935, 52.2928], [5.09847, 52.29164], [5.09871, 52.29057], [5.10465, 52.28538], [5.1043, 52.28326], [5.10282, 52.28238], [5.10209, 52.2817], [5.10207, 52.27989], [5.0877, 52.28169], [5.08461, 52.27941], [5.07708, 52.27798], [5.06488, 52.27827], [5.06381, 52.27858], [5.06532, 52.27966], [5.06388, 52.27998], [5.06441, 52.28074], [5.06586, 52.28054], [5.06586, 52.28114], [5.06547, 52.2852], [5.06479, 52.28508], [5.06342, 52.28706], [5.05954, 52.28932], [5.05274, 52.28651], [5.05042, 52.28786], [5.04278, 52.28249], [5.04074, 52.28388], [5.03952, 52.28326], [5.03321, 52.28626], [5.03053, 52.28849], [5.02438, 52.28136], [5.02283, 52.28215], [5.02187, 52.28265], [5.02154, 52.30246], [5.0215, 52.30281], [5.03668, 52.30237], [5.04276, 52.30252], [5.047, 52.30153], [5.04824, 52.30097], [5.05017, 52.29969], [5.05405, 52.30063], [5.05293, 52.30308], [5.04835, 52.3056], [5.04665, 52.30962], [5.04774, 52.30997], [5.05488, 52.31015], [5.05692, 52.31069], [5.05663, 52.31139], [5.052, 52.3135], [5.05199, 52.31488], [5.05318, 52.31556], [5.05834, 52.31632], [5.06254, 52.31764], [5.0633, 52.31821], [5.06526, 52.31918], [5.06572, 52.32048], [5.06469, 52.32201], [5.06932, 52.32168], [5.07539, 52.31915], [5.09165, 52.31464], [5.09308, 52.31415], [5.09211, 52.31302], [5.09462, 52.31243], [5.10057, 52.3103], [5.09648, 52.30729], [5.09577, 52.30376], [5.09679, 52.30044]]]]}}, {"type": "Feature", "properties": {"code": "WK0363TA", "name": "Amstel III/Bullewijk"}, "geometry": {"type": "MultiPolygon", "coordinates": [[[[4.97037, 52.28349], [4.96758, 52.27956], [4.9658, 52.28065], [4.96263, 52.28029], [4.96105, 52.27817], [4.95657, 52.27867], [4.95524, 52.27831], [4.95387, 52.28003], [4.9432, 52.29236], [4.93924, 52.29694], [4.93026, 52.30643], [4.92941, 52.30783], [4.92991, 52.3081], [4.92933, 52.30853], [4.92943, 52.30863], [4.93033, 52.30919], [4.93006, 52.30934], [4.93414, 52.3119], [4.93611, 52.31258], [4.93523, 52.31389], [4.93777, 52.31476], [4.93872, 52.31509], [4.93845, 52.31565], [4.93804, 52.31651], [4.93983, 52.31712], [4.94033, 52.3183], [4.93958, 52.31912], [4.94021, 52.31933], [4.94382, 52.31502], [4.94635, 52.31206], [4.94751, 52.31081], [4.95154, 52.30664], [4.9554, 52.3025], [4.95962, 52.29797], [4.96174, 52.29538], [4.96609, 52.29075], [4.97184, 52.28436], [4.97037, 52.28349]]]]}}, {"type": "Feature", "properties": {"code": "WK0363TB", "name": "Venserpolder"}, "geometry": {"type": "MultiPolygon", "coordinates": [[[[4.95045, 52.31717], [4.94382, 52.31502], [4.94021, 52.31933], [4.94022, 52.31934], [4.94104, 52.31962], [4.93993, 52.32194], [4.93762, 52.3233], [4.93796, 52.32412], [4.93853, 52.3242], [4.93915, 52.32467], [4.9405, 52.32568], [4.94187, 52.32615], [4.94472, 52.32713], [4.94766, 52.32814], [4.94812, 52.32763], [4.95267, 52.32264], [4.9476, 52.32053], [4.95045, 52.31717]]]]}}, {"type": "Feature", "properties": {"code": "WK0363TC", "name": "Amsterdamse Poort e.o."}, "geometry": {"type": "MultiPolygon", "coordinates": [[[[4.96356, 52.3166], [4.97142, 52.308], [4.96537, 52.30592], [4.96093, 52.30985], [4.95835, 52.31267], [4.95705, 52.3141], [4.95253, 52.31254], [4.94751, 52.31081], [4.94635, 52.31206], [4.94382, 52.31502], [4.95045, 52.31717], [4.9476, 52.32053], [4.95267, 52.32264], [4.95671, 52.32403], [4.95675, 52.32404], [4.95933, 52.32122], [4.96176, 52.31857], [4.96356, 52.3166]]]]}}, {"type": "Feature", "properties": {"code": "WK0363TD", "name": "H-buurt"}, "geometry": {"type": "MultiPolygon", "coordinates": [[[[4.96249, 52.30493], [4.9554, 52.3025], [4.95154, 52.30664], [4.94751, 52.31081], [4.95253, 52.31254], [4.95705, 52.3141], [4.95835, 52.31267], [4.96093, 52.30985], [4.96537, 52.30592], [4.96249, 52.30493]]]]}}, {"type": "Feature", "properties": {"code": "WK0363TE", "name": "Ganzenhoef e.o."}, "geometry": {"type": "MultiPolygon", "coordinates": [[[[4.96754, 52.32776], [4.97027, 52.32618], [4.97047, 52.32629], [4.97148, 52.32535], [4.97316, 52.32351], [4.9769, 52.32381], [4.9777, 52.32293], [4.96897, 52.3205], [4.97033, 52.31897], [4.96494, 52.31704], [4.96356, 52.3166], [4.96176, 52.31857], [4.95933, 52.32122], [4.95675, 52.32404], [4.96754, 52.32776]]]]}}, {"type": "Feature", "properties": {"code": "WK0363TF", "name": "Geerdinkhof/Kantershof"}, "geometry": {"type": "MultiPolygon", "coordinates": [[[[4.99167, 52.32444], [4.99689, 52.31764], [4.98913, 52.31411], [4.98673, 52.31755], [4.98595, 52.31737], [4.98431, 52.31883], [4.98268, 52.31827], [4.97897, 52.32153], [4.9777, 52.32293], [4.9769, 52.32381], [4.97316, 52.32351], [4.97148, 52.32535], [4.97047, 52.32629], [4.97066, 52.32638], [4.97531, 52.33056], [4.97714, 52.33064], [4.97774, 52.33103], [4.98011, 52.33091], [4.98395, 52.33067], [4.98618, 52.32972], [4.9896, 52.32755], [4.99167, 52.32444]]]]}}, {"type": "Feature", "properties": {"code": "WK0363TG", "name": "Bijlmermuseum"}, "geometry": {"type": "MultiPolygon", "coordinates": [[[[4.97897, 52.32153], [4.98268, 52.31827], [4.98431, 52.31883], [4.98595, 52.31737], [4.98038, 52.3156], [4.97572, 52.31379], [4.97438, 52.31448], [4.97375, 52.31521], [4.97033, 52.31897], [4.96897, 52.3205], [4.9777, 52.32293], [4.97897, 52.32153]]]]}}, {"type": "Feature", "properties": {"code": "WK0363TH", "name": "K-buurt"}, "geometry": {"type": "MultiPolygon", "coordinates": [[[[4.97438, 52.31448], [4.97572, 52.31379], [4.98038, 52.3156], [4.98595, 52.31737], [4.98673, 52.31755], [4.98913, 52.31411], [4.98353, 52.31215], [4.97867, 52.31049], [4.97397, 52.30887], [4.97142, 52.308], [4.96356, 52.3166], [4.96494, 52.31704], [4.97033, 52.31897], [4.97375, 52.31521], [4.97438, 52.31448]]]]}}, {"type": "Feature", "properties": {"code": "WK0363TJ", "name": "Holendrecht"}, "geometry": {"type": "MultiPolygon", "coordinates": [[[[4.97416, 52.29562], [4.96619, 52.29432], [4.96174, 52.29538], [4.95962, 52.29797], [4.9554, 52.3025], [4.96249, 52.30493], [4.96537, 52.30592], [4.97142, 52.308], [4.97627, 52.30269], [4.97872, 52.30161], [4.97771, 52.30034], [4.97279, 52.29865], [4.97416, 52.29562]]]]}}, {"type": "Feature", "properties": {"code": "WK0363TK", "name": "Nellestein"}, "geometry": {"type": "MultiPolygon", "coordinates": [[[[4.99709, 52.31446], [4.9973, 52.3142], [4.99746, 52.31425], [4.99786, 52.31398], [4.99808, 52.31404], [5.00186, 52.31082], [5.00754, 52.30978], [5.00994, 52.30827], [5.00967, 52.30577], [5.01272, 52.30358], [5.00795, 52.30155], [4.9892, 52.30154], [4.9863, 52.30154], [4.97989, 52.30151], [4.97872, 52.30161], [4.97627, 52.30269], [4.97142, 52.308], [4.97397, 52.30887], [4.97867, 52.31049], [4.98353, 52.31215], [4.98913, 52.31411], [4.99689, 52.31764], [4.99742, 52.31674], [4.99709, 52.31446]]]]}}, {"type": "Feature", "properties": {"code": "WK0363TL", "name": "Reigersbos"}, "geometry": {"type": "MultiPolygon", "coordinates": [[[[4.98204, 52.29632], [4.98196, 52.29272], [4.9835, 52.29037], [4.97185, 52.28437], [4.97184, 52.28436], [4.96609, 52.29075], [4.96174, 52.29538], [4.96619, 52.29432], [4.97416, 52.29562], [4.97279, 52.29865], [4.97771, 52.30034], [4.97872, 52.30161], [4.97989, 52.30151], [4.97994, 52.30047], [4.98186, 52.29859], [4.98204, 52.29632]]]]}}, {"type": "Feature", "properties": {"code": "WK0363TM", "name": "Gein"}, "geometry": {"type": "MultiPolygon", "coordinates": [[[[5.00176, 52.29277], [4.99747, 52.28912], [4.9835, 52.29037], [4.98196, 52.29272], [4.98204, 52.29632], [4.98186, 52.29859], [4.97994, 52.30047], [4.97989, 52.30151], [4.9863, 52.30154], [4.9892, 52.30154], [5.00795, 52.30155], [5.00526, 52.29839], [5.00376, 52.29834], [5.00324, 52.2964], [5.00324, 52.29602], [5.00185, 52.29588], [5.00176, 52.29277]]]]}}]}