{"type": "FeatureCollection", "features": [{"type": "Feature", "properties": {"code": "BU03920101", "name": "Stationsbuurt"}, "geometry": {"type": "MultiPolygon", "coordinates": [[[[4.64783, 52.38622], [4.64231, 52.38403], [4.63607, 52.38499], [4.63147, 52.38539], [4.63189, 52.38834], [4.63441, 52.38961], [4.63954, 52.38981], [4.64415, 52.38826], [4.64783, 52.38622]]]]}}, {"type": "Feature", "properties": {"code": "BU03920102", "name": "Binnenstad"}, "geometry": {"type": "MultiPolygon", "coordinates": [[[[4.63607, 52.38499], [4.63528, 52.38148], [4.63941, 52.37983], [4.63849, 52.37795], [4.63654, 52.37782], [4.63347, 52.3794], [4.63193, 52.38187], [4.62892, 52.38238], [4.62985, 52.38336], [4.63147, 52.38539], [4.63607, 52.38499]]]]}}, {"type": "Feature", "properties": {"code": "BU03920103", "name": "Bakenes"}, "geometry": {"type": "MultiPolygon", "coordinates": [[[[4.64231, 52.38403], [4.64205, 52.38339], [4.64488, 52.38193], [4.64481, 52.38122], [4.63941, 52.37983], [4.63528, 52.38148], [4.63607, 52.38499], [4.64231, 52.38403]]]]}}, {"type": "Feature", "properties": {"code": "BU03920104", "name": "Burgwal"}, "geometry": {"type": "MultiPolygon", "coordinates": [[[[4.64736, 52.38236], [4.64706, 52.38086], [4.64139, 52.37632], [4.63971, 52.37707], [4.63849, 52.37795], [4.63941, 52.37983], [4.64481, 52.38122], [4.64488, 52.38193], [4.64205, 52.38339], [4.64231, 52.38403], [4.64736, 52.38236]]]]}}, {"type": "Feature", "properties": {"code": "BU03920105", "name": "Vijfhoek"}, "geometry": {"type": "MultiPolygon", "coordinates": [[[[4.63347, 52.3794], [4.631, 52.37604], [4.6244, 52.37761], [4.62892, 52.38238], [4.63193, 52.38187], [4.63347, 52.3794]]]]}}, {"type": "Feature", "properties": {"code": "BU03920106", "name": "Heiliglanden"}, "geometry": {"type": "MultiPolygon", "coordinates": [[[[4.63849, 52.37795], [4.63971, 52.37707], [4.63514, 52.37593], [4.631, 52.37604], [4.63347, 52.3794], [4.63654, 52.37782], [4.63849, 52.37795]]]]}}, {"type": "Feature", "properties": {"code": "BU03920201", "name": "Koninginnebuurt"}, "geometry": {"type": "MultiPolygon", "coordinates": [[[[4.631, 52.37604], [4.6303, 52.37453], [4.62581, 52.3726], [4.62269, 52.37001], [4.61857, 52.37124], [4.62389, 52.37706], [4.6244, 52.37761], [4.631, 52.37604]]]]}}, {"type": "Feature", "properties": {"code": "BU03920202", "name": "Florapark"}, "geometry": {"type": "MultiPolygon", "coordinates": [[[[4.62931, 52.37155], [4.62877, 52.36978], [4.62748, 52.3691], [4.62266, 52.36999], [4.62269, 52.37001], [4.62581, 52.3726], [4.6303, 52.37453], [4.62931, 52.37155]]]]}}, {"type": "Feature", "properties": {"code": "BU03920203", "name": "Welgelegen"}, "geometry": {"type": "MultiPolygon", "coordinates": [[[[4.63514, 52.37593], [4.63476, 52.37508], [4.6339, 52.37335], [4.63999, 52.37144], [4.63591, 52.36963], [4.63632, 52.3675], [4.63246, 52.36772], [4.63132, 52.36819], [4.63277, 52.37129], [4.62931, 52.37155], [4.6303, 52.37453], [4.631, 52.37604], [4.63514, 52.37593]]]]}}, {"type": "Feature", "properties": {"code": "BU03920204", "name": "Rozenprieel-noord"}, "geometry": {"type": "MultiPolygon", "coordinates": [[[[4.64139, 52.37632], [4.64273, 52.37406], [4.63476, 52.37508], [4.63514, 52.37593], [4.63971, 52.37707], [4.64139, 52.37632]]]]}}, {"type": "Feature", "properties": {"code": "BU03920205", "name": "Rozenprieel-zuid"}, "geometry": {"type": "MultiPolygon", "coordinates": [[[[4.64273, 52.37406], [4.64253, 52.37366], [4.63999, 52.37144], [4.6339, 52.37335], [4.63476, 52.37508], [4.64273, 52.37406]]]]}}, {"type": "Feature", "properties": {"code": "BU03920206", "name": "Bosch en Vaart"}, "geometry": {"type": "MultiPolygon", "coordinates": [[[[4.62269, 52.37001], [4.62266, 52.36999], [4.61866, 52.36452], [4.61772, 52.36153], [4.61066, 52.36271], [4.61857, 52.37124], [4.62269, 52.37001]]]]}}, {"type": "Feature", "properties": {"code": "BU03920207", "name": "Haarlemmerhout"}, "geometry": {"type": "MultiPolygon", "coordinates": [[[[4.63246, 52.36772], [4.62946, 52.36501], [4.61866, 52.36452], [4.62266, 52.36999], [4.62748, 52.3691], [4.62877, 52.36978], [4.62931, 52.37155], [4.63277, 52.37129], [4.63132, 52.36819], [4.63246, 52.36772]]]]}}, {"type": "Feature", "properties": {"code": "BU03920208", "name": "Zuiderhout"}, "geometry": {"type": "MultiPolygon", "coordinates": [[[[4.63632, 52.3675], [4.63676, 52.36455], [4.63663, 52.36148], [4.63034, 52.36065], [4.62563, 52.36213], [4.61825, 52.36147], [4.61772, 52.36153], [4.61866, 52.36452], [4.62946, 52.36501], [4.63246, 52.36772], [4.63632, 52.3675]]]]}}, {"type": "Feature", "properties": {"code": "BU03920301", "name": "Garenkokerskwartier"}, "geometry": {"type": "MultiPolygon", "coordinates": [[[[4.63147, 52.38539], [4.62985, 52.38336], [4.62258, 52.38585], [4.62692, 52.38772], [4.63189, 52.38834], [4.63147, 52.38539]]]]}}, {"type": "Feature", "properties": {"code": "BU03920302", "name": "Hasselaersbuurt"}, "geometry": {"type": "MultiPolygon", "coordinates": [[[[4.62985, 52.38336], [4.62892, 52.38238], [4.6242, 52.38311], [4.61988, 52.38378], [4.62258, 52.38585], [4.62985, 52.38336]]]]}}, {"type": "Feature", "properties": {"code": "BU03920303", "name": "Leidsebuurt-west"}, "geometry": {"type": "MultiPolygon", "coordinates": [[[[4.6242, 52.38311], [4.6214, 52.37792], [4.6173, 52.37934], [4.61988, 52.38378], [4.6242, 52.38311]]]]}}, {"type": "Feature", "properties": {"code": "BU03920304", "name": "Leidsebuurt-oost"}, "geometry": {"type": "MultiPolygon", "coordinates": [[[[4.62892, 52.38238], [4.6244, 52.37761], [4.62389, 52.37706], [4.6214, 52.37792], [4.6242, 52.38311], [4.62892, 52.38238]]]]}}, {"type": "Feature", "properties": {"code": "BU03920401", "name": "Van Galenbuurt"}, "geometry": {"type": "MultiPolygon", "coordinates": [[[[4.61988, 52.38378], [4.6173, 52.37934], [4.61405, 52.38028], [4.61465, 52.38458], [4.61988, 52.38378]]]]}}, {"type": "Feature", "properties": {"code": "BU03920402", "name": "Zeeheldenbuurt"}, "geometry": {"type": "MultiPolygon", "coordinates": [[[[4.6173, 52.37934], [4.61327, 52.37183], [4.61004, 52.37232], [4.61099, 52.37605], [4.61405, 52.38028], [4.6173, 52.37934]]]]}}, {"type": "Feature", "properties": {"code": "BU03920403", "name": "Geschiedschrijversbuurt"}, "geometry": {"type": "MultiPolygon", "coordinates": [[[[4.6214, 52.37792], [4.62389, 52.37706], [4.61857, 52.37124], [4.61327, 52.37183], [4.6173, 52.37934], [4.6214, 52.37792]]]]}}, {"type": "Feature", "properties": {"code": "BU03920404", "name": "Natuurkundigenbuurt-west"}, "geometry": {"type": "MultiPolygon", "coordinates": [[[[4.61327, 52.37183], [4.60842, 52.36298], [4.60572, 52.3634], [4.60732, 52.36704], [4.61004, 52.37232], [4.61327, 52.37183]]]]}}, {"type": "Feature", "properties": {"code": "BU03920405", "name": "Natuurkundigenbuurt-oost"}, "geometry": {"type": "MultiPolygon", "coordinates": [[[[4.61857, 52.37124], [4.61066, 52.36271], [4.60858, 52.36296], [4.60842, 52.36298], [4.61327, 52.37183], [4.61857, 52.37124]]]]}}, {"type": "Feature", "properties": {"code": "BU03920501", "name": "Veldzigt"}, "geometry": {"type": "MultiPolygon", "coordinates": [[[[4.61625, 52.38882], [4.61465, 52.38458], [4.6103, 52.38526], [4.60858, 52.38552], [4.61082, 52.38982], [4.61625, 52.38882]]]]}}, {"type": "Feature", "properties": {"code": "BU03920502", "name": "Bloemenbuurt"}, "geometry": {"type": "MultiPolygon", "coordinates": [[[[4.62423, 52.39095], [4.62676, 52.38907], [4.63189, 52.38834], [4.62692, 52.38772], [4.62258, 52.38585], [4.61988, 52.38378], [4.61465, 52.38458], [4.61625, 52.38882], [4.62161, 52.38798], [4.6237, 52.39169], [4.62423, 52.39095]]]]}}, {"type": "Feature", "properties": {"code": "BU03920503", "name": "Ramplaankwartier"}, "geometry": {"type": "MultiPolygon", "coordinates": [[[[4.60858, 52.38552], [4.6103, 52.38526], [4.61157, 52.38354], [4.60859, 52.38056], [4.60313, 52.38008], [4.60026, 52.38076], [4.60053, 52.38292], [4.60202, 52.38462], [4.60533, 52.38549], [4.60858, 52.38552]]]]}}, {"type": "Feature", "properties": {"code": "BU03920504", "name": "Tuinbouwgebied-noord"}, "geometry": {"type": "MultiPolygon", "coordinates": [[[[4.61465, 52.38458], [4.61405, 52.38028], [4.61099, 52.37605], [4.59978, 52.37896], [4.60026, 52.38076], [4.60313, 52.38008], [4.60859, 52.38056], [4.61157, 52.38354], [4.6103, 52.38526], [4.61465, 52.38458]]]]}}, {"type": "Feature", "properties": {"code": "BU03920505", "name": "Tuinbouwgebied-zuid"}, "geometry": {"type": "MultiPolygon", "coordinates": [[[[4.61099, 52.37605], [4.61004, 52.37232], [4.60223, 52.3732], [4.60183, 52.37219], [4.60145, 52.37277], [4.60117, 52.37552], [4.60107, 52.3768], [4.59955, 52.37722], [4.59978, 52.37896], [4.61099, 52.37605]]]]}}, {"type": "Feature", "properties": {"code": "BU03920506", "name": "Oosterduin"}, "geometry": {"type": "MultiPolygon", "coordinates": [[[[4.61004, 52.37232], [4.60732, 52.36704], [4.60416, 52.36759], [4.60377, 52.36886], [4.60459, 52.37136], [4.60183, 52.37219], [4.60223, 52.3732], [4.61004, 52.37232]]]]}}, {"type": "Feature", "properties": {"code": "BU03920601", "name": "Sportliedenbuurt"}, "geometry": {"type": "MultiPolygon", "coordinates": [[[[4.64736, 52.38236], [4.64231, 52.38403], [4.64783, 52.38622], [4.64952, 52.38761], [4.65084, 52.38709], [4.65285, 52.38384], [4.64944, 52.38469], [4.64736, 52.38236]]]]}}, {"type": "Feature", "properties": {"code": "BU03920602", "name": "Waarderpolder"}, "geometry": {"type": "MultiPolygon", "coordinates": [[[[4.67419, 52.38267], [4.66798, 52.38226], [4.66099, 52.38175], [4.65614, 52.38146], [4.65178, 52.38121], [4.64706, 52.38086], [4.64736, 52.38236], [4.64944, 52.38469], [4.65285, 52.38384], [4.65084, 52.38709], [4.64952, 52.38761], [4.65004, 52.39014], [4.65042, 52.39141], [4.65153, 52.39522], [4.65233, 52.39767], [4.65346, 52.39972], [4.65503, 52.40173], [4.66107, 52.40433], [4.66352, 52.40204], [4.66532, 52.39845], [4.67067, 52.39899], [4.67228, 52.39829], [4.66799, 52.39471], [4.66696, 52.39461], [4.67419, 52.38267]]]]}}, {"type": "Feature", "properties": {"code": "BU03920603", "name": "Schoteroog en Veerpolder"}, "geometry": {"type": "MultiPolygon", "coordinates": [[[[4.67196, 52.40945], [4.67438, 52.40647], [4.66882, 52.40416], [4.66866, 52.4014], [4.67869, 52.39948], [4.67857, 52.39851], [4.67563, 52.39725], [4.67346, 52.39407], [4.67454, 52.39091], [4.67772, 52.38974], [4.68119, 52.39029], [4.68144, 52.38992], [4.6826, 52.38822], [4.68692, 52.38744], [4.68597, 52.38402], [4.686, 52.38352], [4.67419, 52.38267], [4.66696, 52.39461], [4.66799, 52.39471], [4.67228, 52.39829], [4.67067, 52.39899], [4.66532, 52.39845], [4.66352, 52.40204], [4.66107, 52.40433], [4.66643, 52.40814], [4.67144, 52.40997], [4.67196, 52.40945]]]]}}, {"type": "Feature", "properties": {"code": "BU03920701", "name": "Oude Amsterdamsebuurt"}, "geometry": {"type": "MultiPolygon", "coordinates": [[[[4.64932, 52.37684], [4.64139, 52.37632], [4.64706, 52.38086], [4.65178, 52.38121], [4.64932, 52.37684]]]]}}, {"type": "Feature", "properties": {"code": "BU03920702", "name": "Potgieterbuurt"}, "geometry": {"type": "MultiPolygon", "coordinates": [[[[4.65467, 52.37997], [4.65074, 52.37672], [4.64932, 52.37684], [4.65178, 52.38121], [4.65614, 52.38146], [4.65624, 52.3807], [4.65467, 52.37997]]]]}}, {"type": "Feature", "properties": {"code": "BU03920703", "name": "Cremerbuurt"}, "geometry": {"type": "MultiPolygon", "coordinates": [[[[4.66043, 52.37891], [4.65467, 52.37997], [4.65624, 52.3807], [4.65614, 52.38146], [4.66099, 52.38175], [4.66043, 52.37891]]]]}}, {"type": "Feature", "properties": {"code": "BU03920704", "name": "Van Zeggelenbuurt"}, "geometry": {"type": "MultiPolygon", "coordinates": [[[[4.66043, 52.37891], [4.65804, 52.37487], [4.65376, 52.37636], [4.65177, 52.37628], [4.65074, 52.37672], [4.65467, 52.37997], [4.66043, 52.37891]]]]}}, {"type": "Feature", "properties": {"code": "BU03920801", "name": "Kruistochtbuurt"}, "geometry": {"type": "MultiPolygon", "coordinates": [[[[4.65074, 52.37672], [4.65177, 52.37628], [4.65229, 52.37392], [4.6489, 52.3738], [4.64253, 52.37366], [4.64273, 52.37406], [4.64139, 52.37632], [4.64932, 52.37684], [4.65074, 52.37672]]]]}}, {"type": "Feature", "properties": {"code": "BU03920802", "name": "Componistenbuurt"}, "geometry": {"type": "MultiPolygon", "coordinates": [[[[4.65804, 52.37487], [4.65463, 52.37089], [4.65229, 52.37392], [4.65177, 52.37628], [4.65376, 52.37636], [4.65804, 52.37487]]]]}}, {"type": "Feature", "properties": {"code": "BU03920803", "name": "Karolingenbuurt"}, "geometry": {"type": "MultiPolygon", "coordinates": [[[[4.64744, 52.37013], [4.6443, 52.3701], [4.6422, 52.37033], [4.63999, 52.37144], [4.64253, 52.37366], [4.6489, 52.3738], [4.64913, 52.37116], [4.64743, 52.37115], [4.64744, 52.37013]]]]}}, {"type": "Feature", "properties": {"code": "BU03920804", "name": "Verzetsliedenbuurt"}, "geometry": {"type": "MultiPolygon", "coordinates": [[[[4.65463, 52.37089], [4.65441, 52.37016], [4.64744, 52.37013], [4.64743, 52.37115], [4.64913, 52.37116], [4.6489, 52.3738], [4.65229, 52.37392], [4.65463, 52.37089]]]]}}, {"type": "Feature", "properties": {"code": "BU03920901", "name": "Architectenbuurt"}, "geometry": {"type": "MultiPolygon", "coordinates": [[[[4.66684, 52.3781], [4.66043, 52.37891], [4.66099, 52.38175], [4.66798, 52.38226], [4.66684, 52.3781]]]]}}, {"type": "Feature", "properties": {"code": "BU03920902", "name": "Zuiderpolder-noord"}, "geometry": {"type": "MultiPolygon", "coordinates": [[[[4.66959, 52.37687], [4.66668, 52.37755], [4.66684, 52.3781], [4.66798, 52.38226], [4.67419, 52.38267], [4.67444, 52.38143], [4.67222, 52.37764], [4.6703, 52.37805], [4.66959, 52.37687]]]]}}, {"type": "Feature", "properties": {"code": "BU03920903", "name": "Buitengebied Zuiderpolder"}, "geometry": {"type": "MultiPolygon", "coordinates": [[[[4.67738, 52.37709], [4.67271, 52.37422], [4.67138, 52.37038], [4.67138, 52.37037], [4.66553, 52.37036], [4.66603, 52.37357], [4.6662, 52.37452], [4.67095, 52.37364], [4.67221, 52.37572], [4.66959, 52.37687], [4.6703, 52.37805], [4.67222, 52.37764], [4.67444, 52.38143], [4.67419, 52.38267], [4.686, 52.38352], [4.67738, 52.37709]]]]}}, {"type": "Feature", "properties": {"code": "BU03920904", "name": "Kunstschildersbuurt"}, "geometry": {"type": "MultiPolygon", "coordinates": [[[[4.66684, 52.3781], [4.66668, 52.37755], [4.6662, 52.37452], [4.66603, 52.37357], [4.65804, 52.37487], [4.66043, 52.37891], [4.66684, 52.3781]]]]}}, {"type": "Feature", "properties": {"code": "BU03920905", "name": "Zuiderpolder-zuid"}, "geometry": {"type": "MultiPolygon", "coordinates": [[[[4.66959, 52.37687], [4.67221, 52.37572], [4.67095, 52.37364], [4.6662, 52.37452], [4.66668, 52.37755], [4.66959, 52.37687]]]]}}, {"type": "Feature", "properties": {"code": "BU03920906", "name": "Reinaldapark"}, "geometry": {"type": "MultiPolygon", "coordinates": [[[[4.66603, 52.37357], [4.66553, 52.37036], [4.65441, 52.37016], [4.65463, 52.37089], [4.65804, 52.37487], [4.66603, 52.37357]]]]}}, {"type": "Feature", "properties": {"code": "BU03921001", "name": "Generaalsbuurt"}, "geometry": {"type": "MultiPolygon", "coordinates": [[[[4.64632, 52.39564], [4.64392, 52.39237], [4.64019, 52.39305], [4.64017, 52.39311], [4.64081, 52.3942], [4.64163, 52.39631], [4.64632, 52.39564]]]]}}, {"type": "Feature", "properties": {"code": "BU03921002", "name": "De Goede Hoop"}, "geometry": {"type": "MultiPolygon", "coordinates": [[[[4.65153, 52.39522], [4.65042, 52.39141], [4.64392, 52.39237], [4.64632, 52.39564], [4.65153, 52.39522]]]]}}, {"type": "Feature", "properties": {"code": "BU03921003", "name": "Nelson Mandelabuurt"}, "geometry": {"type": "MultiPolygon", "coordinates": [[[[4.64392, 52.39237], [4.65042, 52.39141], [4.65004, 52.39014], [4.64065, 52.39092], [4.64019, 52.39305], [4.64392, 52.39237]]]]}}, {"type": "Feature", "properties": {"code": "BU03921004", "name": "Frans Halsbuurt"}, "geometry": {"type": "MultiPolygon", "coordinates": [[[[4.64019, 52.39305], [4.64065, 52.39092], [4.63954, 52.38981], [4.63441, 52.38961], [4.63525, 52.39286], [4.63444, 52.39304], [4.63939, 52.39222], [4.64017, 52.39311], [4.64019, 52.39305]]]]}}, {"type": "Feature", "properties": {"code": "BU03921005", "name": "Patrimoniumbuurt"}, "geometry": {"type": "MultiPolygon", "coordinates": [[[[4.65004, 52.39014], [4.64952, 52.38761], [4.64783, 52.38622], [4.64415, 52.38826], [4.63954, 52.38981], [4.64065, 52.39092], [4.65004, 52.39014]]]]}}, {"type": "Feature", "properties": {"code": "BU03921101", "name": "Medanbuurt"}, "geometry": {"type": "MultiPolygon", "coordinates": [[[[4.65128, 52.40951], [4.65393, 52.40681], [4.65059, 52.40317], [4.64801, 52.40418], [4.64828, 52.40462], [4.65067, 52.40925], [4.65095, 52.40973], [4.65128, 52.40951]]]]}}, {"type": "Feature", "properties": {"code": "BU03921102", "name": "Nieuw-Guineabuurt"}, "geometry": {"type": "MultiPolygon", "coordinates": [[[[4.65632, 52.40563], [4.66107, 52.40433], [4.65503, 52.40173], [4.65059, 52.40317], [4.65393, 52.40681], [4.65632, 52.40563]]]]}}, {"type": "Feature", "properties": {"code": "BU03921103", "name": "Weltevredenbuurt"}, "geometry": {"type": "MultiPolygon", "coordinates": [[[[4.65059, 52.40317], [4.65503, 52.40173], [4.65346, 52.39972], [4.64517, 52.40134], [4.64801, 52.40418], [4.65059, 52.40317]]]]}}, {"type": "Feature", "properties": {"code": "BU03921104", "name": "Molukkenbuurt"}, "geometry": {"type": "MultiPolygon", "coordinates": [[[[4.65346, 52.39972], [4.65233, 52.39767], [4.64431, 52.39932], [4.64517, 52.40134], [4.65346, 52.39972]]]]}}, {"type": "Feature", "properties": {"code": "BU03921105", "name": "Soendabuurt"}, "geometry": {"type": "MultiPolygon", "coordinates": [[[[4.65233, 52.39767], [4.65153, 52.39522], [4.64632, 52.39564], [4.64163, 52.39631], [4.64333, 52.39805], [4.64431, 52.39932], [4.65233, 52.39767]]]]}}, {"type": "Feature", "properties": {"code": "BU03921201", "name": "Bomenbuurt-west"}, "geometry": {"type": "MultiPolygon", "coordinates": [[[[4.63833, 52.40221], [4.63627, 52.39951], [4.63618, 52.39941], [4.62957, 52.40119], [4.6323, 52.40419], [4.63833, 52.40221]]]]}}, {"type": "Feature", "properties": {"code": "BU03921202", "name": "Bomenbuurt-oost"}, "geometry": {"type": "MultiPolygon", "coordinates": [[[[4.64208, 52.40166], [4.64288, 52.40164], [4.64517, 52.40134], [4.64431, 52.39932], [4.64333, 52.39805], [4.63627, 52.39951], [4.63833, 52.40221], [4.64208, 52.40166]]]]}}, {"type": "Feature", "properties": {"code": "BU03921203", "name": "Schoterveenpolder"}, "geometry": {"type": "MultiPolygon", "coordinates": [[[[4.63618, 52.39941], [4.63354, 52.39558], [4.62644, 52.39746], [4.62957, 52.40119], [4.63618, 52.39941]]]]}}, {"type": "Feature", "properties": {"code": "BU03921204", "name": "Kweektuinbuurt"}, "geometry": {"type": "MultiPolygon", "coordinates": [[[[4.64333, 52.39805], [4.64163, 52.39631], [4.64081, 52.3942], [4.63363, 52.39556], [4.63354, 52.39558], [4.63618, 52.39941], [4.63627, 52.39951], [4.64333, 52.39805]]]]}}, {"type": "Feature", "properties": {"code": "BU03921205", "name": "Kleverpark-noord"}, "geometry": {"type": "MultiPolygon", "coordinates": [[[[4.62644, 52.39746], [4.63354, 52.39558], [4.63363, 52.39556], [4.63271, 52.39332], [4.63073, 52.39213], [4.62663, 52.39294], [4.62498, 52.39263], [4.62423, 52.39095], [4.6237, 52.39169], [4.62367, 52.39577], [4.62439, 52.3977], [4.62644, 52.39746]]]]}}, {"type": "Feature", "properties": {"code": "BU03921206", "name": "Ripperdabuurt"}, "geometry": {"type": "MultiPolygon", "coordinates": [[[[4.64081, 52.3942], [4.64017, 52.39311], [4.63939, 52.39222], [4.63444, 52.39304], [4.63271, 52.39332], [4.63363, 52.39556], [4.64081, 52.3942]]]]}}, {"type": "Feature", "properties": {"code": "BU03921207", "name": "Kleverpark-zuid"}, "geometry": {"type": "MultiPolygon", "coordinates": [[[[4.63444, 52.39304], [4.63525, 52.39286], [4.63441, 52.38961], [4.63189, 52.38834], [4.62676, 52.38907], [4.62423, 52.39095], [4.62498, 52.39263], [4.62663, 52.39294], [4.63073, 52.39213], [4.63271, 52.39332], [4.63444, 52.39304]]]]}}, {"type": "Feature", "properties": {"code": "BU03921301", "name": "Noorderhout"}, "geometry": {"type": "MultiPolygon", "coordinates": [[[[4.64481, 52.41333], [4.6482, 52.41189], [4.65095, 52.40973], [4.65067, 52.40925], [4.64451, 52.40743], [4.64078, 52.41064], [4.63729, 52.41212], [4.63938, 52.41451], [4.64481, 52.41333]]]]}}, {"type": "Feature", "properties": {"code": "BU03921302", "name": "Schotervlieland"}, "geometry": {"type": "MultiPolygon", "coordinates": [[[[4.64828, 52.40462], [4.64573, 52.40613], [4.64451, 52.40743], [4.65067, 52.40925], [4.64828, 52.40462]]]]}}, {"type": "Feature", "properties": {"code": "BU03921303", "name": "De Krim"}, "geometry": {"type": "MultiPolygon", "coordinates": [[[[4.63612, 52.41083], [4.63419, 52.40669], [4.6323, 52.40419], [4.62957, 52.40119], [4.62644, 52.39746], [4.62439, 52.3977], [4.62441, 52.39774], [4.62929, 52.40712], [4.63165, 52.41167], [4.63612, 52.41083]]]]}}, {"type": "Feature", "properties": {"code": "BU03921304", "name": "Sinnevelt"}, "geometry": {"type": "MultiPolygon", "coordinates": [[[[4.64451, 52.40743], [4.63915, 52.40526], [4.63419, 52.40669], [4.63612, 52.41083], [4.63729, 52.41212], [4.64078, 52.41064], [4.64451, 52.40743]]]]}}, {"type": "Feature", "properties": {"code": "BU03921305", "name": "Planetenbuurt"}, "geometry": {"type": "MultiPolygon", "coordinates": [[[[4.64573, 52.40613], [4.64341, 52.40388], [4.64288, 52.40164], [4.64208, 52.40166], [4.63915, 52.40526], [4.64451, 52.40743], [4.64573, 52.40613]]]]}}, {"type": "Feature", "properties": {"code": "BU03921306", "name": "Burgemeesterskwartier"}, "geometry": {"type": "MultiPolygon", "coordinates": [[[[4.64828, 52.40462], [4.64801, 52.40418], [4.64517, 52.40134], [4.64288, 52.40164], [4.64341, 52.40388], [4.64573, 52.40613], [4.64828, 52.40462]]]]}}, {"type": "Feature", "properties": {"code": "BU03921307", "name": "Sterrenbuurt"}, "geometry": {"type": "MultiPolygon", "coordinates": [[[[4.63915, 52.40526], [4.64208, 52.40166], [4.63833, 52.40221], [4.6323, 52.40419], [4.63419, 52.40669], [4.63915, 52.40526]]]]}}, {"type": "Feature", "properties": {"code": "BU03921401", "name": "Nachtegaalbuurt"}, "geometry": {"type": "MultiPolygon", "coordinates": [[[[4.65293, 52.41565], [4.65693, 52.41397], [4.65654, 52.41192], [4.65079, 52.41294], [4.64934, 52.41653], [4.65293, 52.41565]]]]}}, {"type": "Feature", "properties": {"code": "BU03921402", "name": "Meeuwenbuurt"}, "geometry": {"type": "MultiPolygon", "coordinates": [[[[4.65654, 52.41192], [4.6567, 52.41043], [4.65128, 52.40951], [4.65095, 52.40973], [4.65079, 52.41294], [4.65654, 52.41192]]]]}}, {"type": "Feature", "properties": {"code": "BU03921403", "name": "Dietsveld"}, "geometry": {"type": "MultiPolygon", "coordinates": [[[[4.65632, 52.40563], [4.65393, 52.40681], [4.65128, 52.40951], [4.6567, 52.41043], [4.65712, 52.40762], [4.65632, 52.40563]]]]}}, {"type": "Feature", "properties": {"code": "BU03921404", "name": "Spaarndammerpolder-zuid"}, "geometry": {"type": "MultiPolygon", "coordinates": [[[[4.66481, 52.41366], [4.67062, 52.41062], [4.67144, 52.40997], [4.66643, 52.40814], [4.66107, 52.40433], [4.65632, 52.40563], [4.65712, 52.40762], [4.6567, 52.41043], [4.65654, 52.41192], [4.65693, 52.41397], [4.65722, 52.41448], [4.66243, 52.41191], [4.66481, 52.41366]]]]}}, {"type": "Feature", "properties": {"code": "BU03921501", "name": "Schrijversbuurt"}, "geometry": {"type": "MultiPolygon", "coordinates": [[[[4.64823, 52.41929], [4.64934, 52.41653], [4.64747, 52.41579], [4.64249, 52.41787], [4.64502, 52.42103], [4.64572, 52.42197], [4.64761, 52.42199], [4.64823, 52.41929]]]]}}, {"type": "Feature", "properties": {"code": "BU03921502", "name": "Van Schendelbuurt"}, "geometry": {"type": "MultiPolygon", "coordinates": [[[[4.64747, 52.41579], [4.64481, 52.41333], [4.63938, 52.41451], [4.64249, 52.41787], [4.64747, 52.41579]]]]}}, {"type": "Feature", "properties": {"code": "BU03921503", "name": "Rivierenbuurt"}, "geometry": {"type": "MultiPolygon", "coordinates": [[[[4.65079, 52.41294], [4.65095, 52.40973], [4.6482, 52.41189], [4.64481, 52.41333], [4.64747, 52.41579], [4.64934, 52.41653], [4.65079, 52.41294]]]]}}, {"type": "Feature", "properties": {"code": "BU03921601", "name": "Van der Aart sportpark"}, "geometry": {"type": "MultiPolygon", "coordinates": [[[[4.65315, 52.428], [4.66283, 52.42585], [4.66485, 52.4256], [4.66562, 52.42549], [4.66381, 52.4244], [4.66537, 52.42384], [4.66289, 52.4221], [4.66053, 52.42294], [4.6567, 52.41972], [4.64849, 52.42251], [4.64761, 52.42199], [4.64572, 52.42197], [4.65077, 52.42857], [4.65315, 52.428]]]]}}, {"type": "Feature", "properties": {"code": "BU03921602", "name": "Hekslootpolder"}, "geometry": {"type": "MultiPolygon", "coordinates": [[[[4.67212, 52.4224], [4.67167, 52.42079], [4.66842, 52.41813], [4.66481, 52.41366], [4.66243, 52.41191], [4.65722, 52.41448], [4.65852, 52.41637], [4.65961, 52.41818], [4.6567, 52.41972], [4.66053, 52.42294], [4.66289, 52.4221], [4.66537, 52.42384], [4.66381, 52.4244], [4.66562, 52.42549], [4.67212, 52.4224]]]]}}, {"type": "Feature", "properties": {"code": "BU03921603", "name": "Roemer Visscherbuurt"}, "geometry": {"type": "MultiPolygon", "coordinates": [[[[4.6567, 52.41972], [4.65961, 52.41818], [4.65852, 52.41637], [4.65501, 52.41812], [4.64823, 52.41929], [4.64761, 52.42199], [4.64849, 52.42251], [4.6567, 52.41972]]]]}}, {"type": "Feature", "properties": {"code": "BU03921604", "name": "Muiderkring"}, "geometry": {"type": "MultiPolygon", "coordinates": [[[[4.65501, 52.41812], [4.65293, 52.41565], [4.64934, 52.41653], [4.64823, 52.41929], [4.65501, 52.41812]]]]}}, {"type": "Feature", "properties": {"code": "BU03921605", "name": "Van Aemstelbuurt"}, "geometry": {"type": "MultiPolygon", "coordinates": [[[[4.65852, 52.41637], [4.65722, 52.41448], [4.65693, 52.41397], [4.65293, 52.41565], [4.65501, 52.41812], [4.65852, 52.41637]]]]}}, {"type": "Feature", "properties": {"code": "BU03921701", "name": "Oude Spaarndammerpolder"}, "geometry": {"type": "MultiPolygon", "coordinates": [[[[4.67437, 52.41863], [4.6775, 52.41896], [4.67743, 52.41785], [4.67462, 52.41705], [4.67391, 52.41551], [4.67491, 52.41483], [4.67062, 52.41062], [4.66481, 52.41366], [4.66842, 52.41813], [4.67167, 52.42079], [4.67212, 52.4224], [4.67437, 52.41863]]]]}}, {"type": "Feature", "properties": {"code": "BU03921702", "name": "Oud Spaarndam"}, "geometry": {"type": "MultiPolygon", "coordinates": [[[[4.6818, 52.41778], [4.68248, 52.41385], [4.68113, 52.41232], [4.67551, 52.40963], [4.67196, 52.40945], [4.67144, 52.40997], [4.67062, 52.41062], [4.67491, 52.41483], [4.67391, 52.41551], [4.67462, 52.41705], [4.67743, 52.41785], [4.6775, 52.41896], [4.68123, 52.41933], [4.68065, 52.41801], [4.6818, 52.41778]]]]}}, {"type": "Feature", "properties": {"code": "BU03921801", "name": "Romolenpolder-west"}, "geometry": {"type": "MultiPolygon", "coordinates": [[[[4.6422, 52.37033], [4.64185, 52.36457], [4.63676, 52.36455], [4.63632, 52.3675], [4.63591, 52.36963], [4.63999, 52.37144], [4.6422, 52.37033]]]]}}, {"type": "Feature", "properties": {"code": "BU03921802", "name": "Kruidenbuurt"}, "geometry": {"type": "MultiPolygon", "coordinates": [[[[4.6443, 52.3701], [4.64452, 52.36894], [4.64924, 52.36688], [4.65034, 52.36456], [4.64237, 52.36459], [4.64185, 52.36457], [4.6422, 52.37033], [4.6443, 52.3701]]]]}}, {"type": "Feature", "properties": {"code": "BU03921803", "name": "Schoolenaer"}, "geometry": {"type": "MultiPolygon", "coordinates": [[[[4.64214, 52.36075], [4.63736, 52.36026], [4.63663, 52.36148], [4.63676, 52.36455], [4.64185, 52.36457], [4.64237, 52.36459], [4.64214, 52.36075]]]]}}, {"type": "Feature", "properties": {"code": "BU03921804", "name": "Landenbuurt"}, "geometry": {"type": "MultiPolygon", "coordinates": [[[[4.65034, 52.36456], [4.65155, 52.36175], [4.6473, 52.36145], [4.64214, 52.36075], [4.64237, 52.36459], [4.65034, 52.36456]]]]}}, {"type": "Feature", "properties": {"code": "BU03921805", "name": "De Eenhoorn"}, "geometry": {"type": "MultiPolygon", "coordinates": [[[[4.64327, 52.35493], [4.64223, 52.35488], [4.63585, 52.35404], [4.63494, 52.35596], [4.63759, 52.35947], [4.63736, 52.36026], [4.64214, 52.36075], [4.64327, 52.35493]]]]}}, {"type": "Feature", "properties": {"code": "BU03921806", "name": "Stedenbuurt-west"}, "geometry": {"type": "MultiPolygon", "coordinates": [[[[4.64848, 52.35507], [4.6444, 52.35494], [4.64327, 52.35493], [4.64214, 52.36075], [4.6473, 52.36145], [4.64848, 52.35507]]]]}}, {"type": "Feature", "properties": {"code": "BU03921807", "name": "Stedenbuurt-oost"}, "geometry": {"type": "MultiPolygon", "coordinates": [[[[4.65215, 52.36027], [4.6532, 52.35644], [4.65288, 52.35553], [4.64848, 52.35507], [4.6473, 52.36145], [4.65155, 52.36175], [4.65215, 52.36027]]]]}}, {"type": "Feature", "properties": {"code": "BU03921901", "name": "Romolenpolder-oost"}, "geometry": {"type": "MultiPolygon", "coordinates": [[[[4.65441, 52.37016], [4.65426, 52.36773], [4.65432, 52.36446], [4.65438, 52.36053], [4.65215, 52.36027], [4.65155, 52.36175], [4.65034, 52.36456], [4.64924, 52.36688], [4.64452, 52.36894], [4.6443, 52.3701], [4.64744, 52.37013], [4.65441, 52.37016]]]]}}, {"type": "Feature", "properties": {"code": "BU03921902", "name": "Boerhaavevaart"}, "geometry": {"type": "MultiPolygon", "coordinates": [[[[4.67138, 52.37037], [4.67209, 52.36816], [4.66611, 52.36782], [4.66403, 52.3678], [4.65426, 52.36773], [4.65441, 52.37016], [4.66553, 52.37036], [4.67138, 52.37037]]]]}}, {"type": "Feature", "properties": {"code": "BU03921903", "name": "Geleerdenbuurt"}, "geometry": {"type": "MultiPolygon", "coordinates": [[[[4.6645, 52.36452], [4.65432, 52.36446], [4.65426, 52.36773], [4.66403, 52.3678], [4.6645, 52.36452]]]]}}, {"type": "Feature", "properties": {"code": "BU03921904", "name": "Professorenbuurt"}, "geometry": {"type": "MultiPolygon", "coordinates": [[[[4.66611, 52.36782], [4.66783, 52.36058], [4.66515, 52.36059], [4.6645, 52.36452], [4.66403, 52.3678], [4.66611, 52.36782]]]]}}, {"type": "Feature", "properties": {"code": "BU03921905", "name": "Poelpolder-noord"}, "geometry": {"type": "MultiPolygon", "coordinates": [[[[4.67524, 52.35947], [4.66783, 52.36058], [4.66611, 52.36782], [4.67209, 52.36816], [4.67524, 52.35947]]]]}}, {"type": "Feature", "properties": {"code": "BU03921906", "name": "Geneesherenbuurt"}, "geometry": {"type": "MultiPolygon", "coordinates": [[[[4.6645, 52.36452], [4.66515, 52.36059], [4.65714, 52.36053], [4.65438, 52.36053], [4.65432, 52.36446], [4.6645, 52.36452]]]]}}, {"type": "Feature", "properties": {"code": "BU03922001", "name": "Zuid-Schalkwijkerweg"}, "geometry": {"type": "MultiPolygon", "coordinates": [[[[4.64833, 52.34765], [4.6506, 52.34568], [4.64931, 52.34311], [4.65166, 52.34156], [4.64763, 52.34007], [4.63965, 52.33891], [4.63938, 52.34063], [4.64103, 52.34399], [4.64032, 52.34556], [4.64039, 52.34983], [4.6398, 52.35091], [4.6366, 52.35318], [4.63585, 52.35404], [4.64223, 52.35488], [4.64181, 52.35188], [4.64359, 52.35035], [4.64601, 52.35032], [4.64833, 52.34765]]]]}}, {"type": "Feature", "properties": {"code": "BU03922002", "name": "Hondsbos-Dever"}, "geometry": {"type": "MultiPolygon", "coordinates": [[[[4.64868, 52.35251], [4.65136, 52.34865], [4.64833, 52.34765], [4.64601, 52.35032], [4.64359, 52.35035], [4.64181, 52.35188], [4.64223, 52.35488], [4.64327, 52.35493], [4.6444, 52.35494], [4.64507, 52.35346], [4.64859, 52.35359], [4.64868, 52.35251]]]]}}, {"type": "Feature", "properties": {"code": "BU03922003", "name": "Waddenbuurt"}, "geometry": {"type": "MultiPolygon", "coordinates": [[[[4.65473, 52.35292], [4.64868, 52.35251], [4.64859, 52.35359], [4.64507, 52.35346], [4.6444, 52.35494], [4.64848, 52.35507], [4.65288, 52.35553], [4.65473, 52.35292]]]]}}, {"type": "Feature", "properties": {"code": "BU03922004", "name": "Ellertsveld"}, "geometry": {"type": "MultiPolygon", "coordinates": [[[[4.65727, 52.35427], [4.66095, 52.35009], [4.65772, 52.348], [4.65712, 52.34816], [4.65566, 52.34978], [4.65473, 52.35292], [4.65288, 52.35553], [4.6532, 52.35644], [4.65726, 52.35653], [4.65727, 52.35427]]]]}}, {"type": "Feature", "properties": {"code": "BU03922005", "name": "De Burgen"}, "geometry": {"type": "MultiPolygon", "coordinates": [[[[4.65566, 52.34978], [4.65136, 52.34865], [4.64868, 52.35251], [4.65473, 52.35292], [4.65566, 52.34978]]]]}}, {"type": "Feature", "properties": {"code": "BU03922006", "name": "Saeftinge-Nemelaar"}, "geometry": {"type": "MultiPolygon", "coordinates": [[[[4.65712, 52.34816], [4.6506, 52.34568], [4.64833, 52.34765], [4.65136, 52.34865], [4.65566, 52.34978], [4.65712, 52.34816]]]]}}, {"type": "Feature", "properties": {"code": "BU03922007", "name": "Molenplas"}, "geometry": {"type": "MultiPolygon", "coordinates": [[[[4.65772, 52.348], [4.66081, 52.34554], [4.65923, 52.34487], [4.65641, 52.34364], [4.65166, 52.34156], [4.64931, 52.34311], [4.6506, 52.34568], [4.65712, 52.34816], [4.65772, 52.348]]]]}}, {"type": "Feature", "properties": {"code": "BU03922101", "name": "Winkelcentrum Schalkwijk"}, "geometry": {"type": "MultiPolygon", "coordinates": [[[[4.65714, 52.36053], [4.65722, 52.35753], [4.65726, 52.35653], [4.6532, 52.35644], [4.65215, 52.36027], [4.65438, 52.36053], [4.65714, 52.36053]]]]}}, {"type": "Feature", "properties": {"code": "BU03922102", "name": "Spijkerboorbuurt"}, "geometry": {"type": "MultiPolygon", "coordinates": [[[[4.66439, 52.3572], [4.65722, 52.35753], [4.65714, 52.36053], [4.66515, 52.36059], [4.66439, 52.3572]]]]}}, {"type": "Feature", "properties": {"code": "BU03922103", "name": "Nobelprijsbuurt"}, "geometry": {"type": "MultiPolygon", "coordinates": [[[[4.66783, 52.36058], [4.6695, 52.35287], [4.6668, 52.3523], [4.66456, 52.35508], [4.66439, 52.3572], [4.66515, 52.36059], [4.66783, 52.36058]]]]}}, {"type": "Feature", "properties": {"code": "BU03922104", "name": "Poelpolder-zuid"}, "geometry": {"type": "MultiPolygon", "coordinates": [[[[4.67524, 52.35947], [4.67647, 52.35618], [4.67563, 52.35288], [4.67148, 52.35015], [4.6695, 52.35287], [4.66783, 52.36058], [4.67524, 52.35947]]]]}}, {"type": "Feature", "properties": {"code": "BU03922105", "name": "Archimedesbuurt"}, "geometry": {"type": "MultiPolygon", "coordinates": [[[[4.66439, 52.3572], [4.66456, 52.35508], [4.65727, 52.35427], [4.65726, 52.35653], [4.65722, 52.35753], [4.66439, 52.3572]]]]}}, {"type": "Feature", "properties": {"code": "BU03922106", "name": "Erasmusbuurt"}, "geometry": {"type": "MultiPolygon", "coordinates": [[[[4.6668, 52.3523], [4.66095, 52.35009], [4.65727, 52.35427], [4.66456, 52.35508], [4.6668, 52.3523]]]]}}, {"type": "Feature", "properties": {"code": "BU03922107", "name": "Meerwijkplas"}, "geometry": {"type": "MultiPolygon", "coordinates": [[[[4.67148, 52.35015], [4.66081, 52.34554], [4.65772, 52.348], [4.66095, 52.35009], [4.6668, 52.3523], [4.6695, 52.35287], [4.67148, 52.35015]]]]}}]}