{"type": "FeatureCollection", "features": [{"type": "Feature", "properties": {"code": "BU03070100", "name": "Hof"}, "geometry": {"type": "MultiPolygon", "coordinates": [[[[5.39122, 52.15806], [5.39308, 52.15721], [5.38951, 52.1554], [5.38638, 52.15803], [5.39122, 52.15806]]]]}}, {"type": "Feature", "properties": {"code": "BU03070101", "name": "Nieuwstraat e.o."}, "geometry": {"type": "MultiPolygon", "coordinates": [[[[5.39188, 52.15417], [5.38951, 52.1554], [5.39308, 52.15721], [5.39188, 52.15417]]]]}}, {"type": "Feature", "properties": {"code": "BU03070102", "name": "Mooierstraat e.o."}, "geometry": {"type": "MultiPolygon", "coordinates": [[[[5.39188, 52.15417], [5.38744, 52.15426], [5.38951, 52.1554], [5.39188, 52.15417]]]]}}, {"type": "Feature", "properties": {"code": "BU03070103", "name": "Lieve Vrouwekerkhof"}, "geometry": {"type": "MultiPolygon", "coordinates": [[[[5.38951, 52.1554], [5.38744, 52.15426], [5.38729, 52.15437], [5.38568, 52.15692], [5.38638, 52.15803], [5.38951, 52.1554]]]]}}, {"type": "Feature", "properties": {"code": "BU03070104", "name": "Coninckstraat e.o."}, "geometry": {"type": "MultiPolygon", "coordinates": [[[[5.3945, 52.16025], [5.39743, 52.15873], [5.39308, 52.15721], [5.39122, 52.15806], [5.38638, 52.15803], [5.38493, 52.15917], [5.3897, 52.16048], [5.3945, 52.16025]]]]}}, {"type": "Feature", "properties": {"code": "BU03070105", "name": "Beestenmarkt"}, "geometry": {"type": "MultiPolygon", "coordinates": [[[[5.39799, 52.15675], [5.39317, 52.15355], [5.39284, 52.15341], [5.39188, 52.15417], [5.39308, 52.15721], [5.39743, 52.15873], [5.39799, 52.15675]]]]}}, {"type": "Feature", "properties": {"code": "BU03070106", "name": "Grote Haag"}, "geometry": {"type": "MultiPolygon", "coordinates": [[[[5.38744, 52.15426], [5.39188, 52.15417], [5.39284, 52.15341], [5.38935, 52.15231], [5.38632, 52.15265], [5.38439, 52.15366], [5.38423, 52.15382], [5.38729, 52.15437], [5.38744, 52.15426]]]]}}, {"type": "Feature", "properties": {"code": "BU03070107", "name": "Stadhuisplein"}, "geometry": {"type": "MultiPolygon", "coordinates": [[[[5.38493, 52.15917], [5.38638, 52.15803], [5.38568, 52.15692], [5.38729, 52.15437], [5.38423, 52.15382], [5.38367, 52.15574], [5.38217, 52.1575], [5.38454, 52.15941], [5.38493, 52.15917]]]]}}, {"type": "Feature", "properties": {"code": "BU03070108", "name": "Schimmelpenninckbuurt"}, "geometry": {"type": "MultiPolygon", "coordinates": [[[[5.38947, 52.16061], [5.3897, 52.16048], [5.38493, 52.15917], [5.38454, 52.15941], [5.38741, 52.16172], [5.38947, 52.16061]]]]}}, {"type": "Feature", "properties": {"code": "BU03070200", "name": "Smallepad e.o."}, "geometry": {"type": "MultiPolygon", "coordinates": [[[[5.38367, 52.15574], [5.37724, 52.15303], [5.37693, 52.15393], [5.38217, 52.1575], [5.38367, 52.15574]]]]}}, {"type": "Feature", "properties": {"code": "BU03070202", "name": "Snouckaertlaan e.o."}, "geometry": {"type": "MultiPolygon", "coordinates": [[[[5.38423, 52.15382], [5.38439, 52.15366], [5.38068, 52.15096], [5.37724, 52.15303], [5.38367, 52.15574], [5.38423, 52.15382]]]]}}, {"type": "Feature", "properties": {"code": "BU03070204", "name": "Zonnehof"}, "geometry": {"type": "MultiPolygon", "coordinates": [[[[5.38632, 52.15265], [5.38483, 52.15022], [5.384, 52.14895], [5.38068, 52.15096], [5.38439, 52.15366], [5.38632, 52.15265]]]]}}, {"type": "Feature", "properties": {"code": "BU03070300", "name": "Rivierenbuurt-Oost"}, "geometry": {"type": "MultiPolygon", "coordinates": [[[[5.37052, 52.16262], [5.37344, 52.1616], [5.37532, 52.15833], [5.37059, 52.15911], [5.36352, 52.16026], [5.36515, 52.16381], [5.37052, 52.16262]]]]}}, {"type": "Feature", "properties": {"code": "BU03070301", "name": "Rivierenbuurt-West"}, "geometry": {"type": "MultiPolygon", "coordinates": [[[[5.36515, 52.16381], [5.36352, 52.16026], [5.36037, 52.16079], [5.35803, 52.16124], [5.35793, 52.16472], [5.36515, 52.16381]]]]}}, {"type": "Feature", "properties": {"code": "BU03070302", "name": "Gerrit van Stellingwerfstraat e.o."}, "geometry": {"type": "MultiPolygon", "coordinates": [[[[5.37532, 52.15833], [5.3788, 52.15566], [5.37507, 52.15543], [5.36979, 52.15716], [5.37059, 52.15911], [5.37532, 52.15833]]]]}}, {"type": "Feature", "properties": {"code": "BU03070303", "name": "Bloemenbuurt-Oost"}, "geometry": {"type": "MultiPolygon", "coordinates": [[[[5.36352, 52.16026], [5.37059, 52.15911], [5.36979, 52.15716], [5.37507, 52.15543], [5.37238, 52.15546], [5.36739, 52.15605], [5.36755, 52.1567], [5.36606, 52.15721], [5.35976, 52.15791], [5.36037, 52.16079], [5.36352, 52.16026]]]]}}, {"type": "Feature", "properties": {"code": "BU03070304", "name": "Bloemenbuurt-West"}, "geometry": {"type": "MultiPolygon", "coordinates": [[[[5.36037, 52.16079], [5.35976, 52.15791], [5.35402, 52.15776], [5.35017, 52.15985], [5.35204, 52.15949], [5.35163, 52.16057], [5.35803, 52.16124], [5.36037, 52.16079]]]]}}, {"type": "Feature", "properties": {"code": "BU03070305", "name": "Bomenbuurt"}, "geometry": {"type": "MultiPolygon", "coordinates": [[[[5.35803, 52.16124], [5.35163, 52.16057], [5.35204, 52.15949], [5.35017, 52.15985], [5.34956, 52.16012], [5.34719, 52.16183], [5.35182, 52.16396], [5.35793, 52.16472], [5.35803, 52.16124]]]]}}, {"type": "Feature", "properties": {"code": "BU03070306", "name": "Puntenburg"}, "geometry": {"type": "MultiPolygon", "coordinates": [[[[5.37764, 52.15977], [5.38004, 52.15858], [5.3788, 52.15566], [5.37532, 52.15833], [5.37344, 52.1616], [5.37764, 52.15977]]]]}}, {"type": "Feature", "properties": {"code": "BU03070307", "name": "Piet Mondriaanlaan e.o."}, "geometry": {"type": "MultiPolygon", "coordinates": [[[[5.38217, 52.1575], [5.37693, 52.15393], [5.37244, 52.15413], [5.37238, 52.15546], [5.37507, 52.15543], [5.3788, 52.15566], [5.38004, 52.15858], [5.38217, 52.1575]]]]}}, {"type": "Feature", "properties": {"code": "BU03070308", "name": "Wagenwerkplaats"}, "geometry": {"type": "MultiPolygon", "coordinates": [[[[5.36606, 52.15721], [5.36755, 52.1567], [5.36739, 52.15605], [5.37238, 52.15546], [5.37244, 52.15413], [5.36859, 52.15394], [5.36128, 52.15535], [5.35402, 52.15776], [5.35976, 52.15791], [5.36606, 52.15721]]]]}}, {"type": "Feature", "properties": {"code": "BU03070309", "name": "Spooremplacement"}, "geometry": {"type": "MultiPolygon", "coordinates": [[[[5.35017, 52.15985], [5.35402, 52.15776], [5.36128, 52.15535], [5.36859, 52.15394], [5.35999, 52.1529], [5.35582, 52.15365], [5.3488, 52.15941], [5.34956, 52.16012], [5.35017, 52.15985]]]]}}, {"type": "Feature", "properties": {"code": "BU03070401", "name": "Eemplein-Nieuwe Stad"}, "geometry": {"type": "MultiPolygon", "coordinates": [[[[5.38454, 52.15941], [5.38217, 52.1575], [5.38004, 52.15858], [5.37764, 52.15977], [5.37883, 52.16205], [5.38454, 52.15941]]]]}}, {"type": "Feature", "properties": {"code": "BU03070402", "name": "Kop van Isselt"}, "geometry": {"type": "MultiPolygon", "coordinates": [[[[5.37675, 52.16507], [5.37727, 52.16278], [5.37883, 52.16205], [5.37764, 52.15977], [5.37344, 52.1616], [5.37052, 52.16262], [5.37454, 52.16586], [5.37675, 52.16507]]]]}}, {"type": "Feature", "properties": {"code": "BU03070504", "name": "Isselt-Oost"}, "geometry": {"type": "MultiPolygon", "coordinates": [[[[5.37454, 52.16586], [5.37052, 52.16262], [5.36515, 52.16381], [5.35793, 52.16472], [5.35878, 52.16756], [5.36177, 52.17158], [5.37454, 52.16586]]]]}}, {"type": "Feature", "properties": {"code": "BU03070505", "name": "Isselt-West"}, "geometry": {"type": "MultiPolygon", "coordinates": [[[[5.36177, 52.17158], [5.35878, 52.16756], [5.35793, 52.16472], [5.35182, 52.16396], [5.34719, 52.16183], [5.34467, 52.16363], [5.34761, 52.17073], [5.34688, 52.17168], [5.34731, 52.17279], [5.34868, 52.17295], [5.34851, 52.17353], [5.34993, 52.17386], [5.3491, 52.17468], [5.3499, 52.17561], [5.36177, 52.17158]]]]}}, {"type": "Feature", "properties": {"code": "BU03070600", "name": "Jericho / Jeruzalem"}, "geometry": {"type": "MultiPolygon", "coordinates": [[[[5.38683, 52.16212], [5.3854, 52.16181], [5.38292, 52.16258], [5.37909, 52.16252], [5.37883, 52.16205], [5.37727, 52.16278], [5.37675, 52.16507], [5.38049, 52.16548], [5.38683, 52.16212]]]]}}, {"type": "Feature", "properties": {"code": "BU03070601", "name": "Sterrenbeeldenbuurt"}, "geometry": {"type": "MultiPolygon", "coordinates": [[[[5.39405, 52.16753], [5.39453, 52.16735], [5.38741, 52.16172], [5.38683, 52.16212], [5.38049, 52.16548], [5.38498, 52.16667], [5.39001, 52.16788], [5.39405, 52.16753]]]]}}, {"type": "Feature", "properties": {"code": "BU03070603", "name": "Gildekwartier"}, "geometry": {"type": "MultiPolygon", "coordinates": [[[[5.3854, 52.16181], [5.38683, 52.16212], [5.38741, 52.16172], [5.38454, 52.15941], [5.37883, 52.16205], [5.37909, 52.16252], [5.38292, 52.16258], [5.3854, 52.16181]]]]}}, {"type": "Feature", "properties": {"code": "BU03070700", "name": "Kruiskamp-Noord"}, "geometry": {"type": "MultiPolygon", "coordinates": [[[[5.39872, 52.16562], [5.39498, 52.16166], [5.38947, 52.16061], [5.38741, 52.16172], [5.39453, 52.16735], [5.39872, 52.16562]]]]}}, {"type": "Feature", "properties": {"code": "BU03070701", "name": "Kruiskamp-Midden"}, "geometry": {"type": "MultiPolygon", "coordinates": [[[[5.40372, 52.16348], [5.39854, 52.16043], [5.39743, 52.15873], [5.3945, 52.16025], [5.3897, 52.16048], [5.38947, 52.16061], [5.39498, 52.16166], [5.39872, 52.16562], [5.40372, 52.16348]]]]}}, {"type": "Feature", "properties": {"code": "BU03070702", "name": "Kruiskamp-Zuid"}, "geometry": {"type": "MultiPolygon", "coordinates": [[[[5.40502, 52.16046], [5.40615, 52.15803], [5.4011, 52.15719], [5.39799, 52.15675], [5.39743, 52.15873], [5.39854, 52.16043], [5.40372, 52.16348], [5.40502, 52.16046]]]]}}, {"type": "Feature", "properties": {"code": "BU03070800", "name": "Vuurtoren"}, "geometry": {"type": "MultiPolygon", "coordinates": [[[[5.38498, 52.16667], [5.38049, 52.16548], [5.37675, 52.16507], [5.37454, 52.16586], [5.37552, 52.16631], [5.37551, 52.16802], [5.37392, 52.16976], [5.38188, 52.17114], [5.38498, 52.16667]]]]}}, {"type": "Feature", "properties": {"code": "BU03070801", "name": "De Plaatsen"}, "geometry": {"type": "MultiPolygon", "coordinates": [[[[5.39063, 52.17267], [5.39001, 52.16788], [5.38498, 52.16667], [5.38188, 52.17114], [5.38698, 52.17238], [5.39068, 52.1728], [5.39063, 52.17267]]]]}}, {"type": "Feature", "properties": {"code": "BU03070803", "name": "Koperhorst"}, "geometry": {"type": "MultiPolygon", "coordinates": [[[[5.39793, 52.17233], [5.39811, 52.17092], [5.39405, 52.16753], [5.39001, 52.16788], [5.39063, 52.17267], [5.39793, 52.17233]]]]}}, {"type": "Feature", "properties": {"code": "BU03070900", "name": "Elly Takmastraat e.o."}, "geometry": {"type": "MultiPolygon", "coordinates": [[[[5.38698, 52.17238], [5.38188, 52.17114], [5.37392, 52.16976], [5.3764, 52.17358], [5.38289, 52.17502], [5.38698, 52.17238]]]]}}, {"type": "Feature", "properties": {"code": "BU03070902", "name": "Camera Obscurastraat e.o."}, "geometry": {"type": "MultiPolygon", "coordinates": [[[[5.39079, 52.17688], [5.39068, 52.1728], [5.38698, 52.17238], [5.38289, 52.17502], [5.38413, 52.17683], [5.38703, 52.17772], [5.39079, 52.17688]]]]}}, {"type": "Feature", "properties": {"code": "BU03070903", "name": "Queekhoven e.o."}, "geometry": {"type": "MultiPolygon", "coordinates": [[[[5.4006, 52.17273], [5.39811, 52.17092], [5.39793, 52.17233], [5.39063, 52.17267], [5.39068, 52.1728], [5.39079, 52.17688], [5.39473, 52.17679], [5.39796, 52.17779], [5.4006, 52.17273]]]]}}, {"type": "Feature", "properties": {"code": "BU03070905", "name": "Het Gein"}, "geometry": {"type": "MultiPolygon", "coordinates": [[[[5.40186, 52.17793], [5.40353, 52.17713], [5.40505, 52.17565], [5.4006, 52.17273], [5.39796, 52.17779], [5.40186, 52.17793]]]]}}, {"type": "Feature", "properties": {"code": "BU03070906", "name": "Park Schothorst"}, "geometry": {"type": "MultiPolygon", "coordinates": [[[[5.38494, 52.18368], [5.3918, 52.18194], [5.39312, 52.18461], [5.3963, 52.18574], [5.39706, 52.18521], [5.39602, 52.18339], [5.39441, 52.18263], [5.39399, 52.18101], [5.3949, 52.17815], [5.39782, 52.1784], [5.39796, 52.17779], [5.39473, 52.17679], [5.39079, 52.17688], [5.38703, 52.17772], [5.38413, 52.17683], [5.38289, 52.17502], [5.3764, 52.17358], [5.37628, 52.17474], [5.37981, 52.18071], [5.38332, 52.18285], [5.3831, 52.18402], [5.38046, 52.18533], [5.38453, 52.1871], [5.38286, 52.18465], [5.38494, 52.18368]]]]}}, {"type": "Feature", "properties": {"code": "BU03071000", "name": "Liendert-Noord"}, "geometry": {"type": "MultiPolygon", "coordinates": [[[[5.40386, 52.17167], [5.40286, 52.16903], [5.39872, 52.16562], [5.39453, 52.16735], [5.39926, 52.17058], [5.4043, 52.17213], [5.40386, 52.17167]]]]}}, {"type": "Feature", "properties": {"code": "BU03071001", "name": "Zangvogelbuurt"}, "geometry": {"type": "MultiPolygon", "coordinates": [[[[5.40829, 52.16696], [5.4089, 52.16553], [5.40372, 52.16348], [5.39872, 52.16562], [5.40286, 52.16903], [5.40829, 52.16696]]]]}}, {"type": "Feature", "properties": {"code": "BU03071002", "name": "De Horsten"}, "geometry": {"type": "MultiPolygon", "coordinates": [[[[5.40996, 52.16929], [5.41143, 52.16591], [5.4089, 52.16553], [5.40829, 52.16696], [5.40286, 52.16903], [5.40386, 52.17167], [5.40996, 52.16929]]]]}}, {"type": "Feature", "properties": {"code": "BU03071003", "name": "Watervogelbuurt"}, "geometry": {"type": "MultiPolygon", "coordinates": [[[[5.41244, 52.16558], [5.41334, 52.16329], [5.4124, 52.16193], [5.40502, 52.16046], [5.40372, 52.16348], [5.4089, 52.16553], [5.41143, 52.16591], [5.41244, 52.16558]]]]}}, {"type": "Feature", "properties": {"code": "BU03071004", "name": "Liendert-Zuid"}, "geometry": {"type": "MultiPolygon", "coordinates": [[[[5.41584, 52.16027], [5.40615, 52.15803], [5.40502, 52.16046], [5.4124, 52.16193], [5.41584, 52.16027]]]]}}, {"type": "Feature", "properties": {"code": "BU03071100", "name": "Rustenburg-Noord"}, "geometry": {"type": "MultiPolygon", "coordinates": [[[[5.41067, 52.17236], [5.42271, 52.1705], [5.42367, 52.17035], [5.42338, 52.16972], [5.41143, 52.16591], [5.40996, 52.16929], [5.40386, 52.17167], [5.4043, 52.17213], [5.41067, 52.17236]]]]}}, {"type": "Feature", "properties": {"code": "BU03071101", "name": "Rustenburg-Zuid"}, "geometry": {"type": "MultiPolygon", "coordinates": [[[[5.41975, 52.16132], [5.41584, 52.16027], [5.4124, 52.16193], [5.41334, 52.16329], [5.41244, 52.16558], [5.41143, 52.16591], [5.42338, 52.16972], [5.41975, 52.16132]]]]}}, {"type": "Feature", "properties": {"code": "BU03071201", "name": "Bloeidaal"}, "geometry": {"type": "MultiPolygon", "coordinates": [[[[5.44607, 52.16728], [5.44844, 52.16711], [5.44868, 52.16166], [5.44698, 52.15954], [5.44496, 52.1599], [5.44246, 52.16145], [5.43895, 52.16139], [5.43194, 52.15876], [5.42355, 52.15762], [5.41784, 52.15479], [5.41725, 52.15459], [5.41975, 52.16132], [5.42548, 52.16287], [5.43397, 52.16694], [5.43455, 52.1686], [5.44607, 52.16728]]]]}}, {"type": "Feature", "properties": {"code": "BU03071202", "name": "Stoutenburg-Noord"}, "geometry": {"type": "MultiPolygon", "coordinates": [[[[5.45762, 52.16708], [5.46963, 52.16621], [5.47992, 52.16582], [5.47895, 52.16474], [5.47551, 52.16438], [5.47327, 52.16326], [5.47243, 52.16285], [5.47287, 52.16185], [5.47552, 52.16216], [5.4792, 52.16136], [5.48212, 52.1598], [5.48201, 52.15955], [5.4815, 52.1583], [5.48432, 52.15806], [5.48407, 52.15535], [5.48377, 52.15398], [5.48134, 52.1505], [5.47675, 52.15222], [5.46986, 52.15285], [5.45958, 52.15288], [5.45595, 52.15435], [5.44698, 52.15954], [5.44868, 52.16166], [5.44844, 52.16711], [5.44607, 52.16728], [5.44636, 52.16779], [5.44654, 52.16802], [5.45762, 52.16708]]]]}}, {"type": "Feature", "properties": {"code": "BU03071203", "name": "De Wieken"}, "geometry": {"type": "MultiPolygon", "coordinates": [[[[5.43455, 52.1686], [5.43397, 52.16694], [5.42548, 52.16287], [5.41975, 52.16132], [5.42338, 52.16972], [5.42367, 52.17035], [5.43455, 52.1686]]]]}}, {"type": "Feature", "properties": {"code": "BU03071204", "name": "Vinkenhoef"}, "geometry": {"type": "MultiPolygon", "coordinates": [[[[5.44145, 52.16921], [5.44636, 52.16779], [5.44607, 52.16728], [5.43455, 52.1686], [5.42367, 52.17035], [5.42836, 52.17572], [5.44145, 52.16921]]]]}}, {"type": "Feature", "properties": {"code": "BU03071205", "name": "Nijkerkerstraat e.o."}, "geometry": {"type": "MultiPolygon", "coordinates": [[[[5.43904, 52.18413], [5.44009, 52.17338], [5.43892, 52.17292], [5.43988, 52.1712], [5.44359, 52.16883], [5.44654, 52.16802], [5.44636, 52.16779], [5.44145, 52.16921], [5.42836, 52.17572], [5.43753, 52.18457], [5.43809, 52.18459], [5.43904, 52.18413]]]]}}, {"type": "Feature", "properties": {"code": "BU03071300", "name": "Schuilenburg-Midden"}, "geometry": {"type": "MultiPolygon", "coordinates": [[[[5.41454, 52.15382], [5.41002, 52.15311], [5.40807, 52.15413], [5.40679, 52.15679], [5.41263, 52.158], [5.41454, 52.15382]]]]}}, {"type": "Feature", "properties": {"code": "BU03071301", "name": "Schuilenburg-Noord"}, "geometry": {"type": "MultiPolygon", "coordinates": [[[[5.41725, 52.15459], [5.41454, 52.15382], [5.41263, 52.158], [5.40679, 52.15679], [5.40615, 52.15803], [5.41584, 52.16027], [5.41975, 52.16132], [5.41725, 52.15459]]]]}}, {"type": "Feature", "properties": {"code": "BU03071302", "name": "Schuilenburg-Zuid"}, "geometry": {"type": "MultiPolygon", "coordinates": [[[[5.41621, 52.15092], [5.41401, 52.14831], [5.41023, 52.14991], [5.40916, 52.15252], [5.40807, 52.15413], [5.41002, 52.15311], [5.41454, 52.15382], [5.41725, 52.15459], [5.41784, 52.15479], [5.41621, 52.15092]]]]}}, {"type": "Feature", "properties": {"code": "BU03071400", "name": "Willem III"}, "geometry": {"type": "MultiPolygon", "coordinates": [[[[5.40147, 52.15604], [5.40369, 52.15592], [5.40401, 52.15469], [5.40266, 52.15304], [5.39924, 52.15274], [5.39782, 52.1536], [5.39621, 52.15264], [5.39317, 52.15355], [5.39799, 52.15675], [5.4011, 52.15719], [5.40147, 52.15604]]]]}}, {"type": "Feature", "properties": {"code": "BU03071401", "name": "Componistenbuurt-Noord"}, "geometry": {"type": "MultiPolygon", "coordinates": [[[[5.40679, 52.15679], [5.40807, 52.15413], [5.40916, 52.15252], [5.40801, 52.15221], [5.40197, 52.15115], [5.39579, 52.15142], [5.39621, 52.15264], [5.39782, 52.1536], [5.39924, 52.15274], [5.40266, 52.15304], [5.40401, 52.15469], [5.40369, 52.15592], [5.40147, 52.15604], [5.4011, 52.15719], [5.40615, 52.15803], [5.40679, 52.15679]]]]}}, {"type": "Feature", "properties": {"code": "BU03071402", "name": "Componistenbuurt-Midden"}, "geometry": {"type": "MultiPolygon", "coordinates": [[[[5.40698, 52.15037], [5.39975, 52.14705], [5.39551, 52.1501], [5.39579, 52.15142], [5.40197, 52.15115], [5.40801, 52.15221], [5.40698, 52.15037]]]]}}, {"type": "Feature", "properties": {"code": "BU03071403", "name": "Componistenbuurt-Zuid"}, "geometry": {"type": "MultiPolygon", "coordinates": [[[[5.41023, 52.14991], [5.41401, 52.14831], [5.41377, 52.14803], [5.40834, 52.14265], [5.40939, 52.14039], [5.40756, 52.14196], [5.4054, 52.13981], [5.40046, 52.14478], [5.39975, 52.14705], [5.40698, 52.15037], [5.40801, 52.15221], [5.40916, 52.15252], [5.41023, 52.14991]]]]}}, {"type": "Feature", "properties": {"code": "BU03071500", "name": "Bekenstein / De Luiaard"}, "geometry": {"type": "MultiPolygon", "coordinates": [[[[5.39621, 52.15264], [5.39579, 52.15142], [5.39187, 52.15105], [5.38678, 52.14983], [5.38483, 52.15022], [5.38632, 52.15265], [5.38935, 52.15231], [5.39284, 52.15341], [5.39317, 52.15355], [5.39621, 52.15264]]]]}}, {"type": "Feature", "properties": {"code": "BU03071501", "name": "Vermeerkwartier-Oost"}, "geometry": {"type": "MultiPolygon", "coordinates": [[[[5.39975, 52.14705], [5.3976, 52.14408], [5.39928, 52.1426], [5.39434, 52.14207], [5.39079, 52.1449], [5.39212, 52.14677], [5.39187, 52.15105], [5.39579, 52.15142], [5.39551, 52.1501], [5.39975, 52.14705]]]]}}, {"type": "Feature", "properties": {"code": "BU03071502", "name": "Vermeerkwartier-West"}, "geometry": {"type": "MultiPolygon", "coordinates": [[[[5.39212, 52.14677], [5.39079, 52.1449], [5.384, 52.14895], [5.38483, 52.15022], [5.38678, 52.14983], [5.39187, 52.15105], [5.39212, 52.14677]]]]}}, {"type": "Feature", "properties": {"code": "BU03071503", "name": "Dorrestein"}, "geometry": {"type": "MultiPolygon", "coordinates": [[[[5.40046, 52.14478], [5.4054, 52.13981], [5.4001, 52.13572], [5.39543, 52.14087], [5.39434, 52.14207], [5.39928, 52.1426], [5.3976, 52.14408], [5.39975, 52.14705], [5.40046, 52.14478]]]]}}, {"type": "Feature", "properties": {"code": "BU03071600", "name": "De Driehoek"}, "geometry": {"type": "MultiPolygon", "coordinates": [[[[5.39079, 52.1449], [5.38534, 52.1438], [5.38143, 52.14473], [5.38381, 52.14863], [5.384, 52.14895], [5.39079, 52.1449]]]]}}, {"type": "Feature", "properties": {"code": "BU03071601", "name": "Leusderkwartier-West"}, "geometry": {"type": "MultiPolygon", "coordinates": [[[[5.38534, 52.1438], [5.38326, 52.13956], [5.38256, 52.13742], [5.37944, 52.13603], [5.37608, 52.13686], [5.37731, 52.13969], [5.38143, 52.14473], [5.38534, 52.1438]]]]}}, {"type": "Feature", "properties": {"code": "BU03071602", "name": "Leusderkwartier-Oost"}, "geometry": {"type": "MultiPolygon", "coordinates": [[[[5.39434, 52.14207], [5.39543, 52.14087], [5.38718, 52.13864], [5.38573, 52.14019], [5.38326, 52.13956], [5.38534, 52.1438], [5.39079, 52.1449], [5.39434, 52.14207]]]]}}, {"type": "Feature", "properties": {"code": "BU03071603", "name": "Nimmerdor"}, "geometry": {"type": "MultiPolygon", "coordinates": [[[[5.4001, 52.13572], [5.40008, 52.13571], [5.39807, 52.13355], [5.39713, 52.13395], [5.38434, 52.13174], [5.37439, 52.13099], [5.37222, 52.13236], [5.37361, 52.13312], [5.37608, 52.13686], [5.37944, 52.13603], [5.38256, 52.13742], [5.38326, 52.13956], [5.38573, 52.14019], [5.38718, 52.13864], [5.39543, 52.14087], [5.4001, 52.13572]]]]}}, {"type": "Feature", "properties": {"code": "BU03071700", "name": "Westerstraat e.o."}, "geometry": {"type": "MultiPolygon", "coordinates": [[[[5.384, 52.14895], [5.38381, 52.14863], [5.37834, 52.14938], [5.37839, 52.14996], [5.38009, 52.15063], [5.38068, 52.15096], [5.384, 52.14895]]]]}}, {"type": "Feature", "properties": {"code": "BU03071701", "name": "Juliana van Stolberg"}, "geometry": {"type": "MultiPolygon", "coordinates": [[[[5.38381, 52.14863], [5.38143, 52.14473], [5.37591, 52.14613], [5.37834, 52.14938], [5.38381, 52.14863]]]]}}, {"type": "Feature", "properties": {"code": "BU03071702", "name": "Huijgenslaan e.o."}, "geometry": {"type": "MultiPolygon", "coordinates": [[[[5.37834, 52.14938], [5.37591, 52.14613], [5.37308, 52.14599], [5.36936, 52.14492], [5.36815, 52.14516], [5.37404, 52.1488], [5.37839, 52.14996], [5.37834, 52.14938]]]]}}, {"type": "Feature", "properties": {"code": "BU03071703", "name": "De Lichtenberg"}, "geometry": {"type": "MultiPolygon", "coordinates": [[[[5.37587, 52.1405], [5.37104, 52.14198], [5.36746, 52.14472], [5.36815, 52.14516], [5.36936, 52.14492], [5.37308, 52.14599], [5.37591, 52.14613], [5.37587, 52.1405]]]]}}, {"type": "Feature", "properties": {"code": "BU03071704", "name": "Verhoevenstraat e.o."}, "geometry": {"type": "MultiPolygon", "coordinates": [[[[5.38143, 52.14473], [5.37731, 52.13969], [5.3757, 52.1401], [5.37587, 52.1405], [5.37591, 52.14613], [5.38143, 52.14473]]]]}}, {"type": "Feature", "properties": {"code": "BU03071705", "name": "Indische Buurt"}, "geometry": {"type": "MultiPolygon", "coordinates": [[[[5.37731, 52.13969], [5.37608, 52.13686], [5.37361, 52.13312], [5.36815, 52.13464], [5.36851, 52.13495], [5.3757, 52.1401], [5.37731, 52.13969]]]]}}, {"type": "Feature", "properties": {"code": "BU03071706", "name": "Klein Zwitserland-Laag"}, "geometry": {"type": "MultiPolygon", "coordinates": [[[[5.37587, 52.1405], [5.3757, 52.1401], [5.36851, 52.13495], [5.36629, 52.13628], [5.36572, 52.13785], [5.37115, 52.13982], [5.37104, 52.14198], [5.37587, 52.1405]]]]}}, {"type": "Feature", "properties": {"code": "BU03071707", "name": "Klein Zwitserland-Hoog"}, "geometry": {"type": "MultiPolygon", "coordinates": [[[[5.37104, 52.14198], [5.37115, 52.13982], [5.36572, 52.13785], [5.36629, 52.13628], [5.36851, 52.13495], [5.36815, 52.13464], [5.35951, 52.13791], [5.36011, 52.1391], [5.35865, 52.14102], [5.36331, 52.14245], [5.36746, 52.14472], [5.37104, 52.14198]]]]}}, {"type": "Feature", "properties": {"code": "BU03071800", "name": "Regentesselaan e.o."}, "geometry": {"type": "MultiPolygon", "coordinates": [[[[5.37567, 52.15283], [5.38009, 52.15063], [5.37839, 52.14996], [5.37404, 52.1488], [5.36815, 52.14516], [5.36836, 52.14826], [5.37322, 52.15274], [5.37567, 52.15283]]]]}}, {"type": "Feature", "properties": {"code": "BU03071801", "name": "Stationsbuurt"}, "geometry": {"type": "MultiPolygon", "coordinates": [[[[5.37693, 52.15393], [5.37724, 52.15303], [5.38068, 52.15096], [5.38009, 52.15063], [5.37567, 52.15283], [5.37322, 52.15274], [5.36369, 52.15263], [5.3629, 52.15319], [5.3597, 52.15255], [5.35953, 52.15276], [5.35999, 52.1529], [5.36859, 52.15394], [5.37244, 52.15413], [5.37693, 52.15393]]]]}}, {"type": "Feature", "properties": {"code": "BU03071802", "name": "Staatsliedenbuurt-Oost"}, "geometry": {"type": "MultiPolygon", "coordinates": [[[[5.36369, 52.15263], [5.37322, 52.15274], [5.36836, 52.14826], [5.36399, 52.14977], [5.3597, 52.15255], [5.3629, 52.15319], [5.36369, 52.15263]]]]}}, {"type": "Feature", "properties": {"code": "BU03071803", "name": "Staatsliedenbuurt-West"}, "geometry": {"type": "MultiPolygon", "coordinates": [[[[5.3597, 52.15255], [5.36399, 52.14977], [5.36836, 52.14826], [5.3555, 52.14574], [5.35415, 52.14634], [5.35244, 52.15019], [5.35953, 52.15276], [5.3597, 52.15255]]]]}}, {"type": "Feature", "properties": {"code": "BU03071804", "name": "Oranjebuurt"}, "geometry": {"type": "MultiPolygon", "coordinates": [[[[5.36815, 52.14516], [5.36746, 52.14472], [5.36331, 52.14245], [5.35865, 52.14102], [5.35517, 52.14146], [5.3555, 52.14574], [5.36836, 52.14826], [5.36815, 52.14516]]]]}}, {"type": "Feature", "properties": {"code": "BU03071900", "name": "De Ham"}, "geometry": {"type": "MultiPolygon", "coordinates": [[[[5.3831, 52.18402], [5.38332, 52.18285], [5.37981, 52.18071], [5.37628, 52.17474], [5.37523, 52.17918], [5.37208, 52.18174], [5.37455, 52.18483], [5.38046, 52.18533], [5.3831, 52.18402]]]]}}, {"type": "Feature", "properties": {"code": "BU03071901", "name": "Langenoord"}, "geometry": {"type": "MultiPolygon", "coordinates": [[[[5.38506, 52.19065], [5.38453, 52.1871], [5.38046, 52.18533], [5.37455, 52.18483], [5.37632, 52.18708], [5.37955, 52.18924], [5.38081, 52.19227], [5.38506, 52.19065]]]]}}, {"type": "Feature", "properties": {"code": "BU03071902", "name": "Bieshaar-Noord"}, "geometry": {"type": "MultiPolygon", "coordinates": [[[[5.38081, 52.19227], [5.37955, 52.18924], [5.37632, 52.18708], [5.37541, 52.18818], [5.36791, 52.18792], [5.36808, 52.19265], [5.38122, 52.19305], [5.38081, 52.19227]]]]}}, {"type": "Feature", "properties": {"code": "BU03071903", "name": "Bieshaar-Zuid"}, "geometry": {"type": "MultiPolygon", "coordinates": [[[[5.37632, 52.18708], [5.37455, 52.18483], [5.37208, 52.18174], [5.36967, 52.18158], [5.36791, 52.18792], [5.37541, 52.18818], [5.37632, 52.18708]]]]}}, {"type": "Feature", "properties": {"code": "BU03071904", "name": "De Bik"}, "geometry": {"type": "MultiPolygon", "coordinates": [[[[5.37523, 52.17918], [5.37628, 52.17474], [5.3764, 52.17358], [5.37392, 52.16976], [5.36833, 52.17536], [5.36967, 52.18158], [5.37208, 52.18174], [5.37523, 52.17918]]]]}}, {"type": "Feature", "properties": {"code": "BU03071905", "name": "De Brinken"}, "geometry": {"type": "MultiPolygon", "coordinates": [[[[5.38692, 52.195], [5.38489, 52.1935], [5.3875, 52.19168], [5.38506, 52.19065], [5.38081, 52.19227], [5.38122, 52.19305], [5.38032, 52.1943], [5.38348, 52.19506], [5.38692, 52.195]]]]}}, {"type": "Feature", "properties": {"code": "BU03071906", "name": "De Biezen"}, "geometry": {"type": "MultiPolygon", "coordinates": [[[[5.38122, 52.19305], [5.36808, 52.19265], [5.3679, 52.19407], [5.37602, 52.19372], [5.38032, 52.1943], [5.38122, 52.19305]]]]}}, {"type": "Feature", "properties": {"code": "BU03072000", "name": "Vlinderbuurt"}, "geometry": {"type": "MultiPolygon", "coordinates": [[[[5.40458, 52.18728], [5.40915, 52.18729], [5.41089, 52.18787], [5.41229, 52.1863], [5.41213, 52.18365], [5.4082, 52.18353], [5.40445, 52.18629], [5.40203, 52.18714], [5.40354, 52.18794], [5.40458, 52.18728]]]]}}, {"type": "Feature", "properties": {"code": "BU03072001", "name": "Erasmusstraat e.o."}, "geometry": {"type": "MultiPolygon", "coordinates": [[[[5.41104, 52.17903], [5.40505, 52.17565], [5.40353, 52.17713], [5.40389, 52.17812], [5.40794, 52.18037], [5.40812, 52.18252], [5.4082, 52.18353], [5.41213, 52.18365], [5.41104, 52.17903]]]]}}, {"type": "Feature", "properties": {"code": "BU03072002", "name": "Muziekbuurt-Noord"}, "geometry": {"type": "MultiPolygon", "coordinates": [[[[5.40445, 52.18629], [5.4082, 52.18353], [5.40812, 52.18252], [5.40608, 52.18258], [5.40427, 52.18381], [5.40314, 52.18325], [5.40037, 52.18624], [5.40203, 52.18714], [5.40445, 52.18629]]]]}}, {"type": "Feature", "properties": {"code": "BU03072003", "name": "Muziekbuurt-Zuid"}, "geometry": {"type": "MultiPolygon", "coordinates": [[[[5.40812, 52.18252], [5.40794, 52.18037], [5.40389, 52.17812], [5.40353, 52.17713], [5.40186, 52.17793], [5.39796, 52.17779], [5.39782, 52.1784], [5.39782, 52.17842], [5.40219, 52.18016], [5.40314, 52.18325], [5.40427, 52.18381], [5.40608, 52.18258], [5.40812, 52.18252]]]]}}, {"type": "Feature", "properties": {"code": "BU03072004", "name": "Architectenbuurt-Oost"}, "geometry": {"type": "MultiPolygon", "coordinates": [[[[5.40314, 52.18325], [5.40219, 52.18016], [5.39782, 52.17842], [5.39775, 52.18015], [5.39944, 52.18129], [5.39988, 52.18264], [5.39766, 52.18479], [5.40037, 52.18624], [5.40314, 52.18325]]]]}}, {"type": "Feature", "properties": {"code": "BU03072005", "name": "Architectenbuurt-West"}, "geometry": {"type": "MultiPolygon", "coordinates": [[[[5.39766, 52.18479], [5.39988, 52.18264], [5.39944, 52.18129], [5.39775, 52.18015], [5.39782, 52.17842], [5.39782, 52.1784], [5.3949, 52.17815], [5.39399, 52.18101], [5.39441, 52.18263], [5.39602, 52.18339], [5.39706, 52.18521], [5.39766, 52.18479]]]]}}, {"type": "Feature", "properties": {"code": "BU03072006", "name": "Sportpark Zielhorst"}, "geometry": {"type": "MultiPolygon", "coordinates": [[[[5.41794, 52.18313], [5.41104, 52.17903], [5.41213, 52.18365], [5.41229, 52.1863], [5.41089, 52.18787], [5.41128, 52.18807], [5.41794, 52.18313]]]]}}, {"type": "Feature", "properties": {"code": "BU03072007", "name": "De Brand"}, "geometry": {"type": "MultiPolygon", "coordinates": [[[[5.41128, 52.18807], [5.41089, 52.18787], [5.40915, 52.18729], [5.40458, 52.18728], [5.40354, 52.18794], [5.40809, 52.19034], [5.41128, 52.18807]]]]}}, {"type": "Feature", "properties": {"code": "BU03072100", "name": "Donken en zanden"}, "geometry": {"type": "MultiPolygon", "coordinates": [[[[5.39312, 52.18461], [5.3918, 52.18194], [5.38494, 52.18368], [5.38798, 52.18567], [5.39312, 52.18461]]]]}}, {"type": "Feature", "properties": {"code": "BU03072101", "name": "Paddenstoelenbuurt"}, "geometry": {"type": "MultiPolygon", "coordinates": [[[[5.39495, 52.18669], [5.3963, 52.18574], [5.39312, 52.18461], [5.38798, 52.18567], [5.38986, 52.18703], [5.3936, 52.18741], [5.39495, 52.18669]]]]}}, {"type": "Feature", "properties": {"code": "BU03072102", "name": "Woudzoom e.o."}, "geometry": {"type": "MultiPolygon", "coordinates": [[[[5.3878, 52.19146], [5.38684, 52.18887], [5.38986, 52.18703], [5.38798, 52.18567], [5.38494, 52.18368], [5.38286, 52.18465], [5.38453, 52.1871], [5.38506, 52.19065], [5.3875, 52.19168], [5.3878, 52.19146]]]]}}, {"type": "Feature", "properties": {"code": "BU03072103", "name": "Wintertuinen"}, "geometry": {"type": "MultiPolygon", "coordinates": [[[[5.3936, 52.18741], [5.38986, 52.18703], [5.38684, 52.18887], [5.3878, 52.19146], [5.3936, 52.18741]]]]}}, {"type": "Feature", "properties": {"code": "BU03072104", "name": "De Verwondering e.o."}, "geometry": {"type": "MultiPolygon", "coordinates": [[[[5.39178, 52.19232], [5.39507, 52.19079], [5.39532, 52.1889], [5.3936, 52.18741], [5.3878, 52.19146], [5.39178, 52.19232]]]]}}, {"type": "Feature", "properties": {"code": "BU03072105", "name": "Emiclaer"}, "geometry": {"type": "MultiPolygon", "coordinates": [[[[5.40354, 52.18794], [5.40203, 52.18714], [5.40037, 52.18624], [5.39766, 52.18479], [5.39706, 52.18521], [5.3963, 52.18574], [5.39495, 52.18669], [5.40052, 52.18875], [5.40354, 52.18794]]]]}}, {"type": "Feature", "properties": {"code": "BU03072106", "name": "Groote Kreek e.o."}, "geometry": {"type": "MultiPolygon", "coordinates": [[[[5.40102, 52.18988], [5.40052, 52.18875], [5.39495, 52.18669], [5.3936, 52.18741], [5.39532, 52.1889], [5.39507, 52.19079], [5.3977, 52.19264], [5.40102, 52.18988]]]]}}, {"type": "Feature", "properties": {"code": "BU03072107", "name": "Boerderijenkamer"}, "geometry": {"type": "MultiPolygon", "coordinates": [[[[5.40342, 52.19369], [5.40809, 52.19034], [5.40354, 52.18794], [5.40052, 52.18875], [5.40102, 52.18988], [5.3977, 52.19264], [5.3999, 52.19436], [5.3991, 52.19681], [5.40342, 52.19369]]]]}}, {"type": "Feature", "properties": {"code": "BU03072108", "name": "Kattenbroek-Noord"}, "geometry": {"type": "MultiPolygon", "coordinates": [[[[5.3999, 52.19436], [5.3977, 52.19264], [5.39507, 52.19079], [5.39178, 52.19232], [5.3878, 52.19146], [5.3875, 52.19168], [5.38489, 52.1935], [5.38692, 52.195], [5.3999, 52.19436]]]]}}, {"type": "Feature", "properties": {"code": "BU03072201", "name": "Calveen"}, "geometry": {"type": "MultiPolygon", "coordinates": [[[[5.39778, 52.19776], [5.3991, 52.19681], [5.3999, 52.19436], [5.38692, 52.195], [5.3844, 52.19728], [5.38492, 52.20002], [5.38533, 52.20074], [5.38835, 52.20186], [5.38865, 52.20337], [5.39778, 52.19776]]]]}}, {"type": "Feature", "properties": {"code": "BU03072400", "name": "Stadskwartier"}, "geometry": {"type": "MultiPolygon", "coordinates": [[[[5.38492, 52.20002], [5.3844, 52.19728], [5.38692, 52.195], [5.38348, 52.19506], [5.38032, 52.1943], [5.37602, 52.19372], [5.3767, 52.19757], [5.37736, 52.20016], [5.38492, 52.20002]]]]}}, {"type": "Feature", "properties": {"code": "BU03072402", "name": "Hoge Hoven"}, "geometry": {"type": "MultiPolygon", "coordinates": [[[[5.37323, 52.19908], [5.37528, 52.19868], [5.3767, 52.19757], [5.37602, 52.19372], [5.3679, 52.19407], [5.36611, 52.19809], [5.37323, 52.19908]]]]}}, {"type": "Feature", "properties": {"code": "BU03072403", "name": "Centrum / Waterpark"}, "geometry": {"type": "MultiPolygon", "coordinates": [[[[5.3775, 52.20114], [5.37736, 52.20016], [5.3767, 52.19757], [5.37528, 52.19868], [5.37323, 52.19908], [5.36611, 52.19809], [5.36594, 52.19863], [5.36797, 52.20115], [5.37096, 52.20099], [5.37298, 52.20152], [5.3775, 52.20114]]]]}}, {"type": "Feature", "properties": {"code": "BU03072404", "name": "Stadstuin"}, "geometry": {"type": "MultiPolygon", "coordinates": [[[[5.37329, 52.2078], [5.36797, 52.20115], [5.36594, 52.19863], [5.36488, 52.20937], [5.37329, 52.2078]]]]}}, {"type": "Feature", "properties": {"code": "BU03072405", "name": "Waterkwartier"}, "geometry": {"type": "MultiPolygon", "coordinates": [[[[5.37807, 52.20707], [5.3775, 52.20114], [5.37298, 52.20152], [5.37096, 52.20099], [5.36797, 52.20115], [5.37329, 52.2078], [5.37807, 52.20707]]]]}}, {"type": "Feature", "properties": {"code": "BU03072407", "name": "Kruidenbuurt"}, "geometry": {"type": "MultiPolygon", "coordinates": [[[[5.3854, 52.20643], [5.38865, 52.20337], [5.38835, 52.20186], [5.38533, 52.20074], [5.38492, 52.20002], [5.37736, 52.20016], [5.3775, 52.20114], [5.37807, 52.20707], [5.3854, 52.20643]]]]}}, {"type": "Feature", "properties": {"code": "BU03072500", "name": "Hoefkwartier"}, "geometry": {"type": "MultiPolygon", "coordinates": [[[[5.4116, 52.17611], [5.41415, 52.17363], [5.42118, 52.17199], [5.42271, 52.1705], [5.41067, 52.17236], [5.4043, 52.17213], [5.39926, 52.17058], [5.39453, 52.16735], [5.39405, 52.16753], [5.39811, 52.17092], [5.4006, 52.17273], [5.40505, 52.17565], [5.41104, 52.17903], [5.4116, 52.17611]]]]}}, {"type": "Feature", "properties": {"code": "BU03072501", "name": "De Hoef-Oost"}, "geometry": {"type": "MultiPolygon", "coordinates": [[[[5.42836, 52.17572], [5.42367, 52.17035], [5.42271, 52.1705], [5.42118, 52.17199], [5.41415, 52.17363], [5.4116, 52.17611], [5.41104, 52.17903], [5.41794, 52.18313], [5.42836, 52.17572]]]]}}, {"type": "Feature", "properties": {"code": "BU03072600", "name": "Dorpskern Hooglanderveen"}, "geometry": {"type": "MultiPolygon", "coordinates": [[[[5.43372, 52.18764], [5.43576, 52.187], [5.43613, 52.18502], [5.43438, 52.18562], [5.43155, 52.18445], [5.42765, 52.18398], [5.42665, 52.18422], [5.42658, 52.18704], [5.42457, 52.18707], [5.43067, 52.1907], [5.43372, 52.18764]]]]}}, {"type": "Feature", "properties": {"code": "BU03072601", "name": "Lient e.o."}, "geometry": {"type": "MultiPolygon", "coordinates": [[[[5.42658, 52.18704], [5.42665, 52.18422], [5.42765, 52.18398], [5.43155, 52.18445], [5.43438, 52.18562], [5.43613, 52.18502], [5.43672, 52.18482], [5.43406, 52.1827], [5.42962, 52.18199], [5.42424, 52.1827], [5.42055, 52.18469], [5.42457, 52.18707], [5.42658, 52.18704]]]]}}, {"type": "Feature", "properties": {"code": "BU03072602", "name": "Hoekveen e.o."}, "geometry": {"type": "MultiPolygon", "coordinates": [[[[5.43784, 52.18741], [5.43672, 52.18482], [5.43613, 52.18502], [5.43576, 52.187], [5.43372, 52.18764], [5.43067, 52.1907], [5.43223, 52.19163], [5.43401, 52.19268], [5.43784, 52.18741]]]]}}, {"type": "Feature", "properties": {"code": "BU03072603", "name": "Heideweg e.o."}, "geometry": {"type": "MultiPolygon", "coordinates": [[[[5.42932, 52.19151], [5.43106, 52.19197], [5.43223, 52.19163], [5.43067, 52.1907], [5.42457, 52.18707], [5.42055, 52.18469], [5.41791, 52.18655], [5.42022, 52.1882], [5.42349, 52.1888], [5.42347, 52.1903], [5.42566, 52.19043], [5.42558, 52.19219], [5.42871, 52.19295], [5.42932, 52.19151]]]]}}, {"type": "Feature", "properties": {"code": "BU03072700", "name": "Coelhorst"}, "geometry": {"type": "MultiPolygon", "coordinates": [[[[5.36967, 52.18158], [5.36833, 52.17536], [5.36177, 52.17158], [5.3499, 52.17561], [5.34432, 52.17704], [5.34593, 52.17962], [5.35116, 52.18155], [5.35318, 52.18087], [5.36115, 52.18255], [5.36967, 52.18158]]]]}}, {"type": "Feature", "properties": {"code": "BU03072701", "name": "Zeldert"}, "geometry": {"type": "MultiPolygon", "coordinates": [[[[5.33054, 52.21473], [5.35836, 52.20972], [5.35912, 52.21036], [5.36443, 52.20984], [5.36488, 52.20937], [5.36594, 52.19863], [5.36611, 52.19809], [5.3679, 52.19407], [5.36808, 52.19265], [5.36791, 52.18792], [5.36967, 52.18158], [5.36115, 52.18255], [5.35318, 52.18087], [5.35116, 52.18155], [5.34593, 52.17962], [5.34432, 52.17704], [5.34066, 52.17818], [5.33644, 52.18272], [5.33356, 52.18317], [5.32671, 52.18181], [5.3237, 52.18259], [5.32465, 52.18729], [5.32384, 52.1885], [5.32068, 52.19022], [5.31467, 52.19158], [5.31164, 52.19104], [5.31022, 52.19202], [5.30934, 52.19473], [5.31428, 52.20302], [5.33069, 52.20339], [5.32788, 52.20935], [5.33054, 52.21473]]]]}}, {"type": "Feature", "properties": {"code": "BU03072709", "name": "De Schans"}, "geometry": {"type": "MultiPolygon", "coordinates": [[[[5.37392, 52.16976], [5.37551, 52.16802], [5.37552, 52.16631], [5.37454, 52.16586], [5.36177, 52.17158], [5.36833, 52.17536], [5.37392, 52.16976]]]]}}, {"type": "Feature", "properties": {"code": "BU03072800", "name": "Park van de Tijden-West"}, "geometry": {"type": "MultiPolygon", "coordinates": [[[[5.41158, 52.20342], [5.41639, 52.20287], [5.41607, 52.20177], [5.4114, 52.19808], [5.40574, 52.19911], [5.40314, 52.19955], [5.40825, 52.20381], [5.41158, 52.20342]]]]}}, {"type": "Feature", "properties": {"code": "BU03072801", "name": "Dassenberg e.o."}, "geometry": {"type": "MultiPolygon", "coordinates": [[[[5.4114, 52.19808], [5.41285, 52.19609], [5.41183, 52.19658], [5.40907, 52.19479], [5.40776, 52.1961], [5.40574, 52.19911], [5.4114, 52.19808]]]]}}, {"type": "Feature", "properties": {"code": "BU03072802", "name": "Park van de Tijden-Oost"}, "geometry": {"type": "MultiPolygon", "coordinates": [[[[5.42209, 52.20145], [5.41915, 52.19922], [5.41943, 52.19587], [5.41456, 52.19583], [5.41285, 52.19609], [5.4114, 52.19808], [5.41607, 52.20177], [5.41639, 52.20287], [5.42209, 52.20145]]]]}}, {"type": "Feature", "properties": {"code": "BU03072803", "name": "Duisterweg e.o."}, "geometry": {"type": "MultiPolygon", "coordinates": [[[[5.41285, 52.19609], [5.41456, 52.19583], [5.41451, 52.19277], [5.41447, 52.18976], [5.41392, 52.18935], [5.41076, 52.19149], [5.40907, 52.19479], [5.41183, 52.19658], [5.41285, 52.19609]]]]}}, {"type": "Feature", "properties": {"code": "BU03072804", "name": "Eilandengroepenbuurt"}, "geometry": {"type": "MultiPolygon", "coordinates": [[[[5.42349, 52.1888], [5.42022, 52.1882], [5.41791, 52.18655], [5.41392, 52.18935], [5.41447, 52.18976], [5.42347, 52.1903], [5.42349, 52.1888]]]]}}, {"type": "Feature", "properties": {"code": "BU03072900", "name": "Polderbuurt-Noord"}, "geometry": {"type": "MultiPolygon", "coordinates": [[[[5.42824, 52.19838], [5.42714, 52.19775], [5.42543, 52.19591], [5.41943, 52.19587], [5.41915, 52.19922], [5.42209, 52.20145], [5.42824, 52.19838]]]]}}, {"type": "Feature", "properties": {"code": "BU03072901", "name": "Winkelcentrum Vathorst"}, "geometry": {"type": "MultiPolygon", "coordinates": [[[[5.43153, 52.19658], [5.43366, 52.19323], [5.43401, 52.19268], [5.43223, 52.19163], [5.43106, 52.19197], [5.42714, 52.19775], [5.42824, 52.19838], [5.43153, 52.19658]]]]}}, {"type": "Feature", "properties": {"code": "BU03072902", "name": "Damespolderbuurt"}, "geometry": {"type": "MultiPolygon", "coordinates": [[[[5.43106, 52.19197], [5.42932, 52.19151], [5.42871, 52.19295], [5.42558, 52.19219], [5.42553, 52.19346], [5.42543, 52.19591], [5.42714, 52.19775], [5.43106, 52.19197]]]]}}, {"type": "Feature", "properties": {"code": "BU03073000", "name": "De Bron-Noord"}, "geometry": {"type": "MultiPolygon", "coordinates": [[[[5.42553, 52.19346], [5.42292, 52.19409], [5.41849, 52.19389], [5.41863, 52.19307], [5.41451, 52.19277], [5.41456, 52.19583], [5.41943, 52.19587], [5.42543, 52.19591], [5.42553, 52.19346]]]]}}, {"type": "Feature", "properties": {"code": "BU03073001", "name": "De Bron-Zuid"}, "geometry": {"type": "MultiPolygon", "coordinates": [[[[5.42553, 52.19346], [5.42558, 52.19219], [5.42566, 52.19043], [5.42347, 52.1903], [5.41447, 52.18976], [5.41451, 52.19277], [5.41863, 52.19307], [5.41849, 52.19389], [5.42292, 52.19409], [5.42553, 52.19346]]]]}}, {"type": "Feature", "properties": {"code": "BU03073100", "name": "Waddeneilandenbuurt"}, "geometry": {"type": "MultiPolygon", "coordinates": [[[[5.43977, 52.19724], [5.43971, 52.19608], [5.43401, 52.19268], [5.43366, 52.19323], [5.43744, 52.19836], [5.43977, 52.19724]]]]}}, {"type": "Feature", "properties": {"code": "BU03073101", "name": "Zuiderzeestedenbuurt-Oost"}, "geometry": {"type": "MultiPolygon", "coordinates": [[[[5.43744, 52.19836], [5.43366, 52.19323], [5.43153, 52.19658], [5.42824, 52.19838], [5.43175, 52.20119], [5.43744, 52.19836]]]]}}, {"type": "Feature", "properties": {"code": "BU03073102", "name": "Zuiderzeestedenbuurt-West"}, "geometry": {"type": "MultiPolygon", "coordinates": [[[[5.43175, 52.20119], [5.42824, 52.19838], [5.42209, 52.20145], [5.42565, 52.20416], [5.43175, 52.20119]]]]}}, {"type": "Feature", "properties": {"code": "BU03073103", "name": "De Baken"}, "geometry": {"type": "MultiPolygon", "coordinates": [[[[5.42565, 52.20416], [5.42209, 52.20145], [5.41639, 52.20287], [5.41158, 52.20342], [5.41455, 52.20448], [5.41585, 52.20913], [5.42565, 52.20416]]]]}}, {"type": "Feature", "properties": {"code": "BU03073104", "name": "Laakse Tuinen"}, "geometry": {"type": "MultiPolygon", "coordinates": [[[[5.41585, 52.20913], [5.41455, 52.20448], [5.41158, 52.20342], [5.40825, 52.20381], [5.40703, 52.20394], [5.40959, 52.21233], [5.41585, 52.20913]]]]}}, {"type": "Feature", "properties": {"code": "BU03073105", "name": "Over de Laak"}, "geometry": {"type": "MultiPolygon", "coordinates": [[[[5.43471, 52.20588], [5.43924, 52.2046], [5.43982, 52.20598], [5.44057, 52.20584], [5.44019, 52.20463], [5.44112, 52.20432], [5.43945, 52.2022], [5.43977, 52.19727], [5.43977, 52.19724], [5.43744, 52.19836], [5.43175, 52.20119], [5.42565, 52.20416], [5.41585, 52.20913], [5.40959, 52.21233], [5.40722, 52.21341], [5.40967, 52.21858], [5.43471, 52.20588]]]]}}, {"type": "Feature", "properties": {"code": "BU03073106", "name": "Podium"}, "geometry": {"type": "MultiPolygon", "coordinates": [[[[5.4401, 52.19005], [5.43809, 52.18459], [5.43753, 52.18457], [5.43672, 52.18482], [5.43784, 52.18741], [5.43401, 52.19268], [5.43971, 52.19608], [5.4401, 52.19005]]]]}}, {"type": "Feature", "properties": {"code": "BU03073201", "name": "Vathorst-Bovenduist"}, "geometry": {"type": "MultiPolygon", "coordinates": [[[[5.40722, 52.21341], [5.40959, 52.21233], [5.40703, 52.20394], [5.39274, 52.20553], [5.39552, 52.21915], [5.40722, 52.21341]]]]}}, {"type": "Feature", "properties": {"code": "BU03073301", "name": "Bedrijventerrein Vathorst-Zuid"}, "geometry": {"type": "MultiPolygon", "coordinates": [[[[5.43753, 52.18457], [5.42836, 52.17572], [5.41794, 52.18313], [5.42055, 52.18469], [5.42424, 52.1827], [5.42962, 52.18199], [5.43406, 52.1827], [5.43672, 52.18482], [5.43753, 52.18457]]]]}}, {"type": "Feature", "properties": {"code": "BU03073302", "name": "Bedrijventerrein Vathorst-Noord"}, "geometry": {"type": "MultiPolygon", "coordinates": [[[[5.40907, 52.19479], [5.41076, 52.19149], [5.41392, 52.18935], [5.41791, 52.18655], [5.42055, 52.18469], [5.41794, 52.18313], [5.41128, 52.18807], [5.40809, 52.19034], [5.40342, 52.19369], [5.40776, 52.1961], [5.40907, 52.19479]]]]}}, {"type": "Feature", "properties": {"code": "BU03073303", "name": "Olympus"}, "geometry": {"type": "MultiPolygon", "coordinates": [[[[5.40574, 52.19911], [5.40776, 52.1961], [5.40342, 52.19369], [5.3991, 52.19681], [5.39778, 52.19776], [5.40314, 52.19955], [5.40574, 52.19911]]]]}}, {"type": "Feature", "properties": {"code": "BU03073304", "name": "Lindeboomseweg e.o."}, "geometry": {"type": "MultiPolygon", "coordinates": [[[[5.39274, 52.20553], [5.40703, 52.20394], [5.40825, 52.20381], [5.40314, 52.19955], [5.39778, 52.19776], [5.38865, 52.20337], [5.3854, 52.20643], [5.39274, 52.20553]]]]}}, {"type": "Feature", "properties": {"code": "BU03073401", "name": "Birkhoven / Bokkeduinen"}, "geometry": {"type": "MultiPolygon", "coordinates": [[[[5.34719, 52.16183], [5.34956, 52.16012], [5.3488, 52.15941], [5.35582, 52.15365], [5.35999, 52.1529], [5.35953, 52.15276], [5.35244, 52.15019], [5.34373, 52.14713], [5.33632, 52.14595], [5.33634, 52.14605], [5.33872, 52.16006], [5.34348, 52.16027], [5.34467, 52.16363], [5.34719, 52.16183]]]]}}, {"type": "Feature", "properties": {"code": "BU03073402", "name": "Vlasakkers"}, "geometry": {"type": "MultiPolygon", "coordinates": [[[[5.35415, 52.14634], [5.3555, 52.14574], [5.35517, 52.14146], [5.35378, 52.14004], [5.35011, 52.13875], [5.33205, 52.13379], [5.33064, 52.1357], [5.33632, 52.14595], [5.34373, 52.14713], [5.35244, 52.15019], [5.35415, 52.14634]]]]}}, {"type": "Feature", "properties": {"code": "BU03073403", "name": "Zon en Schild"}, "geometry": {"type": "MultiPolygon", "coordinates": [[[[5.35865, 52.14102], [5.36011, 52.1391], [5.35951, 52.13791], [5.36815, 52.13464], [5.37361, 52.13312], [5.37222, 52.13236], [5.37046, 52.13157], [5.35564, 52.13683], [5.33404, 52.12042], [5.325, 52.11681], [5.31092, 52.10838], [5.30646, 52.11027], [5.31158, 52.11414], [5.33127, 52.12663], [5.33385, 52.13135], [5.33205, 52.13379], [5.35011, 52.13875], [5.35378, 52.14004], [5.35517, 52.14146], [5.35865, 52.14102]]]]}}]}