{"type": "FeatureCollection", "features": [{"type": "Feature", "properties": {"code": "WK030701", "name": "Stadskern"}, "geometry": {"type": "MultiPolygon", "coordinates": [[[[5.39284, 52.15341], [5.38935, 52.15231], [5.38632, 52.15265], [5.38439, 52.15366], [5.38423, 52.15382], [5.38367, 52.15574], [5.38217, 52.1575], [5.38454, 52.15941], [5.38741, 52.16172], [5.38947, 52.16061], [5.3897, 52.16048], [5.3945, 52.16025], [5.39743, 52.15873], [5.39799, 52.15675], [5.39317, 52.15355], [5.39284, 52.15341]]]]}}, {"type": "Feature", "properties": {"code": "WK030702", "name": "Nederberg"}, "geometry": {"type": "MultiPolygon", "coordinates": [[[[5.38483, 52.15022], [5.384, 52.14895], [5.38068, 52.15096], [5.37724, 52.15303], [5.37693, 52.15393], [5.38217, 52.1575], [5.38367, 52.15574], [5.38423, 52.15382], [5.38439, 52.15366], [5.38632, 52.15265], [5.38483, 52.15022]]]]}}, {"type": "Feature", "properties": {"code": "WK030703", "name": "Soesterkwartier"}, "geometry": {"type": "MultiPolygon", "coordinates": [[[[5.38217, 52.1575], [5.37693, 52.15393], [5.37244, 52.15413], [5.36859, 52.15394], [5.35999, 52.1529], [5.35582, 52.15365], [5.3488, 52.15941], [5.34956, 52.16012], [5.34719, 52.16183], [5.35182, 52.16396], [5.35793, 52.16472], [5.36515, 52.16381], [5.37052, 52.16262], [5.37344, 52.1616], [5.37764, 52.15977], [5.38004, 52.15858], [5.38217, 52.1575]]]]}}, {"type": "Feature", "properties": {"code": "WK030704", "name": "Eemkwartier"}, "geometry": {"type": "MultiPolygon", "coordinates": [[[[5.38454, 52.15941], [5.38217, 52.1575], [5.38004, 52.15858], [5.37764, 52.15977], [5.37344, 52.1616], [5.37052, 52.16262], [5.37454, 52.16586], [5.37675, 52.16507], [5.37727, 52.16278], [5.37883, 52.16205], [5.38454, 52.15941]]]]}}, {"type": "Feature", "properties": {"code": "WK030705", "name": "Isselt"}, "geometry": {"type": "MultiPolygon", "coordinates": [[[[5.37454, 52.16586], [5.37052, 52.16262], [5.36515, 52.16381], [5.35793, 52.16472], [5.35182, 52.16396], [5.34719, 52.16183], [5.34467, 52.16363], [5.34761, 52.17073], [5.34688, 52.17168], [5.34731, 52.17279], [5.34868, 52.17295], [5.34851, 52.17353], [5.34993, 52.17386], [5.3491, 52.17468], [5.3499, 52.17561], [5.36177, 52.17158], [5.37454, 52.16586]]]]}}, {"type": "Feature", "properties": {"code": "WK030706", "name": "De Koppel"}, "geometry": {"type": "MultiPolygon", "coordinates": [[[[5.38741, 52.16172], [5.38454, 52.15941], [5.37883, 52.16205], [5.37727, 52.16278], [5.37675, 52.16507], [5.38049, 52.16548], [5.38498, 52.16667], [5.39001, 52.16788], [5.39405, 52.16753], [5.39453, 52.16735], [5.38741, 52.16172]]]]}}, {"type": "Feature", "properties": {"code": "WK030707", "name": "Kruiskamp"}, "geometry": {"type": "MultiPolygon", "coordinates": [[[[5.4011, 52.15719], [5.39799, 52.15675], [5.39743, 52.15873], [5.3945, 52.16025], [5.3897, 52.16048], [5.38947, 52.16061], [5.38741, 52.16172], [5.39453, 52.16735], [5.39872, 52.16562], [5.40372, 52.16348], [5.40502, 52.16046], [5.40615, 52.15803], [5.4011, 52.15719]]]]}}, {"type": "Feature", "properties": {"code": "WK030708", "name": "Schothorst-Zuid"}, "geometry": {"type": "MultiPolygon", "coordinates": [[[[5.39811, 52.17092], [5.39405, 52.16753], [5.39001, 52.16788], [5.38498, 52.16667], [5.38049, 52.16548], [5.37675, 52.16507], [5.37454, 52.16586], [5.37552, 52.16631], [5.37551, 52.16802], [5.37392, 52.16976], [5.38188, 52.17114], [5.38698, 52.17238], [5.39068, 52.1728], [5.39063, 52.17267], [5.39793, 52.17233], [5.39811, 52.17092]]]]}}, {"type": "Feature", "properties": {"code": "WK030709", "name": "Schothorst-Noord"}, "geometry": {"type": "MultiPolygon", "coordinates": [[[[5.38494, 52.18368], [5.3918, 52.18194], [5.39312, 52.18461], [5.3963, 52.18574], [5.39706, 52.18521], [5.39602, 52.18339], [5.39441, 52.18263], [5.39399, 52.18101], [5.3949, 52.17815], [5.39782, 52.1784], [5.39796, 52.17779], [5.40186, 52.17793], [5.40353, 52.17713], [5.40505, 52.17565], [5.4006, 52.17273], [5.39811, 52.17092], [5.39793, 52.17233], [5.39063, 52.17267], [5.39068, 52.1728], [5.38698, 52.17238], [5.38188, 52.17114], [5.37392, 52.16976], [5.3764, 52.17358], [5.37628, 52.17474], [5.37981, 52.18071], [5.38332, 52.18285], [5.3831, 52.18402], [5.38046, 52.18533], [5.38453, 52.1871], [5.38286, 52.18465], [5.38494, 52.18368]]]]}}, {"type": "Feature", "properties": {"code": "WK030710", "name": "Liendert"}, "geometry": {"type": "MultiPolygon", "coordinates": [[[[5.41584, 52.16027], [5.40615, 52.15803], [5.40502, 52.16046], [5.40372, 52.16348], [5.39872, 52.16562], [5.39453, 52.16735], [5.39926, 52.17058], [5.4043, 52.17213], [5.40386, 52.17167], [5.40996, 52.16929], [5.41143, 52.16591], [5.41244, 52.16558], [5.41334, 52.16329], [5.4124, 52.16193], [5.41584, 52.16027]]]]}}, {"type": "Feature", "properties": {"code": "WK030711", "name": "Rustenburg"}, "geometry": {"type": "MultiPolygon", "coordinates": [[[[5.41975, 52.16132], [5.41584, 52.16027], [5.4124, 52.16193], [5.41334, 52.16329], [5.41244, 52.16558], [5.41143, 52.16591], [5.40996, 52.16929], [5.40386, 52.17167], [5.4043, 52.17213], [5.41067, 52.17236], [5.42271, 52.1705], [5.42367, 52.17035], [5.42338, 52.16972], [5.41975, 52.16132]]]]}}, {"type": "Feature", "properties": {"code": "WK030712", "name": "Buitengebied-Oost"}, "geometry": {"type": "MultiPolygon", "coordinates": [[[[5.47243, 52.16285], [5.47287, 52.16185], [5.47552, 52.16216], [5.4792, 52.16136], [5.48212, 52.1598], [5.48201, 52.15955], [5.4815, 52.1583], [5.48432, 52.15806], [5.48407, 52.15535], [5.48377, 52.15398], [5.48134, 52.1505], [5.47675, 52.15222], [5.46986, 52.15285], [5.45958, 52.15288], [5.45595, 52.15435], [5.44698, 52.15954], [5.44496, 52.1599], [5.44246, 52.16145], [5.43895, 52.16139], [5.43194, 52.15876], [5.42355, 52.15762], [5.41784, 52.15479], [5.41725, 52.15459], [5.41975, 52.16132], [5.42338, 52.16972], [5.42367, 52.17035], [5.42836, 52.17572], [5.43753, 52.18457], [5.43809, 52.18459], [5.43904, 52.18413], [5.44009, 52.17338], [5.43892, 52.17292], [5.43988, 52.1712], [5.44359, 52.16883], [5.44654, 52.16802], [5.45762, 52.16708], [5.46963, 52.16621], [5.47992, 52.16582], [5.47895, 52.16474], [5.47551, 52.16438], [5.47327, 52.16326], [5.47243, 52.16285]]]]}}, {"type": "Feature", "properties": {"code": "WK030713", "name": "Schuilenburg"}, "geometry": {"type": "MultiPolygon", "coordinates": [[[[5.41975, 52.16132], [5.41725, 52.15459], [5.41784, 52.15479], [5.41621, 52.15092], [5.41401, 52.14831], [5.41023, 52.14991], [5.40916, 52.15252], [5.40807, 52.15413], [5.40679, 52.15679], [5.40615, 52.15803], [5.41584, 52.16027], [5.41975, 52.16132]]]]}}, {"type": "Feature", "properties": {"code": "WK030714", "name": "Randenbroek"}, "geometry": {"type": "MultiPolygon", "coordinates": [[[[5.40834, 52.14265], [5.40939, 52.14039], [5.40756, 52.14196], [5.4054, 52.13981], [5.40046, 52.14478], [5.39975, 52.14705], [5.39551, 52.1501], [5.39579, 52.15142], [5.39621, 52.15264], [5.39317, 52.15355], [5.39799, 52.15675], [5.4011, 52.15719], [5.40615, 52.15803], [5.40679, 52.15679], [5.40807, 52.15413], [5.40916, 52.15252], [5.41023, 52.14991], [5.41401, 52.14831], [5.41377, 52.14803], [5.40834, 52.14265]]]]}}, {"type": "Feature", "properties": {"code": "WK030715", "name": "Vermeerkwartier"}, "geometry": {"type": "MultiPolygon", "coordinates": [[[[5.39621, 52.15264], [5.39579, 52.15142], [5.39551, 52.1501], [5.39975, 52.14705], [5.40046, 52.14478], [5.4054, 52.13981], [5.4001, 52.13572], [5.39543, 52.14087], [5.39434, 52.14207], [5.39079, 52.1449], [5.384, 52.14895], [5.38483, 52.15022], [5.38632, 52.15265], [5.38935, 52.15231], [5.39284, 52.15341], [5.39317, 52.15355], [5.39621, 52.15264]]]]}}, {"type": "Feature", "properties": {"code": "WK030716", "name": "Leusderkwartier"}, "geometry": {"type": "MultiPolygon", "coordinates": [[[[5.40008, 52.13571], [5.39807, 52.13355], [5.39713, 52.13395], [5.38434, 52.13174], [5.37439, 52.13099], [5.37222, 52.13236], [5.37361, 52.13312], [5.37608, 52.13686], [5.37731, 52.13969], [5.38143, 52.14473], [5.38381, 52.14863], [5.384, 52.14895], [5.39079, 52.1449], [5.39434, 52.14207], [5.39543, 52.14087], [5.4001, 52.13572], [5.40008, 52.13571]]]]}}, {"type": "Feature", "properties": {"code": "WK030717", "name": "De Berg-Zuid"}, "geometry": {"type": "MultiPolygon", "coordinates": [[[[5.37608, 52.13686], [5.37361, 52.13312], [5.36815, 52.13464], [5.35951, 52.13791], [5.36011, 52.1391], [5.35865, 52.14102], [5.36331, 52.14245], [5.36746, 52.14472], [5.36815, 52.14516], [5.37404, 52.1488], [5.37839, 52.14996], [5.38009, 52.15063], [5.38068, 52.15096], [5.384, 52.14895], [5.38381, 52.14863], [5.38143, 52.14473], [5.37731, 52.13969], [5.37608, 52.13686]]]]}}, {"type": "Feature", "properties": {"code": "WK030718", "name": "De Berg-Noord"}, "geometry": {"type": "MultiPolygon", "coordinates": [[[[5.36331, 52.14245], [5.35865, 52.14102], [5.35517, 52.14146], [5.3555, 52.14574], [5.35415, 52.14634], [5.35244, 52.15019], [5.35953, 52.15276], [5.35999, 52.1529], [5.36859, 52.15394], [5.37244, 52.15413], [5.37693, 52.15393], [5.37724, 52.15303], [5.38068, 52.15096], [5.38009, 52.15063], [5.37839, 52.14996], [5.37404, 52.1488], [5.36815, 52.14516], [5.36746, 52.14472], [5.36331, 52.14245]]]]}}, {"type": "Feature", "properties": {"code": "WK030719", "name": "Hoogland"}, "geometry": {"type": "MultiPolygon", "coordinates": [[[[5.38692, 52.195], [5.38489, 52.1935], [5.3875, 52.19168], [5.38506, 52.19065], [5.38453, 52.1871], [5.38046, 52.18533], [5.3831, 52.18402], [5.38332, 52.18285], [5.37981, 52.18071], [5.37628, 52.17474], [5.3764, 52.17358], [5.37392, 52.16976], [5.36833, 52.17536], [5.36967, 52.18158], [5.36791, 52.18792], [5.36808, 52.19265], [5.3679, 52.19407], [5.37602, 52.19372], [5.38032, 52.1943], [5.38348, 52.19506], [5.38692, 52.195]]]]}}, {"type": "Feature", "properties": {"code": "WK030720", "name": "Zielhorst"}, "geometry": {"type": "MultiPolygon", "coordinates": [[[[5.41128, 52.18807], [5.41794, 52.18313], [5.41104, 52.17903], [5.40505, 52.17565], [5.40353, 52.17713], [5.40186, 52.17793], [5.39796, 52.17779], [5.39782, 52.1784], [5.3949, 52.17815], [5.39399, 52.18101], [5.39441, 52.18263], [5.39602, 52.18339], [5.39706, 52.18521], [5.39766, 52.18479], [5.40037, 52.18624], [5.40203, 52.18714], [5.40354, 52.18794], [5.40809, 52.19034], [5.41128, 52.18807]]]]}}, {"type": "Feature", "properties": {"code": "WK030721", "name": "Kattenbroek"}, "geometry": {"type": "MultiPolygon", "coordinates": [[[[5.3991, 52.19681], [5.40342, 52.19369], [5.40809, 52.19034], [5.40354, 52.18794], [5.40203, 52.18714], [5.40037, 52.18624], [5.39766, 52.18479], [5.39706, 52.18521], [5.3963, 52.18574], [5.39312, 52.18461], [5.3918, 52.18194], [5.38494, 52.18368], [5.38286, 52.18465], [5.38453, 52.1871], [5.38506, 52.19065], [5.3875, 52.19168], [5.38489, 52.1935], [5.38692, 52.195], [5.3999, 52.19436], [5.3991, 52.19681]]]]}}, {"type": "Feature", "properties": {"code": "WK030722", "name": "Calveen"}, "geometry": {"type": "MultiPolygon", "coordinates": [[[[5.39778, 52.19776], [5.3991, 52.19681], [5.3999, 52.19436], [5.38692, 52.195], [5.3844, 52.19728], [5.38492, 52.20002], [5.38533, 52.20074], [5.38835, 52.20186], [5.38865, 52.20337], [5.39778, 52.19776]]]]}}, {"type": "Feature", "properties": {"code": "WK030724", "name": "Nieuwland"}, "geometry": {"type": "MultiPolygon", "coordinates": [[[[5.3844, 52.19728], [5.38692, 52.195], [5.38348, 52.19506], [5.38032, 52.1943], [5.37602, 52.19372], [5.3679, 52.19407], [5.36611, 52.19809], [5.36594, 52.19863], [5.36488, 52.20937], [5.37329, 52.2078], [5.37807, 52.20707], [5.3854, 52.20643], [5.38865, 52.20337], [5.38835, 52.20186], [5.38533, 52.20074], [5.38492, 52.20002], [5.3844, 52.19728]]]]}}, {"type": "Feature", "properties": {"code": "WK030725", "name": "De Hoef"}, "geometry": {"type": "MultiPolygon", "coordinates": [[[[5.42836, 52.17572], [5.42367, 52.17035], [5.42271, 52.1705], [5.41067, 52.17236], [5.4043, 52.17213], [5.39926, 52.17058], [5.39453, 52.16735], [5.39405, 52.16753], [5.39811, 52.17092], [5.4006, 52.17273], [5.40505, 52.17565], [5.41104, 52.17903], [5.41794, 52.18313], [5.42836, 52.17572]]]]}}, {"type": "Feature", "properties": {"code": "WK030726", "name": "Hooglanderveen"}, "geometry": {"type": "MultiPolygon", "coordinates": [[[[5.42871, 52.19295], [5.42932, 52.19151], [5.43106, 52.19197], [5.43223, 52.19163], [5.43401, 52.19268], [5.43784, 52.18741], [5.43672, 52.18482], [5.43406, 52.1827], [5.42962, 52.18199], [5.42424, 52.1827], [5.42055, 52.18469], [5.41791, 52.18655], [5.42022, 52.1882], [5.42349, 52.1888], [5.42347, 52.1903], [5.42566, 52.19043], [5.42558, 52.19219], [5.42871, 52.19295]]]]}}, {"type": "Feature", "properties": {"code": "WK030727", "name": "Hoogland-West"}, "geometry": {"type": "MultiPolygon", "coordinates": [[[[5.33054, 52.21473], [5.35836, 52.20972], [5.35912, 52.21036], [5.36443, 52.20984], [5.36488, 52.20937], [5.36594, 52.19863], [5.36611, 52.19809], [5.3679, 52.19407], [5.36808, 52.19265], [5.36791, 52.18792], [5.36967, 52.18158], [5.36833, 52.17536], [5.37392, 52.16976], [5.37551, 52.16802], [5.37552, 52.16631], [5.37454, 52.16586], [5.36177, 52.17158], [5.3499, 52.17561], [5.34432, 52.17704], [5.34066, 52.17818], [5.33644, 52.18272], [5.33356, 52.18317], [5.32671, 52.18181], [5.3237, 52.18259], [5.32465, 52.18729], [5.32384, 52.1885], [5.32068, 52.19022], [5.31467, 52.19158], [5.31164, 52.19104], [5.31022, 52.19202], [5.30934, 52.19473], [5.31428, 52.20302], [5.33069, 52.20339], [5.32788, 52.20935], [5.33054, 52.21473]]]]}}, {"type": "Feature", "properties": {"code": "WK030728", "name": "Vathorst-De Velden"}, "geometry": {"type": "MultiPolygon", "coordinates": [[[[5.41451, 52.19277], [5.41447, 52.18976], [5.42347, 52.1903], [5.42349, 52.1888], [5.42022, 52.1882], [5.41791, 52.18655], [5.41392, 52.18935], [5.41076, 52.19149], [5.40907, 52.19479], [5.40776, 52.1961], [5.40574, 52.19911], [5.40314, 52.19955], [5.40825, 52.20381], [5.41158, 52.20342], [5.41639, 52.20287], [5.42209, 52.20145], [5.41915, 52.19922], [5.41943, 52.19587], [5.41456, 52.19583], [5.41451, 52.19277]]]]}}, {"type": "Feature", "properties": {"code": "WK030729", "name": "Vathorst-Centrum"}, "geometry": {"type": "MultiPolygon", "coordinates": [[[[5.43153, 52.19658], [5.43366, 52.19323], [5.43401, 52.19268], [5.43223, 52.19163], [5.43106, 52.19197], [5.42932, 52.19151], [5.42871, 52.19295], [5.42558, 52.19219], [5.42553, 52.19346], [5.42543, 52.19591], [5.41943, 52.19587], [5.41915, 52.19922], [5.42209, 52.20145], [5.42824, 52.19838], [5.43153, 52.19658]]]]}}, {"type": "Feature", "properties": {"code": "WK030730", "name": "Vathorst-De Bron"}, "geometry": {"type": "MultiPolygon", "coordinates": [[[[5.42347, 52.1903], [5.41447, 52.18976], [5.41451, 52.19277], [5.41456, 52.19583], [5.41943, 52.19587], [5.42543, 52.19591], [5.42553, 52.19346], [5.42558, 52.19219], [5.42566, 52.19043], [5.42347, 52.1903]]]]}}, {"type": "Feature", "properties": {"code": "WK030731", "name": "Vathorst-De Laak"}, "geometry": {"type": "MultiPolygon", "coordinates": [[[[5.43471, 52.20588], [5.43924, 52.2046], [5.43982, 52.20598], [5.44057, 52.20584], [5.44019, 52.20463], [5.44112, 52.20432], [5.43945, 52.2022], [5.43977, 52.19727], [5.43977, 52.19724], [5.43971, 52.19608], [5.4401, 52.19005], [5.43809, 52.18459], [5.43753, 52.18457], [5.43672, 52.18482], [5.43784, 52.18741], [5.43401, 52.19268], [5.43366, 52.19323], [5.43153, 52.19658], [5.42824, 52.19838], [5.42209, 52.20145], [5.41639, 52.20287], [5.41158, 52.20342], [5.40825, 52.20381], [5.40703, 52.20394], [5.40959, 52.21233], [5.40722, 52.21341], [5.40967, 52.21858], [5.43471, 52.20588]]]]}}, {"type": "Feature", "properties": {"code": "WK030732", "name": "Vathorst-Bovenduist"}, "geometry": {"type": "MultiPolygon", "coordinates": [[[[5.40722, 52.21341], [5.40959, 52.21233], [5.40703, 52.20394], [5.39274, 52.20553], [5.39552, 52.21915], [5.40722, 52.21341]]]]}}, {"type": "Feature", "properties": {"code": "WK030733", "name": "Bedrijventerrein Vathorst"}, "geometry": {"type": "MultiPolygon", "coordinates": [[[[5.42424, 52.1827], [5.42962, 52.18199], [5.43406, 52.1827], [5.43672, 52.18482], [5.43753, 52.18457], [5.42836, 52.17572], [5.41794, 52.18313], [5.41128, 52.18807], [5.40809, 52.19034], [5.40342, 52.19369], [5.3991, 52.19681], [5.39778, 52.19776], [5.38865, 52.20337], [5.3854, 52.20643], [5.39274, 52.20553], [5.40703, 52.20394], [5.40825, 52.20381], [5.40314, 52.19955], [5.40574, 52.19911], [5.40776, 52.1961], [5.40907, 52.19479], [5.41076, 52.19149], [5.41392, 52.18935], [5.41791, 52.18655], [5.42055, 52.18469], [5.42424, 52.1827]]]]}}, {"type": "Feature", "properties": {"code": "WK030734", "name": "Bosgebied"}, "geometry": {"type": "MultiPolygon", "coordinates": [[[[5.35951, 52.13791], [5.36815, 52.13464], [5.37361, 52.13312], [5.37222, 52.13236], [5.37046, 52.13157], [5.35564, 52.13683], [5.33404, 52.12042], [5.325, 52.11681], [5.31092, 52.10838], [5.30646, 52.11027], [5.31158, 52.11414], [5.33127, 52.12663], [5.33385, 52.13135], [5.33205, 52.13379], [5.33064, 52.1357], [5.33632, 52.14595], [5.33634, 52.14605], [5.33872, 52.16006], [5.34348, 52.16027], [5.34467, 52.16363], [5.34719, 52.16183], [5.34956, 52.16012], [5.3488, 52.15941], [5.35582, 52.15365], [5.35999, 52.1529], [5.35953, 52.15276], [5.35244, 52.15019], [5.35415, 52.14634], [5.3555, 52.14574], [5.35517, 52.14146], [5.35865, 52.14102], [5.36011, 52.1391], [5.35951, 52.13791]]]]}}]}