{"type": "FeatureCollection", "features": [{"type": "Feature", "properties": {"code": "WK034401", "name": "Wijk 01 West"}, "geometry": {"type": "MultiPolygon", "coordinates": [[[[5.0612, 52.12256], [5.07406, 52.11511], [5.0762, 52.11288], [5.07724, 52.1103], [5.07815, 52.10978], [5.08388, 52.10648], [5.0894, 52.10329], [5.09374, 52.10074], [5.10013, 52.0966], [5.10375, 52.09521], [5.10547, 52.09422], [5.10629, 52.09356], [5.10542, 52.09075], [5.10104, 52.08832], [5.0983, 52.08522], [5.09422, 52.08241], [5.09077, 52.08098], [5.08133, 52.07895], [5.08029, 52.08217], [5.08028, 52.08219], [5.07893, 52.08839], [5.07717, 52.09804], [5.07716, 52.0981], [5.07714, 52.09818], [5.0673, 52.09892], [5.0652, 52.10122], [5.05827, 52.10681], [5.05286, 52.10977], [5.03882, 52.11585], [5.03707, 52.11571], [5.03354, 52.11676], [5.04088, 52.1255], [5.04542, 52.12846], [5.04498, 52.12878], [5.04756, 52.12997], [5.0612, 52.12256]]]]}}, {"type": "Feature", "properties": {"code": "WK034402", "name": "Wijk 02 Noordwest"}, "geometry": {"type": "MultiPolygon", "coordinates": [[[[5.1057, 52.10852], [5.10731, 52.10642], [5.11277, 52.10867], [5.11444, 52.10707], [5.10982, 52.1047], [5.1117, 52.10081], [5.11522, 52.09714], [5.10955, 52.09524], [5.10629, 52.09356], [5.10547, 52.09422], [5.10375, 52.09521], [5.10013, 52.0966], [5.09374, 52.10074], [5.0894, 52.10329], [5.08388, 52.10648], [5.07815, 52.10978], [5.07724, 52.1103], [5.0762, 52.11288], [5.07406, 52.11511], [5.0612, 52.12256], [5.06573, 52.12526], [5.06699, 52.12599], [5.06973, 52.12641], [5.0702, 52.12718], [5.07239, 52.12536], [5.0752, 52.12167], [5.08047, 52.11903], [5.08549, 52.11883], [5.09384, 52.11741], [5.09649, 52.11479], [5.10188, 52.1111], [5.1057, 52.10852]]]]}}, {"type": "Feature", "properties": {"code": "WK034403", "name": "Wijk 03 Overvecht"}, "geometry": {"type": "MultiPolygon", "coordinates": [[[[5.10019, 52.13021], [5.10108, 52.12984], [5.10227, 52.13033], [5.1034, 52.12985], [5.10558, 52.13189], [5.10709, 52.13321], [5.12655, 52.1246], [5.1404, 52.12099], [5.14016, 52.12058], [5.1416, 52.12117], [5.1422, 52.12019], [5.14262, 52.12084], [5.14673, 52.12041], [5.14931, 52.11849], [5.14865, 52.11524], [5.14196, 52.11361], [5.1368, 52.11247], [5.12669, 52.11026], [5.11444, 52.10707], [5.11277, 52.10867], [5.10731, 52.10642], [5.1057, 52.10852], [5.10188, 52.1111], [5.09649, 52.11479], [5.09384, 52.11741], [5.08549, 52.11883], [5.08047, 52.11903], [5.0752, 52.12167], [5.07239, 52.12536], [5.07616, 52.12705], [5.08553, 52.13437], [5.08576, 52.13455], [5.08716, 52.13567], [5.10019, 52.13021]]]]}}, {"type": "Feature", "properties": {"code": "WK034404", "name": "Wijk 04 Noordoost"}, "geometry": {"type": "MultiPolygon", "coordinates": [[[[5.15627, 52.0984], [5.14393, 52.09616], [5.142, 52.09571], [5.13904, 52.09563], [5.13806, 52.09563], [5.12624, 52.09502], [5.12667, 52.09781], [5.12426, 52.09751], [5.1175, 52.09653], [5.1159, 52.09647], [5.11522, 52.09714], [5.1117, 52.10081], [5.10982, 52.1047], [5.11444, 52.10707], [5.12669, 52.11026], [5.1368, 52.11247], [5.14196, 52.11361], [5.14865, 52.11524], [5.15038, 52.11088], [5.15726, 52.10814], [5.16191, 52.10722], [5.15627, 52.0984]]]]}}, {"type": "Feature", "properties": {"code": "WK034405", "name": "Wijk 05 Oost"}, "geometry": {"type": "MultiPolygon", "coordinates": [[[[5.15627, 52.0984], [5.1564, 52.09815], [5.15731, 52.09834], [5.16132, 52.09438], [5.16611, 52.09373], [5.17201, 52.09378], [5.17586, 52.09341], [5.17601, 52.09408], [5.17681, 52.09336], [5.18056, 52.09313], [5.1807, 52.09461], [5.18269, 52.09431], [5.18462, 52.09315], [5.18617, 52.09293], [5.18976, 52.08633], [5.19275, 52.08608], [5.19515, 52.07735], [5.19264, 52.07791], [5.18155, 52.07626], [5.1791, 52.07791], [5.17161, 52.07867], [5.16692, 52.07668], [5.1624, 52.07861], [5.16072, 52.08056], [5.16018, 52.0803], [5.16044, 52.07779], [5.15566, 52.07142], [5.1564, 52.06906], [5.15939, 52.06706], [5.15833, 52.06525], [5.1589, 52.06486], [5.15689, 52.06343], [5.15775, 52.05834], [5.15303, 52.05676], [5.15281, 52.05669], [5.14387, 52.06583], [5.13623, 52.07272], [5.13395, 52.07381], [5.12988, 52.07572], [5.12237, 52.07866], [5.12402, 52.08133], [5.12418, 52.08136], [5.12521, 52.08136], [5.12821, 52.08443], [5.1298, 52.08541], [5.12739, 52.09142], [5.12624, 52.09502], [5.13806, 52.09563], [5.13904, 52.09563], [5.142, 52.09571], [5.14393, 52.09616], [5.15627, 52.0984]]]]}}, {"type": "Feature", "properties": {"code": "WK034406", "name": "Wijk 06 Binnenstad"}, "geometry": {"type": "MultiPolygon", "coordinates": [[[[5.12667, 52.09781], [5.12624, 52.09502], [5.12739, 52.09142], [5.1298, 52.08541], [5.12821, 52.08443], [5.12521, 52.08136], [5.12418, 52.08136], [5.12402, 52.08133], [5.12237, 52.07866], [5.11969, 52.07976], [5.1192, 52.07957], [5.11555, 52.08088], [5.11196, 52.08466], [5.10881, 52.08501], [5.10503, 52.0818], [5.0983, 52.08522], [5.10104, 52.08832], [5.10542, 52.09075], [5.10629, 52.09356], [5.10955, 52.09524], [5.11522, 52.09714], [5.1159, 52.09647], [5.1175, 52.09653], [5.12426, 52.09751], [5.12667, 52.09781]]]]}}, {"type": "Feature", "properties": {"code": "WK034407", "name": "Wijk 07 Zuid"}, "geometry": {"type": "MultiPolygon", "coordinates": [[[[5.14994, 52.05559], [5.14568, 52.05256], [5.12683, 52.05492], [5.12408, 52.05522], [5.12125, 52.05439], [5.11775, 52.05664], [5.11316, 52.0577], [5.11328, 52.05788], [5.11126, 52.05832], [5.1124, 52.06139], [5.11308, 52.06259], [5.11557, 52.0669], [5.11919, 52.07312], [5.12237, 52.07866], [5.12988, 52.07572], [5.13395, 52.07381], [5.13623, 52.07272], [5.14387, 52.06583], [5.15281, 52.05669], [5.14994, 52.05559]]]]}}, {"type": "Feature", "properties": {"code": "WK034408", "name": "Wijk 08 Zuidwest"}, "geometry": {"type": "MultiPolygon", "coordinates": [[[[5.0983, 52.08522], [5.10503, 52.0818], [5.10881, 52.08501], [5.11196, 52.08466], [5.11555, 52.08088], [5.1192, 52.07957], [5.11969, 52.07976], [5.12237, 52.07866], [5.11919, 52.07312], [5.11557, 52.0669], [5.11308, 52.06259], [5.1124, 52.06139], [5.11126, 52.05832], [5.11038, 52.0574], [5.10944, 52.05551], [5.10842, 52.05201], [5.10734, 52.05003], [5.10539, 52.05011], [5.1044, 52.04994], [5.10209, 52.05426], [5.09735, 52.05948], [5.09725, 52.06104], [5.09543, 52.06302], [5.08803, 52.07097], [5.08133, 52.07895], [5.09077, 52.08098], [5.09422, 52.08241], [5.0983, 52.08522]]]]}}, {"type": "Feature", "properties": {"code": "WK034409", "name": "Wijk 09 Leidsche Rijn"}, "geometry": {"type": "MultiPolygon", "coordinates": [[[[5.03354, 52.11676], [5.03707, 52.11571], [5.03882, 52.11585], [5.05286, 52.10977], [5.05827, 52.10681], [5.0652, 52.10122], [5.0673, 52.09892], [5.07714, 52.09818], [5.07716, 52.0981], [5.07717, 52.09804], [5.07893, 52.08839], [5.08028, 52.08219], [5.08029, 52.08217], [5.08133, 52.07895], [5.08803, 52.07097], [5.09543, 52.06302], [5.09725, 52.06104], [5.08582, 52.06249], [5.07572, 52.06548], [5.07309, 52.06805], [5.0742, 52.07372], [5.07323, 52.07404], [5.07238, 52.07432], [5.06919, 52.06923], [5.06562, 52.06814], [5.06255, 52.06805], [5.05341, 52.06976], [5.05491, 52.07199], [5.05835, 52.07872], [5.06014, 52.07875], [5.06126, 52.0811], [5.06011, 52.08241], [5.0585, 52.08319], [5.05428, 52.0835], [5.05329, 52.08353], [5.0531, 52.0828], [5.04849, 52.08282], [5.04893, 52.0855], [5.04771, 52.08562], [5.04813, 52.08712], [5.04837, 52.08974], [5.04391, 52.08978], [5.04023, 52.08923], [5.03968, 52.09137], [5.03585, 52.09588], [5.03293, 52.09773], [5.02935, 52.09799], [5.02751, 52.09947], [5.02895, 52.10155], [5.03203, 52.1092], [5.03519, 52.11286], [5.03084, 52.11504], [5.03251, 52.11684], [5.03354, 52.11676]]]]}}, {"type": "Feature", "properties": {"code": "WK034410", "name": "Wijk 10 Vleuten-De Meern"}, "geometry": {"type": "MultiPolygon", "coordinates": [[[[5.03084, 52.11504], [5.03519, 52.11286], [5.03203, 52.1092], [5.02895, 52.10155], [5.02751, 52.09947], [5.02935, 52.09799], [5.03293, 52.09773], [5.03585, 52.09588], [5.03968, 52.09137], [5.04023, 52.08923], [5.04391, 52.08978], [5.04837, 52.08974], [5.04813, 52.08712], [5.04771, 52.08562], [5.04893, 52.0855], [5.04849, 52.08282], [5.0531, 52.0828], [5.05329, 52.08353], [5.05428, 52.0835], [5.0585, 52.08319], [5.06011, 52.08241], [5.06126, 52.0811], [5.06014, 52.07875], [5.05835, 52.07872], [5.05491, 52.07199], [5.05341, 52.06976], [5.06255, 52.06805], [5.06562, 52.06814], [5.06919, 52.06923], [5.07238, 52.07432], [5.07323, 52.07404], [5.0742, 52.07372], [5.07309, 52.06805], [5.07572, 52.06548], [5.08582, 52.06249], [5.09725, 52.06104], [5.09735, 52.05948], [5.09679, 52.05928], [5.09412, 52.05875], [5.08999, 52.06073], [5.07322, 52.06222], [5.06964, 52.06142], [5.06723, 52.0575], [5.06514, 52.05498], [5.06417, 52.05158], [5.06362, 52.04136], [5.06344, 52.04111], [5.06355, 52.04072], [5.06356, 52.03835], [5.06251, 52.0286], [5.06314, 52.02788], [5.0628, 52.02682], [5.06102, 52.02628], [5.05491, 52.02887], [5.05534, 52.02974], [5.05198, 52.03089], [5.05142, 52.03011], [5.04558, 52.03477], [5.03804, 52.04417], [5.02834, 52.05076], [5.02767, 52.0517], [5.02826, 52.05358], [5.02696, 52.05463], [5.02712, 52.0554], [5.02559, 52.05586], [5.02161, 52.05581], [5.01743, 52.06099], [5.01707, 52.06114], [5.01801, 52.06222], [4.9995, 52.06613], [5.00162, 52.07814], [5.00323, 52.07796], [5.00501, 52.08845], [4.99422, 52.09039], [4.99352, 52.09223], [4.98933, 52.10076], [4.97566, 52.09979], [4.97344, 52.10123], [4.97305, 52.10278], [4.97582, 52.10572], [4.97627, 52.10797], [4.97873, 52.1081], [4.97962, 52.10872], [4.97958, 52.11156], [4.98022, 52.1122], [4.97847, 52.11316], [4.9782, 52.11285], [4.9701, 52.12244], [4.97394, 52.12967], [4.98524, 52.13244], [4.98638, 52.13524], [4.9945, 52.13861], [5.0031, 52.14205], [5.0027, 52.1413], [5.01211, 52.12969], [5.03251, 52.11684], [5.03084, 52.11504]]]]}}]}