{"type": "FeatureCollection", "features": [{"type": "Feature", "properties": {"code": "BU03610100", "name": "Kooimeer"}, "geometry": {"type": "MultiPolygon", "coordinates": [[[[4.74334, 52.62032], [4.74512, 52.61879], [4.73999, 52.61444], [4.73945, 52.61387], [4.73319, 52.61766], [4.73486, 52.61902], [4.73757, 52.61973], [4.73871, 52.62114], [4.74334, 52.62032]]]]}}, {"type": "Feature", "properties": {"code": "BU03610101", "name": "Dillenburg en Stadhouderskwartier"}, "geometry": {"type": "MultiPolygon", "coordinates": [[[[4.74683, 52.62129], [4.74774, 52.62046], [4.74512, 52.61879], [4.74334, 52.62032], [4.73871, 52.62114], [4.73948, 52.62279], [4.74148, 52.62403], [4.74683, 52.62129]]]]}}, {"type": "Feature", "properties": {"code": "BU03610102", "name": "Staatsliedenkwartier en Landstraten"}, "geometry": {"type": "MultiPolygon", "coordinates": [[[[4.74734, 52.62762], [4.75273, 52.62657], [4.75171, 52.62498], [4.74774, 52.62046], [4.74683, 52.62129], [4.74776, 52.62236], [4.74666, 52.62409], [4.74419, 52.62543], [4.74655, 52.62765], [4.74734, 52.62762]]]]}}, {"type": "Feature", "properties": {"code": "BU03610103", "name": "Oud-Rochdale"}, "geometry": {"type": "MultiPolygon", "coordinates": [[[[4.74666, 52.62409], [4.74776, 52.62236], [4.74683, 52.62129], [4.74148, 52.62403], [4.74419, 52.62543], [4.74666, 52.62409]]]]}}, {"type": "Feature", "properties": {"code": "BU03610104", "name": "Emmakwartier"}, "geometry": {"type": "MultiPolygon", "coordinates": [[[[4.74655, 52.62765], [4.74419, 52.62543], [4.74148, 52.62403], [4.73792, 52.62517], [4.74283, 52.62941], [4.74655, 52.62765]]]]}}, {"type": "Feature", "properties": {"code": "BU03610105", "name": "Nassaukwartier en Hout"}, "geometry": {"type": "MultiPolygon", "coordinates": [[[[4.74204, 52.63411], [4.73942, 52.63361], [4.741, 52.62959], [4.74283, 52.62941], [4.73792, 52.62517], [4.7366, 52.62326], [4.72901, 52.62658], [4.7304, 52.62734], [4.73279, 52.63126], [4.73937, 52.63527], [4.74204, 52.63411]]]]}}, {"type": "Feature", "properties": {"code": "BU03610106", "name": "Oranjepark"}, "geometry": {"type": "MultiPolygon", "coordinates": [[[[4.7366, 52.62326], [4.73126, 52.61869], [4.73126, 52.61869], [4.72153, 52.62251], [4.72387, 52.62508], [4.72554, 52.62435], [4.72901, 52.62658], [4.7366, 52.62326]]]]}}, {"type": "Feature", "properties": {"code": "BU03610107", "name": "Cranenbroek"}, "geometry": {"type": "MultiPolygon", "coordinates": [[[[4.73279, 52.63126], [4.7304, 52.62734], [4.72901, 52.62658], [4.72554, 52.62435], [4.72387, 52.62508], [4.7279, 52.62948], [4.73051, 52.63231], [4.73279, 52.63126]]]]}}, {"type": "Feature", "properties": {"code": "BU03610108", "name": "Bloemwijk en Zocherkwartier"}, "geometry": {"type": "MultiPolygon", "coordinates": [[[[4.73937, 52.63527], [4.73279, 52.63126], [4.73051, 52.63231], [4.73294, 52.63497], [4.73559, 52.63691], [4.73937, 52.63527]]]]}}, {"type": "Feature", "properties": {"code": "BU03610109", "name": "Burgemeesterskwartier"}, "geometry": {"type": "MultiPolygon", "coordinates": [[[[4.74148, 52.62403], [4.73948, 52.62279], [4.73871, 52.62114], [4.73757, 52.61973], [4.73486, 52.61902], [4.73319, 52.61766], [4.73126, 52.61869], [4.7366, 52.62326], [4.73792, 52.62517], [4.74148, 52.62403]]]]}}, {"type": "Feature", "properties": {"code": "BU03610200", "name": "Rekerbuurt en Ooievaarsnest"}, "geometry": {"type": "MultiPolygon", "coordinates": [[[[4.76482, 52.6396], [4.76269, 52.63612], [4.75965, 52.63631], [4.7584, 52.63099], [4.75659, 52.63089], [4.75283, 52.63276], [4.7535, 52.63511], [4.75825, 52.6395], [4.75651, 52.64046], [4.76195, 52.64287], [4.76482, 52.6396]]]]}}, {"type": "Feature", "properties": {"code": "BU03610201", "name": "Oudorp-Noord en Oudorp-Oost"}, "geometry": {"type": "MultiPolygon", "coordinates": [[[[4.78669, 52.64059], [4.78528, 52.63812], [4.7884, 52.63889], [4.79164, 52.63823], [4.79057, 52.6365], [4.78318, 52.63117], [4.77858, 52.62355], [4.77542, 52.62445], [4.77285, 52.62691], [4.77654, 52.62903], [4.77814, 52.63557], [4.7722, 52.63692], [4.77156, 52.6361], [4.76958, 52.63665], [4.76269, 52.63612], [4.76482, 52.6396], [4.76195, 52.64287], [4.76893, 52.64596], [4.77311, 52.64265], [4.77792, 52.64153], [4.78669, 52.64059]]]]}}, {"type": "Feature", "properties": {"code": "BU03610202", "name": "Oudorp-Centrum"}, "geometry": {"type": "MultiPolygon", "coordinates": [[[[4.77814, 52.63557], [4.77654, 52.62903], [4.77285, 52.62691], [4.76965, 52.62832], [4.7705, 52.62929], [4.76934, 52.62954], [4.76965, 52.6306], [4.77038, 52.63293], [4.77156, 52.6361], [4.7722, 52.63692], [4.77814, 52.63557]]]]}}, {"type": "Feature", "properties": {"code": "BU03610203", "name": "Schermereiland en Omval"}, "geometry": {"type": "MultiPolygon", "coordinates": [[[[4.76965, 52.62832], [4.77285, 52.62691], [4.77542, 52.62445], [4.77858, 52.62355], [4.77338, 52.61672], [4.76792, 52.61564], [4.7682, 52.61694], [4.7694, 52.62162], [4.76472, 52.62412], [4.7582, 52.62692], [4.75497, 52.6283], [4.75659, 52.63089], [4.7584, 52.63099], [4.76965, 52.62832]]]]}}, {"type": "Feature", "properties": {"code": "BU03610204", "name": "Oudorperpolder-Zuid"}, "geometry": {"type": "MultiPolygon", "coordinates": [[[[4.76269, 52.63612], [4.76379, 52.63469], [4.76238, 52.63298], [4.76965, 52.6306], [4.76934, 52.62954], [4.7705, 52.62929], [4.76965, 52.62832], [4.7584, 52.63099], [4.75965, 52.63631], [4.76269, 52.63612]]]]}}, {"type": "Feature", "properties": {"code": "BU03610205", "name": "Oudorperpolder-Midden"}, "geometry": {"type": "MultiPolygon", "coordinates": [[[[4.77038, 52.63293], [4.76965, 52.6306], [4.76238, 52.63298], [4.76379, 52.63469], [4.77038, 52.63293]]]]}}, {"type": "Feature", "properties": {"code": "BU03610206", "name": "Oudorperpolder-Noord"}, "geometry": {"type": "MultiPolygon", "coordinates": [[[[4.77156, 52.6361], [4.77038, 52.63293], [4.76379, 52.63469], [4.76269, 52.63612], [4.76958, 52.63665], [4.77156, 52.6361]]]]}}, {"type": "Feature", "properties": {"code": "BU03610208", "name": "De Nollen"}, "geometry": {"type": "MultiPolygon", "coordinates": [[[[4.80056, 52.65787], [4.80056, 52.65787], [4.79875, 52.65869], [4.78899, 52.654], [4.78375, 52.64702], [4.77906, 52.64348], [4.77792, 52.64153], [4.77311, 52.64265], [4.76893, 52.64596], [4.77367, 52.64836], [4.79194, 52.65629], [4.79202, 52.65644], [4.79362, 52.65714], [4.80051, 52.66024], [4.80054, 52.66003], [4.80056, 52.65787]]]]}}, {"type": "Feature", "properties": {"code": "BU03610209", "name": "Beverkoog"}, "geometry": {"type": "MultiPolygon", "coordinates": [[[[4.80056, 52.65787], [4.80041, 52.65724], [4.79864, 52.65356], [4.79298, 52.64842], [4.78669, 52.64059], [4.77792, 52.64153], [4.77906, 52.64348], [4.78375, 52.64702], [4.78899, 52.654], [4.79875, 52.65869], [4.80056, 52.65787]]]]}}, {"type": "Feature", "properties": {"code": "BU03610300", "name": "Oud-Overdie"}, "geometry": {"type": "MultiPolygon", "coordinates": [[[[4.76472, 52.62412], [4.76356, 52.62233], [4.76018, 52.61997], [4.75843, 52.62057], [4.76006, 52.62218], [4.75905, 52.62283], [4.75171, 52.62498], [4.75273, 52.62657], [4.7582, 52.62692], [4.76472, 52.62412]]]]}}, {"type": "Feature", "properties": {"code": "BU03610301", "name": "Oosterhout"}, "geometry": {"type": "MultiPolygon", "coordinates": [[[[4.75905, 52.62283], [4.76006, 52.62218], [4.75843, 52.62057], [4.76018, 52.61997], [4.76356, 52.62233], [4.76472, 52.62412], [4.7694, 52.62162], [4.7682, 52.61694], [4.75957, 52.6173], [4.7594, 52.61843], [4.75044, 52.61889], [4.74774, 52.62046], [4.75171, 52.62498], [4.75905, 52.62283]]]]}}, {"type": "Feature", "properties": {"code": "BU03610302", "name": "Overdie-Oost"}, "geometry": {"type": "MultiPolygon", "coordinates": [[[[4.7594, 52.61843], [4.75957, 52.6173], [4.75055, 52.61402], [4.74626, 52.6136], [4.75044, 52.61889], [4.7594, 52.61843]]]]}}, {"type": "Feature", "properties": {"code": "BU03610303", "name": "Overdie-West"}, "geometry": {"type": "MultiPolygon", "coordinates": [[[[4.75044, 52.61889], [4.74626, 52.6136], [4.73999, 52.61444], [4.74512, 52.61879], [4.74774, 52.62046], [4.75044, 52.61889]]]]}}, {"type": "Feature", "properties": {"code": "BU03610308", "name": "Boekelermeer-Zuid"}, "geometry": {"type": "MultiPolygon", "coordinates": [[[[4.74213, 52.61016], [4.74269, 52.61056], [4.76391, 52.60502], [4.75648, 52.59157], [4.75248, 52.59258], [4.75214, 52.59189], [4.73746, 52.59386], [4.73696, 52.59576], [4.73791, 52.59729], [4.73541, 52.60383], [4.73619, 52.60545], [4.7339, 52.6073], [4.73335, 52.60755], [4.73788, 52.61216], [4.73788, 52.61216], [4.74213, 52.61016]]]]}}, {"type": "Feature", "properties": {"code": "BU03610309", "name": "Boekelermeer-Noord"}, "geometry": {"type": "MultiPolygon", "coordinates": [[[[4.7682, 52.61694], [4.76792, 52.61564], [4.76582, 52.6076], [4.76391, 52.60502], [4.74269, 52.61056], [4.74213, 52.61016], [4.73788, 52.61216], [4.73945, 52.61387], [4.73999, 52.61444], [4.74626, 52.6136], [4.75055, 52.61402], [4.75957, 52.6173], [4.7682, 52.61694]]]]}}, {"type": "Feature", "properties": {"code": "BU03610400", "name": "De Hoef III en IV"}, "geometry": {"type": "MultiPolygon", "coordinates": [[[[4.7279, 52.62948], [4.72387, 52.62508], [4.72153, 52.62251], [4.71631, 52.62499], [4.71459, 52.62478], [4.7149, 52.62535], [4.71614, 52.626], [4.71241, 52.62904], [4.71225, 52.63027], [4.71695, 52.63376], [4.7279, 52.62948]]]]}}, {"type": "Feature", "properties": {"code": "BU03610401", "name": "De Hoef I en II"}, "geometry": {"type": "MultiPolygon", "coordinates": [[[[4.73294, 52.63497], [4.73051, 52.63231], [4.7279, 52.62948], [4.71695, 52.63376], [4.72055, 52.63538], [4.72383, 52.63792], [4.73294, 52.63497]]]]}}, {"type": "Feature", "properties": {"code": "BU03610402", "name": "Bergerwegkwartier"}, "geometry": {"type": "MultiPolygon", "coordinates": [[[[4.73559, 52.63691], [4.73294, 52.63497], [4.72383, 52.63792], [4.72604, 52.64044], [4.73559, 52.63691]]]]}}, {"type": "Feature", "properties": {"code": "BU03610403", "name": "Bergerhof en Blaeustraatkwartier"}, "geometry": {"type": "MultiPolygon", "coordinates": [[[[4.74428, 52.64518], [4.74627, 52.63867], [4.73729, 52.63762], [4.73559, 52.63691], [4.72604, 52.64044], [4.72781, 52.64227], [4.72897, 52.64072], [4.73036, 52.64024], [4.73907, 52.63999], [4.73952, 52.64248], [4.73745, 52.64593], [4.74389, 52.64647], [4.74428, 52.64518]]]]}}, {"type": "Feature", "properties": {"code": "BU03610404", "name": "Bergermeer"}, "geometry": {"type": "MultiPolygon", "coordinates": [[[[4.73745, 52.64593], [4.73952, 52.64248], [4.73907, 52.63999], [4.73036, 52.64024], [4.72897, 52.64072], [4.72781, 52.64227], [4.73234, 52.64719], [4.73745, 52.64593]]]]}}, {"type": "Feature", "properties": {"code": "BU03610409", "name": "Landelijk gebied-West"}, "geometry": {"type": "MultiPolygon", "coordinates": [[[[4.74593, 52.66308], [4.74525, 52.66037], [4.74622, 52.65815], [4.74602, 52.65685], [4.74289, 52.6539], [4.74389, 52.64647], [4.73745, 52.64593], [4.73234, 52.64719], [4.72781, 52.64227], [4.72604, 52.64044], [4.72383, 52.63792], [4.72055, 52.63538], [4.71695, 52.63376], [4.71225, 52.63027], [4.71241, 52.62904], [4.71614, 52.626], [4.7149, 52.62535], [4.71529, 52.62582], [4.7098, 52.62872], [4.71133, 52.62991], [4.70831, 52.63088], [4.70981, 52.63251], [4.70887, 52.63551], [4.71003, 52.64247], [4.7142, 52.64282], [4.71281, 52.64621], [4.71761, 52.64665], [4.71693, 52.6496], [4.72039, 52.65008], [4.72194, 52.64918], [4.72268, 52.64937], [4.72179, 52.65073], [4.72525, 52.65195], [4.72682, 52.65549], [4.72925, 52.65612], [4.72571, 52.65731], [4.72755, 52.65739], [4.72762, 52.6585], [4.73064, 52.65875], [4.73153, 52.65981], [4.73285, 52.65989], [4.73115, 52.66159], [4.7337, 52.6618], [4.73521, 52.66139], [4.7341, 52.66293], [4.73925, 52.66294], [4.7426, 52.66118], [4.74516, 52.66336], [4.74593, 52.66308]]]]}}, {"type": "Feature", "properties": {"code": "BU03610500", "name": "Huiswaard-1-Zuid"}, "geometry": {"type": "MultiPolygon", "coordinates": [[[[4.75651, 52.64046], [4.75315, 52.63946], [4.74627, 52.63867], [4.74428, 52.64518], [4.75289, 52.64612], [4.75651, 52.64046]]]]}}, {"type": "Feature", "properties": {"code": "BU03610501", "name": "Muiderwaard"}, "geometry": {"type": "MultiPolygon", "coordinates": [[[[4.75289, 52.64612], [4.74428, 52.64518], [4.74389, 52.64647], [4.75247, 52.64744], [4.75289, 52.64612]]]]}}, {"type": "Feature", "properties": {"code": "BU03610502", "name": "Huiswaard-2-West"}, "geometry": {"type": "MultiPolygon", "coordinates": [[[[4.76103, 52.64542], [4.76096, 52.64388], [4.76195, 52.64287], [4.75651, 52.64046], [4.75289, 52.64612], [4.75247, 52.64744], [4.75727, 52.648], [4.76103, 52.64542]]]]}}, {"type": "Feature", "properties": {"code": "BU03610503", "name": "Huiswaard-2-Oost"}, "geometry": {"type": "MultiPolygon", "coordinates": [[[[4.76893, 52.64596], [4.76195, 52.64287], [4.76096, 52.64388], [4.76103, 52.64542], [4.75727, 52.648], [4.76462, 52.6489], [4.76893, 52.64596]]]]}}, {"type": "Feature", "properties": {"code": "BU03610600", "name": "'t Rak-Zuid"}, "geometry": {"type": "MultiPolygon", "coordinates": [[[[4.74894, 52.6578], [4.74845, 52.65732], [4.74936, 52.6566], [4.7537, 52.65749], [4.75486, 52.65721], [4.75292, 52.65327], [4.74781, 52.65101], [4.74812, 52.65019], [4.75201, 52.6486], [4.75247, 52.64744], [4.74389, 52.64647], [4.74289, 52.6539], [4.74602, 52.65685], [4.74622, 52.65815], [4.74781, 52.65819], [4.74894, 52.6578]]]]}}, {"type": "Feature", "properties": {"code": "BU03610601", "name": "'t Rak-Noord"}, "geometry": {"type": "MultiPolygon", "coordinates": [[[[4.756, 52.66673], [4.75972, 52.66421], [4.75955, 52.66337], [4.7582, 52.66361], [4.75828, 52.66219], [4.76054, 52.661], [4.7609, 52.66084], [4.75887, 52.65956], [4.75578, 52.66117], [4.75407, 52.66089], [4.75314, 52.6585], [4.74894, 52.6578], [4.74781, 52.65819], [4.74611, 52.65983], [4.74709, 52.66281], [4.75147, 52.66756], [4.756, 52.66673]]]]}}, {"type": "Feature", "properties": {"code": "BU03610602", "name": "De Horn-Noord"}, "geometry": {"type": "MultiPolygon", "coordinates": [[[[4.77416, 52.66478], [4.76909, 52.65631], [4.7632, 52.65816], [4.75999, 52.65778], [4.75887, 52.65956], [4.7609, 52.66084], [4.76234, 52.66043], [4.76548, 52.66078], [4.76596, 52.66154], [4.76457, 52.66276], [4.77169, 52.66537], [4.77416, 52.66478]]]]}}, {"type": "Feature", "properties": {"code": "BU03610603", "name": "De Horn-Zuid"}, "geometry": {"type": "MultiPolygon", "coordinates": [[[[4.76909, 52.65631], [4.76462, 52.6489], [4.75727, 52.648], [4.75679, 52.65061], [4.75999, 52.65778], [4.7632, 52.65816], [4.76909, 52.65631]]]]}}, {"type": "Feature", "properties": {"code": "BU03610604", "name": "De Mare"}, "geometry": {"type": "MultiPolygon", "coordinates": [[[[4.75887, 52.65956], [4.75999, 52.65778], [4.75679, 52.65061], [4.75727, 52.648], [4.75247, 52.64744], [4.75201, 52.6486], [4.74812, 52.65019], [4.74781, 52.65101], [4.75292, 52.65327], [4.75486, 52.65721], [4.7537, 52.65749], [4.74936, 52.6566], [4.74845, 52.65732], [4.74894, 52.6578], [4.75314, 52.6585], [4.75407, 52.66089], [4.75578, 52.66117], [4.75887, 52.65956]]]]}}, {"type": "Feature", "properties": {"code": "BU03610700", "name": "Daalmeer-Zuidoost"}, "geometry": {"type": "MultiPolygon", "coordinates": [[[[4.77316, 52.66902], [4.77597, 52.66785], [4.77449, 52.66534], [4.77416, 52.66478], [4.77169, 52.66537], [4.76457, 52.66276], [4.76596, 52.66154], [4.76548, 52.66078], [4.76234, 52.66043], [4.7609, 52.66084], [4.76054, 52.661], [4.76447, 52.66452], [4.76508, 52.66964], [4.77316, 52.66902]]]]}}, {"type": "Feature", "properties": {"code": "BU03610701", "name": "Daalmeer-Zuidwest"}, "geometry": {"type": "MultiPolygon", "coordinates": [[[[4.75904, 52.67008], [4.76508, 52.66964], [4.76447, 52.66452], [4.76054, 52.661], [4.75828, 52.66219], [4.7582, 52.66361], [4.75955, 52.66337], [4.75972, 52.66421], [4.756, 52.66673], [4.75736, 52.66776], [4.7562, 52.66802], [4.75688, 52.6697], [4.75783, 52.67026], [4.75904, 52.67008]]]]}}, {"type": "Feature", "properties": {"code": "BU03610702", "name": "Koedijk en De Weijdt"}, "geometry": {"type": "MultiPolygon", "coordinates": [[[[4.74913, 52.6774], [4.75842, 52.6758], [4.75778, 52.67232], [4.76024, 52.6712], [4.75904, 52.67008], [4.75783, 52.67026], [4.75688, 52.6697], [4.7562, 52.66802], [4.75736, 52.66776], [4.756, 52.66673], [4.75147, 52.66756], [4.74709, 52.66281], [4.74611, 52.65983], [4.74781, 52.65819], [4.74622, 52.65815], [4.74525, 52.66037], [4.74593, 52.66308], [4.74901, 52.66597], [4.75241, 52.67145], [4.74771, 52.67685], [4.74384, 52.6787], [4.74174, 52.68081], [4.74358, 52.68131], [4.74913, 52.6774]]]]}}, {"type": "Feature", "properties": {"code": "BU03610703", "name": "Daalmeer-Noordwest"}, "geometry": {"type": "MultiPolygon", "coordinates": [[[[4.7672, 52.67429], [4.76562, 52.67357], [4.76508, 52.66964], [4.75904, 52.67008], [4.76024, 52.6712], [4.75778, 52.67232], [4.75842, 52.6758], [4.7672, 52.67429]]]]}}, {"type": "Feature", "properties": {"code": "BU03610704", "name": "Daalmeer-Noordoost"}, "geometry": {"type": "MultiPolygon", "coordinates": [[[[4.77858, 52.67231], [4.77597, 52.66785], [4.77316, 52.66902], [4.76508, 52.66964], [4.76562, 52.67357], [4.7672, 52.67429], [4.77858, 52.67231]]]]}}, {"type": "Feature", "properties": {"code": "BU03610709", "name": "Landelijk gebied Noord"}, "geometry": {"type": "MultiPolygon", "coordinates": [[[[4.77251, 52.67771], [4.77902, 52.67648], [4.77901, 52.67405], [4.77858, 52.67231], [4.7672, 52.67429], [4.75842, 52.6758], [4.74913, 52.6774], [4.74358, 52.68131], [4.74477, 52.68168], [4.74691, 52.6823], [4.74998, 52.68237], [4.77251, 52.67771]]]]}}, {"type": "Feature", "properties": {"code": "BU03610800", "name": "Binnenstad-West"}, "geometry": {"type": "MultiPolygon", "coordinates": [[[[4.74918, 52.63379], [4.75153, 52.63313], [4.74734, 52.62762], [4.74655, 52.62765], [4.74283, 52.62941], [4.741, 52.62959], [4.73942, 52.63361], [4.74204, 52.63411], [4.74632, 52.63473], [4.74918, 52.63379]]]]}}, {"type": "Feature", "properties": {"code": "BU03610801", "name": "Binnenstad-Oost"}, "geometry": {"type": "MultiPolygon", "coordinates": [[[[4.75283, 52.63276], [4.75659, 52.63089], [4.75497, 52.6283], [4.7582, 52.62692], [4.75273, 52.62657], [4.74734, 52.62762], [4.75153, 52.63313], [4.75283, 52.63276]]]]}}, {"type": "Feature", "properties": {"code": "BU03610802", "name": "Spoorbuurt"}, "geometry": {"type": "MultiPolygon", "coordinates": [[[[4.74707, 52.63615], [4.74918, 52.63379], [4.74632, 52.63473], [4.74204, 52.63411], [4.73937, 52.63527], [4.73559, 52.63691], [4.73729, 52.63762], [4.74627, 52.63867], [4.74707, 52.63615]]]]}}, {"type": "Feature", "properties": {"code": "BU03610803", "name": "Overstad"}, "geometry": {"type": "MultiPolygon", "coordinates": [[[[4.75825, 52.6395], [4.7535, 52.63511], [4.75283, 52.63276], [4.75153, 52.63313], [4.74918, 52.63379], [4.74707, 52.63615], [4.74627, 52.63867], [4.75315, 52.63946], [4.75651, 52.64046], [4.75825, 52.6395]]]]}}, {"type": "Feature", "properties": {"code": "BU03610900", "name": "Oterleek"}, "geometry": {"type": "MultiPolygon", "coordinates": [[[[4.87008, 52.63389], [4.86572, 52.62622], [4.85939, 52.62732], [4.85671, 52.62247], [4.86764, 52.62017], [4.86567, 52.6167], [4.86431, 52.61699], [4.86169, 52.61237], [4.78886, 52.62755], [4.7947, 52.63788], [4.80781, 52.63398], [4.81448, 52.63387], [4.82421, 52.63382], [4.83022, 52.63268], [4.83441, 52.63743], [4.83454, 52.63799], [4.83451, 52.63915], [4.83518, 52.6409], [4.83553, 52.64244], [4.83855, 52.64614], [4.84273, 52.64594], [4.84742, 52.64206], [4.8516, 52.64056], [4.86055, 52.63914], [4.86297, 52.63745], [4.86388, 52.63536], [4.8734, 52.63444], [4.87553, 52.63411], [4.87008, 52.63389]]]]}}, {"type": "Feature", "properties": {"code": "BU03610901", "name": "Ursem"}, "geometry": {"type": "MultiPolygon", "coordinates": [[[[4.88137, 52.63344], [4.88535, 52.63014], [4.88805, 52.62738], [4.8894, 52.62392], [4.88725, 52.62259], [4.88399, 52.61314], [4.88359, 52.61212], [4.87276, 52.61438], [4.87323, 52.6151], [4.86567, 52.6167], [4.86764, 52.62017], [4.85671, 52.62247], [4.85939, 52.62732], [4.86572, 52.62622], [4.87008, 52.63389], [4.87553, 52.63411], [4.88137, 52.63344]]]]}}, {"type": "Feature", "properties": {"code": "BU03610902", "name": "Stompetoren"}, "geometry": {"type": "MultiPolygon", "coordinates": [[[[4.7947, 52.63788], [4.78886, 52.62755], [4.86169, 52.61237], [4.86317, 52.61197], [4.85829, 52.60349], [4.85659, 52.60117], [4.85338, 52.60176], [4.85062, 52.59686], [4.82638, 52.60191], [4.82184, 52.59384], [4.81966, 52.59366], [4.81968, 52.5937], [4.82448, 52.6023], [4.78008, 52.61142], [4.78204, 52.61491], [4.77338, 52.61672], [4.77858, 52.62355], [4.78318, 52.63117], [4.79057, 52.6365], [4.79164, 52.63823], [4.7947, 52.63788]]]]}}, {"type": "Feature", "properties": {"code": "BU03610903", "name": "Schermerhorn"}, "geometry": {"type": "MultiPolygon", "coordinates": [[[[4.86567, 52.6167], [4.87323, 52.6151], [4.87276, 52.61438], [4.88359, 52.61212], [4.88399, 52.61314], [4.89693, 52.61335], [4.92204, 52.61148], [4.92579, 52.60948], [4.92692, 52.6067], [4.92144, 52.60831], [4.91537, 52.60864], [4.90117, 52.60293], [4.89349, 52.59784], [4.89205, 52.59845], [4.87686, 52.59986], [4.87133, 52.59466], [4.86825, 52.59391], [4.86358, 52.59413], [4.85062, 52.59686], [4.85338, 52.60176], [4.85659, 52.60117], [4.85829, 52.60349], [4.86317, 52.61197], [4.86169, 52.61237], [4.86431, 52.61699], [4.86567, 52.6167]]]]}}, {"type": "Feature", "properties": {"code": "BU03610904", "name": "Zuidschermer"}, "geometry": {"type": "MultiPolygon", "coordinates": [[[[4.81968, 52.5937], [4.80663, 52.59708], [4.80631, 52.59551], [4.80102, 52.59385], [4.79845, 52.59161], [4.79252, 52.58144], [4.7905, 52.58185], [4.78781, 52.57908], [4.79179, 52.57266], [4.7924, 52.57214], [4.79335, 52.57234], [4.79456, 52.56834], [4.79181, 52.55629], [4.7861, 52.55606], [4.78162, 52.5571], [4.77197, 52.5599], [4.75686, 52.56207], [4.75254, 52.56278], [4.74508, 52.56685], [4.7447, 52.56794], [4.74728, 52.57136], [4.7489, 52.57399], [4.75131, 52.58228], [4.75648, 52.59157], [4.76391, 52.60502], [4.76582, 52.6076], [4.76792, 52.61564], [4.77338, 52.61672], [4.78204, 52.61491], [4.78008, 52.61142], [4.82448, 52.6023], [4.81968, 52.5937]]]]}}, {"type": "Feature", "properties": {"code": "BU03610905", "name": "Driehuizen"}, "geometry": {"type": "MultiPolygon", "coordinates": [[[[4.81968, 52.5937], [4.81966, 52.59366], [4.82123, 52.59334], [4.82308, 52.58819], [4.82963, 52.58518], [4.8336, 52.58486], [4.83466, 52.58214], [4.83418, 52.58083], [4.82482, 52.58175], [4.82221, 52.58258], [4.82083, 52.58219], [4.81772, 52.58041], [4.81528, 52.57631], [4.81081, 52.57442], [4.81037, 52.57395], [4.80748, 52.57379], [4.8015, 52.57445], [4.79274, 52.57345], [4.79335, 52.57234], [4.7924, 52.57214], [4.79179, 52.57266], [4.78781, 52.57908], [4.7905, 52.58185], [4.79252, 52.58144], [4.79845, 52.59161], [4.80102, 52.59385], [4.80631, 52.59551], [4.80663, 52.59708], [4.81968, 52.5937]]]]}}, {"type": "Feature", "properties": {"code": "BU03610906", "name": "Grootschermer"}, "geometry": {"type": "MultiPolygon", "coordinates": [[[[4.85062, 52.59686], [4.86358, 52.59413], [4.86825, 52.59391], [4.87133, 52.59466], [4.87686, 52.59986], [4.89205, 52.59845], [4.89349, 52.59784], [4.89052, 52.59462], [4.88475, 52.58424], [4.87638, 52.57783], [4.86863, 52.57595], [4.86567, 52.57375], [4.86424, 52.57162], [4.85472, 52.57189], [4.83599, 52.57341], [4.83041, 52.57151], [4.83029, 52.57147], [4.82668, 52.57189], [4.8239, 52.57622], [4.81528, 52.57631], [4.81772, 52.58041], [4.82083, 52.58219], [4.82221, 52.58258], [4.82482, 52.58175], [4.83418, 52.58083], [4.83466, 52.58214], [4.8336, 52.58486], [4.82963, 52.58518], [4.82308, 52.58819], [4.82123, 52.59334], [4.81966, 52.59366], [4.82184, 52.59384], [4.82638, 52.60191], [4.85062, 52.59686]]]]}}, {"type": "Feature", "properties": {"code": "BU03611000", "name": "Noordeinde"}, "geometry": {"type": "MultiPolygon", "coordinates": [[[[4.85225, 52.56669], [4.84036, 52.56738], [4.83495, 52.56762], [4.83478, 52.56992], [4.83041, 52.57151], [4.83599, 52.57341], [4.85472, 52.57189], [4.85225, 52.56669]]], [[[4.82683, 52.56997], [4.81856, 52.57063], [4.81138, 52.57109], [4.81081, 52.57442], [4.81528, 52.57631], [4.8239, 52.57622], [4.82668, 52.57189], [4.83029, 52.57147], [4.82683, 52.56997]]]]}}, {"type": "Feature", "properties": {"code": "BU03611001", "name": "West-Graftdijk"}, "geometry": {"type": "MultiPolygon", "coordinates": [[[[4.80748, 52.57379], [4.81037, 52.57395], [4.81081, 52.57442], [4.81138, 52.57109], [4.81856, 52.57063], [4.81886, 52.56565], [4.81586, 52.56259], [4.80491, 52.56044], [4.80246, 52.55907], [4.79939, 52.55506], [4.80919, 52.55138], [4.81002, 52.55026], [4.80594, 52.54857], [4.80317, 52.55045], [4.79468, 52.55151], [4.79337, 52.55477], [4.79181, 52.55629], [4.79456, 52.56834], [4.79335, 52.57234], [4.79274, 52.57345], [4.8015, 52.57445], [4.80748, 52.57379]]]]}}, {"type": "Feature", "properties": {"code": "BU03611002", "name": "Graft"}, "geometry": {"type": "MultiPolygon", "coordinates": [[[[4.83478, 52.56992], [4.83495, 52.56762], [4.84036, 52.56738], [4.84236, 52.56628], [4.84108, 52.55999], [4.83965, 52.55883], [4.83144, 52.55925], [4.83102, 52.55226], [4.81411, 52.551], [4.80919, 52.55138], [4.79939, 52.55506], [4.80246, 52.55907], [4.80491, 52.56044], [4.81586, 52.56259], [4.81886, 52.56565], [4.81856, 52.57063], [4.82683, 52.56997], [4.83029, 52.57147], [4.83041, 52.57151], [4.83478, 52.56992]]]]}}, {"type": "Feature", "properties": {"code": "BU03611003", "name": "De Rijp"}, "geometry": {"type": "MultiPolygon", "coordinates": [[[[4.86424, 52.57162], [4.86303, 52.56873], [4.86294, 52.56505], [4.86134, 52.56228], [4.85868, 52.55946], [4.85384, 52.55677], [4.85183, 52.55483], [4.84831, 52.55007], [4.84459, 52.54731], [4.84228, 52.54349], [4.83549, 52.54067], [4.82637, 52.54598], [4.83094, 52.54873], [4.83102, 52.55226], [4.83144, 52.55925], [4.83965, 52.55883], [4.84108, 52.55999], [4.84236, 52.56628], [4.84036, 52.56738], [4.85225, 52.56669], [4.85472, 52.57189], [4.86424, 52.57162]]]]}}, {"type": "Feature", "properties": {"code": "BU03611004", "name": "Oost-Graftdijk"}, "geometry": {"type": "MultiPolygon", "coordinates": [[[[4.83549, 52.54067], [4.83391, 52.53896], [4.82803, 52.54167], [4.82438, 52.5426], [4.81209, 52.54489], [4.80594, 52.54857], [4.81002, 52.55026], [4.80919, 52.55138], [4.81411, 52.551], [4.83102, 52.55226], [4.83094, 52.54873], [4.82637, 52.54598], [4.83549, 52.54067]]]]}}, {"type": "Feature", "properties": {"code": "BU03611005", "name": "Starnmeer"}, "geometry": {"type": "MultiPolygon", "coordinates": [[[[4.7861, 52.55606], [4.79181, 52.55629], [4.79337, 52.55477], [4.79468, 52.55151], [4.80317, 52.55045], [4.80594, 52.54857], [4.81209, 52.54489], [4.82438, 52.5426], [4.82099, 52.53825], [4.81903, 52.53873], [4.81699, 52.53565], [4.82441, 52.53381], [4.82019, 52.53123], [4.81163, 52.53019], [4.80471, 52.52536], [4.79828, 52.52436], [4.79244, 52.51973], [4.78986, 52.51924], [4.78497, 52.51942], [4.78497, 52.51942], [4.79067, 52.52625], [4.79644, 52.52824], [4.80036, 52.52858], [4.80286, 52.53084], [4.78297, 52.53483], [4.78121, 52.535], [4.77773, 52.53375], [4.77806, 52.54418], [4.78162, 52.5571], [4.7861, 52.55606]]]]}}, {"type": "Feature", "properties": {"code": "BU03611006", "name": "Markenbinnen"}, "geometry": {"type": "MultiPolygon", "coordinates": [[[[4.78297, 52.53483], [4.80286, 52.53084], [4.80036, 52.52858], [4.79644, 52.52824], [4.79067, 52.52625], [4.78497, 52.51942], [4.78471, 52.51944], [4.78248, 52.51958], [4.77784, 52.53177], [4.77773, 52.53375], [4.78121, 52.535], [4.78297, 52.53483]]]]}}, {"type": "Feature", "properties": {"code": "BU03611100", "name": "Vroonermeer-Zuid"}, "geometry": {"type": "MultiPolygon", "coordinates": [[[[4.77403, 52.65522], [4.77403, 52.65522], [4.773, 52.65341], [4.77561, 52.65265], [4.77367, 52.64836], [4.76893, 52.64596], [4.76462, 52.6489], [4.76909, 52.65631], [4.77403, 52.65522]]]]}}, {"type": "Feature", "properties": {"code": "BU03611101", "name": "Vroonermeer-Noord"}, "geometry": {"type": "MultiPolygon", "coordinates": [[[[4.77804, 52.66432], [4.77403, 52.65522], [4.76909, 52.65631], [4.77416, 52.66478], [4.77449, 52.66534], [4.77804, 52.66432]]]]}}]}