{"type": "FeatureCollection", "features": [{"type": "Feature", "properties": {"code": "WK036201", "name": "Randwijck"}, "geometry": {"type": "MultiPolygon", "coordinates": [[[[4.86935, 52.32194], [4.86951, 52.32003], [4.87094, 52.31577], [4.87094, 52.31577], [4.86396, 52.31466], [4.86342, 52.31343], [4.86068, 52.31342], [4.8566, 52.31347], [4.8538, 52.31367], [4.85557, 52.31637], [4.85647, 52.32177], [4.85675, 52.32141], [4.8576, 52.32142], [4.85764, 52.32174], [4.86149, 52.3218], [4.86914, 52.32193], [4.86914, 52.32193], [4.86935, 52.32194]]]]}}, {"type": "Feature", "properties": {"code": "WK036202", "name": "Patrimonium"}, "geometry": {"type": "MultiPolygon", "coordinates": [[[[4.85077, 52.31104], [4.85001, 52.30359], [4.84005, 52.30518], [4.84142, 52.30737], [4.84095, 52.31209], [4.8406, 52.31665], [4.85557, 52.31637], [4.8538, 52.31367], [4.85077, 52.31104]]]]}}, {"type": "Feature", "properties": {"code": "WK036203", "name": "Elsrijk"}, "geometry": {"type": "MultiPolygon", "coordinates": [[[[4.87094, 52.31577], [4.87254, 52.31201], [4.87255, 52.312], [4.87272, 52.30775], [4.87211, 52.30306], [4.86245, 52.30563], [4.85672, 52.30597], [4.85676, 52.3015], [4.85001, 52.30359], [4.85077, 52.31104], [4.8538, 52.31367], [4.8566, 52.31347], [4.86068, 52.31342], [4.86342, 52.31343], [4.86396, 52.31466], [4.87094, 52.31577]]]]}}, {"type": "Feature", "properties": {"code": "WK036204", "name": "Stadshart"}, "geometry": {"type": "MultiPolygon", "coordinates": [[[[4.86245, 52.30563], [4.87211, 52.30306], [4.86929, 52.29861], [4.85676, 52.3015], [4.85672, 52.30597], [4.86245, 52.30563]]]]}}, {"type": "Feature", "properties": {"code": "WK036205", "name": "Uilenstede, Kronenburg"}, "geometry": {"type": "MultiPolygon", "coordinates": [[[[4.88162, 52.31753], [4.87094, 52.31577], [4.86951, 52.32003], [4.86935, 52.32194], [4.87811, 52.32209], [4.87812, 52.32209], [4.88218, 52.32216], [4.88269, 52.31784], [4.88162, 52.31753]]]]}}, {"type": "Feature", "properties": {"code": "WK036206", "name": "Bankras, Kostverloren"}, "geometry": {"type": "MultiPolygon", "coordinates": [[[[4.88202, 52.30072], [4.87946, 52.29684], [4.86929, 52.29861], [4.87211, 52.30306], [4.87272, 52.30775], [4.87255, 52.312], [4.87254, 52.31201], [4.87094, 52.31577], [4.87094, 52.31577], [4.88162, 52.31753], [4.88396, 52.31759], [4.88375, 52.31281], [4.88466, 52.3128], [4.88337, 52.30698], [4.88302, 52.30095], [4.88202, 52.30072]]]]}}, {"type": "Feature", "properties": {"code": "WK036207", "name": "Buitengebied Noord"}, "geometry": {"type": "MultiPolygon", "coordinates": [[[[4.89492, 52.32242], [4.89516, 52.32241], [4.89629, 52.32242], [4.89828, 52.32164], [4.90253, 52.32132], [4.90784, 52.31951], [4.90913, 52.31825], [4.90541, 52.31601], [4.90607, 52.31391], [4.90525, 52.31068], [4.90781, 52.307], [4.90409, 52.30371], [4.89961, 52.30098], [4.89857, 52.29934], [4.90118, 52.29699], [4.90102, 52.29608], [4.89297, 52.29522], [4.89178, 52.2947], [4.88807, 52.29551], [4.87946, 52.29684], [4.88202, 52.30072], [4.88302, 52.30095], [4.88337, 52.30698], [4.88466, 52.3128], [4.88375, 52.31281], [4.88396, 52.31759], [4.88162, 52.31753], [4.88269, 52.31784], [4.88218, 52.32216], [4.89301, 52.32237], [4.89492, 52.32242]]]]}}, {"type": "Feature", "properties": {"code": "WK036208", "name": "Keizer Karelpark"}, "geometry": {"type": "MultiPolygon", "coordinates": [[[[4.86005, 52.28542], [4.85327, 52.28505], [4.84195, 52.28636], [4.84338, 52.29153], [4.8401, 52.29262], [4.84303, 52.29766], [4.84413, 52.29953], [4.84447, 52.30064], [4.84369, 52.30119], [4.83923, 52.30295], [4.84005, 52.30518], [4.85001, 52.30359], [4.85676, 52.3015], [4.86929, 52.29861], [4.86694, 52.29492], [4.86674, 52.29459], [4.86382, 52.28997], [4.86388, 52.28995], [4.86005, 52.28542]]]]}}, {"type": "Feature", "properties": {"code": "WK036209", "name": "Groenelaan"}, "geometry": {"type": "MultiPolygon", "coordinates": [[[[4.87514, 52.28813], [4.87147, 52.28129], [4.87022, 52.28142], [4.86546, 52.28288], [4.86112, 52.2841], [4.86005, 52.28542], [4.86388, 52.28995], [4.86382, 52.28997], [4.86674, 52.29459], [4.86694, 52.29492], [4.86929, 52.29861], [4.87946, 52.29684], [4.87714, 52.29227], [4.87514, 52.28813]]]]}}, {"type": "Feature", "properties": {"code": "WK036210", "name": "Waardhuizen, Middenhoven"}, "geometry": {"type": "MultiPolygon", "coordinates": [[[[4.84195, 52.28636], [4.85327, 52.28505], [4.86005, 52.28542], [4.86112, 52.2841], [4.86546, 52.28288], [4.87022, 52.28142], [4.86956, 52.27845], [4.86939, 52.27537], [4.86733, 52.2736], [4.85359, 52.27549], [4.84958, 52.27605], [4.83893, 52.27749], [4.83949, 52.27866], [4.84112, 52.2835], [4.84195, 52.28636]]]]}}, {"type": "Feature", "properties": {"code": "WK036211", "name": "Bovenkerk - Westwijk Noord"}, "geometry": {"type": "MultiPolygon", "coordinates": [[[[4.83196, 52.27597], [4.83103, 52.27577], [4.82287, 52.27819], [4.824, 52.27988], [4.81495, 52.28143], [4.8191, 52.28547], [4.82383, 52.29002], [4.82384, 52.29054], [4.83282, 52.29379], [4.8401, 52.29262], [4.84338, 52.29153], [4.84195, 52.28636], [4.84112, 52.2835], [4.83949, 52.27866], [4.83376, 52.27838], [4.83196, 52.27597]]]]}}, {"type": "Feature", "properties": {"code": "WK036212", "name": "Westwijk Zuid"}, "geometry": {"type": "MultiPolygon", "coordinates": [[[[4.82287, 52.27819], [4.83103, 52.27577], [4.83196, 52.27597], [4.83376, 52.27838], [4.83949, 52.27866], [4.83893, 52.27749], [4.83618, 52.26945], [4.83513, 52.26974], [4.81328, 52.27126], [4.80686, 52.2731], [4.81022, 52.27681], [4.81495, 52.28143], [4.824, 52.27988], [4.82287, 52.27819]]]]}}, {"type": "Feature", "properties": {"code": "WK036213", "name": "Buitengebied Zuid"}, "geometry": {"type": "MultiPolygon", "coordinates": [[[[4.88454, 52.28418], [4.87878, 52.2789], [4.88163, 52.27446], [4.88158, 52.27208], [4.87947, 52.26708], [4.88234, 52.26404], [4.87908, 52.26171], [4.87327, 52.2606], [4.87365, 52.25805], [4.87067, 52.25485], [4.87012, 52.25328], [4.86878, 52.2517], [4.86611, 52.25099], [4.86062, 52.24822], [4.85752, 52.24772], [4.85654, 52.24628], [4.85529, 52.24556], [4.85494, 52.24215], [4.85205, 52.24201], [4.84377, 52.24567], [4.83476, 52.24982], [4.82484, 52.25275], [4.80752, 52.25757], [4.79532, 52.26098], [4.7947, 52.26068], [4.79557, 52.26155], [4.80063, 52.26605], [4.80686, 52.2731], [4.81328, 52.27126], [4.83513, 52.26974], [4.83618, 52.26945], [4.83893, 52.27749], [4.84958, 52.27605], [4.85359, 52.27549], [4.86733, 52.2736], [4.86939, 52.27537], [4.86956, 52.27845], [4.87022, 52.28142], [4.87147, 52.28129], [4.87514, 52.28813], [4.87714, 52.29227], [4.87946, 52.29684], [4.88807, 52.29551], [4.89178, 52.2947], [4.89147, 52.29447], [4.89091, 52.29149], [4.88707, 52.28974], [4.88748, 52.28897], [4.88977, 52.28792], [4.88867, 52.2869], [4.88533, 52.2865], [4.88454, 52.28418]]]]}}, {"type": "Feature", "properties": {"code": "WK036214", "name": "Amsterdamse Bos"}, "geometry": {"type": "MultiPolygon", "coordinates": [[[[4.85594, 52.33026], [4.85652, 52.32941], [4.85639, 52.32493], [4.85633, 52.32176], [4.85647, 52.32177], [4.85557, 52.31637], [4.8406, 52.31665], [4.84095, 52.31209], [4.84142, 52.30737], [4.84005, 52.30518], [4.83923, 52.30295], [4.84369, 52.30119], [4.84447, 52.30064], [4.84413, 52.29953], [4.84303, 52.29766], [4.8401, 52.29262], [4.83282, 52.29379], [4.82384, 52.29054], [4.8224, 52.29202], [4.80988, 52.30578], [4.81708, 52.31182], [4.81715, 52.31197], [4.81612, 52.31349], [4.81906, 52.32332], [4.81875, 52.32556], [4.82518, 52.32573], [4.8394, 52.32736], [4.83948, 52.32915], [4.84048, 52.32958], [4.84396, 52.33022], [4.84511, 52.32973], [4.84762, 52.33007], [4.84799, 52.33057], [4.85594, 52.33026]]]]}}]}