{"type": "FeatureCollection", "features": [{"type": "Feature", "properties": {"code": "WK048401", "name": "Oudshoorn"}, "geometry": {"type": "MultiPolygon", "coordinates": [[[[4.66346, 52.15603], [4.66331, 52.15544], [4.66081, 52.15564], [4.66056, 52.15507], [4.6589, 52.15007], [4.65822, 52.14593], [4.65742, 52.14276], [4.66244, 52.14249], [4.666, 52.14004], [4.66246, 52.13952], [4.6605, 52.14112], [4.65718, 52.14189], [4.65091, 52.14254], [4.64883, 52.14234], [4.64736, 52.1421], [4.63046, 52.13918], [4.62869, 52.13862], [4.62229, 52.14168], [4.61944, 52.14233], [4.61849, 52.14866], [4.62024, 52.15722], [4.61903, 52.15871], [4.63985, 52.16161], [4.64148, 52.16182], [4.64552, 52.16201], [4.66534, 52.16243], [4.66359, 52.15653], [4.66346, 52.15603]]]]}}, {"type": "Feature", "properties": {"code": "WK048402", "name": "Ridderveld"}, "geometry": {"type": "MultiPolygon", "coordinates": [[[[4.69974, 52.15707], [4.69589, 52.15177], [4.69129, 52.14993], [4.68294, 52.15273], [4.67386, 52.15447], [4.67194, 52.15165], [4.67701, 52.14977], [4.67761, 52.14674], [4.67731, 52.14517], [4.67603, 52.14326], [4.67433, 52.14111], [4.67363, 52.13945], [4.67342, 52.13948], [4.666, 52.14004], [4.66244, 52.14249], [4.65742, 52.14276], [4.65822, 52.14593], [4.6589, 52.15007], [4.66056, 52.15507], [4.66081, 52.15564], [4.66331, 52.15544], [4.66346, 52.15603], [4.66359, 52.15653], [4.66534, 52.16243], [4.67984, 52.16275], [4.68121, 52.1675], [4.69823, 52.15836], [4.69974, 52.15707]]]]}}, {"type": "Feature", "properties": {"code": "WK048403", "name": "Zegersloot"}, "geometry": {"type": "MultiPolygon", "coordinates": [[[[4.70518, 52.15003], [4.70416, 52.1481], [4.70403, 52.14464], [4.69235, 52.13631], [4.68895, 52.13363], [4.68003, 52.13826], [4.67363, 52.13945], [4.67433, 52.14111], [4.67603, 52.14326], [4.67731, 52.14517], [4.67761, 52.14674], [4.67701, 52.14977], [4.67194, 52.15165], [4.67386, 52.15447], [4.68294, 52.15273], [4.69129, 52.14993], [4.69589, 52.15177], [4.69974, 52.15707], [4.70567, 52.15216], [4.70537, 52.15201], [4.7055, 52.15184], [4.70592, 52.15169], [4.70518, 52.15003]]]]}}, {"type": "Feature", "properties": {"code": "WK048404", "name": "Hoorn"}, "geometry": {"type": "MultiPolygon", "coordinates": [[[[4.65648, 52.13448], [4.65782, 52.12901], [4.65344, 52.12796], [4.65141, 52.12896], [4.65041, 52.12933], [4.64501, 52.13037], [4.63669, 52.12981], [4.62863, 52.12887], [4.62681, 52.13152], [4.62425, 52.13162], [4.625, 52.13013], [4.62401, 52.12994], [4.62208, 52.13308], [4.62535, 52.1365], [4.62869, 52.13862], [4.63046, 52.13918], [4.64736, 52.1421], [4.64883, 52.14234], [4.65091, 52.14254], [4.65718, 52.14189], [4.65648, 52.13448]]]]}}, {"type": "Feature", "properties": {"code": "WK048405", "name": "Hoge Zijde"}, "geometry": {"type": "MultiPolygon", "coordinates": [[[[4.67376, 52.11749], [4.67239, 52.11452], [4.66529, 52.11721], [4.66528, 52.11721], [4.66206, 52.12005], [4.66182, 52.12029], [4.65717, 52.12484], [4.65344, 52.12796], [4.65782, 52.12901], [4.65648, 52.13448], [4.65718, 52.14189], [4.6605, 52.14112], [4.66246, 52.13952], [4.66307, 52.13483], [4.6629, 52.13046], [4.66268, 52.1288], [4.66284, 52.12557], [4.66376, 52.12323], [4.66546, 52.12175], [4.67431, 52.11915], [4.67376, 52.11749]]]]}}, {"type": "Feature", "properties": {"code": "WK048406", "name": "Lage Zijde"}, "geometry": {"type": "MultiPolygon", "coordinates": [[[[4.67575, 52.12057], [4.67431, 52.11915], [4.66546, 52.12175], [4.66376, 52.12323], [4.66284, 52.12557], [4.66268, 52.1288], [4.6629, 52.13046], [4.66307, 52.13483], [4.66246, 52.13952], [4.666, 52.14004], [4.67342, 52.13948], [4.67363, 52.13945], [4.68003, 52.13826], [4.68895, 52.13363], [4.67575, 52.12057]]]]}}, {"type": "Feature", "properties": {"code": "WK048407", "name": "Steekterpolder"}, "geometry": {"type": "MultiPolygon", "coordinates": [[[[4.69806, 52.11721], [4.70946, 52.11536], [4.71155, 52.11675], [4.71071, 52.11434], [4.72258, 52.10985], [4.72382, 52.11065], [4.72304, 52.1097], [4.72072, 52.108], [4.71196, 52.11039], [4.71, 52.11007], [4.70662, 52.10659], [4.71293, 52.10514], [4.71253, 52.1045], [4.7159, 52.10268], [4.71954, 52.10211], [4.72025, 52.1026], [4.72452, 52.0996], [4.72444, 52.09958], [4.70473, 52.09524], [4.70507, 52.09464], [4.6638, 52.09955], [4.67055, 52.11146], [4.67239, 52.11452], [4.67376, 52.11749], [4.67431, 52.11915], [4.67575, 52.12057], [4.68342, 52.11937], [4.69073, 52.11941], [4.69806, 52.11721]]]]}}, {"type": "Feature", "properties": {"code": "WK048408", "name": "Kerk en Zanen"}, "geometry": {"type": "MultiPolygon", "coordinates": [[[[4.62681, 52.13152], [4.62863, 52.12887], [4.63669, 52.12981], [4.64501, 52.13037], [4.65041, 52.12933], [4.65141, 52.12896], [4.65344, 52.12796], [4.65717, 52.12484], [4.66182, 52.12029], [4.66206, 52.12005], [4.66528, 52.11721], [4.66529, 52.11721], [4.67239, 52.11452], [4.67055, 52.11146], [4.6584, 52.11024], [4.65256, 52.10989], [4.64809, 52.1103], [4.64276, 52.1116], [4.63862, 52.11345], [4.631, 52.12023], [4.62812, 52.12215], [4.62401, 52.12994], [4.625, 52.13013], [4.62425, 52.13162], [4.62681, 52.13152]]]]}}, {"type": "Feature", "properties": {"code": "WK048409", "name": "Rietveld"}, "geometry": {"type": "MultiPolygon", "coordinates": [[[[4.631, 52.12023], [4.63862, 52.11345], [4.64276, 52.1116], [4.64809, 52.1103], [4.65256, 52.10989], [4.6584, 52.11024], [4.67055, 52.11146], [4.6638, 52.09955], [4.66352, 52.09832], [4.65409, 52.09901], [4.64113, 52.09748], [4.6304, 52.11801], [4.62812, 52.12215], [4.631, 52.12023]]]]}}, {"type": "Feature", "properties": {"code": "WK048431", "name": "Benthuizen"}, "geometry": {"type": "MultiPolygon", "coordinates": [[[[4.55095, 52.09528], [4.55165, 52.07831], [4.558, 52.07858], [4.57957, 52.07791], [4.58798, 52.07765], [4.60702, 52.07705], [4.60743, 52.06553], [4.56592, 52.05923], [4.56504, 52.05857], [4.55781, 52.06174], [4.55718, 52.06124], [4.55586, 52.06186], [4.55277, 52.06331], [4.55321, 52.06383], [4.54677, 52.06699], [4.54273, 52.06889], [4.53949, 52.07031], [4.53534, 52.07229], [4.53369, 52.07305], [4.53517, 52.07446], [4.5339, 52.07522], [4.53404, 52.07539], [4.53418, 52.07556], [4.53602, 52.07691], [4.53032, 52.07997], [4.5301, 52.08008], [4.53055, 52.08051], [4.53457, 52.0835], [4.53713, 52.08395], [4.5365, 52.10196], [4.53532, 52.12043], [4.54191, 52.11866], [4.54888, 52.11663], [4.55333, 52.11272], [4.55439, 52.11042], [4.55348, 52.10834], [4.5502, 52.10536], [4.55095, 52.09528]]]]}}, {"type": "Feature", "properties": {"code": "WK048445", "name": "Aarlanderveen"}, "geometry": {"type": "MultiPolygon", "coordinates": [[[[4.74184, 52.16267], [4.75902, 52.13514], [4.76008, 52.13102], [4.75885, 52.12866], [4.75871, 52.12854], [4.75664, 52.12379], [4.75324, 52.11944], [4.74074, 52.10809], [4.73789, 52.10909], [4.73105, 52.10841], [4.72304, 52.1097], [4.72382, 52.11065], [4.72258, 52.10985], [4.71071, 52.11434], [4.71155, 52.11675], [4.70946, 52.11536], [4.69806, 52.11721], [4.69073, 52.11941], [4.68342, 52.11937], [4.67575, 52.12057], [4.68895, 52.13363], [4.69235, 52.13631], [4.70403, 52.14464], [4.705, 52.14476], [4.72393, 52.15608], [4.72419, 52.15622], [4.72427, 52.1561], [4.72464, 52.15615], [4.72607, 52.15641], [4.72622, 52.158], [4.72681, 52.159], [4.72957, 52.15967], [4.74184, 52.16267]]]]}}, {"type": "Feature", "properties": {"code": "WK048470", "name": "Boskoop"}, "geometry": {"type": "MultiPolygon", "coordinates": [[[[4.6638, 52.09955], [4.70507, 52.09464], [4.707, 52.0933], [4.70876, 52.09364], [4.7131, 52.08434], [4.71551, 52.08119], [4.71303, 52.07693], [4.7049, 52.07684], [4.69683, 52.07401], [4.69441, 52.06777], [4.68626, 52.06953], [4.68615, 52.06921], [4.68535, 52.06938], [4.68312, 52.06261], [4.68197, 52.0591], [4.6793, 52.05922], [4.679, 52.0602], [4.67725, 52.06552], [4.66566, 52.06572], [4.66591, 52.06395], [4.65997, 52.0641], [4.65915, 52.06402], [4.65915, 52.06401], [4.6469, 52.06428], [4.64686, 52.06428], [4.63822, 52.06482], [4.63762, 52.06801], [4.63688, 52.07353], [4.62531, 52.07445], [4.62532, 52.07644], [4.63158, 52.0763], [4.63179, 52.078], [4.63296, 52.07796], [4.63376, 52.08259], [4.63211, 52.08704], [4.64705, 52.0864], [4.64113, 52.09748], [4.65409, 52.09901], [4.66352, 52.09832], [4.6638, 52.09955]]]]}}, {"type": "Feature", "properties": {"code": "WK048471", "name": "Zwammerdam"}, "geometry": {"type": "MultiPolygon", "coordinates": [[[[4.71196, 52.11039], [4.72072, 52.108], [4.72304, 52.1097], [4.73105, 52.10841], [4.73789, 52.10909], [4.74074, 52.10809], [4.73886, 52.10651], [4.74022, 52.10465], [4.73452, 52.10262], [4.73481, 52.10188], [4.73307, 52.10148], [4.72452, 52.0996], [4.72025, 52.1026], [4.71954, 52.10211], [4.7159, 52.10268], [4.71253, 52.1045], [4.71293, 52.10514], [4.70662, 52.10659], [4.71, 52.11007], [4.71196, 52.11039]]]]}}, {"type": "Feature", "properties": {"code": "WK048491", "name": "Hazerswoude-Dorp"}, "geometry": {"type": "MultiPolygon", "coordinates": [[[[4.55985, 52.12535], [4.57567, 52.12364], [4.58387, 52.12382], [4.58427, 52.12201], [4.58975, 52.12271], [4.59599, 52.12351], [4.60448, 52.12459], [4.60166, 52.11246], [4.60793, 52.11276], [4.6113, 52.11372], [4.613, 52.11546], [4.6304, 52.11801], [4.64113, 52.09748], [4.64705, 52.0864], [4.63211, 52.08704], [4.63376, 52.08259], [4.63296, 52.07796], [4.63179, 52.078], [4.63158, 52.0763], [4.62532, 52.07644], [4.60702, 52.07705], [4.58798, 52.07765], [4.57957, 52.07791], [4.558, 52.07858], [4.55165, 52.07831], [4.55095, 52.09528], [4.5502, 52.10536], [4.55348, 52.10834], [4.55439, 52.11042], [4.55333, 52.11272], [4.54888, 52.11663], [4.54191, 52.11866], [4.54295, 52.12124], [4.54064, 52.12156], [4.54516, 52.12917], [4.55985, 52.12535]]]]}}, {"type": "Feature", "properties": {"code": "WK048494", "name": "Hazerswoude-Rijndijk"}, "geometry": {"type": "MultiPolygon", "coordinates": [[[[4.57159, 52.12869], [4.57805, 52.12811], [4.5827, 52.12846], [4.58783, 52.13007], [4.59157, 52.13161], [4.59565, 52.13187], [4.60996, 52.12951], [4.61366, 52.12966], [4.61775, 52.13062], [4.62208, 52.13308], [4.62401, 52.12994], [4.62812, 52.12215], [4.6304, 52.11801], [4.613, 52.11546], [4.6113, 52.11372], [4.60793, 52.11276], [4.60166, 52.11246], [4.60448, 52.12459], [4.59599, 52.12351], [4.58975, 52.12271], [4.58427, 52.12201], [4.58387, 52.12382], [4.57567, 52.12364], [4.55985, 52.12535], [4.54516, 52.12917], [4.54519, 52.1292], [4.54762, 52.13231], [4.54606, 52.13336], [4.54631, 52.13402], [4.5503, 52.13676], [4.54914, 52.13759], [4.55073, 52.13838], [4.56022, 52.13193], [4.56493, 52.12992], [4.57159, 52.12869]]]]}}, {"type": "Feature", "properties": {"code": "WK048496", "name": "Koudekerk aan den Rijn"}, "geometry": {"type": "MultiPolygon", "coordinates": [[[[4.62024, 52.15722], [4.61849, 52.14866], [4.61944, 52.14233], [4.62229, 52.14168], [4.62869, 52.13862], [4.62535, 52.1365], [4.62208, 52.13308], [4.61775, 52.13062], [4.61366, 52.12966], [4.60996, 52.12951], [4.59565, 52.13187], [4.59157, 52.13161], [4.58783, 52.13007], [4.5827, 52.12846], [4.57805, 52.12811], [4.57159, 52.12869], [4.56493, 52.12992], [4.56022, 52.13193], [4.56138, 52.13223], [4.5661, 52.13526], [4.57049, 52.14342], [4.57148, 52.15311], [4.57274, 52.15225], [4.60592, 52.15694], [4.61059, 52.15757], [4.61903, 52.15871], [4.62024, 52.15722]]]]}}]}