{"type": "FeatureCollection", "features": [{"type": "Feature", "properties": {"code": "BU04370000", "name": "Ouderkerk aan de Amstel"}, "geometry": {"type": "MultiPolygon", "coordinates": [[[[4.92129, 52.30274], [4.92504, 52.29917], [4.92287, 52.29759], [4.92464, 52.29482], [4.92181, 52.2937], [4.91767, 52.29264], [4.91822, 52.29037], [4.91612, 52.28835], [4.90815, 52.28961], [4.89147, 52.29447], [4.89178, 52.2947], [4.89297, 52.29522], [4.90102, 52.29608], [4.90118, 52.29699], [4.89857, 52.29934], [4.89961, 52.30098], [4.90409, 52.30371], [4.90671, 52.30237], [4.90983, 52.30254], [4.91149, 52.29996], [4.92081, 52.30414], [4.92129, 52.30274]]]]}}, {"type": "Feature", "properties": {"code": "BU04370001", "name": "Duivendrecht"}, "geometry": {"type": "MultiPolygon", "coordinates": [[[[4.95045, 52.33777], [4.948, 52.335], [4.94601, 52.33377], [4.94867, 52.33171], [4.94891, 52.33153], [4.94269, 52.32933], [4.94472, 52.32713], [4.94187, 52.32615], [4.9405, 52.32568], [4.93915, 52.32467], [4.93853, 52.3242], [4.93796, 52.32412], [4.93762, 52.3233], [4.93993, 52.32194], [4.94104, 52.31962], [4.94022, 52.31934], [4.9339, 52.32617], [4.92536, 52.33538], [4.92577, 52.33537], [4.92694, 52.33578], [4.92677, 52.33596], [4.92849, 52.33655], [4.93422, 52.3355], [4.93562, 52.33551], [4.93651, 52.33459], [4.93967, 52.33561], [4.9417, 52.33553], [4.94172, 52.33641], [4.9426, 52.33652], [4.943, 52.33657], [4.9438, 52.33671], [4.94375, 52.33674], [4.94986, 52.33853], [4.95033, 52.33864], [4.95062, 52.33794], [4.95045, 52.33777]]]]}}, {"type": "Feature", "properties": {"code": "BU04370002", "name": "Industriegebied Amstel"}, "geometry": {"type": "MultiPolygon", "coordinates": [[[[4.92495, 52.33538], [4.92536, 52.33538], [4.9339, 52.32617], [4.92438, 52.32329], [4.91954, 52.32388], [4.91359, 52.32633], [4.91326, 52.3284], [4.91326, 52.3284], [4.91293, 52.33051], [4.91748, 52.33154], [4.92255, 52.33308], [4.92376, 52.33544], [4.92495, 52.33538]]]]}}, {"type": "Feature", "properties": {"code": "BU04370006", "name": "Verspreide huizen in de Rondehoeppolder"}, "geometry": {"type": "MultiPolygon", "coordinates": [[[[4.91097, 52.25268], [4.90855, 52.25268], [4.90293, 52.25318], [4.89857, 52.25093], [4.89176, 52.25327], [4.88759, 52.25099], [4.88272, 52.25371], [4.87773, 52.25282], [4.87385, 52.25074], [4.87229, 52.25118], [4.87012, 52.25328], [4.87067, 52.25485], [4.87365, 52.25805], [4.87327, 52.2606], [4.87908, 52.26171], [4.88234, 52.26404], [4.87947, 52.26708], [4.88158, 52.27208], [4.88163, 52.27446], [4.87878, 52.2789], [4.88454, 52.28418], [4.88533, 52.2865], [4.88867, 52.2869], [4.88977, 52.28792], [4.88748, 52.28897], [4.88707, 52.28974], [4.89091, 52.29149], [4.89147, 52.29447], [4.90815, 52.28961], [4.91612, 52.28835], [4.91677, 52.28652], [4.9264, 52.27971], [4.92599, 52.27808], [4.92765, 52.27381], [4.92665, 52.27245], [4.92801, 52.27174], [4.9293, 52.26996], [4.92939, 52.26835], [4.92471, 52.26694], [4.92314, 52.26302], [4.91809, 52.26167], [4.91855, 52.25859], [4.9173, 52.25682], [4.91097, 52.25268]]]]}}, {"type": "Feature", "properties": {"code": "BU04370007", "name": "Verspreide huizen in de Duivendrechtsche polder"}, "geometry": {"type": "MultiPolygon", "coordinates": [[[[4.91954, 52.32388], [4.92438, 52.32329], [4.9339, 52.32617], [4.94022, 52.31934], [4.94021, 52.31933], [4.93958, 52.31912], [4.94033, 52.3183], [4.93983, 52.31712], [4.93804, 52.31651], [4.93845, 52.31565], [4.93872, 52.31509], [4.93777, 52.31476], [4.93523, 52.31389], [4.93611, 52.31258], [4.93414, 52.3119], [4.93006, 52.30934], [4.93033, 52.30919], [4.92943, 52.30863], [4.92933, 52.30853], [4.92081, 52.30414], [4.91149, 52.29996], [4.90983, 52.30254], [4.90671, 52.30237], [4.90409, 52.30371], [4.90781, 52.307], [4.90525, 52.31068], [4.90607, 52.31391], [4.90541, 52.31601], [4.90913, 52.31825], [4.91238, 52.31825], [4.91428, 52.32041], [4.91081, 52.32188], [4.91134, 52.32288], [4.91033, 52.32357], [4.9111, 52.3241], [4.91388, 52.32455], [4.91359, 52.32633], [4.91954, 52.32388]]]]}}, {"type": "Feature", "properties": {"code": "BU04370008", "name": "Verspreide huizen in de Bullewijker polder"}, "geometry": {"type": "MultiPolygon", "coordinates": [[[[4.9432, 52.29236], [4.95387, 52.28003], [4.94742, 52.28081], [4.94395, 52.28009], [4.93934, 52.28041], [4.93346, 52.28222], [4.92778, 52.28102], [4.92369, 52.28252], [4.92332, 52.28372], [4.92721, 52.28521], [4.92302, 52.28878], [4.92181, 52.2937], [4.92464, 52.29482], [4.92287, 52.29759], [4.92504, 52.29917], [4.92129, 52.30274], [4.92081, 52.30414], [4.92933, 52.30853], [4.92991, 52.3081], [4.92941, 52.30783], [4.93026, 52.30643], [4.93924, 52.29694], [4.9432, 52.29236]]]]}}, {"type": "Feature", "properties": {"code": "BU04370009", "name": "Verspreide huizen langs De Bullewijk en De Hole"}, "geometry": {"type": "MultiPolygon", "coordinates": [[[[4.92369, 52.28252], [4.92778, 52.28102], [4.93346, 52.28222], [4.93934, 52.28041], [4.94395, 52.28009], [4.94742, 52.28081], [4.95387, 52.28003], [4.95524, 52.27831], [4.95376, 52.27803], [4.94667, 52.27899], [4.94269, 52.27818], [4.93375, 52.2809], [4.92859, 52.27961], [4.9264, 52.27971], [4.91677, 52.28652], [4.91612, 52.28835], [4.91822, 52.29037], [4.91767, 52.29264], [4.92181, 52.2937], [4.92302, 52.28878], [4.92721, 52.28521], [4.92332, 52.28372], [4.92369, 52.28252]]]]}}]}