{"type": "FeatureCollection", "features": [{"type": "Feature", "properties": {"code": "WK059901", "name": "Rotterdam Centrum"}, "geometry": {"type": "MultiPolygon", "coordinates": [[[[4.49706, 51.92376], [4.49774, 51.92286], [4.49982, 51.92016], [4.50029, 51.91812], [4.49411, 51.91626], [4.48606, 51.91062], [4.48551, 51.90976], [4.47972, 51.9047], [4.47396, 51.90214], [4.46776, 51.90035], [4.46401, 51.90664], [4.46298, 51.90815], [4.45821, 51.90868], [4.45785, 51.90963], [4.46353, 51.9119], [4.46283, 51.92241], [4.46219, 51.92331], [4.45496, 51.92275], [4.45491, 51.92304], [4.45491, 51.9241], [4.46287, 51.92468], [4.47114, 51.92613], [4.47603, 51.92625], [4.47637, 51.92627], [4.48029, 51.92586], [4.48517, 51.92506], [4.49706, 51.92376]]]]}}, {"type": "Feature", "properties": {"code": "WK059903", "name": "Delfshaven"}, "geometry": {"type": "MultiPolygon", "coordinates": [[[[4.46219, 51.92331], [4.46283, 51.92241], [4.46353, 51.9119], [4.45785, 51.90963], [4.45821, 51.90868], [4.46298, 51.90815], [4.46401, 51.90664], [4.46776, 51.90035], [4.45966, 51.89923], [4.45053, 51.89961], [4.43551, 51.90196], [4.43615, 51.90375], [4.44084, 51.90578], [4.43026, 51.91303], [4.41351, 51.91395], [4.4136, 51.91459], [4.41527, 51.91449], [4.4157, 51.91594], [4.41583, 51.91593], [4.41635, 51.91757], [4.41708, 51.91995], [4.41706, 51.92042], [4.43651, 51.92194], [4.43725, 51.92203], [4.43753, 51.92206], [4.44129, 51.92237], [4.45491, 51.92304], [4.45496, 51.92275], [4.46219, 51.92331]]]]}}, {"type": "Feature", "properties": {"code": "WK059904", "name": "Overschie"}, "geometry": {"type": "MultiPolygon", "coordinates": [[[[4.42897, 51.97588], [4.44668, 51.96279], [4.45088, 51.96589], [4.45682, 51.96731], [4.46053, 51.96443], [4.46164, 51.96248], [4.46159, 51.95706], [4.45986, 51.95168], [4.4598, 51.94693], [4.46047, 51.93959], [4.45457, 51.93835], [4.45085, 51.93537], [4.44564, 51.93386], [4.44592, 51.93365], [4.43234, 51.92608], [4.42166, 51.93411], [4.41778, 51.9374], [4.41476, 51.93737], [4.41641, 51.93816], [4.41771, 51.93848], [4.41549, 51.94076], [4.41484, 51.94543], [4.41211, 51.94835], [4.40804, 51.94674], [4.40456, 51.94619], [4.39492, 51.94646], [4.39519, 51.94693], [4.39435, 51.94711], [4.38967, 51.94547], [4.38942, 51.94567], [4.38893, 51.94554], [4.384, 51.95469], [4.37931, 51.96341], [4.38978, 51.96513], [4.38995, 51.9646], [4.39175, 51.96492], [4.39356, 51.96247], [4.39399, 51.96263], [4.40293, 51.96632], [4.40791, 51.9682], [4.4279, 51.97647], [4.42897, 51.97588]]]]}}, {"type": "Feature", "properties": {"code": "WK059905", "name": "Noord"}, "geometry": {"type": "MultiPolygon", "coordinates": [[[[4.48696, 51.94132], [4.48579, 51.93862], [4.4899, 51.93477], [4.48737, 51.93286], [4.48597, 51.93012], [4.48472, 51.9269], [4.48517, 51.92506], [4.48029, 51.92586], [4.47637, 51.92627], [4.47603, 51.92625], [4.47114, 51.92613], [4.46287, 51.92468], [4.45491, 51.9241], [4.45491, 51.92304], [4.44129, 51.92237], [4.43753, 51.92206], [4.43725, 51.92203], [4.43234, 51.92608], [4.44592, 51.93365], [4.44564, 51.93386], [4.45085, 51.93537], [4.45457, 51.93835], [4.46047, 51.93959], [4.46085, 51.9395], [4.46747, 51.94041], [4.48043, 51.94216], [4.48594, 51.94295], [4.48696, 51.94132]]]]}}, {"type": "Feature", "properties": {"code": "WK059906", "name": "Hillegersberg-Schiebroek"}, "geometry": {"type": "MultiPolygon", "coordinates": [[[[4.47056, 51.97978], [4.48325, 51.97336], [4.49101, 51.96955], [4.49523, 51.96742], [4.4958, 51.97184], [4.49686, 51.97131], [4.50658, 51.96638], [4.50584, 51.96565], [4.51225, 51.96242], [4.5131, 51.96292], [4.5139, 51.96265], [4.51859, 51.96029], [4.52095, 51.96341], [4.52365, 51.96393], [4.52839, 51.95196], [4.5272, 51.95028], [4.52854, 51.94892], [4.52614, 51.94844], [4.48583, 51.94307], [4.48594, 51.94295], [4.48043, 51.94216], [4.46747, 51.94041], [4.46085, 51.9395], [4.46047, 51.93959], [4.4598, 51.94693], [4.45986, 51.95168], [4.46159, 51.95706], [4.46164, 51.96248], [4.46053, 51.96443], [4.45682, 51.96731], [4.46037, 51.9691], [4.46016, 51.97161], [4.46222, 51.97268], [4.46135, 51.97484], [4.46168, 51.97512], [4.46402, 51.97715], [4.46324, 51.97753], [4.46412, 51.97831], [4.4658, 51.97893], [4.46668, 51.9785], [4.46819, 51.97927], [4.46945, 51.98019], [4.46887, 51.98048], [4.46897, 51.98053], [4.46901, 51.98055], [4.46952, 51.9803], [4.47056, 51.97978]]]]}}, {"type": "Feature", "properties": {"code": "WK059908", "name": "Kralingen-Crooswijk"}, "geometry": {"type": "MultiPolygon", "coordinates": [[[[4.53407, 51.92016], [4.53401, 51.91548], [4.53448, 51.91569], [4.53577, 51.91233], [4.54247, 51.90378], [4.52685, 51.89997], [4.52121, 51.90089], [4.5172, 51.90324], [4.51635, 51.90543], [4.51651, 51.91032], [4.5125, 51.9147], [4.50754, 51.91682], [4.50029, 51.91812], [4.49982, 51.92016], [4.49774, 51.92286], [4.49706, 51.92376], [4.48517, 51.92506], [4.48472, 51.9269], [4.48597, 51.93012], [4.48737, 51.93286], [4.4899, 51.93477], [4.48579, 51.93862], [4.48696, 51.94132], [4.48594, 51.94295], [4.48583, 51.94307], [4.52614, 51.94844], [4.52854, 51.94892], [4.52872, 51.94884], [4.53495, 51.93745], [4.53801, 51.92787], [4.53734, 51.92777], [4.53627, 51.92685], [4.53407, 51.92016]]]]}}, {"type": "Feature", "properties": {"code": "WK059910", "name": "Feijenoord"}, "geometry": {"type": "MultiPolygon", "coordinates": [[[[4.51297, 51.90172], [4.52157, 51.89219], [4.52187, 51.89182], [4.52577, 51.88681], [4.52253, 51.88584], [4.52151, 51.8829], [4.51606, 51.88238], [4.51069, 51.88037], [4.50598, 51.87754], [4.49644, 51.88341], [4.4924, 51.88476], [4.49259, 51.8884], [4.49407, 51.88962], [4.49405, 51.88989], [4.49383, 51.89431], [4.49548, 51.89767], [4.49504, 51.89808], [4.49245, 51.89917], [4.47662, 51.8958], [4.46878, 51.89881], [4.46776, 51.90035], [4.47396, 51.90214], [4.47972, 51.9047], [4.48551, 51.90976], [4.48606, 51.91062], [4.49411, 51.91626], [4.50029, 51.91812], [4.50754, 51.91682], [4.5125, 51.9147], [4.51651, 51.91032], [4.51635, 51.90543], [4.5172, 51.90324], [4.51297, 51.90172]]]]}}, {"type": "Feature", "properties": {"code": "WK059912", "name": "IJsselmonde"}, "geometry": {"type": "MultiPolygon", "coordinates": [[[[4.57591, 51.90125], [4.5761, 51.89937], [4.5756, 51.89806], [4.57541, 51.89808], [4.57347, 51.89208], [4.57346, 51.89164], [4.57315, 51.89122], [4.56891, 51.87832], [4.56915, 51.87818], [4.56891, 51.87805], [4.56774, 51.87818], [4.56153, 51.87822], [4.55785, 51.87692], [4.55487, 51.87556], [4.55191, 51.87469], [4.54925, 51.8742], [4.54938, 51.87403], [4.54819, 51.87384], [4.54494, 51.87231], [4.54425, 51.8723], [4.54399, 51.87186], [4.5434, 51.87131], [4.54297, 51.87113], [4.54263, 51.87084], [4.53997, 51.87018], [4.5364, 51.86976], [4.5353, 51.86934], [4.53203, 51.86878], [4.5295, 51.86895], [4.52685, 51.86941], [4.52602, 51.86973], [4.52263, 51.86908], [4.51524, 51.86904], [4.51449, 51.8717], [4.51148, 51.87478], [4.50598, 51.87754], [4.51069, 51.88037], [4.51606, 51.88238], [4.52151, 51.8829], [4.52253, 51.88584], [4.52577, 51.88681], [4.52187, 51.89182], [4.52157, 51.89219], [4.51297, 51.90172], [4.5172, 51.90324], [4.52121, 51.90089], [4.52685, 51.89997], [4.54247, 51.90378], [4.54924, 51.90488], [4.55509, 51.90565], [4.56946, 51.90435], [4.57633, 51.90303], [4.57591, 51.90125]]]]}}, {"type": "Feature", "properties": {"code": "WK059913", "name": "Pernis"}, "geometry": {"type": "MultiPolygon", "coordinates": [[[[4.3849, 51.89502], [4.39096, 51.89424], [4.39869, 51.8917], [4.39775, 51.89162], [4.39624, 51.88864], [4.39797, 51.88659], [4.39651, 51.88447], [4.39546, 51.88345], [4.3892, 51.88069], [4.38873, 51.87851], [4.38583, 51.87834], [4.38058, 51.88633], [4.37803, 51.89306], [4.38382, 51.89275], [4.3849, 51.89502]]]]}}, {"type": "Feature", "properties": {"code": "WK059914", "name": "Prins Alexander"}, "geometry": {"type": "MultiPolygon", "coordinates": [[[[4.59384, 51.97678], [4.59374, 51.97609], [4.59418, 51.97544], [4.60181, 51.97214], [4.59069, 51.96823], [4.59002, 51.96858], [4.58399, 51.96537], [4.58381, 51.96549], [4.58039, 51.96376], [4.57515, 51.96127], [4.57051, 51.9591], [4.56789, 51.95819], [4.5668, 51.95788], [4.56437, 51.95992], [4.56205, 51.95887], [4.5629, 51.95686], [4.56159, 51.95665], [4.56241, 51.95472], [4.56406, 51.95081], [4.5646, 51.95035], [4.56744, 51.94796], [4.57278, 51.94346], [4.5705, 51.94243], [4.56759, 51.94198], [4.56059, 51.94091], [4.56265, 51.93606], [4.56272, 51.93588], [4.56421, 51.93237], [4.56439, 51.93195], [4.56529, 51.92983], [4.5647, 51.92955], [4.56515, 51.92918], [4.56516, 51.92891], [4.56624, 51.92591], [4.566, 51.92574], [4.56569, 51.92555], [4.56578, 51.92506], [4.56455, 51.92363], [4.56319, 51.92282], [4.56145, 51.92217], [4.56152, 51.92187], [4.56089, 51.92166], [4.55773, 51.92036], [4.55691, 51.91991], [4.55633, 51.92032], [4.55208, 51.91945], [4.54516, 51.91929], [4.53755, 51.91978], [4.53785, 51.91932], [4.53584, 51.92056], [4.53522, 51.9185], [4.53614, 51.9158], [4.53822, 51.91534], [4.53823, 51.91491], [4.53744, 51.91468], [4.53719, 51.91404], [4.53833, 51.9119], [4.53922, 51.91169], [4.54008, 51.9091], [4.54168, 51.90685], [4.54214, 51.9062], [4.54339, 51.90622], [4.54613, 51.90658], [4.54723, 51.90695], [4.54864, 51.9104], [4.5501, 51.91438], [4.55034, 51.91486], [4.554, 51.91662], [4.55426, 51.9165], [4.55403, 51.91478], [4.5565, 51.9148], [4.55672, 51.91212], [4.55683, 51.91039], [4.55555, 51.91054], [4.55284, 51.91012], [4.55122, 51.90961], [4.55105, 51.90964], [4.55094, 51.90932], [4.55117, 51.90903], [4.55064, 51.90883], [4.5499, 51.90673], [4.54924, 51.90488], [4.54247, 51.90378], [4.53577, 51.91233], [4.53448, 51.91569], [4.53401, 51.91548], [4.53407, 51.92016], [4.53627, 51.92685], [4.53734, 51.92777], [4.53801, 51.92787], [4.53495, 51.93745], [4.52872, 51.94884], [4.52854, 51.94892], [4.5272, 51.95028], [4.52839, 51.95196], [4.52365, 51.96393], [4.52782, 51.96566], [4.52876, 51.96702], [4.53498, 51.96827], [4.53578, 51.97045], [4.53995, 51.96989], [4.54565, 51.97232], [4.54769, 51.97281], [4.55422, 51.96892], [4.5564, 51.96885], [4.55659, 51.96847], [4.56055, 51.96962], [4.5614, 51.97028], [4.5611, 51.97053], [4.56165, 51.97076], [4.56154, 51.97085], [4.56115, 51.97118], [4.56241, 51.97193], [4.5629, 51.97152], [4.56337, 51.97173], [4.56538, 51.97128], [4.56694, 51.97119], [4.57028, 51.97202], [4.57138, 51.97192], [4.57191, 51.97187], [4.57436, 51.97288], [4.57411, 51.97309], [4.57854, 51.97554], [4.579, 51.97579], [4.57852, 51.97619], [4.57792, 51.97585], [4.57745, 51.97625], [4.5743, 51.97451], [4.57353, 51.97458], [4.57023, 51.97903], [4.57892, 51.98113], [4.57731, 51.98641], [4.57969, 51.98727], [4.57873, 51.98855], [4.57974, 51.98884], [4.57894, 51.98986], [4.59437, 51.99428], [4.59877, 51.98797], [4.59413, 51.97763], [4.59443, 51.97712], [4.59384, 51.97678]]]]}}, {"type": "Feature", "properties": {"code": "WK059915", "name": "Charlois"}, "geometry": {"type": "MultiPolygon", "coordinates": [[[[4.47662, 51.8958], [4.49245, 51.89917], [4.49504, 51.89808], [4.49548, 51.89767], [4.49383, 51.89431], [4.49405, 51.88989], [4.49407, 51.88962], [4.49259, 51.8884], [4.4924, 51.88476], [4.49644, 51.88341], [4.50598, 51.87754], [4.51148, 51.87478], [4.51449, 51.8717], [4.51524, 51.86904], [4.51523, 51.86904], [4.49646, 51.86897], [4.49439, 51.86897], [4.48875, 51.86735], [4.48718, 51.86717], [4.48569, 51.86657], [4.48354, 51.86591], [4.4817, 51.86544], [4.48153, 51.86543], [4.48073, 51.86527], [4.48009, 51.86528], [4.4804, 51.86233], [4.47186, 51.86167], [4.46523, 51.86202], [4.44648, 51.86605], [4.44215, 51.86625], [4.44024, 51.86642], [4.45549, 51.87164], [4.45332, 51.87283], [4.45391, 51.87806], [4.4578, 51.88482], [4.46342, 51.89408], [4.46251, 51.89478], [4.45955, 51.89531], [4.45966, 51.89923], [4.46776, 51.90035], [4.46878, 51.89881], [4.47662, 51.8958]]], [[[4.42622, 51.88602], [4.42012, 51.88708], [4.42001, 51.8903], [4.41557, 51.8914], [4.42035, 51.89301], [4.42014, 51.89641], [4.42384, 51.897], [4.42261, 51.89642], [4.42304, 51.8947], [4.42588, 51.89131], [4.42448, 51.88917], [4.42622, 51.88602]]]]}}, {"type": "Feature", "properties": {"code": "WK059916", "name": "Hoogvliet"}, "geometry": {"type": "MultiPolygon", "coordinates": [[[[4.38542, 51.87738], [4.38663, 51.87339], [4.38635, 51.86905], [4.38802, 51.86825], [4.38637, 51.86638], [4.38444, 51.86156], [4.38435, 51.86125], [4.38435, 51.86124], [4.38435, 51.86124], [4.38351, 51.85737], [4.38502, 51.85553], [4.38516, 51.85376], [4.38491, 51.8536], [4.38507, 51.85343], [4.38323, 51.8524], [4.38366, 51.84212], [4.37209, 51.84335], [4.36078, 51.84646], [4.35363, 51.84905], [4.34627, 51.85329], [4.34156, 51.8571], [4.33972, 51.85938], [4.33965, 51.85946], [4.33554, 51.8643], [4.33061, 51.87179], [4.34872, 51.87523], [4.35592, 51.87604], [4.36884, 51.87653], [4.37794, 51.87539], [4.38542, 51.87738]]]]}}, {"type": "Feature", "properties": {"code": "WK059917", "name": "Hoek van Holland"}, "geometry": {"type": "MultiPolygon", "coordinates": [[[[4.15096, 51.98762], [4.14894, 51.98509], [4.14995, 51.98481], [4.14728, 51.98139], [4.1553, 51.9796], [4.15506, 51.97784], [4.16961, 51.97397], [4.1759, 51.97169], [4.18747, 51.96682], [4.18658, 51.96587], [4.18792, 51.96539], [4.19061, 51.96598], [4.1912, 51.96544], [4.18937, 51.96476], [4.18672, 51.96268], [4.1924, 51.95481], [4.21782, 51.94164], [4.21953, 51.9414], [4.21272, 51.93373], [4.19127, 51.94175], [4.17326, 51.94949], [4.14366, 51.96434], [4.13314, 51.96967], [4.12329, 51.97367], [4.10524, 51.97891], [4.08233, 51.98413], [4.0456, 51.99192], [4.04715, 51.99434], [4.04818, 51.99425], [4.09334, 51.98498], [4.09702, 51.98505], [4.11014, 51.992], [4.1253, 52.00164], [4.13252, 51.99854], [4.13099, 51.99718], [4.13236, 51.99546], [4.13557, 51.9927], [4.13861, 51.99165], [4.15096, 51.98762]]]]}}, {"type": "Feature", "properties": {"code": "WK059918", "name": "Spaanse Polder"}, "geometry": {"type": "MultiPolygon", "coordinates": [[[[4.42166, 51.93411], [4.43234, 51.92608], [4.43725, 51.92203], [4.43651, 51.92194], [4.41706, 51.92042], [4.41705, 51.92082], [4.41686, 51.92312], [4.41523, 51.92297], [4.4105, 51.92929], [4.40987, 51.92911], [4.40817, 51.93141], [4.40881, 51.93475], [4.40898, 51.93578], [4.40981, 51.93634], [4.41326, 51.93682], [4.41476, 51.93737], [4.41778, 51.9374], [4.42166, 51.93411]]]]}}, {"type": "Feature", "properties": {"code": "WK059919", "name": "Nieuw Mathenesse"}, "geometry": {"type": "MultiPolygon", "coordinates": [[[[4.43026, 51.91303], [4.44084, 51.90578], [4.43615, 51.90375], [4.43551, 51.90196], [4.42532, 51.90237], [4.41371, 51.90076], [4.41234, 51.90242], [4.41568, 51.90503], [4.4133, 51.90728], [4.41345, 51.90768], [4.41135, 51.91027], [4.41, 51.90985], [4.40954, 51.91042], [4.40908, 51.91205], [4.41221, 51.91324], [4.41274, 51.91391], [4.41351, 51.91395], [4.43026, 51.91303]]]]}}, {"type": "Feature", "properties": {"code": "WK059921", "name": "Waalhaven-Eemhaven"}, "geometry": {"type": "MultiPolygon", "coordinates": [[[[4.45955, 51.89531], [4.46251, 51.89478], [4.46342, 51.89408], [4.4578, 51.88482], [4.45391, 51.87806], [4.45332, 51.87283], [4.45549, 51.87164], [4.44024, 51.86642], [4.44024, 51.86642], [4.43653, 51.86857], [4.43174, 51.86981], [4.43023, 51.86941], [4.42837, 51.87038], [4.41762, 51.87242], [4.41582, 51.87244], [4.415, 51.87174], [4.41463, 51.87189], [4.4137, 51.87174], [4.4115, 51.87163], [4.4063, 51.87299], [4.39485, 51.87233], [4.39043, 51.87058], [4.38836, 51.86863], [4.38802, 51.86825], [4.38635, 51.86905], [4.38663, 51.87339], [4.38542, 51.87738], [4.38583, 51.87834], [4.38873, 51.87851], [4.3892, 51.88069], [4.39546, 51.88345], [4.39651, 51.88447], [4.39797, 51.88659], [4.39624, 51.88864], [4.39775, 51.89162], [4.39869, 51.8917], [4.39096, 51.89424], [4.3849, 51.89502], [4.38382, 51.89275], [4.37803, 51.89306], [4.37214, 51.89919], [4.38017, 51.89793], [4.38834, 51.89678], [4.39342, 51.89674], [4.39903, 51.89742], [4.40971, 51.89986], [4.40976, 51.89987], [4.41371, 51.90076], [4.42532, 51.90237], [4.43551, 51.90196], [4.45053, 51.89961], [4.45966, 51.89923], [4.45955, 51.89531]], [[4.42014, 51.89641], [4.42035, 51.89301], [4.41557, 51.8914], [4.42001, 51.8903], [4.42012, 51.88708], [4.42622, 51.88602], [4.42448, 51.88917], [4.42588, 51.89131], [4.42304, 51.8947], [4.42261, 51.89642], [4.42384, 51.897], [4.42014, 51.89641]]]]}}, {"type": "Feature", "properties": {"code": "WK059922", "name": "Vondelingenplaat"}, "geometry": {"type": "MultiPolygon", "coordinates": [[[[4.37062, 51.89936], [4.37214, 51.89919], [4.37803, 51.89306], [4.38058, 51.88633], [4.38583, 51.87834], [4.38542, 51.87738], [4.37794, 51.87539], [4.36884, 51.87653], [4.35592, 51.87604], [4.34872, 51.87523], [4.33061, 51.87179], [4.3196, 51.89458], [4.33096, 51.8941], [4.34107, 51.89534], [4.3498, 51.89767], [4.36003, 51.89943], [4.37062, 51.89936]]]]}}, {"type": "Feature", "properties": {"code": "WK059923", "name": "Botlek-Europoort-Maasvlakte"}, "geometry": {"type": "MultiPolygon", "coordinates": [[[[4.0456, 51.99192], [4.08233, 51.98413], [4.10524, 51.97891], [4.12329, 51.97367], [4.13314, 51.96967], [4.14366, 51.96434], [4.17326, 51.94949], [4.19127, 51.94175], [4.18708, 51.93853], [4.21904, 51.92259], [4.22097, 51.91822], [4.22295, 51.91601], [4.22592, 51.91092], [4.22817, 51.90327], [4.23048, 51.90352], [4.23572, 51.90128], [4.26049, 51.89656], [4.26289, 51.89921], [4.26618, 51.9059], [4.26757, 51.90534], [4.28189, 51.90015], [4.29637, 51.89705], [4.31945, 51.89459], [4.3196, 51.89458], [4.33061, 51.87179], [4.33554, 51.8643], [4.28379, 51.86448], [4.26503, 51.86477], [4.25976, 51.8658], [4.25258, 51.86826], [4.23938, 51.87299], [4.23297, 51.87749], [4.23003, 51.88306], [4.229, 51.88568], [4.22007, 51.89607], [4.21591, 51.89894], [4.2107, 51.90134], [4.1971, 51.9083], [4.18537, 51.91289], [4.17677, 51.91779], [4.17271, 51.91855], [4.17239, 51.91859], [4.16819, 51.91906], [4.16702, 51.92313], [4.16267, 51.92665], [4.14489, 51.93141], [4.11306, 51.93574], [4.11267, 51.9348], [4.10772, 51.93614], [4.10172, 51.92701], [4.102, 51.92353], [4.102, 51.92353], [4.09289, 51.93253], [4.08284, 51.93367], [4.07372, 51.93363], [4.06393, 51.93223], [3.99353, 51.91585], [3.98999, 51.91735], [3.98675, 51.91612], [3.98522, 51.91625], [3.98379, 51.91809], [3.97607, 51.93432], [3.9635, 51.9542], [3.96239, 51.96154], [3.96482, 51.96688], [3.97726, 51.98057], [3.98075, 51.98359], [3.98407, 51.98514], [3.99662, 51.988], [4.00409, 51.98904], [4.01063, 51.98855], [4.02386, 51.98577], [4.02852, 51.98709], [4.03273, 51.9875], [4.04168, 51.98597], [4.0456, 51.99192]]]]}}, {"type": "Feature", "properties": {"code": "WK059924", "name": "Rotterdam-Noord-West"}, "geometry": {"type": "MultiPolygon", "coordinates": [[[[4.41484, 51.94543], [4.41549, 51.94076], [4.41321, 51.93906], [4.40932, 51.93798], [4.40852, 51.93864], [4.40392, 51.93725], [4.39498, 51.94291], [4.39422, 51.944], [4.39345, 51.94426], [4.39348, 51.94447], [4.39367, 51.94461], [4.39492, 51.94646], [4.40456, 51.94619], [4.40804, 51.94674], [4.41211, 51.94835], [4.41484, 51.94543]]]]}}, {"type": "Feature", "properties": {"code": "WK059925", "name": "Rivium"}, "geometry": {"type": "MultiPolygon", "coordinates": [[[[4.53785, 51.91932], [4.54052, 51.91524], [4.53822, 51.91534], [4.53614, 51.9158], [4.53522, 51.9185], [4.53584, 51.92056], [4.53785, 51.91932]]]]}}, {"type": "Feature", "properties": {"code": "WK059927", "name": "Rozenburg"}, "geometry": {"type": "MultiPolygon", "coordinates": [[[[4.26618, 51.9059], [4.26289, 51.89921], [4.26049, 51.89656], [4.23572, 51.90128], [4.23048, 51.90352], [4.22817, 51.90327], [4.22592, 51.91092], [4.22295, 51.91601], [4.22097, 51.91822], [4.21904, 51.92259], [4.18708, 51.93853], [4.19127, 51.94175], [4.21272, 51.93373], [4.21993, 51.93047], [4.22291, 51.92876], [4.22939, 51.92331], [4.23217, 51.92071], [4.23646, 51.9173], [4.2442, 51.91374], [4.25543, 51.91017], [4.26618, 51.9059]]]]}}]}