{"type": "FeatureCollection", "features": [{"type": "Feature", "properties": {"code": "BU05031100", "name": "Bedrijventerrein Wateringseweg"}, "geometry": {"type": "MultiPolygon", "coordinates": [[[[4.34949, 52.01998], [4.35086, 52.01646], [4.34969, 52.01515], [4.34693, 52.01787], [4.3437, 52.02062], [4.34767, 52.02235], [4.348, 52.02245], [4.34949, 52.01998]]]]}}, {"type": "Feature", "properties": {"code": "BU05031101", "name": "Centrum-Noord"}, "geometry": {"type": "MultiPolygon", "coordinates": [[[[4.35253, 52.01965], [4.35676, 52.01949], [4.35928, 52.01794], [4.35545, 52.01624], [4.3542, 52.01569], [4.3532, 52.01695], [4.35207, 52.0172], [4.35086, 52.01646], [4.34949, 52.01998], [4.35253, 52.01965]]]]}}, {"type": "Feature", "properties": {"code": "BU05031102", "name": "Centrum-West"}, "geometry": {"type": "MultiPolygon", "coordinates": [[[[4.3532, 52.01695], [4.3542, 52.01569], [4.35545, 52.01624], [4.35889, 52.01343], [4.35593, 52.01169], [4.35721, 52.01006], [4.35555, 52.00936], [4.35486, 52.00984], [4.35271, 52.01193], [4.34956, 52.01509], [4.34969, 52.01515], [4.35086, 52.01646], [4.35207, 52.0172], [4.3532, 52.01695]]]]}}, {"type": "Feature", "properties": {"code": "BU05031103", "name": "Centrum-Oost"}, "geometry": {"type": "MultiPolygon", "coordinates": [[[[4.365, 52.01382], [4.36236, 52.01257], [4.35889, 52.01343], [4.35545, 52.01624], [4.35928, 52.01794], [4.365, 52.01382]]]]}}, {"type": "Feature", "properties": {"code": "BU05031104", "name": "Centrum"}, "geometry": {"type": "MultiPolygon", "coordinates": [[[[4.36236, 52.01257], [4.36482, 52.01184], [4.36183, 52.01044], [4.36107, 52.00959], [4.36174, 52.00854], [4.35909, 52.0076], [4.35721, 52.01006], [4.35593, 52.01169], [4.35889, 52.01343], [4.36236, 52.01257]]]]}}, {"type": "Feature", "properties": {"code": "BU05031105", "name": "Stationsbuurt"}, "geometry": {"type": "MultiPolygon", "coordinates": [[[[4.35555, 52.00936], [4.35942, 52.00516], [4.35679, 52.00365], [4.35477, 52.00894], [4.35486, 52.00984], [4.35555, 52.00936]]]]}}, {"type": "Feature", "properties": {"code": "BU05031106", "name": "Centrum-Zuidwest"}, "geometry": {"type": "MultiPolygon", "coordinates": [[[[4.35909, 52.0076], [4.36174, 52.00854], [4.36224, 52.00847], [4.36368, 52.00672], [4.36049, 52.00529], [4.35942, 52.00516], [4.35555, 52.00936], [4.35721, 52.01006], [4.35909, 52.0076]]]]}}, {"type": "Feature", "properties": {"code": "BU05031107", "name": "In de Veste"}, "geometry": {"type": "MultiPolygon", "coordinates": [[[[4.36907, 52.0109], [4.36224, 52.00847], [4.36174, 52.00854], [4.36107, 52.00959], [4.36183, 52.01044], [4.36482, 52.01184], [4.36907, 52.0109]]]]}}, {"type": "Feature", "properties": {"code": "BU05031108", "name": "Centrum-Zuidoost"}, "geometry": {"type": "MultiPolygon", "coordinates": [[[[4.36682, 52.01272], [4.36907, 52.0109], [4.36482, 52.01184], [4.36236, 52.01257], [4.365, 52.01382], [4.36682, 52.01272]]]]}}, {"type": "Feature", "properties": {"code": "BU05031109", "name": "Zuidpoort"}, "geometry": {"type": "MultiPolygon", "coordinates": [[[[4.36578, 52.00766], [4.36368, 52.00672], [4.36224, 52.00847], [4.36907, 52.0109], [4.36578, 52.00766]]]]}}, {"type": "Feature", "properties": {"code": "BU05031200", "name": "Bedrijventerrein Haagweg"}, "geometry": {"type": "MultiPolygon", "coordinates": [[[[4.35201, 52.02314], [4.35253, 52.01965], [4.34949, 52.01998], [4.348, 52.02245], [4.34801, 52.02246], [4.35142, 52.024], [4.35201, 52.02314]]]]}}, {"type": "Feature", "properties": {"code": "BU05031201", "name": "Indische Buurt-Noord"}, "geometry": {"type": "MultiPolygon", "coordinates": [[[[4.35977, 52.02654], [4.35699, 52.02518], [4.35201, 52.02314], [4.35142, 52.024], [4.35495, 52.02558], [4.35503, 52.02553], [4.35543, 52.02571], [4.35548, 52.02585], [4.35769, 52.02682], [4.35779, 52.02686], [4.35885, 52.02733], [4.35977, 52.02654]]]]}}, {"type": "Feature", "properties": {"code": "BU05031202", "name": "Indische Buurt-Zuid"}, "geometry": {"type": "MultiPolygon", "coordinates": [[[[4.35805, 52.02185], [4.36194, 52.01909], [4.35928, 52.01794], [4.35676, 52.01949], [4.35253, 52.01965], [4.35201, 52.02314], [4.35699, 52.02518], [4.35805, 52.02185]]]]}}, {"type": "Feature", "properties": {"code": "BU05031203", "name": "Sint Joris"}, "geometry": {"type": "MultiPolygon", "coordinates": [[[[4.36678, 52.0212], [4.36194, 52.01909], [4.35805, 52.02185], [4.35699, 52.02518], [4.35977, 52.02654], [4.36026, 52.02676], [4.36678, 52.0212]]]]}}, {"type": "Feature", "properties": {"code": "BU05031204", "name": "Koepoort"}, "geometry": {"type": "MultiPolygon", "coordinates": [[[[4.36479, 52.01658], [4.36794, 52.01324], [4.36682, 52.01272], [4.365, 52.01382], [4.35928, 52.01794], [4.36194, 52.01909], [4.36479, 52.01658]]]]}}, {"type": "Feature", "properties": {"code": "BU05031205", "name": "Bomenwijk"}, "geometry": {"type": "MultiPolygon", "coordinates": [[[[4.36682, 52.02117], [4.36965, 52.01873], [4.36479, 52.01658], [4.36194, 52.01909], [4.36678, 52.0212], [4.36682, 52.02117]]]]}}, {"type": "Feature", "properties": {"code": "BU05031206", "name": "Biesland"}, "geometry": {"type": "MultiPolygon", "coordinates": [[[[4.37339, 52.01555], [4.36794, 52.01324], [4.36479, 52.01658], [4.36965, 52.01873], [4.37339, 52.01555]]]]}}, {"type": "Feature", "properties": {"code": "BU05031207", "name": "Heilige Land"}, "geometry": {"type": "MultiPolygon", "coordinates": [[[[4.37479, 52.01439], [4.37579, 52.01346], [4.37333, 52.01083], [4.36987, 52.01074], [4.36907, 52.0109], [4.36682, 52.01272], [4.36794, 52.01324], [4.37339, 52.01555], [4.37479, 52.01439]]]]}}, {"type": "Feature", "properties": {"code": "BU05031208", "name": "Bedrijventerrein Delftse Poort-West"}, "geometry": {"type": "MultiPolygon", "coordinates": [[[[4.37962, 52.01017], [4.38149, 52.00867], [4.37927, 52.00837], [4.3735, 52.01007], [4.37333, 52.01083], [4.37579, 52.01346], [4.37962, 52.01017]]]]}}, {"type": "Feature", "properties": {"code": "BU05031300", "name": "Bedrijventerrein Altena"}, "geometry": {"type": "MultiPolygon", "coordinates": [[[[4.34693, 52.01787], [4.33813, 52.01393], [4.33443, 52.01648], [4.3437, 52.02062], [4.34693, 52.01787]]]]}}, {"type": "Feature", "properties": {"code": "BU05031301", "name": "Agnetaparkbuurt"}, "geometry": {"type": "MultiPolygon", "coordinates": [[[[4.34969, 52.01515], [4.34956, 52.01509], [4.34447, 52.01344], [4.33865, 52.01339], [4.33813, 52.01393], [4.34693, 52.01787], [4.34969, 52.01515]]]]}}, {"type": "Feature", "properties": {"code": "BU05031302", "name": "Ministersbuurt-West"}, "geometry": {"type": "MultiPolygon", "coordinates": [[[[4.34447, 52.01344], [4.34607, 52.01072], [4.34143, 52.00932], [4.33879, 52.01325], [4.33865, 52.01339], [4.34447, 52.01344]]]]}}, {"type": "Feature", "properties": {"code": "BU05031303", "name": "Ministersbuurt-Oost"}, "geometry": {"type": "MultiPolygon", "coordinates": [[[[4.35271, 52.01193], [4.34652, 52.00921], [4.34607, 52.01072], [4.34447, 52.01344], [4.34956, 52.01509], [4.35271, 52.01193]]]]}}, {"type": "Feature", "properties": {"code": "BU05031304", "name": "Westeindebuurt"}, "geometry": {"type": "MultiPolygon", "coordinates": [[[[4.34652, 52.00921], [4.34868, 52.00618], [4.34659, 52.00523], [4.34416, 52.00735], [4.34158, 52.00918], [4.34143, 52.00932], [4.34607, 52.01072], [4.34652, 52.00921]]]]}}, {"type": "Feature", "properties": {"code": "BU05031305", "name": "Olofsbuurt"}, "geometry": {"type": "MultiPolygon", "coordinates": [[[[4.35486, 52.00984], [4.35477, 52.00894], [4.34868, 52.00618], [4.34652, 52.00921], [4.35271, 52.01193], [4.35486, 52.00984]]]]}}, {"type": "Feature", "properties": {"code": "BU05031306", "name": "Krakeelpolder"}, "geometry": {"type": "MultiPolygon", "coordinates": [[[[4.35301, 52.00227], [4.3485, 52.00104], [4.34659, 52.00523], [4.34868, 52.00618], [4.35301, 52.00227]]]]}}, {"type": "Feature", "properties": {"code": "BU05031307", "name": "Westerkwartier"}, "geometry": {"type": "MultiPolygon", "coordinates": [[[[4.35679, 52.00365], [4.35301, 52.00227], [4.34868, 52.00618], [4.35477, 52.00894], [4.35679, 52.00365]]]]}}, {"type": "Feature", "properties": {"code": "BU05031400", "name": "Kuyperwijk-Noord"}, "geometry": {"type": "MultiPolygon", "coordinates": [[[[4.33813, 52.01393], [4.33865, 52.01339], [4.33879, 52.01325], [4.33292, 52.0118], [4.33025, 52.01467], [4.33429, 52.01642], [4.33443, 52.01648], [4.33813, 52.01393]]]]}}, {"type": "Feature", "properties": {"code": "BU05031401", "name": "Kuyperwijk-Zuid"}, "geometry": {"type": "MultiPolygon", "coordinates": [[[[4.34143, 52.00932], [4.34158, 52.00918], [4.33729, 52.0084], [4.33292, 52.0118], [4.33879, 52.01325], [4.34143, 52.00932]]]]}}, {"type": "Feature", "properties": {"code": "BU05031402", "name": "Ecodus"}, "geometry": {"type": "MultiPolygon", "coordinates": [[[[4.34416, 52.00735], [4.33904, 52.00505], [4.33845, 52.00569], [4.33729, 52.0084], [4.34158, 52.00918], [4.34416, 52.00735]]]]}}, {"type": "Feature", "properties": {"code": "BU05031403", "name": "Marlot"}, "geometry": {"type": "MultiPolygon", "coordinates": [[[[4.34659, 52.00523], [4.3411, 52.00278], [4.33904, 52.00505], [4.34416, 52.00735], [4.34659, 52.00523]]]]}}, {"type": "Feature", "properties": {"code": "BU05031404", "name": "Westlandhof"}, "geometry": {"type": "MultiPolygon", "coordinates": [[[[4.3485, 52.00104], [4.34362, 52.00003], [4.34114, 52.00271], [4.3411, 52.00278], [4.34659, 52.00523], [4.3485, 52.00104]]]]}}, {"type": "Feature", "properties": {"code": "BU05031405", "name": "Hoornse Hof"}, "geometry": {"type": "MultiPolygon", "coordinates": [[[[4.33292, 52.0118], [4.33729, 52.0084], [4.33845, 52.00569], [4.33637, 52.00475], [4.33266, 52.00788], [4.33131, 52.00728], [4.32907, 52.00927], [4.32562, 52.01232], [4.32606, 52.0125], [4.32596, 52.01279], [4.33025, 52.01467], [4.33292, 52.0118]]]]}}, {"type": "Feature", "properties": {"code": "BU05031406", "name": "Den Hoorn"}, "geometry": {"type": "MultiPolygon", "coordinates": [[[[4.32907, 52.00927], [4.33131, 52.00728], [4.32826, 52.00592], [4.32807, 52.0061], [4.32774, 52.0064], [4.32655, 52.00615], [4.3265, 52.00624], [4.32576, 52.00602], [4.32624, 52.00543], [4.32635, 52.00529], [4.32324, 52.00434], [4.32022, 52.00807], [4.32149, 52.00846], [4.32064, 52.00932], [4.32437, 52.01044], [4.32437, 52.01053], [4.32437, 52.01058], [4.32527, 52.01078], [4.32547, 52.01087], [4.3254, 52.0111], [4.32533, 52.01132], [4.326, 52.01162], [4.32532, 52.0122], [4.32562, 52.01232], [4.32907, 52.00927]]]]}}, {"type": "Feature", "properties": {"code": "BU05031407", "name": "Molenbuurt"}, "geometry": {"type": "MultiPolygon", "coordinates": [[[[4.34362, 52.00003], [4.34383, 51.99976], [4.33772, 51.9988], [4.33583, 52.00106], [4.34114, 52.00271], [4.34362, 52.00003]]]]}}, {"type": "Feature", "properties": {"code": "BU05031600", "name": "De Bras"}, "geometry": {"type": "MultiPolygon", "coordinates": [[[[4.37974, 52.02673], [4.37981, 52.02666], [4.36951, 52.02227], [4.36349, 52.02725], [4.3634, 52.0281], [4.3735, 52.0326], [4.37974, 52.02673]]]]}}, {"type": "Feature", "properties": {"code": "BU05031601", "name": "Bedrijventerrein Ypenburgsepoort"}, "geometry": {"type": "MultiPolygon", "coordinates": [[[[4.36349, 52.02725], [4.36951, 52.02227], [4.36682, 52.02117], [4.36678, 52.0212], [4.36026, 52.02676], [4.36243, 52.02769], [4.3634, 52.0281], [4.36349, 52.02725]]]]}}, {"type": "Feature", "properties": {"code": "BU05031602", "name": "De Grote Plas"}, "geometry": {"type": "MultiPolygon", "coordinates": [[[[4.38624, 52.02331], [4.38785, 52.02137], [4.39079, 52.01683], [4.3828, 52.01329], [4.38138, 52.01434], [4.37647, 52.01506], [4.37479, 52.01439], [4.37339, 52.01555], [4.36965, 52.01873], [4.36682, 52.02117], [4.36951, 52.02227], [4.37981, 52.02666], [4.38624, 52.02331]]]]}}, {"type": "Feature", "properties": {"code": "BU05031603", "name": "Bedrijventerrein Delftse Poort-Oost"}, "geometry": {"type": "MultiPolygon", "coordinates": [[[[4.37647, 52.01506], [4.38138, 52.01434], [4.3828, 52.01329], [4.38537, 52.01207], [4.37962, 52.01017], [4.37579, 52.01346], [4.37479, 52.01439], [4.37647, 52.01506]]]]}}, {"type": "Feature", "properties": {"code": "BU05031604", "name": "Hoflaan"}, "geometry": {"type": "MultiPolygon", "coordinates": [[[[4.39332, 52.01307], [4.39452, 52.01126], [4.39369, 52.01102], [4.39369, 52.01093], [4.38835, 52.00945], [4.3885, 52.00867], [4.38357, 52.0068], [4.38149, 52.00867], [4.37962, 52.01017], [4.38537, 52.01207], [4.3828, 52.01329], [4.39079, 52.01683], [4.39332, 52.01307]]]]}}, {"type": "Feature", "properties": {"code": "BU05032200", "name": "Bedrijventerrein Tanthof-West"}, "geometry": {"type": "MultiPolygon", "coordinates": [[[[4.34667, 51.98435], [4.3414, 51.98423], [4.33575, 51.98261], [4.3336, 51.98428], [4.34713, 51.98628], [4.34667, 51.98435]]]]}}, {"type": "Feature", "properties": {"code": "BU05032201", "name": "Afrikabuurt-West"}, "geometry": {"type": "MultiPolygon", "coordinates": [[[[4.34227, 51.98014], [4.3368, 51.97917], [4.33575, 51.98261], [4.3414, 51.98423], [4.34227, 51.98014]]]]}}, {"type": "Feature", "properties": {"code": "BU05032202", "name": "Afrikabuurt-Oost"}, "geometry": {"type": "MultiPolygon", "coordinates": [[[[4.34667, 51.98435], [4.34726, 51.98134], [4.34227, 51.98014], [4.3414, 51.98423], [4.34667, 51.98435]]]]}}, {"type": "Feature", "properties": {"code": "BU05032203", "name": "Latijns Amerikabuurt"}, "geometry": {"type": "MultiPolygon", "coordinates": [[[[4.35324, 51.98675], [4.35417, 51.98353], [4.34726, 51.98134], [4.34667, 51.98435], [4.34713, 51.98628], [4.35236, 51.98718], [4.35283, 51.98725], [4.35324, 51.98675]]]]}}, {"type": "Feature", "properties": {"code": "BU05032204", "name": "Aziëbuurt"}, "geometry": {"type": "MultiPolygon", "coordinates": [[[[4.35544, 51.98019], [4.35575, 51.97936], [4.34232, 51.97719], [4.34207, 51.97776], [4.3383, 51.97744], [4.3368, 51.97917], [4.34227, 51.98014], [4.34726, 51.98134], [4.35417, 51.98353], [4.35544, 51.98019]]]]}}, {"type": "Feature", "properties": {"code": "BU05032205", "name": "Tanthofkadebuurt"}, "geometry": {"type": "MultiPolygon", "coordinates": [[[[4.33575, 51.98261], [4.3368, 51.97917], [4.3383, 51.97744], [4.34207, 51.97776], [4.34232, 51.97719], [4.34313, 51.97567], [4.33823, 51.97418], [4.33272, 51.98046], [4.33204, 51.98407], [4.3336, 51.98428], [4.33575, 51.98261]]]]}}, {"type": "Feature", "properties": {"code": "BU05032300", "name": "Bedrijventerrein Tanthof-Oost"}, "geometry": {"type": "MultiPolygon", "coordinates": [[[[4.36965, 51.98155], [4.36872, 51.98137], [4.36823, 51.98226], [4.36619, 51.98565], [4.36456, 51.98832], [4.36019, 51.98759], [4.35324, 51.98675], [4.35283, 51.98725], [4.35892, 51.98906], [4.36446, 51.99042], [4.36494, 51.99053], [4.36965, 51.98155]]]]}}, {"type": "Feature", "properties": {"code": "BU05032301", "name": "Boerderijbuurt"}, "geometry": {"type": "MultiPolygon", "coordinates": [[[[4.36198, 51.98491], [4.35417, 51.98353], [4.35324, 51.98675], [4.36019, 51.98759], [4.36198, 51.98491]]]]}}, {"type": "Feature", "properties": {"code": "BU05032302", "name": "Dierenbuurt"}, "geometry": {"type": "MultiPolygon", "coordinates": [[[[4.36456, 51.98832], [4.36619, 51.98565], [4.36198, 51.98491], [4.36019, 51.98759], [4.36456, 51.98832]]]]}}, {"type": "Feature", "properties": {"code": "BU05032303", "name": "Vogelbuurt-West"}, "geometry": {"type": "MultiPolygon", "coordinates": [[[[4.3627, 51.98137], [4.35544, 51.98019], [4.35417, 51.98353], [4.36198, 51.98491], [4.3627, 51.98137]]]]}}, {"type": "Feature", "properties": {"code": "BU05032304", "name": "Vogelbuurt-Oost"}, "geometry": {"type": "MultiPolygon", "coordinates": [[[[4.36823, 51.98226], [4.3627, 51.98137], [4.36198, 51.98491], [4.36619, 51.98565], [4.36823, 51.98226]]]]}}, {"type": "Feature", "properties": {"code": "BU05032305", "name": "Bosrand"}, "geometry": {"type": "MultiPolygon", "coordinates": [[[[4.36872, 51.98137], [4.35575, 51.97936], [4.35544, 51.98019], [4.3627, 51.98137], [4.36823, 51.98226], [4.36872, 51.98137]]]]}}, {"type": "Feature", "properties": {"code": "BU05032400", "name": "Poptahof-Noord"}, "geometry": {"type": "MultiPolygon", "coordinates": [[[[4.35467, 51.99947], [4.34882, 51.99861], [4.3485, 52.00104], [4.35301, 52.00227], [4.35467, 51.99947]]]]}}, {"type": "Feature", "properties": {"code": "BU05032401", "name": "Poptahof-Zuid"}, "geometry": {"type": "MultiPolygon", "coordinates": [[[[4.35468, 51.99943], [4.35492, 51.99692], [4.35031, 51.99638], [4.34903, 51.99615], [4.34882, 51.99861], [4.35467, 51.99947], [4.35468, 51.99943]]]]}}, {"type": "Feature", "properties": {"code": "BU05032402", "name": "Bedrijventerrein Voorhof"}, "geometry": {"type": "MultiPolygon", "coordinates": [[[[4.35885, 52.00043], [4.35468, 51.99943], [4.35467, 51.99947], [4.35301, 52.00227], [4.35679, 52.00365], [4.35885, 52.00043]]]]}}, {"type": "Feature", "properties": {"code": "BU05032403", "name": "Mythologiebuurt"}, "geometry": {"type": "MultiPolygon", "coordinates": [[[[4.36086, 51.99792], [4.35975, 51.99751], [4.35669, 51.9969], [4.35492, 51.99692], [4.35468, 51.99943], [4.35885, 52.00043], [4.35938, 52.00046], [4.36086, 51.99792]]]]}}, {"type": "Feature", "properties": {"code": "BU05032404", "name": "Aart van der Leeuwbuurt"}, "geometry": {"type": "MultiPolygon", "coordinates": [[[[4.35343, 51.99003], [4.35181, 51.98848], [4.35074, 51.99123], [4.3499, 51.9934], [4.34903, 51.99615], [4.35031, 51.99638], [4.35343, 51.99003]]]]}}, {"type": "Feature", "properties": {"code": "BU05032405", "name": "Roland Holstbuurt"}, "geometry": {"type": "MultiPolygon", "coordinates": [[[[4.35492, 51.99692], [4.35841, 51.98982], [4.35892, 51.98906], [4.35283, 51.98725], [4.35236, 51.98718], [4.35193, 51.98818], [4.35181, 51.98848], [4.35343, 51.99003], [4.35031, 51.99638], [4.35492, 51.99692]]]]}}, {"type": "Feature", "properties": {"code": "BU05032406", "name": "Voorhof-Hoogbouw"}, "geometry": {"type": "MultiPolygon", "coordinates": [[[[4.35669, 51.9969], [4.36023, 51.99064], [4.35841, 51.98982], [4.35492, 51.99692], [4.35669, 51.9969]]]]}}, {"type": "Feature", "properties": {"code": "BU05032407", "name": "Multatulibuurt"}, "geometry": {"type": "MultiPolygon", "coordinates": [[[[4.36294, 51.99165], [4.36446, 51.99042], [4.35892, 51.98906], [4.35841, 51.98982], [4.36023, 51.99064], [4.35669, 51.9969], [4.35975, 51.99751], [4.36294, 51.99165]]]]}}, {"type": "Feature", "properties": {"code": "BU05032408", "name": "Bedrijventerrein Vulcanusweg"}, "geometry": {"type": "MultiPolygon", "coordinates": [[[[4.36494, 51.99053], [4.36446, 51.99042], [4.36294, 51.99165], [4.35975, 51.99751], [4.36086, 51.99792], [4.36494, 51.99053]]]]}}, {"type": "Feature", "properties": {"code": "BU05032500", "name": "Reinier de Graafbuurt"}, "geometry": {"type": "MultiPolygon", "coordinates": [[[[4.34481, 51.99717], [4.33281, 51.99555], [4.33152, 51.99785], [4.33324, 51.99812], [4.33335, 51.99792], [4.33475, 51.99835], [4.33772, 51.9988], [4.34383, 51.99976], [4.34481, 51.99717]]]]}}, {"type": "Feature", "properties": {"code": "BU05032501", "name": "Buitenhof-Noord"}, "geometry": {"type": "MultiPolygon", "coordinates": [[[[4.34494, 51.9958], [4.34446, 51.99458], [4.33729, 51.99326], [4.33795, 51.9915], [4.33294, 51.99111], [4.33311, 51.99317], [4.33281, 51.99555], [4.34481, 51.99717], [4.34494, 51.9958]]]]}}, {"type": "Feature", "properties": {"code": "BU05032502", "name": "Juniusbuurt"}, "geometry": {"type": "MultiPolygon", "coordinates": [[[[4.34882, 51.99861], [4.34903, 51.99615], [4.34494, 51.9958], [4.34481, 51.99717], [4.34383, 51.99976], [4.34362, 52.00003], [4.3485, 52.00104], [4.34882, 51.99861]]]]}}, {"type": "Feature", "properties": {"code": "BU05032503", "name": "Gillisbuurt"}, "geometry": {"type": "MultiPolygon", "coordinates": [[[[4.34448, 51.99253], [4.34448, 51.9921], [4.33795, 51.9915], [4.33729, 51.99326], [4.34446, 51.99458], [4.34448, 51.99253]]]]}}, {"type": "Feature", "properties": {"code": "BU05032504", "name": "Fledderusbuurt"}, "geometry": {"type": "MultiPolygon", "coordinates": [[[[4.34449, 51.99082], [4.34449, 51.98995], [4.33672, 51.98909], [4.3355, 51.98997], [4.33291, 51.99009], [4.33294, 51.99111], [4.33795, 51.9915], [4.34448, 51.9921], [4.34449, 51.99082]]]]}}, {"type": "Feature", "properties": {"code": "BU05032505", "name": "Het Rode Dorp"}, "geometry": {"type": "MultiPolygon", "coordinates": [[[[4.3499, 51.9934], [4.34448, 51.99253], [4.34446, 51.99458], [4.34494, 51.9958], [4.34903, 51.99615], [4.3499, 51.9934]]]]}}, {"type": "Feature", "properties": {"code": "BU05032506", "name": "Pijperring"}, "geometry": {"type": "MultiPolygon", "coordinates": [[[[4.35074, 51.99123], [4.34449, 51.99082], [4.34448, 51.9921], [4.34448, 51.99253], [4.3499, 51.9934], [4.35074, 51.99123]]]]}}, {"type": "Feature", "properties": {"code": "BU05032507", "name": "Verzetstrijdersbuurt"}, "geometry": {"type": "MultiPolygon", "coordinates": [[[[4.33672, 51.98909], [4.34449, 51.98995], [4.34476, 51.98694], [4.33259, 51.9853], [4.33291, 51.99009], [4.3355, 51.98997], [4.33672, 51.98909]]]]}}, {"type": "Feature", "properties": {"code": "BU05032508", "name": "Vrijheidsbuurt"}, "geometry": {"type": "MultiPolygon", "coordinates": [[[[4.35181, 51.98848], [4.35193, 51.98818], [4.34476, 51.98694], [4.34449, 51.98995], [4.34449, 51.99082], [4.35074, 51.99123], [4.35181, 51.98848]]]]}}, {"type": "Feature", "properties": {"code": "BU05032509", "name": "Buitenhof-Zuid"}, "geometry": {"type": "MultiPolygon", "coordinates": [[[[4.35193, 51.98818], [4.35236, 51.98718], [4.34713, 51.98628], [4.3336, 51.98428], [4.33259, 51.9853], [4.34476, 51.98694], [4.35193, 51.98818]]]]}}, {"type": "Feature", "properties": {"code": "BU05032510", "name": "Kerkpolder"}, "geometry": {"type": "MultiPolygon", "coordinates": [[[[4.33294, 51.99111], [4.33291, 51.99009], [4.33259, 51.9853], [4.3336, 51.98428], [4.33204, 51.98407], [4.32849, 51.9857], [4.32411, 51.98986], [4.32573, 51.99195], [4.33311, 51.99317], [4.33294, 51.99111]]]]}}, {"type": "Feature", "properties": {"code": "BU05032600", "name": "Abtswoude"}, "geometry": {"type": "MultiPolygon", "coordinates": [[[[4.37028, 51.98037], [4.37575, 51.97015], [4.36918, 51.96887], [4.36817, 51.97158], [4.35954, 51.97014], [4.35872, 51.97226], [4.35988, 51.97246], [4.3597, 51.97287], [4.35854, 51.97271], [4.35837, 51.97311], [4.35948, 51.97328], [4.35931, 51.97369], [4.3582, 51.9735], [4.35766, 51.97482], [4.35883, 51.97502], [4.35857, 51.97566], [4.35738, 51.97549], [4.35663, 51.9773], [4.34507, 51.97542], [4.34313, 51.97567], [4.34232, 51.97719], [4.35575, 51.97936], [4.36872, 51.98137], [4.36965, 51.98155], [4.37028, 51.98037]]]]}}, {"type": "Feature", "properties": {"code": "BU05032700", "name": "Delftzicht"}, "geometry": {"type": "MultiPolygon", "coordinates": [[[[4.36215, 52.00376], [4.36426, 52.00083], [4.35938, 52.00046], [4.35885, 52.00043], [4.35679, 52.00365], [4.35942, 52.00516], [4.36049, 52.00529], [4.36215, 52.00376]]]]}}, {"type": "Feature", "properties": {"code": "BU05032702", "name": "Bedrijventerrein Schieweg-Noord"}, "geometry": {"type": "MultiPolygon", "coordinates": [[[[4.36426, 52.00083], [4.36479, 52.00018], [4.37081, 51.99196], [4.36494, 51.99053], [4.36086, 51.99792], [4.35938, 52.00046], [4.36426, 52.00083]]]]}}, {"type": "Feature", "properties": {"code": "BU05032703", "name": "Bedrijventerrein Schieweg-Zuid"}, "geometry": {"type": "MultiPolygon", "coordinates": [[[[4.37868, 51.98174], [4.37028, 51.98037], [4.36965, 51.98155], [4.36494, 51.99053], [4.37081, 51.99196], [4.37868, 51.98174]]]]}}, {"type": "Feature", "properties": {"code": "BU05032704", "name": "Schieweg-Polder"}, "geometry": {"type": "MultiPolygon", "coordinates": [[[[4.38125, 51.97865], [4.38362, 51.97582], [4.3863, 51.97221], [4.37575, 51.97015], [4.37028, 51.98037], [4.37868, 51.98174], [4.38125, 51.97865]]]]}}, {"type": "Feature", "properties": {"code": "BU05032800", "name": "Zeeheldenbuurt"}, "geometry": {"type": "MultiPolygon", "coordinates": [[[[4.36704, 52.00625], [4.36654, 52.00238], [4.36215, 52.00376], [4.36049, 52.00529], [4.36368, 52.00672], [4.36578, 52.00766], [4.36704, 52.00625]]]]}}, {"type": "Feature", "properties": {"code": "BU05032801", "name": "TU-Noord"}, "geometry": {"type": "MultiPolygon", "coordinates": [[[[4.36987, 52.01074], [4.37159, 52.00733], [4.37557, 52.00423], [4.37608, 52.00355], [4.37238, 52.00257], [4.37141, 52.00353], [4.3667, 52.00217], [4.36654, 52.00238], [4.36704, 52.00625], [4.36578, 52.00766], [4.36907, 52.0109], [4.36987, 52.01074]]]]}}, {"type": "Feature", "properties": {"code": "BU05032802", "name": "Wippolder-Noord"}, "geometry": {"type": "MultiPolygon", "coordinates": [[[[4.37333, 52.01083], [4.3735, 52.01007], [4.37927, 52.00837], [4.38149, 52.00867], [4.38357, 52.0068], [4.38374, 52.00665], [4.38184, 52.00623], [4.37159, 52.00733], [4.36987, 52.01074], [4.37333, 52.01083]]]]}}, {"type": "Feature", "properties": {"code": "BU05032803", "name": "Wippolder-Zuid"}, "geometry": {"type": "MultiPolygon", "coordinates": [[[[4.38184, 52.00623], [4.37557, 52.00423], [4.37159, 52.00733], [4.38184, 52.00623]]]]}}, {"type": "Feature", "properties": {"code": "BU05032804", "name": "Bedrijventerrein Rotterdamseweg-Noord"}, "geometry": {"type": "MultiPolygon", "coordinates": [[[[4.37278, 51.99244], [4.37081, 51.99196], [4.36479, 52.00018], [4.36588, 52.00043], [4.36553, 52.00151], [4.36687, 52.00199], [4.37278, 51.99244]]]]}}, {"type": "Feature", "properties": {"code": "BU05032805", "name": "TU-Campus"}, "geometry": {"type": "MultiPolygon", "coordinates": [[[[4.37238, 52.00257], [4.37608, 52.00355], [4.37753, 52.00147], [4.38027, 51.99752], [4.38212, 51.99471], [4.37278, 51.99244], [4.36687, 52.00199], [4.3667, 52.00217], [4.37141, 52.00353], [4.37238, 52.00257]]]]}}, {"type": "Feature", "properties": {"code": "BU05032806", "name": "Professorenbuurt"}, "geometry": {"type": "MultiPolygon", "coordinates": [[[[4.38617, 52.00489], [4.38592, 52.00484], [4.38143, 52.00249], [4.37753, 52.00147], [4.37608, 52.00355], [4.37557, 52.00423], [4.38184, 52.00623], [4.38374, 52.00665], [4.38617, 52.00489]]]]}}, {"type": "Feature", "properties": {"code": "BU05032807", "name": "Bedrijventerrein Delftech"}, "geometry": {"type": "MultiPolygon", "coordinates": [[[[4.38916, 51.99738], [4.38958, 51.99652], [4.38212, 51.99471], [4.38027, 51.99752], [4.38828, 51.99945], [4.38916, 51.99738]]]]}}, {"type": "Feature", "properties": {"code": "BU05032808", "name": "Pauwmolen"}, "geometry": {"type": "MultiPolygon", "coordinates": [[[[4.38903, 52.00783], [4.38818, 52.00664], [4.38862, 52.00545], [4.38617, 52.00489], [4.38374, 52.00665], [4.38357, 52.0068], [4.3885, 52.00867], [4.38903, 52.00783]]]]}}, {"type": "Feature", "properties": {"code": "BU05032809", "name": "Koningsveldbuurt"}, "geometry": {"type": "MultiPolygon", "coordinates": [[[[4.36654, 52.00238], [4.3667, 52.00217], [4.36687, 52.00199], [4.36553, 52.00151], [4.36588, 52.00043], [4.36479, 52.00018], [4.36426, 52.00083], [4.36215, 52.00376], [4.36654, 52.00238]]]]}}, {"type": "Feature", "properties": {"code": "BU05032810", "name": "Schoemakerplantage"}, "geometry": {"type": "MultiPolygon", "coordinates": [[[[4.38814, 51.99978], [4.38828, 51.99945], [4.38027, 51.99752], [4.37753, 52.00147], [4.38143, 52.00249], [4.38592, 52.00484], [4.38814, 51.99978]]]]}}, {"type": "Feature", "properties": {"code": "BU05032900", "name": "Bedrijventerrein Rotterdamseweg-Zuid"}, "geometry": {"type": "MultiPolygon", "coordinates": [[[[4.37891, 51.98277], [4.38188, 51.97883], [4.38125, 51.97865], [4.37868, 51.98174], [4.37081, 51.99196], [4.37278, 51.99244], [4.37891, 51.98277]]]]}}, {"type": "Feature", "properties": {"code": "BU05032901", "name": "Bedrijventerrein Technopolis"}, "geometry": {"type": "MultiPolygon", "coordinates": [[[[4.39177, 51.99129], [4.39353, 51.98718], [4.3922, 51.98695], [4.3927, 51.98505], [4.37891, 51.98277], [4.37278, 51.99244], [4.38212, 51.99471], [4.38958, 51.99652], [4.39177, 51.99129]]]]}}, {"type": "Feature", "properties": {"code": "BU05032902", "name": "Ackersdijk"}, "geometry": {"type": "MultiPolygon", "coordinates": [[[[4.40154, 51.97805], [4.40727, 51.96899], [4.40791, 51.9682], [4.40293, 51.96632], [4.39772, 51.97433], [4.39675, 51.97418], [4.39617, 51.97608], [4.39422, 51.97633], [4.39381, 51.9775], [4.38362, 51.97582], [4.38125, 51.97865], [4.38188, 51.97883], [4.37891, 51.98277], [4.3927, 51.98505], [4.3922, 51.98695], [4.39353, 51.98718], [4.39703, 51.97897], [4.40154, 51.97805]]]]}}]}