{"type": "FeatureCollection", "features": [{"type": "Feature", "properties": {"code": "BU05050100", "name": "Nieuwe Haven en omgeving"}, "geometry": {"type": "MultiPolygon", "coordinates": [[[[4.66543, 51.81754], [4.66501, 51.81665], [4.65904, 51.81402], [4.65892, 51.81379], [4.65632, 51.81543], [4.65646, 51.81551], [4.65858, 51.81669], [4.66325, 51.81903], [4.66444, 51.81948], [4.66839, 51.82055], [4.66543, 51.81754]]]]}}, {"type": "Feature", "properties": {"code": "BU05050101", "name": "Groenmarkt en omgeving"}, "geometry": {"type": "MultiPolygon", "coordinates": [[[[4.66692, 51.81499], [4.66524, 51.81426], [4.6637, 51.81362], [4.65904, 51.81402], [4.66501, 51.81665], [4.66692, 51.81499]]]]}}, {"type": "Feature", "properties": {"code": "BU05050102", "name": "Grote Markt en omgeving"}, "geometry": {"type": "MultiPolygon", "coordinates": [[[[4.66882, 51.81711], [4.66861, 51.81592], [4.66692, 51.81499], [4.66501, 51.81665], [4.66543, 51.81754], [4.66882, 51.81711]]]]}}, {"type": "Feature", "properties": {"code": "BU05050103", "name": "Wijnstraat en omgeving"}, "geometry": {"type": "MultiPolygon", "coordinates": [[[[4.66882, 51.81711], [4.66543, 51.81754], [4.66839, 51.82055], [4.67138, 51.82085], [4.66882, 51.81711]]]]}}, {"type": "Feature", "properties": {"code": "BU05050104", "name": "Kalkhaven"}, "geometry": {"type": "MultiPolygon", "coordinates": [[[[4.65892, 51.81379], [4.65831, 51.81237], [4.65079, 51.81151], [4.65475, 51.81444], [4.65632, 51.81543], [4.65892, 51.81379]]]]}}, {"type": "Feature", "properties": {"code": "BU05050105", "name": "Achterhakkers en omgeving"}, "geometry": {"type": "MultiPolygon", "coordinates": [[[[4.65709, 51.81058], [4.65628, 51.80905], [4.65055, 51.81132], [4.65079, 51.81151], [4.65831, 51.81237], [4.65709, 51.81058]]]]}}, {"type": "Feature", "properties": {"code": "BU05050106", "name": "Boogjes en omgeving"}, "geometry": {"type": "MultiPolygon", "coordinates": [[[[4.6637, 51.81362], [4.66366, 51.81208], [4.65831, 51.81237], [4.65892, 51.81379], [4.65904, 51.81402], [4.6637, 51.81362]]]]}}, {"type": "Feature", "properties": {"code": "BU05050107", "name": "Lombard en omgeving"}, "geometry": {"type": "MultiPolygon", "coordinates": [[[[4.6664, 51.81167], [4.66366, 51.81208], [4.6637, 51.81362], [4.66524, 51.81426], [4.6664, 51.81167]]]]}}, {"type": "Feature", "properties": {"code": "BU05050108", "name": "Centrum"}, "geometry": {"type": "MultiPolygon", "coordinates": [[[[4.66932, 51.81588], [4.6722, 51.81327], [4.66972, 51.8116], [4.66838, 51.81145], [4.6664, 51.81167], [4.66524, 51.81426], [4.66692, 51.81499], [4.66861, 51.81592], [4.66932, 51.81588]]]]}}, {"type": "Feature", "properties": {"code": "BU05050109", "name": "Augustijnenkamp en omgeving"}, "geometry": {"type": "MultiPolygon", "coordinates": [[[[4.67361, 51.81491], [4.6722, 51.81327], [4.66932, 51.81588], [4.67361, 51.81491]]]]}}, {"type": "Feature", "properties": {"code": "BU05050110", "name": "Geldelozepad en omgeving"}, "geometry": {"type": "MultiPolygon", "coordinates": [[[[4.66366, 51.81208], [4.66277, 51.80977], [4.65709, 51.81058], [4.65831, 51.81237], [4.66366, 51.81208]]]]}}, {"type": "Feature", "properties": {"code": "BU05050111", "name": "Rozenhof en omgeving"}, "geometry": {"type": "MultiPolygon", "coordinates": [[[[4.66277, 51.80977], [4.66253, 51.80915], [4.66161, 51.80806], [4.65721, 51.80881], [4.65628, 51.80905], [4.65709, 51.81058], [4.66277, 51.80977]]]]}}, {"type": "Feature", "properties": {"code": "BU05050112", "name": "Beverwijcksplein en omgeving"}, "geometry": {"type": "MultiPolygon", "coordinates": [[[[4.6664, 51.81167], [4.66838, 51.81145], [4.66815, 51.80903], [4.66277, 51.80977], [4.66366, 51.81208], [4.6664, 51.81167]]]]}}, {"type": "Feature", "properties": {"code": "BU05050113", "name": "Burgemeester de Raadtsingel en omgeving"}, "geometry": {"type": "MultiPolygon", "coordinates": [[[[4.66815, 51.80903], [4.67232, 51.80916], [4.67315, 51.80721], [4.67348, 51.80675], [4.66209, 51.80801], [4.66253, 51.80915], [4.66277, 51.80977], [4.66815, 51.80903]]]]}}, {"type": "Feature", "properties": {"code": "BU05050114", "name": "Kon. Wilhelminastraat en omgeving"}, "geometry": {"type": "MultiPolygon", "coordinates": [[[[4.67232, 51.80916], [4.66815, 51.80903], [4.66838, 51.81145], [4.66972, 51.8116], [4.67232, 51.80916]]]]}}, {"type": "Feature", "properties": {"code": "BU05050200", "name": "Bleijenhoek"}, "geometry": {"type": "MultiPolygon", "coordinates": [[[[4.67173, 51.82079], [4.67637, 51.82042], [4.67675, 51.81914], [4.67493, 51.81763], [4.67474, 51.81655], [4.67361, 51.81491], [4.66932, 51.81588], [4.66861, 51.81592], [4.66882, 51.81711], [4.67138, 51.82085], [4.67171, 51.82085], [4.67173, 51.82079]]]]}}, {"type": "Feature", "properties": {"code": "BU05050201", "name": "Stadswerven"}, "geometry": {"type": "MultiPolygon", "coordinates": [[[[4.68936, 51.81884], [4.68819, 51.81704], [4.68466, 51.81657], [4.68081, 51.81712], [4.67753, 51.81876], [4.67538, 51.8164], [4.67474, 51.81655], [4.67493, 51.81763], [4.67675, 51.81914], [4.67637, 51.82042], [4.68463, 51.82078], [4.68834, 51.82141], [4.68936, 51.81884]]]]}}, {"type": "Feature", "properties": {"code": "BU05050202", "name": "Lijnbaan"}, "geometry": {"type": "MultiPolygon", "coordinates": [[[[4.68081, 51.81712], [4.68466, 51.81657], [4.68819, 51.81704], [4.68788, 51.81575], [4.68424, 51.81313], [4.6791, 51.81548], [4.67538, 51.8164], [4.67753, 51.81876], [4.68081, 51.81712]]]]}}, {"type": "Feature", "properties": {"code": "BU05050203", "name": "Matena's Pad en omgeving"}, "geometry": {"type": "MultiPolygon", "coordinates": [[[[4.67538, 51.8164], [4.6791, 51.81548], [4.67769, 51.8138], [4.67698, 51.81302], [4.67361, 51.81491], [4.67474, 51.81655], [4.67538, 51.8164]]]]}}, {"type": "Feature", "properties": {"code": "BU05050204", "name": "Merwestein-Noord"}, "geometry": {"type": "MultiPolygon", "coordinates": [[[[4.68424, 51.81313], [4.68291, 51.81179], [4.67769, 51.8138], [4.6791, 51.81548], [4.68424, 51.81313]]]]}}, {"type": "Feature", "properties": {"code": "BU05050205", "name": "Kasperspad en omgeving"}, "geometry": {"type": "MultiPolygon", "coordinates": [[[[4.67698, 51.81302], [4.67232, 51.80916], [4.66972, 51.8116], [4.6722, 51.81327], [4.67361, 51.81491], [4.67698, 51.81302]]]]}}, {"type": "Feature", "properties": {"code": "BU05050206", "name": "Park Merwestein en omgeving"}, "geometry": {"type": "MultiPolygon", "coordinates": [[[[4.68291, 51.81179], [4.68207, 51.81135], [4.6784, 51.80917], [4.67315, 51.80721], [4.67232, 51.80916], [4.67698, 51.81302], [4.67769, 51.8138], [4.68291, 51.81179]]]]}}, {"type": "Feature", "properties": {"code": "BU05050300", "name": "Zuidendijk"}, "geometry": {"type": "MultiPolygon", "coordinates": [[[[4.65405, 51.79939], [4.65522, 51.79843], [4.65783, 51.79596], [4.65918, 51.79504], [4.65694, 51.79517], [4.64986, 51.80139], [4.64989, 51.80169], [4.65405, 51.79939]]]]}}, {"type": "Feature", "properties": {"code": "BU05050301", "name": "Viottakade en omgeving"}, "geometry": {"type": "MultiPolygon", "coordinates": [[[[4.65328, 51.80561], [4.65628, 51.80512], [4.65862, 51.80234], [4.65489, 51.80135], [4.65405, 51.79939], [4.64989, 51.80169], [4.6501, 51.80629], [4.65328, 51.80561]]]]}}, {"type": "Feature", "properties": {"code": "BU05050302", "name": "Erasmuslaan en omgeving"}, "geometry": {"type": "MultiPolygon", "coordinates": [[[[4.66161, 51.80806], [4.66183, 51.80649], [4.65628, 51.80512], [4.65328, 51.80561], [4.65721, 51.80881], [4.66161, 51.80806]]]]}}, {"type": "Feature", "properties": {"code": "BU05050303", "name": "Breitnerstraat en omgeving"}, "geometry": {"type": "MultiPolygon", "coordinates": [[[[4.66158, 51.80017], [4.65522, 51.79843], [4.65405, 51.79939], [4.65489, 51.80135], [4.65862, 51.80234], [4.66158, 51.80017]]]]}}, {"type": "Feature", "properties": {"code": "BU05050304", "name": "Jacob Marisstraat en omgeving"}, "geometry": {"type": "MultiPolygon", "coordinates": [[[[4.66613, 51.79918], [4.66663, 51.79837], [4.65783, 51.79596], [4.65522, 51.79843], [4.66158, 51.80017], [4.66613, 51.79918]]]]}}, {"type": "Feature", "properties": {"code": "BU05050305", "name": "Krispijnse Driehoek"}, "geometry": {"type": "MultiPolygon", "coordinates": [[[[4.66613, 51.79918], [4.66158, 51.80017], [4.65862, 51.80234], [4.66406, 51.80378], [4.66613, 51.79918]]]]}}, {"type": "Feature", "properties": {"code": "BU05050306", "name": "Jacob Catsstraat en omgeving"}, "geometry": {"type": "MultiPolygon", "coordinates": [[[[4.66406, 51.80378], [4.65862, 51.80234], [4.65628, 51.80512], [4.66183, 51.80649], [4.66406, 51.80378]]]]}}, {"type": "Feature", "properties": {"code": "BU05050307", "name": "Rembrandtlaan en omgeving"}, "geometry": {"type": "MultiPolygon", "coordinates": [[[[4.66736, 51.79723], [4.65918, 51.79504], [4.65783, 51.79596], [4.66663, 51.79837], [4.66736, 51.79723]]]]}}, {"type": "Feature", "properties": {"code": "BU05050400", "name": "Pr. Bernhardstraat en omgeving"}, "geometry": {"type": "MultiPolygon", "coordinates": [[[[4.6712, 51.80142], [4.66613, 51.79918], [4.66406, 51.80378], [4.66847, 51.80453], [4.6712, 51.80142]]]]}}, {"type": "Feature", "properties": {"code": "BU05050401", "name": "Waldeck Pyrmontweg en omgeving"}, "geometry": {"type": "MultiPolygon", "coordinates": [[[[4.67417, 51.798], [4.66736, 51.79723], [4.66663, 51.79837], [4.66613, 51.79918], [4.6712, 51.80142], [4.67417, 51.798]]]]}}, {"type": "Feature", "properties": {"code": "BU05050402", "name": "Anna Paulownastraat en omgeving"}, "geometry": {"type": "MultiPolygon", "coordinates": [[[[4.67391, 51.80262], [4.6712, 51.80142], [4.66847, 51.80453], [4.67247, 51.80544], [4.67391, 51.80262]]]]}}, {"type": "Feature", "properties": {"code": "BU05050403", "name": "Emmastraat en omgeving"}, "geometry": {"type": "MultiPolygon", "coordinates": [[[[4.67684, 51.80347], [4.67391, 51.80262], [4.67247, 51.80544], [4.67435, 51.80609], [4.67684, 51.80347]]]]}}, {"type": "Feature", "properties": {"code": "BU05050404", "name": "Bloemenbuurt"}, "geometry": {"type": "MultiPolygon", "coordinates": [[[[4.67459, 51.80652], [4.67777, 51.80502], [4.67871, 51.80272], [4.67684, 51.80347], [4.67435, 51.80609], [4.67348, 51.80675], [4.67459, 51.80652]]]]}}, {"type": "Feature", "properties": {"code": "BU05050405", "name": "Weizigtpark"}, "geometry": {"type": "MultiPolygon", "coordinates": [[[[4.66253, 51.80915], [4.66209, 51.80801], [4.67348, 51.80675], [4.67435, 51.80609], [4.67247, 51.80544], [4.66847, 51.80453], [4.66406, 51.80378], [4.66183, 51.80649], [4.66161, 51.80806], [4.66253, 51.80915]]]]}}, {"type": "Feature", "properties": {"code": "BU05050406", "name": "Nieuweweg en omgeving"}, "geometry": {"type": "MultiPolygon", "coordinates": [[[[4.67871, 51.80272], [4.67649, 51.79697], [4.67417, 51.798], [4.6712, 51.80142], [4.67391, 51.80262], [4.67684, 51.80347], [4.67871, 51.80272]]]]}}, {"type": "Feature", "properties": {"code": "BU05050500", "name": "Wantijpark en omgeving"}, "geometry": {"type": "MultiPolygon", "coordinates": [[[[4.69234, 51.81691], [4.69764, 51.81637], [4.70151, 51.81525], [4.70723, 51.8135], [4.70479, 51.81009], [4.70004, 51.80573], [4.69449, 51.80707], [4.68424, 51.81313], [4.68788, 51.81575], [4.68819, 51.81704], [4.69234, 51.81691]]]]}}, {"type": "Feature", "properties": {"code": "BU05050501", "name": "Transvaalstraat en omgeving"}, "geometry": {"type": "MultiPolygon", "coordinates": [[[[4.6784, 51.80917], [4.68034, 51.80597], [4.67459, 51.80652], [4.67348, 51.80675], [4.67315, 51.80721], [4.6784, 51.80917]]]]}}, {"type": "Feature", "properties": {"code": "BU05050502", "name": "Indische Buurt-Zuid"}, "geometry": {"type": "MultiPolygon", "coordinates": [[[[4.68556, 51.80648], [4.68879, 51.80547], [4.68874, 51.80503], [4.68034, 51.80597], [4.6784, 51.80917], [4.68556, 51.80648]]]]}}, {"type": "Feature", "properties": {"code": "BU05050503", "name": "Indische Buurt-Noord"}, "geometry": {"type": "MultiPolygon", "coordinates": [[[[4.68655, 51.80748], [4.68556, 51.80648], [4.6784, 51.80917], [4.68207, 51.81135], [4.68655, 51.80748]]]]}}, {"type": "Feature", "properties": {"code": "BU05050504", "name": "Boeroestraat en omgeving"}, "geometry": {"type": "MultiPolygon", "coordinates": [[[[4.69042, 51.80863], [4.68811, 51.8063], [4.68879, 51.80547], [4.68556, 51.80648], [4.68655, 51.80748], [4.68865, 51.80967], [4.69042, 51.80863]]]]}}, {"type": "Feature", "properties": {"code": "BU05050505", "name": "Vogelplein-Aalscholverstraat en omgeving"}, "geometry": {"type": "MultiPolygon", "coordinates": [[[[4.69449, 51.80707], [4.70004, 51.80573], [4.69815, 51.80399], [4.68941, 51.80496], [4.68874, 51.80503], [4.68879, 51.80547], [4.68811, 51.8063], [4.69042, 51.80863], [4.68865, 51.80967], [4.68655, 51.80748], [4.68207, 51.81135], [4.68291, 51.81179], [4.68424, 51.81313], [4.69449, 51.80707]]]]}}, {"type": "Feature", "properties": {"code": "BU05050506", "name": "Hoekenessestraat en omgeving"}, "geometry": {"type": "MultiPolygon", "coordinates": [[[[4.68034, 51.80597], [4.68133, 51.80486], [4.67908, 51.80259], [4.67871, 51.80272], [4.67777, 51.80502], [4.67459, 51.80652], [4.68034, 51.80597]]]]}}, {"type": "Feature", "properties": {"code": "BU05050507", "name": "Standhasenstraat en omgeving"}, "geometry": {"type": "MultiPolygon", "coordinates": [[[[4.68874, 51.80503], [4.68941, 51.80496], [4.68679, 51.8018], [4.68133, 51.80486], [4.68034, 51.80597], [4.68874, 51.80503]]]]}}, {"type": "Feature", "properties": {"code": "BU05050508", "name": "Heysterbachstraat en omgeving"}, "geometry": {"type": "MultiPolygon", "coordinates": [[[[4.68679, 51.8018], [4.68517, 51.80023], [4.67908, 51.80259], [4.68133, 51.80486], [4.68679, 51.8018]]]]}}, {"type": "Feature", "properties": {"code": "BU05050509", "name": "Maria Montessorilaan en omgeving"}, "geometry": {"type": "MultiPolygon", "coordinates": [[[[4.67908, 51.80259], [4.68517, 51.80023], [4.68671, 51.79786], [4.67894, 51.79565], [4.67649, 51.79697], [4.67871, 51.80272], [4.67908, 51.80259]]]]}}, {"type": "Feature", "properties": {"code": "BU05050510", "name": "Sportterrein Krommedijk"}, "geometry": {"type": "MultiPolygon", "coordinates": [[[[4.69815, 51.80399], [4.6971, 51.80302], [4.69261, 51.79927], [4.68671, 51.79786], [4.68517, 51.80023], [4.68679, 51.8018], [4.68941, 51.80496], [4.69815, 51.80399]]]]}}, {"type": "Feature", "properties": {"code": "BU05050600", "name": "Plein 1940-1945 en omgeving"}, "geometry": {"type": "MultiPolygon", "coordinates": [[[[4.70228, 51.81726], [4.70151, 51.81525], [4.69764, 51.81637], [4.69855, 51.81802], [4.70228, 51.81726]]]]}}, {"type": "Feature", "properties": {"code": "BU05050601", "name": "Beekmanstraat en omgeving"}, "geometry": {"type": "MultiPolygon", "coordinates": [[[[4.70757, 51.817], [4.70723, 51.8135], [4.70151, 51.81525], [4.70228, 51.81726], [4.70757, 51.817]]]]}}, {"type": "Feature", "properties": {"code": "BU05050602", "name": "Noorderkwartier"}, "geometry": {"type": "MultiPolygon", "coordinates": [[[[4.69291, 51.81918], [4.69234, 51.81691], [4.68819, 51.81704], [4.68936, 51.81884], [4.69291, 51.81918]]]]}}, {"type": "Feature", "properties": {"code": "BU05050603", "name": "Amerstraat en omgeving"}, "geometry": {"type": "MultiPolygon", "coordinates": [[[[4.69855, 51.81802], [4.69764, 51.81637], [4.69234, 51.81691], [4.69291, 51.81918], [4.69855, 51.81802]]]]}}, {"type": "Feature", "properties": {"code": "BU05050604", "name": "Merwedepolder-West"}, "geometry": {"type": "MultiPolygon", "coordinates": [[[[4.71142, 51.81687], [4.71581, 51.81632], [4.71519, 51.81263], [4.71396, 51.81317], [4.70723, 51.8135], [4.70757, 51.817], [4.71142, 51.81687]]]]}}, {"type": "Feature", "properties": {"code": "BU05050605", "name": "Merwedepolder-Oost"}, "geometry": {"type": "MultiPolygon", "coordinates": [[[[4.72221, 51.81552], [4.72443, 51.81241], [4.71896, 51.80855], [4.71658, 51.81025], [4.71519, 51.81263], [4.71581, 51.81632], [4.72221, 51.81552]]]]}}, {"type": "Feature", "properties": {"code": "BU05050606", "name": "Spaarbekken"}, "geometry": {"type": "MultiPolygon", "coordinates": [[[[4.73316, 51.81425], [4.742, 51.8154], [4.73982, 51.80963], [4.73526, 51.80545], [4.71896, 51.80855], [4.72443, 51.81241], [4.72221, 51.81552], [4.73316, 51.81425]]]]}}, {"type": "Feature", "properties": {"code": "BU05050607", "name": "1e Merwedehaven en omgeving"}, "geometry": {"type": "MultiPolygon", "coordinates": [[[[4.70998, 51.82335], [4.70964, 51.81826], [4.71142, 51.81687], [4.70757, 51.817], [4.70228, 51.81726], [4.69855, 51.81802], [4.69291, 51.81918], [4.68936, 51.81884], [4.68834, 51.82141], [4.69227, 51.82201], [4.69784, 51.82259], [4.70373, 51.82314], [4.70792, 51.82335], [4.70998, 51.82335]]]]}}, {"type": "Feature", "properties": {"code": "BU05050608", "name": "2e Merwedehaven en omgeving"}, "geometry": {"type": "MultiPolygon", "coordinates": [[[[4.72964, 51.82217], [4.74169, 51.82222], [4.74176, 51.82222], [4.742, 51.8154], [4.73316, 51.81425], [4.72221, 51.81552], [4.71581, 51.81632], [4.71142, 51.81687], [4.70964, 51.81826], [4.70998, 51.82335], [4.72964, 51.82217]]]]}}, {"type": "Feature", "properties": {"code": "BU05050700", "name": "Admiraalsplein"}, "geometry": {"type": "MultiPolygon", "coordinates": [[[[4.65498, 51.7922], [4.65599, 51.79062], [4.65297, 51.78986], [4.65265, 51.79193], [4.65498, 51.7922]]]]}}, {"type": "Feature", "properties": {"code": "BU05050701", "name": "Van Kinsbergenstraat en omgeving"}, "geometry": {"type": "MultiPolygon", "coordinates": [[[[4.65871, 51.7905], [4.65843, 51.78772], [4.66211, 51.78619], [4.6635, 51.78466], [4.66346, 51.784], [4.65397, 51.78415], [4.65281, 51.78421], [4.65297, 51.78986], [4.65599, 51.79062], [4.65871, 51.7905]]]]}}, {"type": "Feature", "properties": {"code": "BU05050702", "name": "Cornelis Evertsenstraat en omgeving"}, "geometry": {"type": "MultiPolygon", "coordinates": [[[[4.65265, 51.79193], [4.65297, 51.78986], [4.65281, 51.78421], [4.65032, 51.78418], [4.64883, 51.79163], [4.64886, 51.79203], [4.65265, 51.79193]]]]}}, {"type": "Feature", "properties": {"code": "BU05050703", "name": "Dorus Rijkersstraat en omgeving"}, "geometry": {"type": "MultiPolygon", "coordinates": [[[[4.65918, 51.79504], [4.65898, 51.79312], [4.65871, 51.7905], [4.65599, 51.79062], [4.65498, 51.7922], [4.65599, 51.79415], [4.65672, 51.79493], [4.65694, 51.79517], [4.65918, 51.79504]]]]}}, {"type": "Feature", "properties": {"code": "BU05050704", "name": "Van Ewijckstraat en omgeving"}, "geometry": {"type": "MultiPolygon", "coordinates": [[[[4.65599, 51.79415], [4.65498, 51.7922], [4.65265, 51.79193], [4.64886, 51.79203], [4.64894, 51.79445], [4.65599, 51.79415]]]]}}, {"type": "Feature", "properties": {"code": "BU05050705", "name": "Zeehavenlaan en omgeving"}, "geometry": {"type": "MultiPolygon", "coordinates": [[[[4.65672, 51.79493], [4.65599, 51.79415], [4.64894, 51.79445], [4.64925, 51.7972], [4.65121, 51.7968], [4.65255, 51.79722], [4.65672, 51.79493]]]]}}, {"type": "Feature", "properties": {"code": "BU05050706", "name": "Laan der Verenigde Naties Noord"}, "geometry": {"type": "MultiPolygon", "coordinates": [[[[4.65694, 51.79517], [4.65672, 51.79493], [4.65255, 51.79722], [4.65121, 51.7968], [4.64925, 51.7972], [4.64935, 51.79786], [4.64986, 51.80139], [4.65694, 51.79517]]]]}}, {"type": "Feature", "properties": {"code": "BU05050707", "name": "Dordtse Hout"}, "geometry": {"type": "MultiPolygon", "coordinates": [[[[4.66346, 51.784], [4.66333, 51.78187], [4.66013, 51.78209], [4.6586, 51.77993], [4.657, 51.78095], [4.65397, 51.78415], [4.66346, 51.784]]]]}}, {"type": "Feature", "properties": {"code": "BU05050708", "name": "Amstelwijck Park"}, "geometry": {"type": "MultiPolygon", "coordinates": [[[[4.65281, 51.78421], [4.65397, 51.78415], [4.657, 51.78095], [4.65051, 51.78079], [4.65032, 51.78418], [4.65281, 51.78421]]]]}}, {"type": "Feature", "properties": {"code": "BU05050709", "name": "Amstelwijck Midden"}, "geometry": {"type": "MultiPolygon", "coordinates": [[[[4.6586, 51.77993], [4.65594, 51.77699], [4.65, 51.77712], [4.65049, 51.78009], [4.65051, 51.78079], [4.657, 51.78095], [4.6586, 51.77993]]]]}}, {"type": "Feature", "properties": {"code": "BU05050710", "name": "Amstelwijck Spoorzone"}, "geometry": {"type": "MultiPolygon", "coordinates": [[[[4.66013, 51.78209], [4.66333, 51.78187], [4.66354, 51.7812], [4.66312, 51.78073], [4.6597, 51.7769], [4.65594, 51.77699], [4.6586, 51.77993], [4.66013, 51.78209]]]]}}, {"type": "Feature", "properties": {"code": "BU05050711", "name": "Amstelwijck Smitzigt"}, "geometry": {"type": "MultiPolygon", "coordinates": [[[[4.66661, 51.78461], [4.66641, 51.78439], [4.66354, 51.7812], [4.66333, 51.78187], [4.66346, 51.784], [4.6635, 51.78466], [4.66661, 51.78461]]]]}}, {"type": "Feature", "properties": {"code": "BU05050800", "name": "Crabbehof-Zuid"}, "geometry": {"type": "MultiPolygon", "coordinates": [[[[4.66901, 51.7922], [4.67212, 51.79078], [4.66661, 51.78461], [4.6635, 51.78466], [4.66211, 51.78619], [4.65843, 51.78772], [4.65871, 51.7905], [4.65898, 51.79312], [4.66901, 51.7922]]]]}}, {"type": "Feature", "properties": {"code": "BU05050801", "name": "Crabbehof-Noord"}, "geometry": {"type": "MultiPolygon", "coordinates": [[[[4.66901, 51.7922], [4.65898, 51.79312], [4.65918, 51.79504], [4.66736, 51.79723], [4.66901, 51.7922]]]]}}, {"type": "Feature", "properties": {"code": "BU05050802", "name": "Zuidhoven"}, "geometry": {"type": "MultiPolygon", "coordinates": [[[[4.67417, 51.798], [4.67649, 51.79697], [4.67315, 51.79193], [4.67212, 51.79078], [4.66901, 51.7922], [4.66736, 51.79723], [4.67417, 51.798]]]]}}, {"type": "Feature", "properties": {"code": "BU05050900", "name": "Sterrenburg 1-West"}, "geometry": {"type": "MultiPolygon", "coordinates": [[[[4.67713, 51.78818], [4.67732, 51.78414], [4.66641, 51.78439], [4.66661, 51.78461], [4.67212, 51.79078], [4.67713, 51.78818]]]]}}, {"type": "Feature", "properties": {"code": "BU05050901", "name": "Sterrenburg 1-Oost"}, "geometry": {"type": "MultiPolygon", "coordinates": [[[[4.67878, 51.79103], [4.68682, 51.79013], [4.68572, 51.78443], [4.68469, 51.78399], [4.67732, 51.78414], [4.67713, 51.78818], [4.67212, 51.79078], [4.67315, 51.79193], [4.67878, 51.79103]]]]}}, {"type": "Feature", "properties": {"code": "BU05050902", "name": "Waterman en omgeving"}, "geometry": {"type": "MultiPolygon", "coordinates": [[[[4.67732, 51.78414], [4.6763, 51.78255], [4.67101, 51.783], [4.66876, 51.78246], [4.6673, 51.78127], [4.66843, 51.77984], [4.67588, 51.77992], [4.67585, 51.77884], [4.67581, 51.77809], [4.66445, 51.77903], [4.66306, 51.77931], [4.66312, 51.78073], [4.66354, 51.7812], [4.66641, 51.78439], [4.67732, 51.78414]]]]}}, {"type": "Feature", "properties": {"code": "BU05050903", "name": "Driehoek en omgeving"}, "geometry": {"type": "MultiPolygon", "coordinates": [[[[4.6763, 51.78255], [4.67597, 51.78218], [4.67588, 51.77992], [4.66843, 51.77984], [4.6673, 51.78127], [4.66876, 51.78246], [4.67101, 51.783], [4.6763, 51.78255]]]]}}, {"type": "Feature", "properties": {"code": "BU05050904", "name": "Blaauwweg en omgeving"}, "geometry": {"type": "MultiPolygon", "coordinates": [[[[4.68469, 51.78399], [4.68315, 51.77871], [4.67585, 51.77884], [4.67588, 51.77992], [4.67597, 51.78218], [4.6763, 51.78255], [4.67732, 51.78414], [4.68469, 51.78399]]]]}}, {"type": "Feature", "properties": {"code": "BU05050905", "name": "Minnaertweg en omgeving"}, "geometry": {"type": "MultiPolygon", "coordinates": [[[[4.68799, 51.7839], [4.6877, 51.7786], [4.68315, 51.77871], [4.68469, 51.78399], [4.68799, 51.7839]]]]}}, {"type": "Feature", "properties": {"code": "BU05050906", "name": "Mildenburg en omgeving"}, "geometry": {"type": "MultiPolygon", "coordinates": [[[[4.66306, 51.77931], [4.66445, 51.77903], [4.67581, 51.77809], [4.67459, 51.775], [4.67437, 51.77445], [4.66612, 51.7768], [4.663, 51.77673], [4.65963, 51.77682], [4.6597, 51.7769], [4.66312, 51.78073], [4.66306, 51.77931]]]]}}, {"type": "Feature", "properties": {"code": "BU05050907", "name": "Zuilenburg en omgeving"}, "geometry": {"type": "MultiPolygon", "coordinates": [[[[4.67585, 51.77884], [4.68315, 51.77871], [4.68256, 51.77644], [4.68086, 51.77451], [4.67459, 51.775], [4.67581, 51.77809], [4.67585, 51.77884]]]]}}, {"type": "Feature", "properties": {"code": "BU05050908", "name": "Vredenburg en omgeving"}, "geometry": {"type": "MultiPolygon", "coordinates": [[[[4.6877, 51.7786], [4.68747, 51.77451], [4.67608, 51.77151], [4.67437, 51.77445], [4.67459, 51.775], [4.68086, 51.77451], [4.68256, 51.77644], [4.68315, 51.77871], [4.6877, 51.7786]]]]}}, {"type": "Feature", "properties": {"code": "BU05050909", "name": "Wittenstein en omgeving"}, "geometry": {"type": "MultiPolygon", "coordinates": [[[[4.66612, 51.7768], [4.67437, 51.77445], [4.67608, 51.77151], [4.66238, 51.7679], [4.663, 51.77673], [4.66612, 51.7768]]]]}}, {"type": "Feature", "properties": {"code": "BU05050910", "name": "Smitsweg"}, "geometry": {"type": "MultiPolygon", "coordinates": [[[[4.663, 51.77673], [4.66238, 51.7679], [4.64929, 51.76443], [4.64956, 51.76493], [4.65601, 51.77278], [4.65963, 51.77682], [4.663, 51.77673]]]]}}, {"type": "Feature", "properties": {"code": "BU05051000", "name": "Vissersdijk-West"}, "geometry": {"type": "MultiPolygon", "coordinates": [[[[4.70501, 51.80321], [4.70357, 51.80055], [4.6971, 51.80302], [4.69815, 51.80399], [4.70501, 51.80321]]]]}}, {"type": "Feature", "properties": {"code": "BU05051001", "name": "Vissersdijk-Beneden"}, "geometry": {"type": "MultiPolygon", "coordinates": [[[[4.70691, 51.80299], [4.71339, 51.80084], [4.70831, 51.79876], [4.70357, 51.80055], [4.70501, 51.80321], [4.70691, 51.80299]]]]}}, {"type": "Feature", "properties": {"code": "BU05051002", "name": "Vissersdijk-Oost"}, "geometry": {"type": "MultiPolygon", "coordinates": [[[[4.71444, 51.80058], [4.7177, 51.79822], [4.71355, 51.7971], [4.70831, 51.79876], [4.71339, 51.80084], [4.71444, 51.80058]]]]}}, {"type": "Feature", "properties": {"code": "BU05051003", "name": "Egstraat en omgeving"}, "geometry": {"type": "MultiPolygon", "coordinates": [[[[4.71986, 51.79706], [4.71822, 51.79412], [4.71533, 51.79533], [4.71355, 51.7971], [4.7177, 51.79822], [4.71986, 51.79706]]]]}}, {"type": "Feature", "properties": {"code": "BU05051004", "name": "Oudendijk en omgeving"}, "geometry": {"type": "MultiPolygon", "coordinates": [[[[4.72516, 51.79551], [4.72046, 51.79327], [4.72034, 51.79331], [4.71822, 51.79412], [4.71986, 51.79706], [4.72516, 51.79551]]]]}}, {"type": "Feature", "properties": {"code": "BU05051005", "name": "Vissersdijk-Noord"}, "geometry": {"type": "MultiPolygon", "coordinates": [[[[4.71486, 51.8021], [4.71444, 51.80058], [4.71339, 51.80084], [4.70691, 51.80299], [4.71486, 51.8021]]]]}}, {"type": "Feature", "properties": {"code": "BU05051006", "name": "Dubbeldam-Noord"}, "geometry": {"type": "MultiPolygon", "coordinates": [[[[4.70357, 51.80055], [4.70831, 51.79876], [4.71355, 51.7971], [4.71533, 51.79533], [4.71347, 51.79383], [4.70072, 51.79359], [4.69178, 51.79447], [4.68671, 51.79786], [4.69261, 51.79927], [4.6971, 51.80302], [4.70357, 51.80055]]]]}}, {"type": "Feature", "properties": {"code": "BU05051007", "name": "Dubbeldam-Zuid"}, "geometry": {"type": "MultiPolygon", "coordinates": [[[[4.69178, 51.79447], [4.70072, 51.79359], [4.71347, 51.79383], [4.71533, 51.79533], [4.71822, 51.79412], [4.72034, 51.79331], [4.71348, 51.79101], [4.71075, 51.78929], [4.71098, 51.78576], [4.70391, 51.78532], [4.70329, 51.78741], [4.69575, 51.78977], [4.69394, 51.78956], [4.69344, 51.78372], [4.68799, 51.7839], [4.68469, 51.78399], [4.68572, 51.78443], [4.68682, 51.79013], [4.69076, 51.79016], [4.68289, 51.79353], [4.67894, 51.79565], [4.68671, 51.79786], [4.69178, 51.79447]]]]}}, {"type": "Feature", "properties": {"code": "BU05051008", "name": "Bastion locatie"}, "geometry": {"type": "MultiPolygon", "coordinates": [[[[4.67894, 51.79565], [4.67315, 51.79193], [4.67649, 51.79697], [4.67894, 51.79565]]]]}}, {"type": "Feature", "properties": {"code": "BU05051009", "name": "Locatie Karel Lotsyweg"}, "geometry": {"type": "MultiPolygon", "coordinates": [[[[4.68289, 51.79353], [4.67878, 51.79103], [4.67315, 51.79193], [4.67894, 51.79565], [4.68289, 51.79353]]]]}}, {"type": "Feature", "properties": {"code": "BU05051010", "name": "Albert Schweitzerplaats"}, "geometry": {"type": "MultiPolygon", "coordinates": [[[[4.69076, 51.79016], [4.68682, 51.79013], [4.67878, 51.79103], [4.68289, 51.79353], [4.69076, 51.79016]]]]}}, {"type": "Feature", "properties": {"code": "BU05051011", "name": "De Hoven"}, "geometry": {"type": "MultiPolygon", "coordinates": [[[[4.7273, 51.79531], [4.73421, 51.7943], [4.73476, 51.79422], [4.7371, 51.79331], [4.73698, 51.79005], [4.72815, 51.7904], [4.72046, 51.79327], [4.72516, 51.79551], [4.7273, 51.79531]]]]}}, {"type": "Feature", "properties": {"code": "BU05051012", "name": "Zuidpolder"}, "geometry": {"type": "MultiPolygon", "coordinates": [[[[4.72046, 51.79327], [4.72815, 51.7904], [4.73698, 51.79005], [4.73586, 51.78924], [4.72764, 51.78868], [4.71338, 51.78593], [4.71098, 51.78576], [4.71075, 51.78929], [4.71348, 51.79101], [4.72034, 51.79331], [4.72046, 51.79327]]]]}}, {"type": "Feature", "properties": {"code": "BU05051013", "name": "Belthure Park"}, "geometry": {"type": "MultiPolygon", "coordinates": [[[[4.70329, 51.78741], [4.70391, 51.78532], [4.71098, 51.78576], [4.71338, 51.78593], [4.71312, 51.78138], [4.68747, 51.77451], [4.6877, 51.7786], [4.68799, 51.7839], [4.69344, 51.78372], [4.69394, 51.78956], [4.69575, 51.78977], [4.70329, 51.78741]]]]}}, {"type": "Feature", "properties": {"code": "BU05051100", "name": "Amazone en omgeving"}, "geometry": {"type": "MultiPolygon", "coordinates": [[[[4.71126, 51.80865], [4.70601, 51.80348], [4.70004, 51.80573], [4.70479, 51.81009], [4.71126, 51.80865]]]]}}, {"type": "Feature", "properties": {"code": "BU05051101", "name": "Palissander en omgeving"}, "geometry": {"type": "MultiPolygon", "coordinates": [[[[4.71695, 51.80541], [4.71486, 51.8021], [4.70691, 51.80299], [4.70601, 51.80348], [4.71126, 51.80865], [4.71695, 51.80541]]]]}}, {"type": "Feature", "properties": {"code": "BU05051102", "name": "Azobe en omgeving"}, "geometry": {"type": "MultiPolygon", "coordinates": [[[[4.71519, 51.81263], [4.71658, 51.81025], [4.71896, 51.80855], [4.71695, 51.80541], [4.71126, 51.80865], [4.71396, 51.81317], [4.71519, 51.81263]]]]}}, {"type": "Feature", "properties": {"code": "BU05051103", "name": "Iroko en omgeving"}, "geometry": {"type": "MultiPolygon", "coordinates": [[[[4.71396, 51.81317], [4.71126, 51.80865], [4.70479, 51.81009], [4.70723, 51.8135], [4.71396, 51.81317]]]]}}, {"type": "Feature", "properties": {"code": "BU05051104", "name": "Bedrijventerrein Groene Zoom"}, "geometry": {"type": "MultiPolygon", "coordinates": [[[[4.70601, 51.80348], [4.70691, 51.80299], [4.70501, 51.80321], [4.69815, 51.80399], [4.70004, 51.80573], [4.70601, 51.80348]]]]}}, {"type": "Feature", "properties": {"code": "BU05051105", "name": "Van Ravesteijn-erf en omgeving"}, "geometry": {"type": "MultiPolygon", "coordinates": [[[[4.73526, 51.80545], [4.73087, 51.80275], [4.72926, 51.80422], [4.72449, 51.80512], [4.72208, 51.8049], [4.71915, 51.80163], [4.71486, 51.8021], [4.71695, 51.80541], [4.71896, 51.80855], [4.73526, 51.80545]]]]}}, {"type": "Feature", "properties": {"code": "BU05051106", "name": "Van den Broek-erf en omgeving"}, "geometry": {"type": "MultiPolygon", "coordinates": [[[[4.72926, 51.80422], [4.73087, 51.80275], [4.72598, 51.8015], [4.71915, 51.80163], [4.72208, 51.8049], [4.72449, 51.80512], [4.72926, 51.80422]]]]}}, {"type": "Feature", "properties": {"code": "BU05051107", "name": "Suze Groeneweg-erf en omgeving"}, "geometry": {"type": "MultiPolygon", "coordinates": [[[[4.71915, 51.80163], [4.72018, 51.79907], [4.7177, 51.79822], [4.71444, 51.80058], [4.71486, 51.8021], [4.71915, 51.80163]]]]}}, {"type": "Feature", "properties": {"code": "BU05051108", "name": "Joke Smit-erf en omgeving"}, "geometry": {"type": "MultiPolygon", "coordinates": [[[[4.72764, 51.79721], [4.7273, 51.79531], [4.72516, 51.79551], [4.71986, 51.79706], [4.7177, 51.79822], [4.72018, 51.79907], [4.72764, 51.79721]]]]}}, {"type": "Feature", "properties": {"code": "BU05051109", "name": "Pearl Buck-erf en omgeving"}, "geometry": {"type": "MultiPolygon", "coordinates": [[[[4.73134, 51.79926], [4.72764, 51.79721], [4.72018, 51.79907], [4.71915, 51.80163], [4.72598, 51.8015], [4.73087, 51.80275], [4.73134, 51.79926]]]]}}, {"type": "Feature", "properties": {"code": "BU05051110", "name": "Aletta Jacobs-erf en omgeving"}, "geometry": {"type": "MultiPolygon", "coordinates": [[[[4.73594, 51.79777], [4.73421, 51.7943], [4.7273, 51.79531], [4.72764, 51.79721], [4.73134, 51.79926], [4.73594, 51.79777]]]]}}, {"type": "Feature", "properties": {"code": "BU05051111", "name": "Johanna Naber-erf en omgeving"}, "geometry": {"type": "MultiPolygon", "coordinates": [[[[4.73951, 51.80414], [4.73923, 51.80318], [4.73594, 51.79777], [4.73134, 51.79926], [4.73087, 51.80275], [4.73526, 51.80545], [4.73951, 51.80414]]]]}}, {"type": "Feature", "properties": {"code": "BU05051112", "name": "Bildersteeg en omgeving"}, "geometry": {"type": "MultiPolygon", "coordinates": [[[[4.73964, 51.79701], [4.73476, 51.79422], [4.73421, 51.7943], [4.73594, 51.79777], [4.73923, 51.80318], [4.73964, 51.79701]]]]}}, {"type": "Feature", "properties": {"code": "BU05051900", "name": "Weeskinderendijk en Dokweg"}, "geometry": {"type": "MultiPolygon", "coordinates": [[[[4.65628, 51.80905], [4.65721, 51.80881], [4.65328, 51.80561], [4.6501, 51.80629], [4.64961, 51.80751], [4.64807, 51.80928], [4.65055, 51.81132], [4.65628, 51.80905]]]]}}, {"type": "Feature", "properties": {"code": "BU05051901", "name": "Handelskade en 's-Gravendeelsedijk"}, "geometry": {"type": "MultiPolygon", "coordinates": [[[[4.64961, 51.80751], [4.64677, 51.80456], [4.6489, 51.80214], [4.6424, 51.80089], [4.64057, 51.79838], [4.63891, 51.79905], [4.64365, 51.8048], [4.64196, 51.80571], [4.64807, 51.80928], [4.64961, 51.80751]]]]}}, {"type": "Feature", "properties": {"code": "BU05051902", "name": "Voltastraat en omgeving - De Put"}, "geometry": {"type": "MultiPolygon", "coordinates": [[[[4.6501, 51.80629], [4.64989, 51.80169], [4.64986, 51.80139], [4.6489, 51.80214], [4.64677, 51.80456], [4.64961, 51.80751], [4.6501, 51.80629]]]]}}, {"type": "Feature", "properties": {"code": "BU05051903", "name": "Louterbloemen"}, "geometry": {"type": "MultiPolygon", "coordinates": [[[[4.64986, 51.80139], [4.64935, 51.79786], [4.64057, 51.79838], [4.6424, 51.80089], [4.6489, 51.80214], [4.64986, 51.80139]]]]}}, {"type": "Feature", "properties": {"code": "BU05051904", "name": "Wilhelminahaven"}, "geometry": {"type": "MultiPolygon", "coordinates": [[[[4.64057, 51.79838], [4.64935, 51.79786], [4.64925, 51.7972], [4.64894, 51.79445], [4.64886, 51.79203], [4.64883, 51.79163], [4.6335, 51.79198], [4.634, 51.79283], [4.63891, 51.79905], [4.64057, 51.79838]]]]}}, {"type": "Feature", "properties": {"code": "BU05051905", "name": "Julianahaven"}, "geometry": {"type": "MultiPolygon", "coordinates": [[[[4.64883, 51.79163], [4.65032, 51.78418], [4.64548, 51.78432], [4.63566, 51.78455], [4.62684, 51.78475], [4.62924, 51.78629], [4.6335, 51.79198], [4.64883, 51.79163]]]]}}, {"type": "Feature", "properties": {"code": "BU05051906", "name": "Krabbegors"}, "geometry": {"type": "MultiPolygon", "coordinates": [[[[4.64365, 51.8048], [4.63891, 51.79905], [4.634, 51.79283], [4.63286, 51.797], [4.63049, 51.79894], [4.62782, 51.79996], [4.62122, 51.8008], [4.63218, 51.80213], [4.64196, 51.80571], [4.64365, 51.8048]]]]}}, {"type": "Feature", "properties": {"code": "BU05051907", "name": "Krabbepolder"}, "geometry": {"type": "MultiPolygon", "coordinates": [[[[4.62782, 51.79996], [4.63049, 51.79894], [4.63286, 51.797], [4.634, 51.79283], [4.6335, 51.79198], [4.62924, 51.78629], [4.62684, 51.78475], [4.62321, 51.79241], [4.62187, 51.79769], [4.62122, 51.8008], [4.62782, 51.79996]]]]}}, {"type": "Feature", "properties": {"code": "BU05051909", "name": "Wieldrecht"}, "geometry": {"type": "MultiPolygon", "coordinates": [[[[4.63566, 51.78455], [4.63548, 51.78232], [4.62742, 51.78249], [4.62684, 51.78475], [4.63566, 51.78455]]]]}}, {"type": "Feature", "properties": {"code": "BU05051910", "name": "Dordtse Kil I"}, "geometry": {"type": "MultiPolygon", "coordinates": [[[[4.64548, 51.78432], [4.64429, 51.78023], [4.64413, 51.7772], [4.62771, 51.77764], [4.6275, 51.78217], [4.62742, 51.78249], [4.63548, 51.78232], [4.63566, 51.78455], [4.64548, 51.78432]]]]}}, {"type": "Feature", "properties": {"code": "BU05051911", "name": "Amstelwijck-West"}, "geometry": {"type": "MultiPolygon", "coordinates": [[[[4.65049, 51.78009], [4.65, 51.77712], [4.64893, 51.77256], [4.64575, 51.77256], [4.64421, 51.77518], [4.64413, 51.7772], [4.64429, 51.78023], [4.65049, 51.78009]]]]}}, {"type": "Feature", "properties": {"code": "BU05051912", "name": "Schotman terrein"}, "geometry": {"type": "MultiPolygon", "coordinates": [[[[4.65032, 51.78418], [4.65051, 51.78079], [4.65049, 51.78009], [4.64429, 51.78023], [4.64548, 51.78432], [4.65032, 51.78418]]]]}}, {"type": "Feature", "properties": {"code": "BU05051914", "name": "Amstelwijck"}, "geometry": {"type": "MultiPolygon", "coordinates": [[[[4.65594, 51.77699], [4.6597, 51.7769], [4.65963, 51.77682], [4.65601, 51.77278], [4.64893, 51.77256], [4.65, 51.77712], [4.65594, 51.77699]]]]}}, {"type": "Feature", "properties": {"code": "BU05051915", "name": "Tweede Tol"}, "geometry": {"type": "MultiPolygon", "coordinates": [[[[4.64421, 51.77518], [4.64575, 51.77256], [4.64431, 51.77257], [4.64369, 51.76336], [4.64956, 51.76493], [4.64929, 51.76443], [4.64609, 51.76327], [4.63632, 51.76094], [4.64263, 51.76308], [4.6433, 51.77257], [4.64421, 51.77518]]]]}}, {"type": "Feature", "properties": {"code": "BU05051916", "name": "Dordtse Kil II"}, "geometry": {"type": "MultiPolygon", "coordinates": [[[[4.64413, 51.7772], [4.64421, 51.77518], [4.6433, 51.77257], [4.62693, 51.77266], [4.62699, 51.77291], [4.62771, 51.77764], [4.64413, 51.7772]]]]}}, {"type": "Feature", "properties": {"code": "BU05051917", "name": "Dordtse Kil III"}, "geometry": {"type": "MultiPolygon", "coordinates": [[[[4.6433, 51.77257], [4.64263, 51.76308], [4.63632, 51.76094], [4.62711, 51.76028], [4.62612, 51.76605], [4.62693, 51.77266], [4.6433, 51.77257]]]]}}, {"type": "Feature", "properties": {"code": "BU05051918", "name": "Oostkil"}, "geometry": {"type": "MultiPolygon", "coordinates": [[[[4.64956, 51.76493], [4.64369, 51.76336], [4.64431, 51.77257], [4.64575, 51.77256], [4.64893, 51.77256], [4.65601, 51.77278], [4.64956, 51.76493]]]]}}, {"type": "Feature", "properties": {"code": "BU05051919", "name": "Dordtse Kil IV"}, "geometry": {"type": "MultiPolygon", "coordinates": [[[[4.64, 51.74897], [4.63677, 51.74869], [4.63112, 51.75011], [4.62711, 51.76028], [4.63632, 51.76094], [4.64609, 51.76327], [4.64, 51.74897]]]]}}, {"type": "Feature", "properties": {"code": "BU05059800", "name": "Merwelanden"}, "geometry": {"type": "MultiPolygon", "coordinates": [[[[4.75776, 51.81919], [4.76618, 51.81607], [4.77209, 51.81532], [4.77855, 51.81529], [4.78535, 51.8152], [4.78974, 51.81574], [4.79748, 51.81717], [4.81142, 51.81866], [4.82011, 51.81906], [4.83905, 51.81925], [4.84768, 51.81892], [4.85611, 51.81839], [4.87488, 51.8176], [4.88332, 51.81863], [4.88464, 51.81647], [4.85967, 51.80268], [4.85441, 51.80068], [4.84598, 51.79876], [4.83611, 51.79784], [4.82887, 51.79802], [4.80687, 51.80034], [4.79719, 51.79977], [4.77354, 51.79332], [4.76598, 51.78963], [4.76268, 51.79251], [4.75903, 51.79246], [4.75489, 51.79731], [4.75101, 51.79995], [4.73951, 51.80414], [4.73526, 51.80545], [4.73982, 51.80963], [4.742, 51.8154], [4.74176, 51.82222], [4.75144, 51.82161], [4.75776, 51.81919]], [[4.74489, 51.81557], [4.74673, 51.81221], [4.75592, 51.80925], [4.76134, 51.80833], [4.76533, 51.81491], [4.758, 51.81749], [4.75592, 51.81806], [4.74906, 51.81711], [4.74489, 51.81557]]]]}}, {"type": "Feature", "properties": {"code": "BU05059801", "name": "3e Merwedehaven"}, "geometry": {"type": "MultiPolygon", "coordinates": [[[[4.758, 51.81749], [4.76533, 51.81491], [4.76134, 51.80833], [4.75592, 51.80925], [4.74673, 51.81221], [4.74489, 51.81557], [4.74906, 51.81711], [4.75592, 51.81806], [4.758, 51.81749]]]]}}, {"type": "Feature", "properties": {"code": "BU05059804", "name": "Dordtse Biesbosch"}, "geometry": {"type": "MultiPolygon", "coordinates": [[[[4.75524, 51.78161], [4.75057, 51.77576], [4.74479, 51.76349], [4.74077, 51.75882], [4.73663, 51.75557], [4.72459, 51.74791], [4.70375, 51.73693], [4.69326, 51.73228], [4.6816, 51.72842], [4.6763, 51.72492], [4.67522, 51.72421], [4.64514, 51.71907], [4.6445, 51.71896], [4.64157, 51.72338], [4.64104, 51.72341], [4.64403, 51.71886], [4.64385, 51.71883], [4.64087, 51.72336], [4.63981, 51.72321], [4.635, 51.72199], [4.63493, 51.72171], [4.63436, 51.72154], [4.63685, 51.71744], [4.63643, 51.71735], [4.63392, 51.72142], [4.63334, 51.72135], [4.63281, 51.72152], [4.62818, 51.72035], [4.62767, 51.72361], [4.62876, 51.72553], [4.62787, 51.72551], [4.62707, 51.72409], [4.62646, 51.72227], [4.62641, 51.72081], [4.62744, 51.72054], [4.62774, 51.71998], [4.62666, 51.71995], [4.62622, 51.72016], [4.62597, 51.72053], [4.62567, 51.72056], [4.6236, 51.7214], [4.62658, 51.72826], [4.63113, 51.74175], [4.63112, 51.75011], [4.63677, 51.74869], [4.64, 51.74897], [4.64609, 51.76327], [4.64929, 51.76443], [4.66238, 51.7679], [4.67608, 51.77151], [4.68747, 51.77451], [4.71312, 51.78138], [4.725, 51.78228], [4.73557, 51.78202], [4.75013, 51.7853], [4.75763, 51.78816], [4.76522, 51.78921], [4.75524, 51.78161]]]]}}, {"type": "Feature", "properties": {"code": "BU05059805", "name": "Bovenpolder"}, "geometry": {"type": "MultiPolygon", "coordinates": [[[[4.75101, 51.79995], [4.75489, 51.79731], [4.75903, 51.79246], [4.76268, 51.79251], [4.76598, 51.78963], [4.76522, 51.78921], [4.75763, 51.78816], [4.75013, 51.7853], [4.73557, 51.78202], [4.725, 51.78228], [4.71312, 51.78138], [4.71338, 51.78593], [4.72764, 51.78868], [4.73586, 51.78924], [4.73698, 51.79005], [4.7371, 51.79331], [4.73476, 51.79422], [4.73964, 51.79701], [4.73923, 51.80318], [4.73951, 51.80414], [4.75101, 51.79995]]]]}}]}