{"type": "FeatureCollection", "features": [{"type": "Feature", "properties": {"code": "WK050311", "name": "Wijk 11 Binnenstad"}, "geometry": {"type": "MultiPolygon", "coordinates": [[[[4.35942, 52.00516], [4.35679, 52.00365], [4.35477, 52.00894], [4.35486, 52.00984], [4.35271, 52.01193], [4.34956, 52.01509], [4.34969, 52.01515], [4.34693, 52.01787], [4.3437, 52.02062], [4.34767, 52.02235], [4.348, 52.02245], [4.34949, 52.01998], [4.35253, 52.01965], [4.35676, 52.01949], [4.35928, 52.01794], [4.365, 52.01382], [4.36682, 52.01272], [4.36907, 52.0109], [4.36578, 52.00766], [4.36368, 52.00672], [4.36049, 52.00529], [4.35942, 52.00516]]]]}}, {"type": "Feature", "properties": {"code": "WK050312", "name": "Wijk 12 Vrijenban"}, "geometry": {"type": "MultiPolygon", "coordinates": [[[[4.35885, 52.02733], [4.35977, 52.02654], [4.36026, 52.02676], [4.36678, 52.0212], [4.36682, 52.02117], [4.36965, 52.01873], [4.37339, 52.01555], [4.37479, 52.01439], [4.37579, 52.01346], [4.37962, 52.01017], [4.38149, 52.00867], [4.37927, 52.00837], [4.3735, 52.01007], [4.37333, 52.01083], [4.36987, 52.01074], [4.36907, 52.0109], [4.36682, 52.01272], [4.365, 52.01382], [4.35928, 52.01794], [4.35676, 52.01949], [4.35253, 52.01965], [4.34949, 52.01998], [4.348, 52.02245], [4.34801, 52.02246], [4.35142, 52.024], [4.35495, 52.02558], [4.35503, 52.02553], [4.35543, 52.02571], [4.35548, 52.02585], [4.35769, 52.02682], [4.35779, 52.02686], [4.35885, 52.02733]]]]}}, {"type": "Feature", "properties": {"code": "WK050313", "name": "Wijk 13 Hof van Delft"}, "geometry": {"type": "MultiPolygon", "coordinates": [[[[4.35301, 52.00227], [4.3485, 52.00104], [4.34659, 52.00523], [4.34416, 52.00735], [4.34158, 52.00918], [4.34143, 52.00932], [4.33879, 52.01325], [4.33865, 52.01339], [4.33813, 52.01393], [4.33443, 52.01648], [4.3437, 52.02062], [4.34693, 52.01787], [4.34969, 52.01515], [4.34956, 52.01509], [4.35271, 52.01193], [4.35486, 52.00984], [4.35477, 52.00894], [4.35679, 52.00365], [4.35301, 52.00227]]]]}}, {"type": "Feature", "properties": {"code": "WK050314", "name": "Wijk 14 Voordijkshoorn"}, "geometry": {"type": "MultiPolygon", "coordinates": [[[[4.34158, 52.00918], [4.34416, 52.00735], [4.34659, 52.00523], [4.3485, 52.00104], [4.34362, 52.00003], [4.34383, 51.99976], [4.33772, 51.9988], [4.33583, 52.00106], [4.34114, 52.00271], [4.3411, 52.00278], [4.33904, 52.00505], [4.33845, 52.00569], [4.33637, 52.00475], [4.33266, 52.00788], [4.33131, 52.00728], [4.32826, 52.00592], [4.32807, 52.0061], [4.32774, 52.0064], [4.32655, 52.00615], [4.3265, 52.00624], [4.32576, 52.00602], [4.32624, 52.00543], [4.32635, 52.00529], [4.32324, 52.00434], [4.32022, 52.00807], [4.32149, 52.00846], [4.32064, 52.00932], [4.32437, 52.01044], [4.32437, 52.01053], [4.32437, 52.01058], [4.32527, 52.01078], [4.32547, 52.01087], [4.3254, 52.0111], [4.32533, 52.01132], [4.326, 52.01162], [4.32532, 52.0122], [4.32562, 52.01232], [4.32606, 52.0125], [4.32596, 52.01279], [4.33025, 52.01467], [4.33429, 52.01642], [4.33443, 52.01648], [4.33813, 52.01393], [4.33865, 52.01339], [4.33879, 52.01325], [4.34143, 52.00932], [4.34158, 52.00918]]]]}}, {"type": "Feature", "properties": {"code": "WK050316", "name": "Wijk 16 Delftse Hout"}, "geometry": {"type": "MultiPolygon", "coordinates": [[[[4.3885, 52.00867], [4.38357, 52.0068], [4.38149, 52.00867], [4.37962, 52.01017], [4.37579, 52.01346], [4.37479, 52.01439], [4.37339, 52.01555], [4.36965, 52.01873], [4.36682, 52.02117], [4.36678, 52.0212], [4.36026, 52.02676], [4.36243, 52.02769], [4.3634, 52.0281], [4.3735, 52.0326], [4.37974, 52.02673], [4.37981, 52.02666], [4.38624, 52.02331], [4.38785, 52.02137], [4.39079, 52.01683], [4.39332, 52.01307], [4.39452, 52.01126], [4.39369, 52.01102], [4.39369, 52.01093], [4.38835, 52.00945], [4.3885, 52.00867]]]]}}, {"type": "Feature", "properties": {"code": "WK050322", "name": "Wijk 22 Tanthof-West"}, "geometry": {"type": "MultiPolygon", "coordinates": [[[[4.34313, 51.97567], [4.33823, 51.97418], [4.33272, 51.98046], [4.33204, 51.98407], [4.3336, 51.98428], [4.34713, 51.98628], [4.35236, 51.98718], [4.35283, 51.98725], [4.35324, 51.98675], [4.35417, 51.98353], [4.35544, 51.98019], [4.35575, 51.97936], [4.34232, 51.97719], [4.34313, 51.97567]]]]}}, {"type": "Feature", "properties": {"code": "WK050323", "name": "Wijk 23 Tanthof-Oost"}, "geometry": {"type": "MultiPolygon", "coordinates": [[[[4.36872, 51.98137], [4.35575, 51.97936], [4.35544, 51.98019], [4.35417, 51.98353], [4.35324, 51.98675], [4.35283, 51.98725], [4.35892, 51.98906], [4.36446, 51.99042], [4.36494, 51.99053], [4.36965, 51.98155], [4.36872, 51.98137]]]]}}, {"type": "Feature", "properties": {"code": "WK050324", "name": "Wijk 24 Voorhof"}, "geometry": {"type": "MultiPolygon", "coordinates": [[[[4.35679, 52.00365], [4.35885, 52.00043], [4.35938, 52.00046], [4.36086, 51.99792], [4.36494, 51.99053], [4.36446, 51.99042], [4.35892, 51.98906], [4.35283, 51.98725], [4.35236, 51.98718], [4.35193, 51.98818], [4.35181, 51.98848], [4.35074, 51.99123], [4.3499, 51.9934], [4.34903, 51.99615], [4.34882, 51.99861], [4.3485, 52.00104], [4.35301, 52.00227], [4.35679, 52.00365]]]]}}, {"type": "Feature", "properties": {"code": "WK050325", "name": "Wijk 25 Buitenhof"}, "geometry": {"type": "MultiPolygon", "coordinates": [[[[4.34882, 51.99861], [4.34903, 51.99615], [4.3499, 51.9934], [4.35074, 51.99123], [4.35181, 51.98848], [4.35193, 51.98818], [4.35236, 51.98718], [4.34713, 51.98628], [4.3336, 51.98428], [4.33204, 51.98407], [4.32849, 51.9857], [4.32411, 51.98986], [4.32573, 51.99195], [4.33311, 51.99317], [4.33281, 51.99555], [4.33152, 51.99785], [4.33324, 51.99812], [4.33335, 51.99792], [4.33475, 51.99835], [4.33772, 51.9988], [4.34383, 51.99976], [4.34362, 52.00003], [4.3485, 52.00104], [4.34882, 51.99861]]]]}}, {"type": "Feature", "properties": {"code": "WK050326", "name": "Wijk 26 Abtswoude"}, "geometry": {"type": "MultiPolygon", "coordinates": [[[[4.37028, 51.98037], [4.37575, 51.97015], [4.36918, 51.96887], [4.36817, 51.97158], [4.35954, 51.97014], [4.35872, 51.97226], [4.35988, 51.97246], [4.3597, 51.97287], [4.35854, 51.97271], [4.35837, 51.97311], [4.35948, 51.97328], [4.35931, 51.97369], [4.3582, 51.9735], [4.35766, 51.97482], [4.35883, 51.97502], [4.35857, 51.97566], [4.35738, 51.97549], [4.35663, 51.9773], [4.34507, 51.97542], [4.34313, 51.97567], [4.34232, 51.97719], [4.35575, 51.97936], [4.36872, 51.98137], [4.36965, 51.98155], [4.37028, 51.98037]]]]}}, {"type": "Feature", "properties": {"code": "WK050327", "name": "Wijk 27 Schieweg"}, "geometry": {"type": "MultiPolygon", "coordinates": [[[[4.36426, 52.00083], [4.36479, 52.00018], [4.37081, 51.99196], [4.37868, 51.98174], [4.38125, 51.97865], [4.38362, 51.97582], [4.3863, 51.97221], [4.37575, 51.97015], [4.37028, 51.98037], [4.36965, 51.98155], [4.36494, 51.99053], [4.36086, 51.99792], [4.35938, 52.00046], [4.35885, 52.00043], [4.35679, 52.00365], [4.35942, 52.00516], [4.36049, 52.00529], [4.36215, 52.00376], [4.36426, 52.00083]]]]}}, {"type": "Feature", "properties": {"code": "WK050328", "name": "Wijk 28 Wippolder"}, "geometry": {"type": "MultiPolygon", "coordinates": [[[[4.36907, 52.0109], [4.36987, 52.01074], [4.37333, 52.01083], [4.3735, 52.01007], [4.37927, 52.00837], [4.38149, 52.00867], [4.38357, 52.0068], [4.3885, 52.00867], [4.38903, 52.00783], [4.38818, 52.00664], [4.38862, 52.00545], [4.38617, 52.00489], [4.38592, 52.00484], [4.38814, 51.99978], [4.38828, 51.99945], [4.38916, 51.99738], [4.38958, 51.99652], [4.38212, 51.99471], [4.37278, 51.99244], [4.37081, 51.99196], [4.36479, 52.00018], [4.36426, 52.00083], [4.36215, 52.00376], [4.36049, 52.00529], [4.36368, 52.00672], [4.36578, 52.00766], [4.36907, 52.0109]]]]}}, {"type": "Feature", "properties": {"code": "WK050329", "name": "Wijk 29 Ruiven"}, "geometry": {"type": "MultiPolygon", "coordinates": [[[[4.40154, 51.97805], [4.40727, 51.96899], [4.40791, 51.9682], [4.40293, 51.96632], [4.39772, 51.97433], [4.39675, 51.97418], [4.39617, 51.97608], [4.39422, 51.97633], [4.39381, 51.9775], [4.38362, 51.97582], [4.38125, 51.97865], [4.37868, 51.98174], [4.37081, 51.99196], [4.37278, 51.99244], [4.38212, 51.99471], [4.38958, 51.99652], [4.39177, 51.99129], [4.39353, 51.98718], [4.39703, 51.97897], [4.40154, 51.97805]]]]}}]}