{"type": "FeatureCollection", "features": [{"type": "Feature", "properties": {"code": "WK054600", "name": "Binnenstad-Zuid"}, "geometry": {"type": "MultiPolygon", "coordinates": [[[[4.5041, 52.15606], [4.50291, 52.15339], [4.49382, 52.1535], [4.48822, 52.15384], [4.48418, 52.1544], [4.48299, 52.15517], [4.48082, 52.16092], [4.48161, 52.16106], [4.48484, 52.16108], [4.48532, 52.161], [4.49068, 52.15966], [4.49366, 52.15681], [4.49497, 52.15637], [4.499, 52.15606], [4.5033, 52.15606], [4.5041, 52.15606]]]]}}, {"type": "Feature", "properties": {"code": "WK054601", "name": "Binnenstad-Noord"}, "geometry": {"type": "MultiPolygon", "coordinates": [[[[4.51483, 52.1608], [4.51395, 52.15567], [4.5041, 52.15606], [4.5033, 52.15606], [4.499, 52.15606], [4.49497, 52.15637], [4.49366, 52.15681], [4.49068, 52.15966], [4.48532, 52.161], [4.48484, 52.16108], [4.48161, 52.16106], [4.48121, 52.16321], [4.48541, 52.16433], [4.48946, 52.16458], [4.49391, 52.16469], [4.50034, 52.16357], [4.5054, 52.16306], [4.50491, 52.16138], [4.51483, 52.1608]]]]}}, {"type": "Feature", "properties": {"code": "WK054602", "name": "Stationsdistrict"}, "geometry": {"type": "MultiPolygon", "coordinates": [[[[4.48946, 52.16458], [4.48541, 52.16433], [4.48121, 52.16321], [4.47875, 52.16401], [4.48327, 52.16724], [4.48907, 52.17193], [4.49084, 52.16923], [4.48946, 52.16458]]]]}}, {"type": "Feature", "properties": {"code": "WK054603", "name": "Leiden-Noord"}, "geometry": {"type": "MultiPolygon", "coordinates": [[[[4.51619, 52.16582], [4.51504, 52.1634], [4.51483, 52.1608], [4.50491, 52.16138], [4.5054, 52.16306], [4.50034, 52.16357], [4.49391, 52.16469], [4.48946, 52.16458], [4.49084, 52.16923], [4.48907, 52.17193], [4.49106, 52.17348], [4.49858, 52.17257], [4.50675, 52.17179], [4.51122, 52.17136], [4.51512, 52.17109], [4.51552, 52.16951], [4.51619, 52.16582]]]]}}, {"type": "Feature", "properties": {"code": "WK054604", "name": "Roodenburgerdistrict"}, "geometry": {"type": "MultiPolygon", "coordinates": [[[[4.52082, 52.15655], [4.52169, 52.15386], [4.52224, 52.15217], [4.52224, 52.15216], [4.52391, 52.14766], [4.52404, 52.1474], [4.51599, 52.14469], [4.51068, 52.14087], [4.51321, 52.13997], [4.5131, 52.13992], [4.49797, 52.13216], [4.49677, 52.13302], [4.4949, 52.1323], [4.48889, 52.13862], [4.48787, 52.14087], [4.48554, 52.13993], [4.48435, 52.14802], [4.4842, 52.14952], [4.4842, 52.14954], [4.48447, 52.15145], [4.48808, 52.15304], [4.48822, 52.15384], [4.49382, 52.1535], [4.50291, 52.15339], [4.5041, 52.15606], [4.51395, 52.15567], [4.51483, 52.1608], [4.51886, 52.15822], [4.52082, 52.15655]]]]}}, {"type": "Feature", "properties": {"code": "WK054605", "name": "Bos- en Gasthuisdistrict"}, "geometry": {"type": "MultiPolygon", "coordinates": [[[[4.48447, 52.15145], [4.4842, 52.14954], [4.4842, 52.14952], [4.48435, 52.14802], [4.48554, 52.13993], [4.48787, 52.14087], [4.48889, 52.13862], [4.4949, 52.1323], [4.49677, 52.13302], [4.49797, 52.13216], [4.49656, 52.13145], [4.49195, 52.12901], [4.48752, 52.12741], [4.47298, 52.11895], [4.47229, 52.11964], [4.47232, 52.12346], [4.47294, 52.1237], [4.46815, 52.12855], [4.46748, 52.12832], [4.46685, 52.12898], [4.46598, 52.12789], [4.46642, 52.12733], [4.46519, 52.12661], [4.46449, 52.12731], [4.46892, 52.13276], [4.46907, 52.1332], [4.46924, 52.13428], [4.46717, 52.13694], [4.46668, 52.14089], [4.46605, 52.14642], [4.46541, 52.14944], [4.46297, 52.14895], [4.46244, 52.14978], [4.45929, 52.1497], [4.45976, 52.15003], [4.46215, 52.15174], [4.46484, 52.15183], [4.47056, 52.15562], [4.47434, 52.15903], [4.47688, 52.16008], [4.48082, 52.16092], [4.48299, 52.15517], [4.48418, 52.1544], [4.48822, 52.15384], [4.48808, 52.15304], [4.48447, 52.15145]]]]}}, {"type": "Feature", "properties": {"code": "WK054606", "name": "Morsdistrict"}, "geometry": {"type": "MultiPolygon", "coordinates": [[[[4.45941, 52.16497], [4.47119, 52.16393], [4.47875, 52.16401], [4.48121, 52.16321], [4.48161, 52.16106], [4.48082, 52.16092], [4.47688, 52.16008], [4.47434, 52.15903], [4.47056, 52.15562], [4.46484, 52.15183], [4.46215, 52.15174], [4.45066, 52.15942], [4.44829, 52.16198], [4.44837, 52.16205], [4.45041, 52.16632], [4.45941, 52.16497]]]]}}, {"type": "Feature", "properties": {"code": "WK054607", "name": "Boerhaavedistrict"}, "geometry": {"type": "MultiPolygon", "coordinates": [[[[4.4808, 52.17963], [4.48461, 52.17802], [4.4874, 52.17692], [4.48743, 52.17817], [4.4896, 52.17715], [4.49192, 52.17541], [4.49344, 52.17586], [4.49106, 52.17348], [4.48907, 52.17193], [4.48327, 52.16724], [4.47875, 52.16401], [4.47119, 52.16393], [4.45941, 52.16497], [4.45041, 52.16632], [4.45305, 52.16849], [4.45478, 52.17108], [4.46687, 52.16993], [4.46757, 52.17045], [4.46723, 52.17217], [4.46851, 52.17348], [4.46957, 52.17435], [4.47157, 52.17446], [4.47865, 52.17958], [4.47971, 52.179], [4.4808, 52.17963]]]]}}, {"type": "Feature", "properties": {"code": "WK054608", "name": "Merenwijkdistrict"}, "geometry": {"type": "MultiPolygon", "coordinates": [[[[4.51717, 52.17267], [4.51512, 52.17109], [4.51122, 52.17136], [4.50675, 52.17179], [4.49858, 52.17257], [4.49106, 52.17348], [4.49344, 52.17586], [4.49537, 52.1778], [4.49717, 52.18094], [4.49756, 52.18398], [4.49834, 52.18399], [4.50163, 52.18426], [4.50355, 52.18462], [4.50852, 52.18397], [4.51721, 52.18272], [4.51837, 52.18212], [4.51798, 52.17853], [4.51849, 52.17425], [4.51717, 52.17267]]]]}}, {"type": "Feature", "properties": {"code": "WK054609", "name": "Stevenshofdistrict"}, "geometry": {"type": "MultiPolygon", "coordinates": [[[[4.45087, 52.14213], [4.4496, 52.14098], [4.44656, 52.14119], [4.44468, 52.14062], [4.44379, 52.14101], [4.44299, 52.14535], [4.44394, 52.14604], [4.44137, 52.1495], [4.43887, 52.15327], [4.43922, 52.1547], [4.44048, 52.15565], [4.44829, 52.16198], [4.45066, 52.15942], [4.46215, 52.15174], [4.45976, 52.15003], [4.45929, 52.1497], [4.45702, 52.14779], [4.45087, 52.14213]]]]}}]}