{"type": "FeatureCollection", "features": [{"type": "Feature", "properties": {"code": "BU06371117", "name": "Merenbuurt-West"}, "geometry": {"type": "MultiPolygon", "coordinates": [[[[4.53218, 52.0598], [4.5259, 52.05447], [4.523, 52.05585], [4.52927, 52.06107], [4.53218, 52.0598]]]]}}, {"type": "Feature", "properties": {"code": "BU06371402", "name": "Westerpark"}, "geometry": {"type": "MultiPolygon", "coordinates": [[[[4.45826, 52.06194], [4.45583, 52.05725], [4.45668, 52.05735], [4.45455, 52.05402], [4.45617, 52.05321], [4.45714, 52.05193], [4.45923, 52.05131], [4.46039, 52.04962], [4.43921, 52.05161], [4.42139, 52.05221], [4.41523, 52.05701], [4.41539, 52.05744], [4.42243, 52.05733], [4.42979, 52.05719], [4.43793, 52.05808], [4.45304, 52.06276], [4.45826, 52.06194]]]]}}, {"type": "Feature", "properties": {"code": "BU06371203", "name": "West 2"}, "geometry": {"type": "MultiPolygon", "coordinates": [[[[4.47914, 52.05559], [4.47904, 52.05538], [4.47755, 52.05228], [4.47585, 52.05259], [4.47571, 52.05488], [4.47641, 52.05528], [4.4773, 52.05571], [4.47914, 52.05559]]]]}}, {"type": "Feature", "properties": {"code": "BU06370507", "name": "Meerzicht-Centrum-Oost"}, "geometry": {"type": "MultiPolygon", "coordinates": [[[[4.47192, 52.05557], [4.46993, 52.05449], [4.46948, 52.05453], [4.47066, 52.05731], [4.47192, 52.05557]]]]}}, {"type": "Feature", "properties": {"code": "BU06370704", "name": "Kadebuurt-Oost"}, "geometry": {"type": "MultiPolygon", "coordinates": [[[[4.49904, 52.07793], [4.50232, 52.07685], [4.50169, 52.07578], [4.49986, 52.07072], [4.49571, 52.07175], [4.49546, 52.07361], [4.4985, 52.0791], [4.49967, 52.07942], [4.49904, 52.07793]]]]}}, {"type": "Feature", "properties": {"code": "BU06371114", "name": "Eilandenbuurt-Zuidwest"}, "geometry": {"type": "MultiPolygon", "coordinates": [[[[4.53761, 52.05355], [4.53506, 52.05138], [4.52925, 52.05288], [4.53293, 52.05585], [4.53761, 52.05355]]]]}}, {"type": "Feature", "properties": {"code": "BU06371111", "name": "Eilandenbuurt-Noordoost"}, "geometry": {"type": "MultiPolygon", "coordinates": [[[[4.54793, 52.05541], [4.54819, 52.05529], [4.54272, 52.05122], [4.53839, 52.05326], [4.54242, 52.05567], [4.54279, 52.05771], [4.5429, 52.0578], [4.54793, 52.05541]]]]}}, {"type": "Feature", "properties": {"code": "BU06370201", "name": "Centrum-West"}, "geometry": {"type": "MultiPolygon", "coordinates": [[[[4.4851, 52.06035], [4.48173, 52.06094], [4.48588, 52.0622], [4.4851, 52.06035]]]]}}, {"type": "Feature", "properties": {"code": "BU06371202", "name": "Oost 1"}, "geometry": {"type": "MultiPolygon", "coordinates": [[[[4.48246, 52.05759], [4.48126, 52.0548], [4.47904, 52.05538], [4.47914, 52.05559], [4.48127, 52.06], [4.48246, 52.05759]]]]}}, {"type": "Feature", "properties": {"code": "BU06371403", "name": "Nieuwe Driemanspolder"}, "geometry": {"type": "MultiPolygon", "coordinates": [[[[4.44949, 52.06547], [4.45217, 52.06409], [4.45304, 52.06276], [4.43793, 52.05808], [4.42979, 52.05719], [4.42243, 52.05733], [4.42042, 52.0621], [4.42083, 52.06258], [4.42168, 52.06289], [4.4214, 52.0633], [4.43763, 52.0704], [4.44949, 52.06547]]]]}}, {"type": "Feature", "properties": {"code": "BU06371003", "name": "Blauwenbuurt"}, "geometry": {"type": "MultiPolygon", "coordinates": [[[[4.50109, 52.0406], [4.49348, 52.0345], [4.49028, 52.03607], [4.4982, 52.04205], [4.50109, 52.0406]]]]}}, {"type": "Feature", "properties": {"code": "BU06371411", "name": "Van Tuyllpark"}, "geometry": {"type": "MultiPolygon", "coordinates": [[[[4.52657, 52.05119], [4.53511, 52.04961], [4.52258, 52.04339], [4.51311, 52.04812], [4.51374, 52.04861], [4.51811, 52.05201], [4.52052, 52.05389], [4.52657, 52.05119]]]]}}, {"type": "Feature", "properties": {"code": "BU06370904", "name": "Schansenbuurt-Zuid"}, "geometry": {"type": "MultiPolygon", "coordinates": [[[[4.53517, 52.07446], [4.53369, 52.07305], [4.52536, 52.06595], [4.52349, 52.06779], [4.52279, 52.06902], [4.52457, 52.06937], [4.52553, 52.07146], [4.52432, 52.07122], [4.52171, 52.07266], [4.52475, 52.07296], [4.5285, 52.07212], [4.53013, 52.07218], [4.53404, 52.07539], [4.5339, 52.07522], [4.53517, 52.07446]]]]}}, {"type": "Feature", "properties": {"code": "BU06370707", "name": "Zijdenbuurt-Oost"}, "geometry": {"type": "MultiPolygon", "coordinates": [[[[4.50303, 52.06996], [4.5005, 52.06688], [4.49591, 52.06718], [4.49986, 52.07072], [4.50303, 52.06996]]]]}}, {"type": "Feature", "properties": {"code": "BU06370402", "name": "Driemanspolder-Oost"}, "geometry": {"type": "MultiPolygon", "coordinates": [[[[4.49244, 52.0547], [4.48734, 52.05104], [4.48481, 52.05244], [4.49012, 52.05612], [4.49244, 52.0547]]]]}}, {"type": "Feature", "properties": {"code": "BU06371012", "name": "Houtbuurt-West"}, "geometry": {"type": "MultiPolygon", "coordinates": [[[[4.4666, 52.04826], [4.46695, 52.04669], [4.46306, 52.0458], [4.46557, 52.04165], [4.46422, 52.04134], [4.45906, 52.04385], [4.46022, 52.04872], [4.4666, 52.04826]]]]}}, {"type": "Feature", "properties": {"code": "BU06370307", "name": "Palenstein-West"}, "geometry": {"type": "MultiPolygon", "coordinates": [[[[4.50507, 52.05968], [4.50503, 52.05798], [4.4999, 52.05837], [4.49933, 52.05684], [4.4978, 52.05979], [4.49879, 52.06142], [4.50507, 52.05968]]]]}}, {"type": "Feature", "properties": {"code": "BU06370609", "name": "Hovenbuurt-Zuid"}, "geometry": {"type": "MultiPolygon", "coordinates": [[[[4.47959, 52.06442], [4.48239, 52.0639], [4.48408, 52.06234], [4.47703, 52.06237], [4.47817, 52.06475], [4.47959, 52.06442]]]]}}, {"type": "Feature", "properties": {"code": "BU06371207", "name": "Stationsbuurt-Noord"}, "geometry": {"type": "MultiPolygon", "coordinates": [[[[4.47956, 52.04832], [4.47952, 52.04806], [4.47068, 52.04891], [4.47072, 52.04904], [4.47459, 52.04965], [4.47617, 52.0494], [4.47868, 52.04986], [4.47956, 52.04832]]]]}}, {"type": "Feature", "properties": {"code": "BU06370805", "name": "Akkersbuurt-West"}, "geometry": {"type": "MultiPolygon", "coordinates": [[[[4.52279, 52.06902], [4.52349, 52.06779], [4.51696, 52.0641], [4.51691, 52.06413], [4.51646, 52.06783], [4.51806, 52.06925], [4.51976, 52.07076], [4.52279, 52.06902]]]]}}, {"type": "Feature", "properties": {"code": "BU06370101", "name": "Dorpsstraat"}, "geometry": {"type": "MultiPolygon", "coordinates": [[[[4.49933, 52.05684], [4.50389, 52.05433], [4.50321, 52.05331], [4.49938, 52.05422], [4.49498, 52.05593], [4.49285, 52.05447], [4.49244, 52.0547], [4.49156, 52.05768], [4.49549, 52.05858], [4.4978, 52.05979], [4.49933, 52.05684]]]]}}, {"type": "Feature", "properties": {"code": "BU06371408", "name": "Zoetermeerseplas"}, "geometry": {"type": "MultiPolygon", "coordinates": [[[[4.50445, 52.09329], [4.50553, 52.09243], [4.50655, 52.09027], [4.51391, 52.08718], [4.51749, 52.08329], [4.51774, 52.08126], [4.51679, 52.08019], [4.51016, 52.07915], [4.50971, 52.08045], [4.502, 52.08077], [4.49967, 52.07942], [4.4985, 52.0791], [4.49661, 52.07856], [4.49965, 52.08413], [4.49918, 52.08651], [4.49781, 52.08784], [4.49937, 52.08846], [4.49891, 52.08943], [4.49997, 52.09166], [4.50445, 52.09329]]]]}}, {"type": "Feature", "properties": {"code": "BU06371013", "name": "Houtbuurt-Oost"}, "geometry": {"type": "MultiPolygon", "coordinates": [[[[4.46906, 52.04704], [4.47191, 52.04311], [4.46557, 52.04165], [4.46306, 52.0458], [4.46695, 52.04669], [4.46906, 52.04704]]]]}}, {"type": "Feature", "properties": {"code": "BU06370703", "name": "Kadebuurt-West"}, "geometry": {"type": "MultiPolygon", "coordinates": [[[[4.49546, 52.07361], [4.49406, 52.07243], [4.48816, 52.07404], [4.49201, 52.07496], [4.49661, 52.07856], [4.4985, 52.0791], [4.49546, 52.07361]]]]}}, {"type": "Feature", "properties": {"code": "BU06370814", "name": "Parkenbuurt"}, "geometry": {"type": "MultiPolygon", "coordinates": [[[[4.51038, 52.06844], [4.51212, 52.06766], [4.51199, 52.06599], [4.51306, 52.06446], [4.50672, 52.06415], [4.5088, 52.06855], [4.51038, 52.06844]]]]}}, {"type": "Feature", "properties": {"code": "BU06370710", "name": "De Leyens-Centrum"}, "geometry": {"type": "MultiPolygon", "coordinates": [[[[4.49546, 52.07361], [4.49571, 52.07175], [4.49384, 52.071], [4.49406, 52.07243], [4.49546, 52.07361]]]]}}, {"type": "Feature", "properties": {"code": "BU06370612", "name": "Rodenbuurt-Oost"}, "geometry": {"type": "MultiPolygon", "coordinates": [[[[4.47642, 52.06767], [4.47736, 52.06641], [4.47257, 52.06487], [4.47375, 52.0679], [4.47431, 52.06803], [4.47642, 52.06767]]]]}}, {"type": "Feature", "properties": {"code": "BU06370613", "name": "Buytenwegh-Centrum"}, "geometry": {"type": "MultiPolygon", "coordinates": [[[[4.47948, 52.06699], [4.48089, 52.06632], [4.47959, 52.06442], [4.47817, 52.06475], [4.47736, 52.06641], [4.47642, 52.06767], [4.47795, 52.06824], [4.47948, 52.06699]]]]}}, {"type": "Feature", "properties": {"code": "BU06370104", "name": "Schildersbuurt"}, "geometry": {"type": "MultiPolygon", "coordinates": [[[[4.50473, 52.04844], [4.50228, 52.04652], [4.4955, 52.04963], [4.49281, 52.0483], [4.49689, 52.05199], [4.50473, 52.04844]]]]}}, {"type": "Feature", "properties": {"code": "BU06370513", "name": "Bossenbuurt hoog-West"}, "geometry": {"type": "MultiPolygon", "coordinates": [[[[4.4705, 52.06025], [4.4706, 52.05893], [4.47066, 52.05731], [4.46798, 52.05636], [4.46712, 52.05668], [4.46918, 52.05823], [4.46932, 52.05929], [4.46842, 52.06038], [4.46674, 52.06061], [4.46788, 52.06114], [4.4705, 52.06025]]]]}}, {"type": "Feature", "properties": {"code": "BU06370501", "name": "Voorweg"}, "geometry": {"type": "MultiPolygon", "coordinates": [[[[4.4649, 52.06388], [4.48173, 52.06094], [4.48127, 52.06], [4.48083, 52.06007], [4.47908, 52.06036], [4.4774, 52.05931], [4.47473, 52.05949], [4.47565, 52.06094], [4.47055, 52.06136], [4.4705, 52.06025], [4.46788, 52.06114], [4.46674, 52.06061], [4.46492, 52.06055], [4.46444, 52.06112], [4.45826, 52.06194], [4.45304, 52.06276], [4.45891, 52.06416], [4.4649, 52.06388]]]]}}, {"type": "Feature", "properties": {"code": "BU06371008", "name": "Stenenbuurt-Zuid"}, "geometry": {"type": "MultiPolygon", "coordinates": [[[[4.48235, 52.03623], [4.48472, 52.03355], [4.48799, 52.03228], [4.48801, 52.03186], [4.47738, 52.03179], [4.47768, 52.03139], [4.47703, 52.03128], [4.47671, 52.03164], [4.47599, 52.03278], [4.48235, 52.03623]]]]}}, {"type": "Feature", "properties": {"code": "BU06370403", "name": "Driemanspolder-Zuid"}, "geometry": {"type": "MultiPolygon", "coordinates": [[[[4.48481, 52.05244], [4.48734, 52.05104], [4.48366, 52.04859], [4.47956, 52.04832], [4.47868, 52.04986], [4.47991, 52.05183], [4.48105, 52.05366], [4.48481, 52.05244]]]]}}, {"type": "Feature", "properties": {"code": "BU06371501", "name": "A12-zone"}, "geometry": {"type": "MultiPolygon", "coordinates": [[[[4.43921, 52.05161], [4.46039, 52.04962], [4.47068, 52.04891], [4.47952, 52.04806], [4.49158, 52.04733], [4.50188, 52.04608], [4.50951, 52.04521], [4.51925, 52.04153], [4.519, 52.04138], [4.51828, 52.04099], [4.50803, 52.04359], [4.49745, 52.0459], [4.49076, 52.04644], [4.48459, 52.04695], [4.47838, 52.0474], [4.4666, 52.04826], [4.46022, 52.04872], [4.45056, 52.04921], [4.43804, 52.05028], [4.43804, 52.05028], [4.42583, 52.05147], [4.42207, 52.05167], [4.42139, 52.05221], [4.43921, 52.05161]]]]}}, {"type": "Feature", "properties": {"code": "BU06371105", "name": "Zuid-Hollandbuurt-Noordoost"}, "geometry": {"type": "MultiPolygon", "coordinates": [[[[4.54677, 52.06699], [4.54541, 52.0659], [4.54289, 52.06389], [4.54089, 52.06228], [4.53693, 52.06416], [4.54273, 52.06889], [4.54677, 52.06699]]]]}}, {"type": "Feature", "properties": {"code": "BU06370811", "name": "Vaartenbuurt-Oost"}, "geometry": {"type": "MultiPolygon", "coordinates": [[[[4.50842, 52.06914], [4.5088, 52.06855], [4.50672, 52.06415], [4.5045, 52.06364], [4.50347, 52.06385], [4.50296, 52.06487], [4.50434, 52.0697], [4.50842, 52.06914]]]]}}, {"type": "Feature", "properties": {"code": "BU06370813", "name": "Tuinenbuurt"}, "geometry": {"type": "MultiPolygon", "coordinates": [[[[4.51646, 52.06783], [4.51691, 52.06413], [4.51381, 52.06402], [4.51306, 52.06446], [4.51199, 52.06599], [4.51212, 52.06766], [4.51038, 52.06844], [4.51037, 52.06894], [4.51646, 52.06783]]]]}}, {"type": "Feature", "properties": {"code": "BU06371006", "name": "Wittenbuurt"}, "geometry": {"type": "MultiPolygon", "coordinates": [[[[4.49161, 52.04504], [4.48468, 52.0398], [4.48161, 52.04135], [4.48613, 52.04303], [4.49007, 52.04582], [4.49161, 52.04504]]]]}}, {"type": "Feature", "properties": {"code": "BU06371106", "name": "Stromenbuurt-Zuidwest"}, "geometry": {"type": "MultiPolygon", "coordinates": [[[[4.54846, 52.0627], [4.5429, 52.0578], [4.54279, 52.05771], [4.54247, 52.05779], [4.54254, 52.06069], [4.54089, 52.06228], [4.54289, 52.06389], [4.54846, 52.0627]]]]}}, {"type": "Feature", "properties": {"code": "BU06370305", "name": "Geuzenbuurt"}, "geometry": {"type": "MultiPolygon", "coordinates": [[[[4.5117, 52.05419], [4.50852, 52.05147], [4.50321, 52.05331], [4.50389, 52.05433], [4.51054, 52.0547], [4.5117, 52.05419]]]]}}, {"type": "Feature", "properties": {"code": "BU06370709", "name": "Zijdenbuurt-West"}, "geometry": {"type": "MultiPolygon", "coordinates": [[[[4.49986, 52.07072], [4.49591, 52.06718], [4.49211, 52.06814], [4.49384, 52.071], [4.49571, 52.07175], [4.49986, 52.07072]]]]}}, {"type": "Feature", "properties": {"code": "BU06370303", "name": "Palenstein-Oost"}, "geometry": {"type": "MultiPolygon", "coordinates": [[[[4.51469, 52.05676], [4.5117, 52.05419], [4.51054, 52.0547], [4.50712, 52.05614], [4.5071, 52.0573], [4.51229, 52.05793], [4.51469, 52.05676]]]]}}, {"type": "Feature", "properties": {"code": "BU06370503", "name": "Bossenbuurt hoog-Midden"}, "geometry": {"type": "MultiPolygon", "coordinates": [[[[4.47473, 52.05949], [4.4746, 52.05645], [4.47641, 52.05528], [4.47571, 52.05488], [4.47192, 52.05557], [4.47066, 52.05731], [4.4706, 52.05893], [4.47473, 52.05949]]]]}}, {"type": "Feature", "properties": {"code": "BU06371010", "name": "Stenenbuurt-Noord"}, "geometry": {"type": "MultiPolygon", "coordinates": [[[[4.47581, 52.03936], [4.47237, 52.03828], [4.47196, 52.03903], [4.47162, 52.039], [4.47074, 52.04048], [4.47455, 52.04142], [4.47581, 52.03936]]]]}}, {"type": "Feature", "properties": {"code": "BU06370903", "name": "Schansenbuurt-Noord"}, "geometry": {"type": "MultiPolygon", "coordinates": [[[[4.52967, 52.07957], [4.52962, 52.07639], [4.5304, 52.07566], [4.5285, 52.07212], [4.52475, 52.07296], [4.52528, 52.07879], [4.52518, 52.08051], [4.52967, 52.07957]]]]}}, {"type": "Feature", "properties": {"code": "BU06370809", "name": "Slotenbuurt"}, "geometry": {"type": "MultiPolygon", "coordinates": [[[[4.51306, 52.06446], [4.51381, 52.06402], [4.51536, 52.0631], [4.51115, 52.0605], [4.50857, 52.05977], [4.50353, 52.06254], [4.5045, 52.06364], [4.50672, 52.06415], [4.51306, 52.06446]]]]}}, {"type": "Feature", "properties": {"code": "BU06371304", "name": "Nutrihage"}, "geometry": {"type": "MultiPolygon", "coordinates": [[[[4.50228, 52.04652], [4.50188, 52.04608], [4.49158, 52.04733], [4.49205, 52.04784], [4.49281, 52.0483], [4.4955, 52.04963], [4.50228, 52.04652]]]]}}, {"type": "Feature", "properties": {"code": "BU06371004", "name": "Groenenbuurt"}, "geometry": {"type": "MultiPolygon", "coordinates": [[[[4.4982, 52.04205], [4.49028, 52.03607], [4.48712, 52.03765], [4.49503, 52.04364], [4.4982, 52.04205]]]]}}, {"type": "Feature", "properties": {"code": "BU06370608", "name": "Hovenbuurt midden-Oost"}, "geometry": {"type": "MultiPolygon", "coordinates": [[[[4.48586, 52.06479], [4.48408, 52.06234], [4.48239, 52.0639], [4.48371, 52.0662], [4.48586, 52.06479]]]]}}, {"type": "Feature", "properties": {"code": "BU06371005", "name": "Gelenbuurt"}, "geometry": {"type": "MultiPolygon", "coordinates": [[[[4.49503, 52.04364], [4.48712, 52.03765], [4.48468, 52.0398], [4.49161, 52.04504], [4.49503, 52.04364]]]]}}, {"type": "Feature", "properties": {"code": "BU06371115", "name": "Eilandenbuurt-Noordwest"}, "geometry": {"type": "MultiPolygon", "coordinates": [[[[4.54247, 52.05779], [4.53761, 52.05355], [4.53293, 52.05585], [4.53574, 52.05811], [4.53804, 52.05996], [4.54247, 52.05779]]]]}}, {"type": "Feature", "properties": {"code": "BU06371017", "name": "Gangenbuurt-West"}, "geometry": {"type": "MultiPolygon", "coordinates": [[[[4.48359, 52.04396], [4.48161, 52.04135], [4.47869, 52.04033], [4.47581, 52.03936], [4.47455, 52.04142], [4.47333, 52.04343], [4.47782, 52.04549], [4.48359, 52.04396]]]]}}, {"type": "Feature", "properties": {"code": "BU06370604", "name": "Rodenbuurt midden"}, "geometry": {"type": "MultiPolygon", "coordinates": [[[[4.48112, 52.07097], [4.47795, 52.06824], [4.47642, 52.06767], [4.47431, 52.06803], [4.47593, 52.07101], [4.47964, 52.0717], [4.48112, 52.07097]]]]}}, {"type": "Feature", "properties": {"code": "BU06370802", "name": "Weidebuurt-Noord"}, "geometry": {"type": "MultiPolygon", "coordinates": [[[[4.50882, 52.07818], [4.50834, 52.07755], [4.51214, 52.076], [4.52008, 52.07153], [4.51976, 52.07076], [4.51806, 52.06925], [4.51613, 52.06959], [4.51645, 52.07188], [4.51387, 52.07327], [4.50989, 52.07318], [4.50545, 52.07406], [4.50587, 52.07483], [4.50859, 52.07851], [4.50882, 52.07818]]]]}}, {"type": "Feature", "properties": {"code": "BU06370404", "name": "Driemanspolder-Centrum"}, "geometry": {"type": "MultiPolygon", "coordinates": [[[[4.48755, 52.05735], [4.49012, 52.05612], [4.48481, 52.05244], [4.48105, 52.05366], [4.48126, 52.0548], [4.48246, 52.05759], [4.48755, 52.05735]]]]}}, {"type": "Feature", "properties": {"code": "BU06370512", "name": "Bossenbuurt laag"}, "geometry": {"type": "MultiPolygon", "coordinates": [[[[4.46674, 52.06061], [4.46842, 52.06038], [4.46932, 52.05929], [4.46918, 52.05823], [4.46712, 52.05668], [4.46798, 52.05636], [4.46638, 52.0551], [4.46525, 52.05575], [4.46389, 52.05727], [4.46492, 52.06055], [4.46674, 52.06061]]]]}}, {"type": "Feature", "properties": {"code": "BU06370508", "name": "Meerzicht-Centrum-West"}, "geometry": {"type": "MultiPolygon", "coordinates": [[[[4.47066, 52.05731], [4.46948, 52.05453], [4.46638, 52.0551], [4.46798, 52.05636], [4.47066, 52.05731]]]]}}, {"type": "Feature", "properties": {"code": "BU06371206", "name": "Oost 3"}, "geometry": {"type": "MultiPolygon", "coordinates": [[[[4.47991, 52.05183], [4.47868, 52.04986], [4.47617, 52.0494], [4.47755, 52.05228], [4.47991, 52.05183]]]]}}, {"type": "Feature", "properties": {"code": "BU06371011", "name": "Zomenbuurt"}, "geometry": {"type": "MultiPolygon", "coordinates": [[[[4.47455, 52.04142], [4.47074, 52.04048], [4.45893, 52.03885], [4.45764, 52.03862], [4.45699, 52.03967], [4.46422, 52.04134], [4.46557, 52.04165], [4.47191, 52.04311], [4.47333, 52.04343], [4.47455, 52.04142]]]]}}, {"type": "Feature", "properties": {"code": "BU06370509", "name": "Landenbuurt"}, "geometry": {"type": "MultiPolygon", "coordinates": [[[[4.46525, 52.05575], [4.46638, 52.0551], [4.46948, 52.05453], [4.46827, 52.05111], [4.47072, 52.04904], [4.47068, 52.04891], [4.46039, 52.04962], [4.45923, 52.05131], [4.45714, 52.05193], [4.45617, 52.05321], [4.46525, 52.05575]]]]}}, {"type": "Feature", "properties": {"code": "BU06371406", "name": "Meerpolder-West"}, "geometry": {"type": "MultiPolygon", "coordinates": [[[[4.47964, 52.0717], [4.47593, 52.07101], [4.47048, 52.07047], [4.468, 52.07071], [4.45937, 52.07374], [4.4555, 52.07833], [4.45678, 52.07868], [4.45675, 52.07882], [4.47566, 52.0813], [4.47964, 52.0717]]]]}}, {"type": "Feature", "properties": {"code": "BU06370401", "name": "Driemanspolder-Noord"}, "geometry": {"type": "MultiPolygon", "coordinates": [[[[4.4851, 52.06035], [4.48731, 52.05982], [4.49156, 52.05768], [4.49244, 52.0547], [4.49012, 52.05612], [4.48755, 52.05735], [4.48246, 52.05759], [4.48127, 52.06], [4.48173, 52.06094], [4.4851, 52.06035]]]]}}, {"type": "Feature", "properties": {"code": "BU06371116", "name": "Merenbuurt-Oost"}, "geometry": {"type": "MultiPolygon", "coordinates": [[[[4.53574, 52.05811], [4.53293, 52.05585], [4.52925, 52.05288], [4.5259, 52.05447], [4.53218, 52.0598], [4.53574, 52.05811]]]]}}, {"type": "Feature", "properties": {"code": "BU06371113", "name": "Eilandenbuurt-Zuidoost"}, "geometry": {"type": "MultiPolygon", "coordinates": [[[[4.53839, 52.05326], [4.54272, 52.05122], [4.54022, 52.05052], [4.53506, 52.05138], [4.53761, 52.05355], [4.53839, 52.05326]]]]}}, {"type": "Feature", "properties": {"code": "BU06370505", "name": "Waterbuurt laag"}, "geometry": {"type": "MultiPolygon", "coordinates": [[[[4.46993, 52.05449], [4.47032, 52.05353], [4.47585, 52.05259], [4.47459, 52.04965], [4.47072, 52.04904], [4.46827, 52.05111], [4.46948, 52.05453], [4.46993, 52.05449]]]]}}, {"type": "Feature", "properties": {"code": "BU06370801", "name": "Veldenbuurt-West"}, "geometry": {"type": "MultiPolygon", "coordinates": [[[[4.50989, 52.07318], [4.50869, 52.07157], [4.50903, 52.06981], [4.50842, 52.06914], [4.50434, 52.0697], [4.50303, 52.06996], [4.50545, 52.07406], [4.50989, 52.07318]]]]}}, {"type": "Feature", "properties": {"code": "BU06370701", "name": "Schouwenbuurt-Zuid"}, "geometry": {"type": "MultiPolygon", "coordinates": [[[[4.49956, 52.06521], [4.49933, 52.06476], [4.49437, 52.06429], [4.49131, 52.06352], [4.49036, 52.06328], [4.48971, 52.06428], [4.49029, 52.06543], [4.49064, 52.06546], [4.49956, 52.06521]]]]}}, {"type": "Feature", "properties": {"code": "BU06370705", "name": "Redenbuurt"}, "geometry": {"type": "MultiPolygon", "coordinates": [[[[4.50971, 52.08045], [4.51016, 52.07915], [4.50859, 52.07851], [4.50587, 52.07483], [4.50169, 52.07578], [4.50232, 52.07685], [4.49904, 52.07793], [4.49967, 52.07942], [4.502, 52.08077], [4.50971, 52.08045]]]]}}, {"type": "Feature", "properties": {"code": "BU06370103", "name": "Dorp-Oost"}, "geometry": {"type": "MultiPolygon", "coordinates": [[[[4.50321, 52.05331], [4.50852, 52.05147], [4.51374, 52.04861], [4.51311, 52.04812], [4.5089, 52.05029], [4.50473, 52.04844], [4.49689, 52.05199], [4.49938, 52.05422], [4.50321, 52.05331]]]]}}, {"type": "Feature", "properties": {"code": "BU06370304", "name": "Ontwikkelgebied"}, "geometry": {"type": "MultiPolygon", "coordinates": [[[[4.52052, 52.05389], [4.51811, 52.05201], [4.5117, 52.05419], [4.51469, 52.05676], [4.52052, 52.05389]]]]}}, {"type": "Feature", "properties": {"code": "BU06370902", "name": "Plannenbuurt-Noord"}, "geometry": {"type": "MultiPolygon", "coordinates": [[[[4.52055, 52.07746], [4.51357, 52.07725], [4.51349, 52.07843], [4.52267, 52.07871], [4.52055, 52.07746]]]]}}, {"type": "Feature", "properties": {"code": "BU06371101", "name": "Zuid-Hollandbuurt-Zuidwest"}, "geometry": {"type": "MultiPolygon", "coordinates": [[[[4.53383, 52.06564], [4.53455, 52.0653], [4.52949, 52.06125], [4.5285, 52.06169], [4.5301, 52.06301], [4.52618, 52.06484], [4.52969, 52.06759], [4.53383, 52.06564]]]]}}, {"type": "Feature", "properties": {"code": "BU06371110", "name": "Stromenbuurt-Zuidoost"}, "geometry": {"type": "MultiPolygon", "coordinates": [[[[4.55178, 52.06212], [4.54793, 52.05541], [4.5429, 52.0578], [4.54846, 52.0627], [4.55178, 52.06212]]]]}}, {"type": "Feature", "properties": {"code": "BU06371201", "name": "West 1"}, "geometry": {"type": "MultiPolygon", "coordinates": [[[[4.48127, 52.06], [4.47914, 52.05559], [4.4773, 52.05571], [4.47743, 52.05717], [4.47948, 52.05831], [4.48083, 52.06007], [4.48127, 52.06]]]]}}, {"type": "Feature", "properties": {"code": "BU06371015", "name": "Campus"}, "geometry": {"type": "MultiPolygon", "coordinates": [[[[4.48459, 52.04695], [4.48359, 52.04396], [4.47782, 52.04549], [4.47838, 52.0474], [4.48459, 52.04695]]]]}}, {"type": "Feature", "properties": {"code": "BU06370806", "name": "Akkersbuurt-Oost"}, "geometry": {"type": "MultiPolygon", "coordinates": [[[[4.52536, 52.06595], [4.51937, 52.06077], [4.51608, 52.06267], [4.51696, 52.0641], [4.52349, 52.06779], [4.52536, 52.06595]]]]}}, {"type": "Feature", "properties": {"code": "BU06371301", "name": "Zoeterhage"}, "geometry": {"type": "MultiPolygon", "coordinates": [[[[4.52618, 52.06484], [4.5301, 52.06301], [4.5285, 52.06169], [4.52949, 52.06125], [4.52927, 52.06107], [4.523, 52.05585], [4.52052, 52.05389], [4.51469, 52.05676], [4.51937, 52.06077], [4.52536, 52.06595], [4.52618, 52.06484]]]]}}, {"type": "Feature", "properties": {"code": "BU06371407", "name": "Meerpolder-Oost"}, "geometry": {"type": "MultiPolygon", "coordinates": [[[[4.49781, 52.08784], [4.49918, 52.08651], [4.49965, 52.08413], [4.49661, 52.07856], [4.49201, 52.07496], [4.48816, 52.07404], [4.47964, 52.0717], [4.47566, 52.0813], [4.47427, 52.08526], [4.49302, 52.08775], [4.49222, 52.09001], [4.49781, 52.08784]]]]}}, {"type": "Feature", "properties": {"code": "BU06370702", "name": "Strokenbuurt"}, "geometry": {"type": "MultiPolygon", "coordinates": [[[[4.49406, 52.07243], [4.49384, 52.071], [4.49211, 52.06814], [4.49064, 52.06546], [4.49029, 52.06543], [4.48494, 52.06874], [4.48298, 52.07014], [4.48112, 52.07097], [4.47964, 52.0717], [4.48816, 52.07404], [4.49406, 52.07243]]]]}}, {"type": "Feature", "properties": {"code": "BU06371305", "name": "Rokkehage"}, "geometry": {"type": "MultiPolygon", "coordinates": [[[[4.51311, 52.04812], [4.50951, 52.04521], [4.50188, 52.04608], [4.50228, 52.04652], [4.50473, 52.04844], [4.5089, 52.05029], [4.51311, 52.04812]]]]}}, {"type": "Feature", "properties": {"code": "BU06370510", "name": "Bergenbuurt-Zuid"}, "geometry": {"type": "MultiPolygon", "coordinates": [[[[4.46389, 52.05727], [4.46525, 52.05575], [4.45617, 52.05321], [4.45455, 52.05402], [4.45668, 52.05735], [4.46389, 52.05727]]]]}}, {"type": "Feature", "properties": {"code": "BU06371107", "name": "Stromenbuurt-Noordwest"}, "geometry": {"type": "MultiPolygon", "coordinates": [[[[4.55203, 52.06276], [4.55178, 52.06212], [4.54846, 52.0627], [4.54289, 52.06389], [4.54541, 52.0659], [4.55203, 52.06276]]]]}}, {"type": "Feature", "properties": {"code": "BU06370614", "name": "Hovenbuurt midden-West"}, "geometry": {"type": "MultiPolygon", "coordinates": [[[[4.48296, 52.06636], [4.48371, 52.0662], [4.48239, 52.0639], [4.47959, 52.06442], [4.48089, 52.06632], [4.48296, 52.06636]]]]}}, {"type": "Feature", "properties": {"code": "BU06370804", "name": "Veldenbuurt-Oost"}, "geometry": {"type": "MultiPolygon", "coordinates": [[[[4.51304, 52.07113], [4.51304, 52.0699], [4.51613, 52.06959], [4.51806, 52.06925], [4.51646, 52.06783], [4.51037, 52.06894], [4.50903, 52.06981], [4.50869, 52.07157], [4.51304, 52.07113]]]]}}, {"type": "Feature", "properties": {"code": "BU06371002", "name": "Kantorenstrook Rokkeveen-Oost"}, "geometry": {"type": "MultiPolygon", "coordinates": [[[[4.50463, 52.04065], [4.49467, 52.03347], [4.49348, 52.0345], [4.50109, 52.0406], [4.50262, 52.04171], [4.50463, 52.04065]]]]}}, {"type": "Feature", "properties": {"code": "BU06370601", "name": "Amerikawegzone"}, "geometry": {"type": "MultiPolygon", "coordinates": [[[[4.46628, 52.06497], [4.47133, 52.06329], [4.47703, 52.06237], [4.48408, 52.06234], [4.48586, 52.06479], [4.48971, 52.06428], [4.49036, 52.06328], [4.48588, 52.0622], [4.48173, 52.06094], [4.4649, 52.06388], [4.46628, 52.06497]]]]}}, {"type": "Feature", "properties": {"code": "BU06370206", "name": "Engelse buurt"}, "geometry": {"type": "MultiPolygon", "coordinates": [[[[4.49447, 52.06032], [4.49549, 52.05858], [4.49156, 52.05768], [4.48731, 52.05982], [4.49163, 52.06072], [4.49447, 52.06032]]]]}}, {"type": "Feature", "properties": {"code": "BU06371109", "name": "B. en W.-buurt"}, "geometry": {"type": "MultiPolygon", "coordinates": [[[[4.5548, 52.06152], [4.55029, 52.05632], [4.54819, 52.05529], [4.54793, 52.05541], [4.55178, 52.06212], [4.5548, 52.06152]]]]}}, {"type": "Feature", "properties": {"code": "BU06371401", "name": "Balijbos"}, "geometry": {"type": "MultiPolygon", "coordinates": [[[[4.46022, 52.04872], [4.45906, 52.04385], [4.46422, 52.04134], [4.45699, 52.03967], [4.45644, 52.03954], [4.45056, 52.04921], [4.46022, 52.04872]]]]}}, {"type": "Feature", "properties": {"code": "BU06371307", "name": "Lansinghage-Oost"}, "geometry": {"type": "MultiPolygon", "coordinates": [[[[4.51828, 52.04099], [4.51207, 52.03683], [4.50706, 52.03283], [4.50471, 52.03193], [4.48801, 52.03186], [4.48799, 52.03228], [4.49467, 52.03347], [4.50463, 52.04065], [4.50803, 52.04359], [4.51828, 52.04099]]]]}}, {"type": "Feature", "properties": {"code": "BU06370205", "name": "Franse buurt"}, "geometry": {"type": "MultiPolygon", "coordinates": [[[[4.49879, 52.06142], [4.4978, 52.05979], [4.49549, 52.05858], [4.49447, 52.06032], [4.49879, 52.06142]]]]}}, {"type": "Feature", "properties": {"code": "BU06370603", "name": "Rodenbuurt-Noordwest"}, "geometry": {"type": "MultiPolygon", "coordinates": [[[[4.47431, 52.06803], [4.47375, 52.0679], [4.47189, 52.06829], [4.47048, 52.07047], [4.47593, 52.07101], [4.47431, 52.06803]]]]}}, {"type": "Feature", "properties": {"code": "BU06370605", "name": "Rodenbuurt-Noordoost"}, "geometry": {"type": "MultiPolygon", "coordinates": [[[[4.48298, 52.07014], [4.47948, 52.06699], [4.47795, 52.06824], [4.48112, 52.07097], [4.48298, 52.07014]]]]}}, {"type": "Feature", "properties": {"code": "BU06370706", "name": "Wervenbuurt"}, "geometry": {"type": "MultiPolygon", "coordinates": [[[[4.50587, 52.07483], [4.50545, 52.07406], [4.50303, 52.06996], [4.49986, 52.07072], [4.50169, 52.07578], [4.50587, 52.07483]]]]}}, {"type": "Feature", "properties": {"code": "BU06370808", "name": "Gaardenbuurt"}, "geometry": {"type": "MultiPolygon", "coordinates": [[[[4.51608, 52.06267], [4.51937, 52.06077], [4.51469, 52.05676], [4.51229, 52.05793], [4.50857, 52.05977], [4.51115, 52.0605], [4.51536, 52.0631], [4.51608, 52.06267]]]]}}, {"type": "Feature", "properties": {"code": "BU06371112", "name": "Eilandenbuurt midden"}, "geometry": {"type": "MultiPolygon", "coordinates": [[[[4.54279, 52.05771], [4.54242, 52.05567], [4.53839, 52.05326], [4.53761, 52.05355], [4.54247, 52.05779], [4.54279, 52.05771]]]]}}, {"type": "Feature", "properties": {"code": "BU06371306", "name": "Dutch Innovation Park"}, "geometry": {"type": "MultiPolygon", "coordinates": [[[[4.52258, 52.04339], [4.51925, 52.04153], [4.50951, 52.04521], [4.51311, 52.04812], [4.52258, 52.04339]]]]}}, {"type": "Feature", "properties": {"code": "BU06370901", "name": "Plannenbuurt-Zuid"}, "geometry": {"type": "MultiPolygon", "coordinates": [[[[4.52528, 52.07879], [4.52267, 52.07871], [4.51349, 52.07843], [4.50882, 52.07818], [4.50859, 52.07851], [4.51016, 52.07915], [4.52518, 52.08051], [4.52528, 52.07879]]]]}}, {"type": "Feature", "properties": {"code": "BU06370506", "name": "Waterbuurt hoog"}, "geometry": {"type": "MultiPolygon", "coordinates": [[[[4.47571, 52.05488], [4.47585, 52.05259], [4.47032, 52.05353], [4.46993, 52.05449], [4.47192, 52.05557], [4.47571, 52.05488]]]]}}, {"type": "Feature", "properties": {"code": "BU06371302", "name": "Oosterhage"}, "geometry": {"type": "MultiPolygon", "coordinates": [[[[4.55718, 52.06124], [4.55053, 52.0563], [4.54934, 52.05474], [4.54755, 52.05037], [4.54508, 52.04886], [4.53511, 52.04961], [4.52657, 52.05119], [4.52052, 52.05389], [4.523, 52.05585], [4.5259, 52.05447], [4.52925, 52.05288], [4.53506, 52.05138], [4.54022, 52.05052], [4.54272, 52.05122], [4.54819, 52.05529], [4.55029, 52.05632], [4.5548, 52.06152], [4.55586, 52.06186], [4.55718, 52.06124]]]]}}, {"type": "Feature", "properties": {"code": "BU06371308", "name": "Lansinghage-West"}, "geometry": {"type": "MultiPolygon", "coordinates": [[[[4.50803, 52.04359], [4.50463, 52.04065], [4.50262, 52.04171], [4.49745, 52.0459], [4.50803, 52.04359]]]]}}, {"type": "Feature", "properties": {"code": "BU06371009", "name": "Stenenbuurt-midden"}, "geometry": {"type": "MultiPolygon", "coordinates": [[[[4.47992, 52.04008], [4.48235, 52.03623], [4.47599, 52.03278], [4.4728, 52.03802], [4.47253, 52.03797], [4.47237, 52.03828], [4.47581, 52.03936], [4.47869, 52.04033], [4.47992, 52.04008]]]]}}, {"type": "Feature", "properties": {"code": "BU06370204", "name": "Griekse buurt"}, "geometry": {"type": "MultiPolygon", "coordinates": [[[[4.49933, 52.06476], [4.50057, 52.06428], [4.49911, 52.06196], [4.49437, 52.06429], [4.49933, 52.06476]]]]}}, {"type": "Feature", "properties": {"code": "BU06370302", "name": "Palenstein-Centrum"}, "geometry": {"type": "MultiPolygon", "coordinates": [[[[4.51229, 52.05793], [4.5071, 52.0573], [4.50712, 52.05614], [4.50503, 52.05798], [4.50507, 52.05968], [4.50857, 52.05977], [4.51229, 52.05793]]]]}}, {"type": "Feature", "properties": {"code": "BU06370807", "name": "Seghwaert-Centrum-Zuid"}, "geometry": {"type": "MultiPolygon", "coordinates": [[[[4.51691, 52.06413], [4.51696, 52.0641], [4.51608, 52.06267], [4.51536, 52.0631], [4.51381, 52.06402], [4.51691, 52.06413]]]]}}, {"type": "Feature", "properties": {"code": "BU06370102", "name": "Oranjebuurt"}, "geometry": {"type": "MultiPolygon", "coordinates": [[[[4.49938, 52.05422], [4.49689, 52.05199], [4.49402, 52.05374], [4.49285, 52.05447], [4.49498, 52.05593], [4.49938, 52.05422]]]]}}, {"type": "Feature", "properties": {"code": "BU06371007", "name": "Burgemeester Hoekstrapark"}, "geometry": {"type": "MultiPolygon", "coordinates": [[[[4.48468, 52.0398], [4.48712, 52.03765], [4.49028, 52.03607], [4.49348, 52.0345], [4.49467, 52.03347], [4.48799, 52.03228], [4.48472, 52.03355], [4.48235, 52.03623], [4.47992, 52.04008], [4.47869, 52.04033], [4.48161, 52.04135], [4.48468, 52.0398]]]]}}, {"type": "Feature", "properties": {"code": "BU06371103", "name": "Zuid-Hollandbuurt-Noordwest"}, "geometry": {"type": "MultiPolygon", "coordinates": [[[[4.53949, 52.07031], [4.53383, 52.06564], [4.52969, 52.06759], [4.53534, 52.07229], [4.53949, 52.07031]]]]}}, {"type": "Feature", "properties": {"code": "BU06370306", "name": "Palenstein-Zuid"}, "geometry": {"type": "MultiPolygon", "coordinates": [[[[4.50503, 52.05798], [4.50712, 52.05614], [4.51054, 52.0547], [4.50389, 52.05433], [4.49933, 52.05684], [4.4999, 52.05837], [4.50503, 52.05798]]]]}}, {"type": "Feature", "properties": {"code": "BU06371303", "name": "Hoornerhage"}, "geometry": {"type": "MultiPolygon", "coordinates": [[[[4.51811, 52.05201], [4.51374, 52.04861], [4.50852, 52.05147], [4.5117, 52.05419], [4.51811, 52.05201]]]]}}, {"type": "Feature", "properties": {"code": "BU06371205", "name": "West 3"}, "geometry": {"type": "MultiPolygon", "coordinates": [[[[4.47755, 52.05228], [4.47617, 52.0494], [4.47459, 52.04965], [4.47585, 52.05259], [4.47755, 52.05228]]]]}}, {"type": "Feature", "properties": {"code": "BU06371404", "name": "Voorweg buiten"}, "geometry": {"type": "MultiPolygon", "coordinates": [[[[4.44706, 52.06926], [4.45891, 52.06416], [4.45304, 52.06276], [4.45217, 52.06409], [4.44949, 52.06547], [4.43763, 52.0704], [4.44325, 52.07291], [4.44706, 52.06926]]]]}}, {"type": "Feature", "properties": {"code": "BU06370607", "name": "Hovenbuurt-Oost"}, "geometry": {"type": "MultiPolygon", "coordinates": [[[[4.49029, 52.06543], [4.48971, 52.06428], [4.48586, 52.06479], [4.48371, 52.0662], [4.48296, 52.06636], [4.48494, 52.06874], [4.49029, 52.06543]]]]}}, {"type": "Feature", "properties": {"code": "BU06371016", "name": "Gangenbuurt-Oost"}, "geometry": {"type": "MultiPolygon", "coordinates": [[[[4.49076, 52.04644], [4.49007, 52.04582], [4.48613, 52.04303], [4.48161, 52.04135], [4.48359, 52.04396], [4.48459, 52.04695], [4.49076, 52.04644]]]]}}, {"type": "Feature", "properties": {"code": "BU06371104", "name": "Zuid-Hollandbuurt-Noordmidden"}, "geometry": {"type": "MultiPolygon", "coordinates": [[[[4.54273, 52.06889], [4.53693, 52.06416], [4.53455, 52.0653], [4.53383, 52.06564], [4.53949, 52.07031], [4.54273, 52.06889]]]]}}, {"type": "Feature", "properties": {"code": "BU06371410", "name": "Benthuizerplas"}, "geometry": {"type": "MultiPolygon", "coordinates": [[[[4.53602, 52.07691], [4.53418, 52.07556], [4.53404, 52.07539], [4.53013, 52.07218], [4.5285, 52.07212], [4.5304, 52.07566], [4.52962, 52.07639], [4.52967, 52.07957], [4.53032, 52.07997], [4.53602, 52.07691]]]]}}, {"type": "Feature", "properties": {"code": "BU06370202", "name": "Centrum-Midden"}, "geometry": {"type": "MultiPolygon", "coordinates": [[[[4.49163, 52.06072], [4.48731, 52.05982], [4.4851, 52.06035], [4.48588, 52.0622], [4.49036, 52.06328], [4.49131, 52.06352], [4.49163, 52.06072]]]]}}, {"type": "Feature", "properties": {"code": "BU06371405", "name": "Buytenpark"}, "geometry": {"type": "MultiPolygon", "coordinates": [[[[4.45937, 52.07374], [4.468, 52.07071], [4.4661, 52.0675], [4.46748, 52.06713], [4.46628, 52.06497], [4.4649, 52.06388], [4.45891, 52.06416], [4.44706, 52.06926], [4.44325, 52.07291], [4.4555, 52.07833], [4.45937, 52.07374]]]]}}, {"type": "Feature", "properties": {"code": "BU06370203", "name": "Centrum-Oost"}, "geometry": {"type": "MultiPolygon", "coordinates": [[[[4.49911, 52.06196], [4.49879, 52.06142], [4.49447, 52.06032], [4.49163, 52.06072], [4.49131, 52.06352], [4.49437, 52.06429], [4.49911, 52.06196]]]]}}, {"type": "Feature", "properties": {"code": "BU06370602", "name": "Rodenbuurt-West"}, "geometry": {"type": "MultiPolygon", "coordinates": [[[[4.47048, 52.07047], [4.47189, 52.06829], [4.47104, 52.06842], [4.46967, 52.06584], [4.47187, 52.06426], [4.47133, 52.06329], [4.46628, 52.06497], [4.46748, 52.06713], [4.4661, 52.0675], [4.468, 52.07071], [4.47048, 52.07047]]]]}}, {"type": "Feature", "properties": {"code": "BU06370105", "name": "Dichtersbuurt"}, "geometry": {"type": "MultiPolygon", "coordinates": [[[[4.49689, 52.05199], [4.49281, 52.0483], [4.49205, 52.04784], [4.48968, 52.05018], [4.49402, 52.05374], [4.49689, 52.05199]]]]}}, {"type": "Feature", "properties": {"code": "BU06370611", "name": "Rodenbuurt-Zuid"}, "geometry": {"type": "MultiPolygon", "coordinates": [[[[4.47189, 52.06829], [4.47375, 52.0679], [4.47257, 52.06487], [4.47187, 52.06426], [4.46967, 52.06584], [4.47104, 52.06842], [4.47189, 52.06829]]]]}}, {"type": "Feature", "properties": {"code": "BU06370106", "name": "Delftsewallenbuurt"}, "geometry": {"type": "MultiPolygon", "coordinates": [[[[4.49285, 52.05447], [4.49402, 52.05374], [4.48968, 52.05018], [4.49205, 52.04784], [4.49158, 52.04733], [4.47952, 52.04806], [4.47956, 52.04832], [4.48366, 52.04859], [4.48734, 52.05104], [4.49244, 52.0547], [4.49285, 52.05447]]]]}}, {"type": "Feature", "properties": {"code": "BU06371409", "name": "Noordhovenseplas"}, "geometry": {"type": "MultiPolygon", "coordinates": [[[[4.51013, 52.09003], [4.51313, 52.08845], [4.51427, 52.08859], [4.53055, 52.08051], [4.5301, 52.08008], [4.53032, 52.07997], [4.52967, 52.07957], [4.52518, 52.08051], [4.51016, 52.07915], [4.51679, 52.08019], [4.51774, 52.08126], [4.51749, 52.08329], [4.51391, 52.08718], [4.50655, 52.09027], [4.50553, 52.09243], [4.51013, 52.09003]]]]}}, {"type": "Feature", "properties": {"code": "BU06370502", "name": "Bossenbuurt hoog-Noord"}, "geometry": {"type": "MultiPolygon", "coordinates": [[[[4.47565, 52.06094], [4.47473, 52.05949], [4.4706, 52.05893], [4.4705, 52.06025], [4.47055, 52.06136], [4.47565, 52.06094]]]]}}, {"type": "Feature", "properties": {"code": "BU06370810", "name": "Vaartenbuurt-West"}, "geometry": {"type": "MultiPolygon", "coordinates": [[[[4.50434, 52.0697], [4.50296, 52.06487], [4.50347, 52.06385], [4.5045, 52.06364], [4.50353, 52.06254], [4.50057, 52.06428], [4.49933, 52.06476], [4.49956, 52.06521], [4.5005, 52.06688], [4.50303, 52.06996], [4.50434, 52.0697]]]]}}, {"type": "Feature", "properties": {"code": "BU06370812", "name": "Seghwaert-Centrum-Noord"}, "geometry": {"type": "MultiPolygon", "coordinates": [[[[4.51037, 52.06894], [4.51038, 52.06844], [4.5088, 52.06855], [4.50842, 52.06914], [4.50903, 52.06981], [4.51037, 52.06894]]]]}}, {"type": "Feature", "properties": {"code": "BU06371118", "name": "Zuid-Hollandbuurt-Zuidoost"}, "geometry": {"type": "MultiPolygon", "coordinates": [[[[4.53693, 52.06416], [4.54089, 52.06228], [4.53804, 52.05996], [4.53574, 52.05811], [4.53218, 52.0598], [4.52927, 52.06107], [4.52949, 52.06125], [4.53455, 52.0653], [4.53693, 52.06416]]]]}}, {"type": "Feature", "properties": {"code": "BU06370511", "name": "Bergenbuurt-Noord"}, "geometry": {"type": "MultiPolygon", "coordinates": [[[[4.46444, 52.06112], [4.46492, 52.06055], [4.46389, 52.05727], [4.45668, 52.05735], [4.45583, 52.05725], [4.45826, 52.06194], [4.46444, 52.06112]]]]}}, {"type": "Feature", "properties": {"code": "BU06370708", "name": "Schouwenbuurt-Noord"}, "geometry": {"type": "MultiPolygon", "coordinates": [[[[4.49591, 52.06718], [4.5005, 52.06688], [4.49956, 52.06521], [4.49064, 52.06546], [4.49211, 52.06814], [4.49591, 52.06718]]]]}}, {"type": "Feature", "properties": {"code": "BU06370908", "name": "Lijnenbuurt"}, "geometry": {"type": "MultiPolygon", "coordinates": [[[[4.51349, 52.07843], [4.51357, 52.07725], [4.52055, 52.07746], [4.52069, 52.07581], [4.51835, 52.07515], [4.51214, 52.076], [4.50834, 52.07755], [4.50882, 52.07818], [4.51349, 52.07843]]]]}}, {"type": "Feature", "properties": {"code": "BU06371001", "name": "Bruinen- en Grijzenbuurt"}, "geometry": {"type": "MultiPolygon", "coordinates": [[[[4.49745, 52.0459], [4.50262, 52.04171], [4.50109, 52.0406], [4.4982, 52.04205], [4.49503, 52.04364], [4.49161, 52.04504], [4.49007, 52.04582], [4.49076, 52.04644], [4.49745, 52.0459]]]]}}, {"type": "Feature", "properties": {"code": "BU06371119", "name": "Oosterheem-Centrum"}, "geometry": {"type": "MultiPolygon", "coordinates": [[[[4.54254, 52.06069], [4.54247, 52.05779], [4.53804, 52.05996], [4.54089, 52.06228], [4.54254, 52.06069]]]]}}, {"type": "Feature", "properties": {"code": "BU06371014", "name": "Stationsbuurt-Zuid"}, "geometry": {"type": "MultiPolygon", "coordinates": [[[[4.47838, 52.0474], [4.47782, 52.04549], [4.47333, 52.04343], [4.47191, 52.04311], [4.46906, 52.04704], [4.46695, 52.04669], [4.4666, 52.04826], [4.47838, 52.0474]]]]}}, {"type": "Feature", "properties": {"code": "BU06370606", "name": "Hovenbuurt-Noord"}, "geometry": {"type": "MultiPolygon", "coordinates": [[[[4.48494, 52.06874], [4.48296, 52.06636], [4.48089, 52.06632], [4.47948, 52.06699], [4.48298, 52.07014], [4.48494, 52.06874]]]]}}, {"type": "Feature", "properties": {"code": "BU06370301", "name": "Palenstein-Noord"}, "geometry": {"type": "MultiPolygon", "coordinates": [[[[4.50353, 52.06254], [4.50857, 52.05977], [4.50507, 52.05968], [4.49879, 52.06142], [4.49911, 52.06196], [4.50057, 52.06428], [4.50353, 52.06254]]]]}}, {"type": "Feature", "properties": {"code": "BU06370504", "name": "Bossenbuurt hoog-Oost"}, "geometry": {"type": "MultiPolygon", "coordinates": [[[[4.48083, 52.06007], [4.47948, 52.05831], [4.47743, 52.05717], [4.4773, 52.05571], [4.47641, 52.05528], [4.4746, 52.05645], [4.47473, 52.05949], [4.4774, 52.05931], [4.47908, 52.06036], [4.48083, 52.06007]]]]}}, {"type": "Feature", "properties": {"code": "BU06371102", "name": "Zegwaartseweg-Noord"}, "geometry": {"type": "MultiPolygon", "coordinates": [[[[4.53534, 52.07229], [4.52969, 52.06759], [4.52618, 52.06484], [4.52536, 52.06595], [4.53369, 52.07305], [4.53534, 52.07229]]]]}}, {"type": "Feature", "properties": {"code": "BU06370610", "name": "Hovenbuurt-Zuidwest"}, "geometry": {"type": "MultiPolygon", "coordinates": [[[[4.47817, 52.06475], [4.47703, 52.06237], [4.47133, 52.06329], [4.47187, 52.06426], [4.47257, 52.06487], [4.47736, 52.06641], [4.47817, 52.06475]]]]}}, {"type": "Feature", "properties": {"code": "BU06370803", "name": "Weidebuurt-Zuid"}, "geometry": {"type": "MultiPolygon", "coordinates": [[[[4.51387, 52.07327], [4.51645, 52.07188], [4.51613, 52.06959], [4.51304, 52.0699], [4.51304, 52.07113], [4.50869, 52.07157], [4.50989, 52.07318], [4.51387, 52.07327]]]]}}, {"type": "Feature", "properties": {"code": "BU06370907", "name": "Lommerbuurt"}, "geometry": {"type": "MultiPolygon", "coordinates": [[[[4.51835, 52.07515], [4.52077, 52.0748], [4.51881, 52.07277], [4.5205, 52.07182], [4.52008, 52.07153], [4.51214, 52.076], [4.51835, 52.07515]]]]}}, {"type": "Feature", "properties": {"code": "BU06370906", "name": "Ruimtenbuurt"}, "geometry": {"type": "MultiPolygon", "coordinates": [[[[4.52475, 52.07296], [4.52171, 52.07266], [4.5205, 52.07182], [4.51881, 52.07277], [4.52077, 52.0748], [4.52069, 52.07581], [4.52055, 52.07746], [4.52267, 52.07871], [4.52528, 52.07879], [4.52475, 52.07296]]]]}}, {"type": "Feature", "properties": {"code": "BU06370905", "name": "Appelbuurt"}, "geometry": {"type": "MultiPolygon", "coordinates": [[[[4.52432, 52.07122], [4.52553, 52.07146], [4.52457, 52.06937], [4.52279, 52.06902], [4.51976, 52.07076], [4.52008, 52.07153], [4.5205, 52.07182], [4.52171, 52.07266], [4.52432, 52.07122]]]]}}, {"type": "Feature", "properties": {"code": "BU06371108", "name": "Stromenbuurt-Noord"}, "geometry": {"type": "MultiPolygon", "coordinates": [[[[4.55586, 52.06186], [4.5548, 52.06152], [4.55178, 52.06212], [4.55203, 52.06276], [4.54541, 52.0659], [4.54677, 52.06699], [4.55321, 52.06383], [4.55277, 52.06331], [4.55586, 52.06186]]]]}}, {"type": "Feature", "properties": {"code": "BU06370909", "name": "Noordhove-Centrum"}, "geometry": {"type": "MultiPolygon", "coordinates": [[[[4.52077, 52.0748], [4.51835, 52.07515], [4.52069, 52.07581], [4.52077, 52.0748]]]]}}, {"type": "Feature", "properties": {"code": "BU06371204", "name": "Oost 2"}, "geometry": {"type": "MultiPolygon", "coordinates": [[[[4.48126, 52.0548], [4.48105, 52.05366], [4.47991, 52.05183], [4.47755, 52.05228], [4.47904, 52.05538], [4.48126, 52.0548]]]]}}]}