{"type": "FeatureCollection", "features": [{"type": "Feature", "properties": {"code": "WK063701", "name": "Dorp"}, "geometry": {"type": "MultiPolygon", "coordinates": [[[[4.50852, 52.05147], [4.51374, 52.04861], [4.51311, 52.04812], [4.5089, 52.05029], [4.50473, 52.04844], [4.50228, 52.04652], [4.4955, 52.04963], [4.49281, 52.0483], [4.49205, 52.04784], [4.49158, 52.04733], [4.47952, 52.04806], [4.47956, 52.04832], [4.48366, 52.04859], [4.48734, 52.05104], [4.49244, 52.0547], [4.49156, 52.05768], [4.49549, 52.05858], [4.4978, 52.05979], [4.49933, 52.05684], [4.50389, 52.05433], [4.50321, 52.05331], [4.50852, 52.05147]]]]}}, {"type": "Feature", "properties": {"code": "WK063702", "name": "Stadscentrum"}, "geometry": {"type": "MultiPolygon", "coordinates": [[[[4.49549, 52.05858], [4.49156, 52.05768], [4.48731, 52.05982], [4.4851, 52.06035], [4.48173, 52.06094], [4.48588, 52.0622], [4.49036, 52.06328], [4.49131, 52.06352], [4.49437, 52.06429], [4.49933, 52.06476], [4.50057, 52.06428], [4.49911, 52.06196], [4.49879, 52.06142], [4.4978, 52.05979], [4.49549, 52.05858]]]]}}, {"type": "Feature", "properties": {"code": "WK063703", "name": "Palenstein"}, "geometry": {"type": "MultiPolygon", "coordinates": [[[[4.51469, 52.05676], [4.52052, 52.05389], [4.51811, 52.05201], [4.5117, 52.05419], [4.50852, 52.05147], [4.50321, 52.05331], [4.50389, 52.05433], [4.49933, 52.05684], [4.4978, 52.05979], [4.49879, 52.06142], [4.49911, 52.06196], [4.50057, 52.06428], [4.50353, 52.06254], [4.50857, 52.05977], [4.51229, 52.05793], [4.51469, 52.05676]]]]}}, {"type": "Feature", "properties": {"code": "WK063704", "name": "Driemanspolder"}, "geometry": {"type": "MultiPolygon", "coordinates": [[[[4.48366, 52.04859], [4.47956, 52.04832], [4.47868, 52.04986], [4.47991, 52.05183], [4.48105, 52.05366], [4.48126, 52.0548], [4.48246, 52.05759], [4.48127, 52.06], [4.48173, 52.06094], [4.4851, 52.06035], [4.48731, 52.05982], [4.49156, 52.05768], [4.49244, 52.0547], [4.48734, 52.05104], [4.48366, 52.04859]]]]}}, {"type": "Feature", "properties": {"code": "WK063705", "name": "Meerzicht"}, "geometry": {"type": "MultiPolygon", "coordinates": [[[[4.48173, 52.06094], [4.48127, 52.06], [4.48083, 52.06007], [4.47948, 52.05831], [4.47743, 52.05717], [4.4773, 52.05571], [4.47641, 52.05528], [4.47571, 52.05488], [4.47585, 52.05259], [4.47459, 52.04965], [4.47072, 52.04904], [4.47068, 52.04891], [4.46039, 52.04962], [4.45923, 52.05131], [4.45714, 52.05193], [4.45617, 52.05321], [4.45455, 52.05402], [4.45668, 52.05735], [4.45583, 52.05725], [4.45826, 52.06194], [4.45304, 52.06276], [4.45891, 52.06416], [4.4649, 52.06388], [4.48173, 52.06094]]]]}}, {"type": "Feature", "properties": {"code": "WK063706", "name": "Buytenwegh"}, "geometry": {"type": "MultiPolygon", "coordinates": [[[[4.48112, 52.07097], [4.48298, 52.07014], [4.48494, 52.06874], [4.49029, 52.06543], [4.48971, 52.06428], [4.49036, 52.06328], [4.48588, 52.0622], [4.48173, 52.06094], [4.4649, 52.06388], [4.46628, 52.06497], [4.46748, 52.06713], [4.4661, 52.0675], [4.468, 52.07071], [4.47048, 52.07047], [4.47593, 52.07101], [4.47964, 52.0717], [4.48112, 52.07097]]]]}}, {"type": "Feature", "properties": {"code": "WK063707", "name": "De Leyens"}, "geometry": {"type": "MultiPolygon", "coordinates": [[[[4.49131, 52.06352], [4.49036, 52.06328], [4.48971, 52.06428], [4.49029, 52.06543], [4.48494, 52.06874], [4.48298, 52.07014], [4.48112, 52.07097], [4.47964, 52.0717], [4.48816, 52.07404], [4.49201, 52.07496], [4.49661, 52.07856], [4.4985, 52.0791], [4.49967, 52.07942], [4.502, 52.08077], [4.50971, 52.08045], [4.51016, 52.07915], [4.50859, 52.07851], [4.50587, 52.07483], [4.50545, 52.07406], [4.50303, 52.06996], [4.5005, 52.06688], [4.49956, 52.06521], [4.49933, 52.06476], [4.49437, 52.06429], [4.49131, 52.06352]]]]}}, {"type": "Feature", "properties": {"code": "WK063708", "name": "Seghwaert"}, "geometry": {"type": "MultiPolygon", "coordinates": [[[[4.51937, 52.06077], [4.51469, 52.05676], [4.51229, 52.05793], [4.50857, 52.05977], [4.50353, 52.06254], [4.50057, 52.06428], [4.49933, 52.06476], [4.49956, 52.06521], [4.5005, 52.06688], [4.50303, 52.06996], [4.50545, 52.07406], [4.50587, 52.07483], [4.50859, 52.07851], [4.50882, 52.07818], [4.50834, 52.07755], [4.51214, 52.076], [4.52008, 52.07153], [4.51976, 52.07076], [4.52279, 52.06902], [4.52349, 52.06779], [4.52536, 52.06595], [4.51937, 52.06077]]]]}}, {"type": "Feature", "properties": {"code": "WK063709", "name": "Noordhove"}, "geometry": {"type": "MultiPolygon", "coordinates": [[[[4.5304, 52.07566], [4.5285, 52.07212], [4.53013, 52.07218], [4.53404, 52.07539], [4.5339, 52.07522], [4.53517, 52.07446], [4.53369, 52.07305], [4.52536, 52.06595], [4.52349, 52.06779], [4.52279, 52.06902], [4.51976, 52.07076], [4.52008, 52.07153], [4.51214, 52.076], [4.50834, 52.07755], [4.50882, 52.07818], [4.50859, 52.07851], [4.51016, 52.07915], [4.52518, 52.08051], [4.52967, 52.07957], [4.52962, 52.07639], [4.5304, 52.07566]]]]}}, {"type": "Feature", "properties": {"code": "WK063710", "name": "Rokkeveen"}, "geometry": {"type": "MultiPolygon", "coordinates": [[[[4.50262, 52.04171], [4.50463, 52.04065], [4.49467, 52.03347], [4.48799, 52.03228], [4.48801, 52.03186], [4.47738, 52.03179], [4.47768, 52.03139], [4.47703, 52.03128], [4.47671, 52.03164], [4.47599, 52.03278], [4.4728, 52.03802], [4.47253, 52.03797], [4.47237, 52.03828], [4.47196, 52.03903], [4.47162, 52.039], [4.47074, 52.04048], [4.45893, 52.03885], [4.45764, 52.03862], [4.45699, 52.03967], [4.46422, 52.04134], [4.45906, 52.04385], [4.46022, 52.04872], [4.4666, 52.04826], [4.47838, 52.0474], [4.48459, 52.04695], [4.49076, 52.04644], [4.49745, 52.0459], [4.50262, 52.04171]]]]}}, {"type": "Feature", "properties": {"code": "WK063711", "name": "Oosterheem"}, "geometry": {"type": "MultiPolygon", "coordinates": [[[[4.54272, 52.05122], [4.54022, 52.05052], [4.53506, 52.05138], [4.52925, 52.05288], [4.5259, 52.05447], [4.523, 52.05585], [4.52927, 52.06107], [4.52949, 52.06125], [4.5285, 52.06169], [4.5301, 52.06301], [4.52618, 52.06484], [4.52536, 52.06595], [4.53369, 52.07305], [4.53534, 52.07229], [4.53949, 52.07031], [4.54273, 52.06889], [4.54677, 52.06699], [4.55321, 52.06383], [4.55277, 52.06331], [4.55586, 52.06186], [4.5548, 52.06152], [4.55029, 52.05632], [4.54819, 52.05529], [4.54272, 52.05122]]]]}}, {"type": "Feature", "properties": {"code": "WK063712", "name": "Ontwikkelwijk"}, "geometry": {"type": "MultiPolygon", "coordinates": [[[[4.47956, 52.04832], [4.47952, 52.04806], [4.47068, 52.04891], [4.47072, 52.04904], [4.47459, 52.04965], [4.47585, 52.05259], [4.47571, 52.05488], [4.47641, 52.05528], [4.4773, 52.05571], [4.47743, 52.05717], [4.47948, 52.05831], [4.48083, 52.06007], [4.48127, 52.06], [4.48246, 52.05759], [4.48126, 52.0548], [4.48105, 52.05366], [4.47991, 52.05183], [4.47868, 52.04986], [4.47956, 52.04832]]]]}}, {"type": "Feature", "properties": {"code": "WK063713", "name": "bedrijventerreinen"}, "geometry": {"type": "MultiPolygon", "coordinates": [[[[4.48801, 52.03186], [4.48799, 52.03228], [4.49467, 52.03347], [4.50463, 52.04065], [4.50262, 52.04171], [4.49745, 52.0459], [4.50803, 52.04359], [4.51828, 52.04099], [4.51207, 52.03683], [4.50706, 52.03283], [4.50471, 52.03193], [4.48801, 52.03186]]], [[[4.51925, 52.04153], [4.50951, 52.04521], [4.50188, 52.04608], [4.49158, 52.04733], [4.49205, 52.04784], [4.49281, 52.0483], [4.4955, 52.04963], [4.50228, 52.04652], [4.50473, 52.04844], [4.5089, 52.05029], [4.51311, 52.04812], [4.52258, 52.04339], [4.51925, 52.04153]]], [[[4.50852, 52.05147], [4.5117, 52.05419], [4.51811, 52.05201], [4.51374, 52.04861], [4.50852, 52.05147]]], [[[4.54272, 52.05122], [4.54819, 52.05529], [4.55029, 52.05632], [4.5548, 52.06152], [4.55586, 52.06186], [4.55718, 52.06124], [4.55053, 52.0563], [4.54934, 52.05474], [4.54755, 52.05037], [4.54508, 52.04886], [4.53511, 52.04961], [4.52657, 52.05119], [4.52052, 52.05389], [4.51469, 52.05676], [4.51937, 52.06077], [4.52536, 52.06595], [4.52618, 52.06484], [4.5301, 52.06301], [4.5285, 52.06169], [4.52949, 52.06125], [4.52927, 52.06107], [4.523, 52.05585], [4.5259, 52.05447], [4.52925, 52.05288], [4.53506, 52.05138], [4.54022, 52.05052], [4.54272, 52.05122]]]]}}, {"type": "Feature", "properties": {"code": "WK063714", "name": "buitengebied"}, "geometry": {"type": "MultiPolygon", "coordinates": [[[[4.45644, 52.03954], [4.45056, 52.04921], [4.46022, 52.04872], [4.45906, 52.04385], [4.46422, 52.04134], [4.45699, 52.03967], [4.45644, 52.03954]]], [[[4.51311, 52.04812], [4.51374, 52.04861], [4.51811, 52.05201], [4.52052, 52.05389], [4.52657, 52.05119], [4.53511, 52.04961], [4.52258, 52.04339], [4.51311, 52.04812]]], [[[4.51427, 52.08859], [4.53055, 52.08051], [4.5301, 52.08008], [4.53032, 52.07997], [4.53602, 52.07691], [4.53418, 52.07556], [4.53404, 52.07539], [4.53013, 52.07218], [4.5285, 52.07212], [4.5304, 52.07566], [4.52962, 52.07639], [4.52967, 52.07957], [4.52518, 52.08051], [4.51016, 52.07915], [4.50971, 52.08045], [4.502, 52.08077], [4.49967, 52.07942], [4.4985, 52.0791], [4.49661, 52.07856], [4.49201, 52.07496], [4.48816, 52.07404], [4.47964, 52.0717], [4.47593, 52.07101], [4.47048, 52.07047], [4.468, 52.07071], [4.4661, 52.0675], [4.46748, 52.06713], [4.46628, 52.06497], [4.4649, 52.06388], [4.45891, 52.06416], [4.45304, 52.06276], [4.45826, 52.06194], [4.45583, 52.05725], [4.45668, 52.05735], [4.45455, 52.05402], [4.45617, 52.05321], [4.45714, 52.05193], [4.45923, 52.05131], [4.46039, 52.04962], [4.43921, 52.05161], [4.42139, 52.05221], [4.41523, 52.05701], [4.41539, 52.05744], [4.42243, 52.05733], [4.42042, 52.0621], [4.42083, 52.06258], [4.42168, 52.06289], [4.4214, 52.0633], [4.43763, 52.0704], [4.44325, 52.07291], [4.4555, 52.07833], [4.45678, 52.07868], [4.45675, 52.07882], [4.47566, 52.0813], [4.47427, 52.08526], [4.49302, 52.08775], [4.49222, 52.09001], [4.49781, 52.08784], [4.49937, 52.08846], [4.49891, 52.08943], [4.49997, 52.09166], [4.50445, 52.09329], [4.50553, 52.09243], [4.51013, 52.09003], [4.51313, 52.08845], [4.51427, 52.08859]]]]}}, {"type": "Feature", "properties": {"code": "WK063715", "name": "A12-ZONE"}, "geometry": {"type": "MultiPolygon", "coordinates": [[[[4.43921, 52.05161], [4.46039, 52.04962], [4.47068, 52.04891], [4.47952, 52.04806], [4.49158, 52.04733], [4.50188, 52.04608], [4.50951, 52.04521], [4.51925, 52.04153], [4.519, 52.04138], [4.51828, 52.04099], [4.50803, 52.04359], [4.49745, 52.0459], [4.49076, 52.04644], [4.48459, 52.04695], [4.47838, 52.0474], [4.4666, 52.04826], [4.46022, 52.04872], [4.45056, 52.04921], [4.43804, 52.05028], [4.43804, 52.05028], [4.42583, 52.05147], [4.42207, 52.05167], [4.42139, 52.05221], [4.43921, 52.05161]]]]}}]}