{"type": "FeatureCollection", "features": [{"type": "Feature", "properties": {"code": "WK077211", "name": "Centrum"}, "geometry": {"type": "MultiPolygon", "coordinates": [[[[5.4861, 51.43456], [5.48496, 51.43229], [5.48076, 51.4343], [5.47847, 51.43225], [5.47933, 51.43063], [5.47858, 51.42928], [5.47812, 51.43093], [5.47254, 51.43476], [5.47156, 51.43538], [5.46903, 51.43869], [5.47038, 51.44222], [5.4707, 51.44249], [5.47286, 51.44354], [5.47196, 51.4445], [5.47498, 51.44537], [5.47698, 51.4463], [5.48038, 51.44639], [5.48442, 51.45288], [5.49391, 51.45217], [5.49687, 51.45096], [5.50054, 51.44744], [5.50212, 51.44519], [5.50239, 51.44487], [5.50284, 51.44429], [5.48461, 51.44218], [5.48469, 51.4406], [5.48681, 51.4393], [5.48559, 51.43767], [5.48458, 51.43635], [5.4861, 51.43456]]]]}}, {"type": "Feature", "properties": {"code": "WK077221", "name": "Oud-Stratum"}, "geometry": {"type": "MultiPolygon", "coordinates": [[[[5.50405, 51.43491], [5.50286, 51.43133], [5.4994, 51.42751], [5.49537, 51.42543], [5.49279, 51.42417], [5.48552, 51.4239], [5.47925, 51.42445], [5.47719, 51.42463], [5.47552, 51.42584], [5.47549, 51.42692], [5.47858, 51.42928], [5.47933, 51.43063], [5.47847, 51.43225], [5.48076, 51.4343], [5.48496, 51.43229], [5.4861, 51.43456], [5.48458, 51.43635], [5.48559, 51.43767], [5.49034, 51.43688], [5.50405, 51.43491]]]]}}, {"type": "Feature", "properties": {"code": "WK077222", "name": "Kortonjo"}, "geometry": {"type": "MultiPolygon", "coordinates": [[[[5.47925, 51.42445], [5.48552, 51.4239], [5.49279, 51.42417], [5.4933, 51.42353], [5.49562, 51.42002], [5.49733, 51.41609], [5.49979, 51.4113], [5.50464, 51.40011], [5.50362, 51.40152], [5.49985, 51.40386], [5.49005, 51.40445], [5.48231, 51.40465], [5.48037, 51.40469], [5.48007, 51.40474], [5.4771, 51.40488], [5.4752, 51.40879], [5.47572, 51.4102], [5.47474, 51.4151], [5.47721, 51.41725], [5.4776, 51.41798], [5.48081, 51.41884], [5.48108, 51.42062], [5.48022, 51.42198], [5.47798, 51.42222], [5.47719, 51.42463], [5.47925, 51.42445]]]]}}, {"type": "Feature", "properties": {"code": "WK077223", "name": "Putten"}, "geometry": {"type": "MultiPolygon", "coordinates": [[[[5.53203, 51.43199], [5.53096, 51.42742], [5.53035, 51.4272], [5.52518, 51.4279], [5.5258, 51.40515], [5.52581, 51.4047], [5.50761, 51.40453], [5.50518, 51.40342], [5.50487, 51.40015], [5.50464, 51.40011], [5.49979, 51.4113], [5.49733, 51.41609], [5.49562, 51.42002], [5.4933, 51.42353], [5.49279, 51.42417], [5.49537, 51.42543], [5.4994, 51.42751], [5.50286, 51.43133], [5.50405, 51.43491], [5.51207, 51.43403], [5.51875, 51.43341], [5.53203, 51.43199]]]]}}, {"type": "Feature", "properties": {"code": "WK077231", "name": "De Laak"}, "geometry": {"type": "MultiPolygon", "coordinates": [[[[5.50494, 51.43821], [5.50405, 51.43491], [5.49034, 51.43688], [5.48559, 51.43767], [5.48681, 51.4393], [5.48469, 51.4406], [5.48461, 51.44218], [5.50284, 51.44429], [5.50408, 51.44163], [5.50494, 51.43821]]]]}}, {"type": "Feature", "properties": {"code": "WK077232", "name": "Doornakkers"}, "geometry": {"type": "MultiPolygon", "coordinates": [[[[5.52374, 51.43991], [5.53475, 51.43168], [5.53203, 51.43199], [5.51875, 51.43341], [5.51207, 51.43403], [5.50405, 51.43491], [5.50494, 51.43821], [5.50408, 51.44163], [5.50284, 51.44429], [5.50239, 51.44487], [5.51293, 51.44387], [5.51887, 51.4422], [5.52374, 51.43991]]]]}}, {"type": "Feature", "properties": {"code": "WK077233", "name": "Oud-Tongelre"}, "geometry": {"type": "MultiPolygon", "coordinates": [[[[5.51439, 51.46556], [5.51494, 51.46498], [5.51589, 51.46513], [5.51693, 51.46424], [5.51758, 51.46435], [5.51898, 51.46291], [5.51811, 51.46295], [5.51827, 51.46263], [5.52095, 51.46155], [5.52107, 51.46102], [5.52187, 51.46109], [5.52492, 51.45949], [5.52984, 51.4587], [5.531, 51.45725], [5.53253, 51.45721], [5.53169, 51.45562], [5.53159, 51.45554], [5.53447, 51.45157], [5.53883, 51.44944], [5.53908, 51.44845], [5.54015, 51.44797], [5.53852, 51.44561], [5.53941, 51.44457], [5.53851, 51.44354], [5.5414, 51.44104], [5.54132, 51.44046], [5.54071, 51.44051], [5.54126, 51.43972], [5.54266, 51.43924], [5.54263, 51.43998], [5.54392, 51.4396], [5.54356, 51.43871], [5.54438, 51.43721], [5.54589, 51.43658], [5.54678, 51.43367], [5.54025, 51.43133], [5.53476, 51.43169], [5.53475, 51.43168], [5.52374, 51.43991], [5.51887, 51.4422], [5.51293, 51.44387], [5.50239, 51.44487], [5.50212, 51.44519], [5.50054, 51.44744], [5.49687, 51.45096], [5.49391, 51.45217], [5.49568, 51.45353], [5.4983, 51.45766], [5.49837, 51.45859], [5.50184, 51.46114], [5.50941, 51.46445], [5.51439, 51.46556]]]]}}, {"type": "Feature", "properties": {"code": "WK077241", "name": "Oud-Woensel"}, "geometry": {"type": "MultiPolygon", "coordinates": [[[[5.4707, 51.44249], [5.47038, 51.44222], [5.46657, 51.44332], [5.46349, 51.44534], [5.45751, 51.44984], [5.46456, 51.4518], [5.47145, 51.45273], [5.47787, 51.45294], [5.48442, 51.45288], [5.48038, 51.44639], [5.47698, 51.4463], [5.47498, 51.44537], [5.47196, 51.4445], [5.47286, 51.44354], [5.4707, 51.44249]]]]}}, {"type": "Feature", "properties": {"code": "WK077242", "name": "Erp"}, "geometry": {"type": "MultiPolygon", "coordinates": [[[[5.44983, 51.46653], [5.45432, 51.46204], [5.45958, 51.46408], [5.46713, 51.46709], [5.46804, 51.46758], [5.4728, 51.46744], [5.47475, 51.46748], [5.47709, 51.45723], [5.47787, 51.45294], [5.47145, 51.45273], [5.46456, 51.4518], [5.45751, 51.44984], [5.44876, 51.45636], [5.43227, 51.46891], [5.43781, 51.47223], [5.44239, 51.474], [5.44983, 51.46653]]]]}}, {"type": "Feature", "properties": {"code": "WK077243", "name": "Begijnenbroek"}, "geometry": {"type": "MultiPolygon", "coordinates": [[[[5.4869, 51.46771], [5.49364, 51.46728], [5.5045, 51.46765], [5.51158, 51.4675], [5.51287, 51.4666], [5.51412, 51.46652], [5.51439, 51.46556], [5.50941, 51.46445], [5.50184, 51.46114], [5.49837, 51.45859], [5.4983, 51.45766], [5.49568, 51.45353], [5.49391, 51.45217], [5.48442, 51.45288], [5.47787, 51.45294], [5.47709, 51.45723], [5.47475, 51.46748], [5.47864, 51.46756], [5.4869, 51.46771]]]]}}, {"type": "Feature", "properties": {"code": "WK077251", "name": "Ontginning"}, "geometry": {"type": "MultiPolygon", "coordinates": [[[[5.45626, 51.47903], [5.46027, 51.47494], [5.46377, 51.47623], [5.47048, 51.47639], [5.47974, 51.47615], [5.48833, 51.47587], [5.4869, 51.46771], [5.47864, 51.46756], [5.47475, 51.46748], [5.4728, 51.46744], [5.46804, 51.46758], [5.46713, 51.46709], [5.45958, 51.46408], [5.45432, 51.46204], [5.44983, 51.46653], [5.44239, 51.474], [5.45626, 51.47903]]]]}}, {"type": "Feature", "properties": {"code": "WK077252", "name": "Achtse Molen"}, "geometry": {"type": "MultiPolygon", "coordinates": [[[[5.43781, 51.47223], [5.43227, 51.46891], [5.42059, 51.47772], [5.41236, 51.48404], [5.41171, 51.48465], [5.41191, 51.48468], [5.41799, 51.48624], [5.42715, 51.48961], [5.44217, 51.49384], [5.44257, 51.49393], [5.44978, 51.49525], [5.4513, 51.49546], [5.45287, 51.48707], [5.4538, 51.48464], [5.45457, 51.48258], [5.45626, 51.47903], [5.44239, 51.474], [5.43781, 51.47223]]]]}}, {"type": "Feature", "properties": {"code": "WK077253", "name": "Aanschot"}, "geometry": {"type": "MultiPolygon", "coordinates": [[[[5.47914, 51.49661], [5.48648, 51.48979], [5.48916, 51.4853], [5.48949, 51.48252], [5.48833, 51.47587], [5.47974, 51.47615], [5.47048, 51.47639], [5.46377, 51.47623], [5.46027, 51.47494], [5.45626, 51.47903], [5.45457, 51.48258], [5.4538, 51.48464], [5.45287, 51.48707], [5.4513, 51.49546], [5.46389, 51.49698], [5.46825, 51.49684], [5.46874, 51.49579], [5.47213, 51.49574], [5.47645, 51.49707], [5.47914, 51.49661]]]]}}, {"type": "Feature", "properties": {"code": "WK077254", "name": "Dommelbeemd"}, "geometry": {"type": "MultiPolygon", "coordinates": [[[[5.51246, 51.48956], [5.51057, 51.48735], [5.50841, 51.48768], [5.50815, 51.48542], [5.5066, 51.48376], [5.50552, 51.48356], [5.50602, 51.4823], [5.50956, 51.47924], [5.50794, 51.47857], [5.50875, 51.47706], [5.50835, 51.47555], [5.50809, 51.47446], [5.5081, 51.47117], [5.51011, 51.46987], [5.50904, 51.46943], [5.51158, 51.4675], [5.5045, 51.46765], [5.49364, 51.46728], [5.4869, 51.46771], [5.48833, 51.47587], [5.48949, 51.48252], [5.48916, 51.4853], [5.48648, 51.48979], [5.47914, 51.49661], [5.49621, 51.49678], [5.49638, 51.49678], [5.51142, 51.49692], [5.51332, 51.49625], [5.51339, 51.49548], [5.51555, 51.49334], [5.51249, 51.49103], [5.51246, 51.48956]]]]}}, {"type": "Feature", "properties": {"code": "WK077261", "name": "Oud-Strijp"}, "geometry": {"type": "MultiPolygon", "coordinates": [[[[5.47156, 51.43538], [5.46674, 51.43338], [5.46412, 51.43521], [5.45441, 51.4318], [5.4519, 51.43597], [5.45007, 51.43968], [5.44861, 51.4449], [5.44891, 51.44681], [5.45177, 51.44795], [5.45751, 51.44984], [5.46349, 51.44534], [5.46657, 51.44332], [5.47038, 51.44222], [5.46903, 51.43869], [5.47156, 51.43538]]]]}}, {"type": "Feature", "properties": {"code": "WK077262", "name": "Halve Maan"}, "geometry": {"type": "MultiPolygon", "coordinates": [[[[5.43919, 51.42576], [5.42791, 51.42217], [5.42633, 51.43041], [5.42716, 51.43089], [5.42592, 51.43664], [5.4264, 51.44002], [5.42717, 51.44798], [5.42571, 51.44954], [5.42238, 51.45127], [5.41312, 51.45605], [5.40882, 51.45983], [5.40906, 51.45993], [5.40659, 51.46402], [5.40362, 51.47836], [5.40567, 51.48207], [5.40828, 51.48327], [5.41236, 51.48404], [5.42059, 51.47772], [5.43227, 51.46891], [5.44876, 51.45636], [5.45751, 51.44984], [5.45177, 51.44795], [5.44891, 51.44681], [5.44861, 51.4449], [5.45007, 51.43968], [5.4519, 51.43597], [5.45441, 51.4318], [5.44971, 51.42991], [5.43919, 51.42576]]]]}}, {"type": "Feature", "properties": {"code": "WK077263", "name": "Meerhoven"}, "geometry": {"type": "MultiPolygon", "coordinates": [[[[5.39102, 51.48555], [5.39605, 51.4844], [5.40129, 51.48383], [5.40714, 51.48407], [5.41171, 51.48465], [5.41236, 51.48404], [5.40828, 51.48327], [5.40567, 51.48207], [5.40362, 51.47836], [5.40659, 51.46402], [5.40906, 51.45993], [5.40882, 51.45983], [5.41312, 51.45605], [5.42238, 51.45127], [5.42571, 51.44954], [5.42717, 51.44798], [5.4264, 51.44002], [5.42592, 51.43664], [5.42716, 51.43089], [5.42633, 51.43041], [5.42428, 51.43153], [5.41994, 51.43285], [5.41717, 51.43149], [5.41674, 51.43172], [5.41463, 51.43017], [5.41207, 51.43134], [5.4107, 51.43506], [5.409, 51.43446], [5.40744, 51.43601], [5.40492, 51.43713], [5.40079, 51.43297], [5.39765, 51.43364], [5.39634, 51.43392], [5.3938, 51.43458], [5.39114, 51.43652], [5.38922, 51.43764], [5.38737, 51.4378], [5.37969, 51.43509], [5.37913, 51.43661], [5.3732, 51.43761], [5.37125, 51.43891], [5.3678, 51.43837], [5.36682, 51.43745], [5.3669, 51.43621], [5.36223, 51.43546], [5.36225, 51.43606], [5.35692, 51.4382], [5.35774, 51.44023], [5.36083, 51.44312], [5.36123, 51.4471], [5.36064, 51.44985], [5.35672, 51.4536], [5.36149, 51.45736], [5.36351, 51.46026], [5.36717, 51.45943], [5.36945, 51.46532], [5.37915, 51.46384], [5.38468, 51.46766], [5.38754, 51.46821], [5.38711, 51.46927], [5.38957, 51.4706], [5.39068, 51.47064], [5.39082, 51.47133], [5.39119, 51.47176], [5.39052, 51.48515], [5.39104, 51.48504], [5.39102, 51.48555]]]]}}, {"type": "Feature", "properties": {"code": "WK077271", "name": "Rozenknopje"}, "geometry": {"type": "MultiPolygon", "coordinates": [[[[5.47254, 51.43476], [5.47812, 51.43093], [5.47858, 51.42928], [5.47549, 51.42692], [5.47552, 51.42584], [5.47719, 51.42463], [5.47233, 51.42526], [5.46411, 51.42749], [5.46056, 51.42864], [5.45441, 51.4318], [5.46412, 51.43521], [5.46674, 51.43338], [5.47156, 51.43538], [5.47254, 51.43476]]]]}}, {"type": "Feature", "properties": {"code": "WK077272", "name": "Oud-Gestel"}, "geometry": {"type": "MultiPolygon", "coordinates": [[[[5.47572, 51.4102], [5.4752, 51.40879], [5.4771, 51.40488], [5.46932, 51.40535], [5.46198, 51.40495], [5.4618, 51.40496], [5.45351, 51.40529], [5.43619, 51.40498], [5.43575, 51.40419], [5.43559, 51.40737], [5.43661, 51.41019], [5.43753, 51.41028], [5.44107, 51.41008], [5.44463, 51.41243], [5.44806, 51.41315], [5.44546, 51.42004], [5.44553, 51.42176], [5.45018, 51.42913], [5.44971, 51.42991], [5.45441, 51.4318], [5.46056, 51.42864], [5.46411, 51.42749], [5.47233, 51.42526], [5.47719, 51.42463], [5.47798, 51.42222], [5.48022, 51.42198], [5.48108, 51.42062], [5.48081, 51.41884], [5.4776, 51.41798], [5.47721, 51.41725], [5.47474, 51.4151], [5.47572, 51.4102]]]]}}, {"type": "Feature", "properties": {"code": "WK077273", "name": "Gestelse Ontginning"}, "geometry": {"type": "MultiPolygon", "coordinates": [[[[5.44463, 51.41243], [5.44107, 51.41008], [5.43753, 51.41028], [5.43661, 51.41019], [5.43559, 51.40737], [5.43575, 51.40419], [5.43535, 51.40336], [5.43119, 51.40206], [5.43096, 51.40264], [5.4299, 51.40281], [5.42728, 51.40265], [5.42538, 51.40442], [5.42865, 51.40521], [5.42985, 51.40618], [5.42942, 51.41156], [5.42737, 51.41701], [5.42781, 51.42186], [5.42791, 51.42217], [5.43919, 51.42576], [5.44971, 51.42991], [5.45018, 51.42913], [5.44553, 51.42176], [5.44546, 51.42004], [5.44806, 51.41315], [5.44463, 51.41243]]]]}}]}