{"type": "FeatureCollection", "features": [{"type": "Feature", "properties": {"code": "BU07580001", "name": "Valkenberg"}, "geometry": {"type": "MultiPolygon", "coordinates": [[[[4.78814, 51.59321], [4.78942, 51.59134], [4.78656, 51.5872], [4.78301, 51.5878], [4.77682, 51.59028], [4.77767, 51.59305], [4.78167, 51.59289], [4.78342, 51.59355], [4.78814, 51.59321]]]]}}, {"type": "Feature", "properties": {"code": "BU07580002", "name": "Chassé"}, "geometry": {"type": "MultiPolygon", "coordinates": [[[[4.78656, 51.5872], [4.78108, 51.58214], [4.77733, 51.58081], [4.7731, 51.58228], [4.77379, 51.58548], [4.78086, 51.58674], [4.78235, 51.58633], [4.78301, 51.5878], [4.78656, 51.5872]]]]}}, {"type": "Feature", "properties": {"code": "BU07580003", "name": "Fellenoord"}, "geometry": {"type": "MultiPolygon", "coordinates": [[[[4.77379, 51.58548], [4.7731, 51.58228], [4.7659, 51.58318], [4.76349, 51.58567], [4.76896, 51.58687], [4.77101, 51.58824], [4.77379, 51.58548]]]]}}, {"type": "Feature", "properties": {"code": "BU07580004", "name": "Schorsmolen"}, "geometry": {"type": "MultiPolygon", "coordinates": [[[[4.77101, 51.58824], [4.76896, 51.58687], [4.76349, 51.58567], [4.76315, 51.58778], [4.76412, 51.58952], [4.7713, 51.59264], [4.77101, 51.58824]]]]}}, {"type": "Feature", "properties": {"code": "BU07580005", "name": "Station"}, "geometry": {"type": "MultiPolygon", "coordinates": [[[[4.78814, 51.59321], [4.78342, 51.59355], [4.78167, 51.59289], [4.77767, 51.59305], [4.77152, 51.59284], [4.77101, 51.59406], [4.78425, 51.59538], [4.79127, 51.59571], [4.78814, 51.59321]]]]}}, {"type": "Feature", "properties": {"code": "BU07580006", "name": "City"}, "geometry": {"type": "MultiPolygon", "coordinates": [[[[4.78301, 51.5878], [4.78235, 51.58633], [4.78086, 51.58674], [4.77379, 51.58548], [4.77101, 51.58824], [4.7713, 51.59264], [4.77152, 51.59284], [4.77767, 51.59305], [4.77682, 51.59028], [4.78301, 51.5878]]]]}}, {"type": "Feature", "properties": {"code": "BU07580100", "name": "Belcrum"}, "geometry": {"type": "MultiPolygon", "coordinates": [[[[4.77881, 51.60137], [4.77963, 51.59917], [4.78399, 51.59621], [4.78425, 51.59538], [4.77101, 51.59406], [4.76991, 51.59576], [4.76919, 51.59762], [4.77424, 51.60177], [4.77881, 51.60137]]]]}}, {"type": "Feature", "properties": {"code": "BU07580101", "name": "Doornbos-Linie"}, "geometry": {"type": "MultiPolygon", "coordinates": [[[[4.7957, 51.60208], [4.81098, 51.60048], [4.81224, 51.60011], [4.81239, 51.59689], [4.79127, 51.59571], [4.78425, 51.59538], [4.78399, 51.59621], [4.77963, 51.59917], [4.77881, 51.60137], [4.78323, 51.60103], [4.79021, 51.6018], [4.7957, 51.60208]]]]}}, {"type": "Feature", "properties": {"code": "BU07580102", "name": "Biesdonk"}, "geometry": {"type": "MultiPolygon", "coordinates": [[[[4.78152, 51.60995], [4.78974, 51.6093], [4.79155, 51.60815], [4.79052, 51.60693], [4.79021, 51.6018], [4.78323, 51.60103], [4.77881, 51.60137], [4.77967, 51.60223], [4.77871, 51.60987], [4.77532, 51.61013], [4.77474, 51.61154], [4.78152, 51.60995]]]]}}, {"type": "Feature", "properties": {"code": "BU07580103", "name": "Geeren-zuid"}, "geometry": {"type": "MultiPolygon", "coordinates": [[[[4.80099, 51.60745], [4.80659, 51.60604], [4.80647, 51.60432], [4.80859, 51.60122], [4.81098, 51.60048], [4.7957, 51.60208], [4.79021, 51.6018], [4.79052, 51.60693], [4.79155, 51.60815], [4.80099, 51.60745]]]]}}, {"type": "Feature", "properties": {"code": "BU07580104", "name": "Wisselaar"}, "geometry": {"type": "MultiPolygon", "coordinates": [[[[4.78201, 51.61675], [4.79288, 51.61445], [4.78974, 51.6093], [4.78152, 51.60995], [4.77474, 51.61154], [4.7743, 51.61257], [4.77804, 51.61815], [4.78201, 51.61675]]]]}}, {"type": "Feature", "properties": {"code": "BU07580105", "name": "Krogten"}, "geometry": {"type": "MultiPolygon", "coordinates": [[[[4.78891, 51.63442], [4.78894, 51.63232], [4.78461, 51.63176], [4.78176, 51.62941], [4.7805, 51.62617], [4.77644, 51.62308], [4.77546, 51.61912], [4.77804, 51.61815], [4.7743, 51.61257], [4.77474, 51.61154], [4.77532, 51.61013], [4.77871, 51.60987], [4.77967, 51.60223], [4.77881, 51.60137], [4.77424, 51.60177], [4.76919, 51.59762], [4.76991, 51.59576], [4.76704, 51.59627], [4.76438, 51.59766], [4.76397, 51.60019], [4.75917, 51.60699], [4.75983, 51.61171], [4.76338, 51.61741], [4.7672, 51.6239], [4.76569, 51.62914], [4.76958, 51.62951], [4.78751, 51.63705], [4.78891, 51.63442]]]]}}, {"type": "Feature", "properties": {"code": "BU07580106", "name": "Geeren-noord"}, "geometry": {"type": "MultiPolygon", "coordinates": [[[[4.80323, 51.61222], [4.80099, 51.60745], [4.79155, 51.60815], [4.78974, 51.6093], [4.79288, 51.61445], [4.80323, 51.61222]]]]}}, {"type": "Feature", "properties": {"code": "BU07580107", "name": "Waterdonken"}, "geometry": {"type": "MultiPolygon", "coordinates": [[[[4.80703, 51.6115], [4.80659, 51.60604], [4.80099, 51.60745], [4.80323, 51.61222], [4.80703, 51.6115]]]]}}, {"type": "Feature", "properties": {"code": "BU07580200", "name": "Brabantpark"}, "geometry": {"type": "MultiPolygon", "coordinates": [[[[4.8186, 51.59364], [4.81321, 51.59416], [4.81136, 51.59333], [4.81198, 51.58276], [4.80888, 51.58189], [4.80402, 51.58156], [4.80205, 51.58414], [4.79945, 51.58561], [4.78656, 51.5872], [4.78942, 51.59134], [4.78814, 51.59321], [4.79127, 51.59571], [4.81239, 51.59689], [4.81916, 51.59725], [4.8186, 51.59364]]]]}}, {"type": "Feature", "properties": {"code": "BU07580201", "name": "Sportpark"}, "geometry": {"type": "MultiPolygon", "coordinates": [[[[4.79945, 51.58561], [4.80205, 51.58414], [4.80402, 51.58156], [4.80539, 51.57977], [4.79793, 51.57768], [4.79093, 51.57651], [4.78884, 51.57931], [4.785, 51.58022], [4.78108, 51.58214], [4.78656, 51.5872], [4.79945, 51.58561]]]]}}, {"type": "Feature", "properties": {"code": "BU07580202", "name": "Zandberg"}, "geometry": {"type": "MultiPolygon", "coordinates": [[[[4.785, 51.58022], [4.78884, 51.57931], [4.79093, 51.57651], [4.78363, 51.57363], [4.7785, 51.57203], [4.77597, 51.57278], [4.77733, 51.58081], [4.78108, 51.58214], [4.785, 51.58022]]]]}}, {"type": "Feature", "properties": {"code": "BU07580203", "name": "Heusdenhout"}, "geometry": {"type": "MultiPolygon", "coordinates": [[[[4.8186, 51.59364], [4.82923, 51.59268], [4.82487, 51.58643], [4.82365, 51.57966], [4.82037, 51.57952], [4.81853, 51.58146], [4.80796, 51.57968], [4.80607, 51.57932], [4.80539, 51.57977], [4.80402, 51.58156], [4.80888, 51.58189], [4.81198, 51.58276], [4.81136, 51.59333], [4.81321, 51.59416], [4.8186, 51.59364]]]]}}, {"type": "Feature", "properties": {"code": "BU07580204", "name": "Moleneind-oost"}, "geometry": {"type": "MultiPolygon", "coordinates": [[[[4.83407, 51.59741], [4.83472, 51.59735], [4.82923, 51.59268], [4.8186, 51.59364], [4.81916, 51.59725], [4.82256, 51.59742], [4.83407, 51.59741]]]]}}, {"type": "Feature", "properties": {"code": "BU07580205", "name": "Hoogeind"}, "geometry": {"type": "MultiPolygon", "coordinates": [[[[4.84137, 51.59626], [4.84202, 51.59603], [4.84262, 51.58583], [4.84573, 51.58345], [4.83863, 51.57854], [4.82925, 51.57814], [4.82365, 51.57966], [4.82487, 51.58643], [4.82923, 51.59268], [4.83472, 51.59735], [4.84137, 51.59626]]]]}}, {"type": "Feature", "properties": {"code": "BU07580300", "name": "Blauwe Kei"}, "geometry": {"type": "MultiPolygon", "coordinates": [[[[4.80607, 51.57932], [4.80687, 51.57831], [4.79806, 51.57246], [4.79531, 51.57135], [4.79568, 51.57105], [4.79263, 51.56966], [4.78898, 51.57274], [4.78543, 51.57284], [4.78363, 51.57363], [4.79093, 51.57651], [4.79793, 51.57768], [4.80539, 51.57977], [4.80607, 51.57932]]]]}}, {"type": "Feature", "properties": {"code": "BU07580301", "name": "Ypelaar"}, "geometry": {"type": "MultiPolygon", "coordinates": [[[[4.80748, 51.57891], [4.81652, 51.57436], [4.8164, 51.57341], [4.81604, 51.57149], [4.81165, 51.56759], [4.81183, 51.56596], [4.80534, 51.56602], [4.7989, 51.57125], [4.79568, 51.57105], [4.79531, 51.57135], [4.79806, 51.57246], [4.80687, 51.57831], [4.80607, 51.57932], [4.80796, 51.57968], [4.80748, 51.57891]]]]}}, {"type": "Feature", "properties": {"code": "BU07580302", "name": "Overakker"}, "geometry": {"type": "MultiPolygon", "coordinates": [[[[4.81183, 51.56596], [4.81155, 51.56493], [4.80954, 51.56453], [4.80793, 51.56308], [4.8079, 51.56002], [4.80538, 51.55735], [4.80097, 51.55739], [4.79761, 51.55735], [4.79406, 51.55557], [4.79291, 51.55689], [4.79266, 51.56322], [4.79386, 51.56719], [4.79263, 51.56966], [4.79568, 51.57105], [4.7989, 51.57125], [4.80534, 51.56602], [4.81183, 51.56596]]]]}}, {"type": "Feature", "properties": {"code": "BU07580303", "name": "Ginneken"}, "geometry": {"type": "MultiPolygon", "coordinates": [[[[4.78543, 51.57284], [4.78898, 51.57274], [4.79263, 51.56966], [4.79386, 51.56719], [4.79266, 51.56322], [4.79291, 51.55689], [4.79406, 51.55557], [4.79211, 51.55332], [4.78953, 51.5529], [4.78695, 51.55478], [4.78548, 51.55742], [4.78975, 51.56146], [4.78967, 51.56234], [4.78329, 51.56631], [4.77568, 51.56652], [4.77688, 51.5668], [4.77739, 51.56772], [4.7785, 51.57203], [4.78363, 51.57363], [4.78543, 51.57284]]]]}}, {"type": "Feature", "properties": {"code": "BU07580309", "name": "Mastbos"}, "geometry": {"type": "MultiPolygon", "coordinates": [[[[4.78329, 51.56631], [4.78967, 51.56234], [4.78975, 51.56146], [4.78548, 51.55742], [4.78695, 51.55478], [4.78953, 51.5529], [4.78732, 51.55094], [4.78793, 51.54809], [4.78704, 51.54616], [4.78435, 51.54456], [4.7814, 51.54437], [4.78014, 51.54338], [4.78197, 51.53588], [4.77805, 51.53283], [4.77726, 51.53076], [4.7781, 51.52945], [4.77785, 51.52939], [4.77006, 51.52736], [4.76931, 51.52538], [4.77029, 51.5244], [4.77002, 51.52364], [4.76863, 51.52513], [4.76755, 51.52511], [4.76447, 51.52405], [4.76018, 51.51931], [4.74893, 51.51896], [4.7506, 51.52424], [4.75251, 51.52644], [4.74634, 51.52758], [4.7427, 51.5312], [4.74046, 51.53771], [4.73926, 51.55043], [4.73556, 51.5593], [4.7388, 51.5634], [4.74419, 51.56481], [4.7458, 51.56254], [4.74746, 51.56321], [4.74964, 51.56089], [4.75113, 51.56135], [4.75132, 51.56291], [4.75318, 51.56444], [4.75425, 51.56456], [4.75579, 51.56346], [4.75465, 51.56198], [4.75547, 51.5609], [4.76013, 51.56322], [4.76501, 51.56425], [4.77175, 51.56431], [4.77568, 51.56652], [4.78329, 51.56631]]]]}}, {"type": "Feature", "properties": {"code": "BU07580400", "name": "Boeimeer"}, "geometry": {"type": "MultiPolygon", "coordinates": [[[[4.7731, 51.58228], [4.77733, 51.58081], [4.77597, 51.57278], [4.7785, 51.57203], [4.763, 51.57198], [4.75712, 51.57078], [4.75696, 51.57194], [4.7627, 51.5792], [4.76498, 51.58115], [4.7659, 51.58318], [4.7731, 51.58228]]]]}}, {"type": "Feature", "properties": {"code": "BU07580401", "name": "Ruitersbos"}, "geometry": {"type": "MultiPolygon", "coordinates": [[[[4.7785, 51.57203], [4.77739, 51.56772], [4.77688, 51.5668], [4.77568, 51.56652], [4.77175, 51.56431], [4.76501, 51.56425], [4.76013, 51.56322], [4.75547, 51.5609], [4.75465, 51.56198], [4.75579, 51.56346], [4.75425, 51.56456], [4.75318, 51.56444], [4.75132, 51.56291], [4.75113, 51.56135], [4.74964, 51.56089], [4.74746, 51.56321], [4.74797, 51.56342], [4.74614, 51.56592], [4.7434, 51.56524], [4.74342, 51.56704], [4.74482, 51.56744], [4.75712, 51.57078], [4.763, 51.57198], [4.7785, 51.57203]]]]}}, {"type": "Feature", "properties": {"code": "BU07580500", "name": "Haagpoort"}, "geometry": {"type": "MultiPolygon", "coordinates": [[[[4.7659, 51.58318], [4.76498, 51.58115], [4.7627, 51.5792], [4.75718, 51.57995], [4.757, 51.58144], [4.75973, 51.58388], [4.76349, 51.58567], [4.7659, 51.58318]]]]}}, {"type": "Feature", "properties": {"code": "BU07580501", "name": "Heuvel"}, "geometry": {"type": "MultiPolygon", "coordinates": [[[[4.75718, 51.57995], [4.7627, 51.5792], [4.75696, 51.57194], [4.75712, 51.57078], [4.74482, 51.56744], [4.74372, 51.57291], [4.75324, 51.57905], [4.757, 51.58144], [4.75718, 51.57995]]]]}}, {"type": "Feature", "properties": {"code": "BU07580502", "name": "Tuinzigt"}, "geometry": {"type": "MultiPolygon", "coordinates": [[[[4.77152, 51.59284], [4.7713, 51.59264], [4.76412, 51.58952], [4.76315, 51.58778], [4.76349, 51.58567], [4.75973, 51.58388], [4.757, 51.58144], [4.75324, 51.57905], [4.75133, 51.58054], [4.75055, 51.58337], [4.75018, 51.58889], [4.75111, 51.59256], [4.75679, 51.59219], [4.76346, 51.59245], [4.77101, 51.59406], [4.77152, 51.59284]]]]}}, {"type": "Feature", "properties": {"code": "BU07580503", "name": "Princenhage"}, "geometry": {"type": "MultiPolygon", "coordinates": [[[[4.75133, 51.58054], [4.75324, 51.57905], [4.74372, 51.57291], [4.74482, 51.56744], [4.74342, 51.56704], [4.7434, 51.56524], [4.74614, 51.56592], [4.74797, 51.56342], [4.74746, 51.56321], [4.7458, 51.56254], [4.74419, 51.56481], [4.7388, 51.5634], [4.73556, 51.5593], [4.72853, 51.57229], [4.7255, 51.5791], [4.73044, 51.57963], [4.74251, 51.58274], [4.75055, 51.58337], [4.75133, 51.58054]]]]}}, {"type": "Feature", "properties": {"code": "BU07580504", "name": "Westerpark"}, "geometry": {"type": "MultiPolygon", "coordinates": [[[[4.74825, 51.59274], [4.75111, 51.59256], [4.75018, 51.58889], [4.75055, 51.58337], [4.74251, 51.58274], [4.7424, 51.58687], [4.74022, 51.59037], [4.74169, 51.59271], [4.74825, 51.59274]]]]}}, {"type": "Feature", "properties": {"code": "BU07580505", "name": "Heilaar"}, "geometry": {"type": "MultiPolygon", "coordinates": [[[[4.74022, 51.59037], [4.7424, 51.58687], [4.74251, 51.58274], [4.73044, 51.57963], [4.7255, 51.5791], [4.72371, 51.58528], [4.72365, 51.59152], [4.74169, 51.59271], [4.74022, 51.59037]]]]}}, {"type": "Feature", "properties": {"code": "BU07580506", "name": "Hazeldonk"}, "geometry": {"type": "MultiPolygon", "coordinates": [[[[4.75879, 51.50095], [4.75836, 51.50016], [4.75538, 51.50036], [4.75526, 51.50054], [4.7527, 51.49981], [4.74894, 51.49668], [4.75, 51.49543], [4.7497, 51.49436], [4.74813, 51.49194], [4.74683, 51.4907], [4.74656, 51.4895], [4.734, 51.48555], [4.73565, 51.49175], [4.74216, 51.50563], [4.74348, 51.51091], [4.74398, 51.51876], [4.74323, 51.52539], [4.74113, 51.52631], [4.74012, 51.52786], [4.7418, 51.5311], [4.7427, 51.5312], [4.74634, 51.52758], [4.75251, 51.52644], [4.7506, 51.52424], [4.74893, 51.51896], [4.74699, 51.51548], [4.75095, 51.50911], [4.75347, 51.5058], [4.76002, 51.50237], [4.75879, 51.50095]]]]}}, {"type": "Feature", "properties": {"code": "BU07580507", "name": "Steenakker"}, "geometry": {"type": "MultiPolygon", "coordinates": [[[[4.73293, 51.60228], [4.74493, 51.5992], [4.75679, 51.59219], [4.75111, 51.59256], [4.74825, 51.59274], [4.7424, 51.59344], [4.73254, 51.59684], [4.72801, 51.59903], [4.72386, 51.60229], [4.73293, 51.60228]]]]}}, {"type": "Feature", "properties": {"code": "BU07580508", "name": "Effen-Rith"}, "geometry": {"type": "MultiPolygon", "coordinates": [[[[4.72503, 51.57204], [4.72853, 51.57229], [4.73556, 51.5593], [4.73926, 51.55043], [4.74046, 51.53771], [4.7427, 51.5312], [4.7418, 51.5311], [4.74146, 51.53286], [4.73973, 51.53211], [4.7388, 51.53227], [4.73562, 51.53369], [4.73203, 51.53634], [4.7302, 51.53642], [4.73001, 51.53519], [4.72886, 51.53484], [4.72817, 51.53366], [4.7255, 51.5331], [4.72508, 51.53292], [4.72249, 51.53516], [4.72842, 51.53688], [4.704, 51.5498], [4.69419, 51.54485], [4.69462, 51.55673], [4.69329, 51.56259], [4.70226, 51.56395], [4.71007, 51.56797], [4.7119, 51.56937], [4.7127, 51.57153], [4.72472, 51.57541], [4.72503, 51.57204]]]]}}, {"type": "Feature", "properties": {"code": "BU07580509", "name": "Liesbos"}, "geometry": {"type": "MultiPolygon", "coordinates": [[[[4.72371, 51.58528], [4.7255, 51.5791], [4.72853, 51.57229], [4.72503, 51.57204], [4.72472, 51.57541], [4.7127, 51.57153], [4.7119, 51.56937], [4.71007, 51.56797], [4.70226, 51.56395], [4.69329, 51.56259], [4.69372, 51.56795], [4.69086, 51.57412], [4.68605, 51.58757], [4.68601, 51.58771], [4.69424, 51.58945], [4.70308, 51.59009], [4.72365, 51.59152], [4.72371, 51.58528]]]]}}, {"type": "Feature", "properties": {"code": "BU07580600", "name": "Gageldonk"}, "geometry": {"type": "MultiPolygon", "coordinates": [[[[4.75006, 51.60825], [4.7499, 51.60624], [4.748, 51.6057], [4.74723, 51.60475], [4.74894, 51.60035], [4.74237, 51.6001], [4.73422, 51.60245], [4.73316, 51.60585], [4.7397, 51.60639], [4.73929, 51.60826], [4.74747, 51.61025], [4.75006, 51.60825]]]]}}, {"type": "Feature", "properties": {"code": "BU07580601", "name": "Kievitsloop"}, "geometry": {"type": "MultiPolygon", "coordinates": [[[[4.75141, 51.6189], [4.75191, 51.61565], [4.75438, 51.61341], [4.75462, 51.61149], [4.75222, 51.6073], [4.7499, 51.60624], [4.75006, 51.60825], [4.74747, 51.61025], [4.73929, 51.60826], [4.73906, 51.60918], [4.74596, 51.61895], [4.75141, 51.6189]]]]}}, {"type": "Feature", "properties": {"code": "BU07580602", "name": "Kesteren"}, "geometry": {"type": "MultiPolygon", "coordinates": [[[[4.7284, 51.61261], [4.7292, 51.6123], [4.72887, 51.60752], [4.7299, 51.60609], [4.73316, 51.60585], [4.73422, 51.60245], [4.72333, 51.60285], [4.71795, 51.61035], [4.7177, 51.61071], [4.72421, 51.61278], [4.7284, 51.61261]]]]}}, {"type": "Feature", "properties": {"code": "BU07580603", "name": "Muizenberg"}, "geometry": {"type": "MultiPolygon", "coordinates": [[[[4.72359, 51.61751], [4.72839, 51.61692], [4.73437, 51.62016], [4.73631, 51.61953], [4.73676, 51.61841], [4.73906, 51.61697], [4.7308, 51.61292], [4.72896, 51.61342], [4.7284, 51.61261], [4.72421, 51.61278], [4.7177, 51.61071], [4.71504, 51.61456], [4.71835, 51.61835], [4.72319, 51.6203], [4.72359, 51.61751]]]]}}, {"type": "Feature", "properties": {"code": "BU07580604", "name": "Heksenwiel"}, "geometry": {"type": "MultiPolygon", "coordinates": [[[[4.74713, 51.62784], [4.74856, 51.62602], [4.7514, 51.62467], [4.75605, 51.62527], [4.75719, 51.62589], [4.75726, 51.62742], [4.75908, 51.62784], [4.76194, 51.62425], [4.75005, 51.62166], [4.74916, 51.62236], [4.73906, 51.61697], [4.73676, 51.61841], [4.73631, 51.61953], [4.73437, 51.62016], [4.73452, 51.62053], [4.73945, 51.62396], [4.74349, 51.6252], [4.74139, 51.62899], [4.74713, 51.62784]]]]}}, {"type": "Feature", "properties": {"code": "BU07580605", "name": "Overkroeten"}, "geometry": {"type": "MultiPolygon", "coordinates": [[[[4.74016, 51.62871], [4.74139, 51.62899], [4.74349, 51.6252], [4.73945, 51.62396], [4.73452, 51.62053], [4.73002, 51.62276], [4.73388, 51.62596], [4.7345, 51.6257], [4.7354, 51.62628], [4.73361, 51.62737], [4.73689, 51.62929], [4.74016, 51.62871]]]]}}, {"type": "Feature", "properties": {"code": "BU07580606", "name": "Kroeten"}, "geometry": {"type": "MultiPolygon", "coordinates": [[[[4.73452, 51.62053], [4.73437, 51.62016], [4.72839, 51.61692], [4.72359, 51.61751], [4.72319, 51.6203], [4.73361, 51.62737], [4.7354, 51.62628], [4.7345, 51.6257], [4.73388, 51.62596], [4.73002, 51.62276], [4.73452, 51.62053]]]]}}, {"type": "Feature", "properties": {"code": "BU07580607", "name": "Emer"}, "geometry": {"type": "MultiPolygon", "coordinates": [[[[4.75983, 51.61879], [4.76338, 51.61741], [4.75983, 51.61171], [4.75917, 51.60699], [4.76397, 51.60019], [4.76438, 51.59766], [4.76704, 51.59627], [4.76991, 51.59576], [4.77101, 51.59406], [4.76346, 51.59245], [4.75679, 51.59219], [4.74493, 51.5992], [4.73293, 51.60228], [4.72386, 51.60229], [4.72333, 51.60285], [4.73422, 51.60245], [4.74237, 51.6001], [4.74894, 51.60035], [4.74723, 51.60475], [4.748, 51.6057], [4.7499, 51.60624], [4.75222, 51.6073], [4.75462, 51.61149], [4.75438, 51.61341], [4.75191, 51.61565], [4.75141, 51.6189], [4.75983, 51.61879]]]]}}, {"type": "Feature", "properties": {"code": "BU07580609", "name": "Hagebeemd"}, "geometry": {"type": "MultiPolygon", "coordinates": [[[[4.73854, 51.64281], [4.745, 51.64044], [4.74903, 51.63898], [4.75737, 51.63758], [4.76265, 51.63503], [4.76502, 51.63191], [4.76569, 51.62914], [4.7672, 51.6239], [4.76338, 51.61741], [4.75983, 51.61879], [4.75141, 51.6189], [4.74596, 51.61895], [4.73906, 51.60918], [4.73929, 51.60826], [4.7397, 51.60639], [4.73316, 51.60585], [4.7299, 51.60609], [4.72887, 51.60752], [4.7292, 51.6123], [4.7284, 51.61261], [4.72896, 51.61342], [4.7308, 51.61292], [4.73906, 51.61697], [4.74916, 51.62236], [4.75005, 51.62166], [4.76194, 51.62425], [4.75908, 51.62784], [4.75726, 51.62742], [4.75719, 51.62589], [4.75605, 51.62527], [4.7514, 51.62467], [4.74856, 51.62602], [4.74713, 51.62784], [4.74139, 51.62899], [4.74016, 51.62871], [4.73689, 51.62929], [4.73361, 51.62737], [4.72319, 51.6203], [4.71835, 51.61835], [4.71504, 51.61456], [4.69874, 51.63797], [4.69906, 51.63807], [4.70433, 51.63825], [4.73184, 51.64306], [4.73854, 51.64281]]]]}}, {"type": "Feature", "properties": {"code": "BU07580700", "name": "Bavel"}, "geometry": {"type": "MultiPolygon", "coordinates": [[[[4.83339, 51.57271], [4.83214, 51.57125], [4.83781, 51.56766], [4.8375, 51.56428], [4.83931, 51.55985], [4.83913, 51.55813], [4.83675, 51.55835], [4.83386, 51.55742], [4.82107, 51.5602], [4.82098, 51.56416], [4.82311, 51.57226], [4.82331, 51.57341], [4.82876, 51.57561], [4.83339, 51.57271]]]]}}, {"type": "Feature", "properties": {"code": "BU07580701", "name": "Nieuw Wolfslaar"}, "geometry": {"type": "MultiPolygon", "coordinates": [[[[4.82311, 51.57226], [4.82098, 51.56416], [4.82107, 51.5602], [4.81453, 51.55981], [4.81044, 51.55882], [4.8079, 51.56002], [4.80793, 51.56308], [4.80954, 51.56453], [4.81155, 51.56493], [4.81183, 51.56596], [4.81165, 51.56759], [4.81604, 51.57149], [4.8164, 51.57341], [4.82311, 51.57226]]]]}}, {"type": "Feature", "properties": {"code": "BU07580709", "name": "Buitengebied Bavel"}, "geometry": {"type": "MultiPolygon", "coordinates": [[[[4.8544, 51.57937], [4.86424, 51.57909], [4.86537, 51.57292], [4.87008, 51.57082], [4.87168, 51.56711], [4.8691, 51.56676], [4.86828, 51.55993], [4.86731, 51.55887], [4.86415, 51.5594], [4.86298, 51.55727], [4.8437, 51.55424], [4.83978, 51.55319], [4.8374, 51.54951], [4.8329, 51.54958], [4.83077, 51.55035], [4.82452, 51.54784], [4.81655, 51.55497], [4.81044, 51.55882], [4.81453, 51.55981], [4.82107, 51.5602], [4.83386, 51.55742], [4.83675, 51.55835], [4.83913, 51.55813], [4.83931, 51.55985], [4.8375, 51.56428], [4.83781, 51.56766], [4.83214, 51.57125], [4.83339, 51.57271], [4.82876, 51.57561], [4.82331, 51.57341], [4.82311, 51.57226], [4.8164, 51.57341], [4.81652, 51.57436], [4.80748, 51.57891], [4.80796, 51.57968], [4.81853, 51.58146], [4.82037, 51.57952], [4.82365, 51.57966], [4.82925, 51.57814], [4.83863, 51.57854], [4.84573, 51.58345], [4.8544, 51.57937]]]]}}, {"type": "Feature", "properties": {"code": "BU07580800", "name": "Ulvenhout"}, "geometry": {"type": "MultiPolygon", "coordinates": [[[[4.80794, 51.5489], [4.8116, 51.54943], [4.81247, 51.54533], [4.80847, 51.54355], [4.80005, 51.54187], [4.79605, 51.53917], [4.7936, 51.5407], [4.79234, 51.54319], [4.79192, 51.54908], [4.79309, 51.54913], [4.79211, 51.55332], [4.79406, 51.55557], [4.79761, 51.55735], [4.80097, 51.55739], [4.80794, 51.5489]]]]}}, {"type": "Feature", "properties": {"code": "BU07580809", "name": "Buitengebied Ulvenhout"}, "geometry": {"type": "MultiPolygon", "coordinates": [[[[4.81044, 51.55882], [4.81655, 51.55497], [4.82452, 51.54784], [4.79935, 51.53706], [4.80133, 51.53608], [4.79804, 51.53514], [4.79425, 51.5349], [4.7781, 51.52945], [4.77726, 51.53076], [4.77805, 51.53283], [4.78197, 51.53588], [4.78014, 51.54338], [4.7814, 51.54437], [4.78435, 51.54456], [4.78704, 51.54616], [4.78793, 51.54809], [4.78732, 51.55094], [4.78953, 51.5529], [4.79211, 51.55332], [4.79309, 51.54913], [4.79192, 51.54908], [4.79234, 51.54319], [4.7936, 51.5407], [4.79605, 51.53917], [4.80005, 51.54187], [4.80847, 51.54355], [4.81247, 51.54533], [4.8116, 51.54943], [4.80794, 51.5489], [4.80097, 51.55739], [4.80538, 51.55735], [4.8079, 51.56002], [4.81044, 51.55882]]]]}}, {"type": "Feature", "properties": {"code": "BU07580900", "name": "Prinsenbeek"}, "geometry": {"type": "MultiPolygon", "coordinates": [[[[4.72333, 51.60285], [4.72386, 51.60229], [4.72801, 51.59903], [4.73254, 51.59684], [4.7424, 51.59344], [4.74825, 51.59274], [4.74169, 51.59271], [4.72365, 51.59152], [4.70308, 51.59009], [4.70345, 51.59201], [4.70184, 51.59221], [4.70322, 51.59688], [4.70647, 51.59769], [4.69906, 51.60294], [4.69843, 51.60489], [4.70726, 51.60758], [4.70897, 51.60918], [4.71795, 51.61035], [4.72333, 51.60285]]]]}}, {"type": "Feature", "properties": {"code": "BU07580909", "name": "Buitengebied Prinsenbeek"}, "geometry": {"type": "MultiPolygon", "coordinates": [[[[4.69874, 51.63797], [4.71504, 51.61456], [4.7177, 51.61071], [4.71795, 51.61035], [4.70897, 51.60918], [4.70726, 51.60758], [4.69843, 51.60489], [4.69906, 51.60294], [4.70647, 51.59769], [4.70322, 51.59688], [4.70184, 51.59221], [4.70345, 51.59201], [4.70308, 51.59009], [4.69424, 51.58945], [4.68601, 51.58771], [4.68211, 51.59889], [4.67488, 51.60019], [4.67556, 51.60385], [4.66387, 51.60407], [4.66433, 51.60872], [4.66038, 51.6124], [4.65798, 51.62045], [4.66029, 51.62159], [4.66356, 51.62536], [4.66481, 51.62836], [4.66416, 51.63088], [4.66507, 51.63432], [4.67226, 51.63262], [4.67851, 51.63259], [4.68275, 51.63364], [4.69096, 51.63736], [4.69874, 51.63797]]]]}}, {"type": "Feature", "properties": {"code": "BU07581000", "name": "Teteringen"}, "geometry": {"type": "MultiPolygon", "coordinates": [[[[4.83055, 51.61976], [4.83153, 51.61777], [4.8352, 51.61714], [4.83467, 51.61576], [4.83263, 51.61477], [4.8303, 51.60896], [4.826, 51.60889], [4.83287, 51.60762], [4.83218, 51.60407], [4.82722, 51.59975], [4.82076, 51.59938], [4.82256, 51.59742], [4.81916, 51.59725], [4.81239, 51.59689], [4.81224, 51.60011], [4.81098, 51.60048], [4.80859, 51.60122], [4.80647, 51.60432], [4.80659, 51.60604], [4.80703, 51.6115], [4.81622, 51.61193], [4.81688, 51.61789], [4.81921, 51.62183], [4.83055, 51.61976]]]]}}, {"type": "Feature", "properties": {"code": "BU07581008", "name": "Vuchtpolder"}, "geometry": {"type": "MultiPolygon", "coordinates": [[[[4.80697, 51.63261], [4.81184, 51.63291], [4.81827, 51.63162], [4.82003, 51.63062], [4.8191, 51.62893], [4.81921, 51.62183], [4.81688, 51.61789], [4.81622, 51.61193], [4.80703, 51.6115], [4.80323, 51.61222], [4.79288, 51.61445], [4.78201, 51.61675], [4.77804, 51.61815], [4.77546, 51.61912], [4.77644, 51.62308], [4.7805, 51.62617], [4.78176, 51.62941], [4.78461, 51.63176], [4.78894, 51.63232], [4.78891, 51.63442], [4.80697, 51.63261]]]]}}, {"type": "Feature", "properties": {"code": "BU07581009", "name": "Buitengebied Teteringen"}, "geometry": {"type": "MultiPolygon", "coordinates": [[[[4.82804, 51.62458], [4.84268, 51.61699], [4.83908, 51.60893], [4.84355, 51.60388], [4.83989, 51.60246], [4.8398, 51.60168], [4.83407, 51.59741], [4.82256, 51.59742], [4.82076, 51.59938], [4.82722, 51.59975], [4.83218, 51.60407], [4.83287, 51.60762], [4.826, 51.60889], [4.8303, 51.60896], [4.83263, 51.61477], [4.83467, 51.61576], [4.8352, 51.61714], [4.83153, 51.61777], [4.83055, 51.61976], [4.81921, 51.62183], [4.8191, 51.62893], [4.82003, 51.63062], [4.82126, 51.62956], [4.82187, 51.62727], [4.82378, 51.6277], [4.82604, 51.62698], [4.82804, 51.62458]]]]}}]}