{"type": "FeatureCollection", "features": [{"type": "Feature", "properties": {"code": "WK075800", "name": "Breda centrum"}, "geometry": {"type": "MultiPolygon", "coordinates": [[[[4.78108, 51.58214], [4.77733, 51.58081], [4.7731, 51.58228], [4.7659, 51.58318], [4.76349, 51.58567], [4.76315, 51.58778], [4.76412, 51.58952], [4.7713, 51.59264], [4.77152, 51.59284], [4.77101, 51.59406], [4.78425, 51.59538], [4.79127, 51.59571], [4.78814, 51.59321], [4.78942, 51.59134], [4.78656, 51.5872], [4.78108, 51.58214]]]]}}, {"type": "Feature", "properties": {"code": "WK075801", "name": "Breda noord"}, "geometry": {"type": "MultiPolygon", "coordinates": [[[[4.78425, 51.59538], [4.77101, 51.59406], [4.76991, 51.59576], [4.76704, 51.59627], [4.76438, 51.59766], [4.76397, 51.60019], [4.75917, 51.60699], [4.75983, 51.61171], [4.76338, 51.61741], [4.7672, 51.6239], [4.76569, 51.62914], [4.76958, 51.62951], [4.78751, 51.63705], [4.78891, 51.63442], [4.78894, 51.63232], [4.78461, 51.63176], [4.78176, 51.62941], [4.7805, 51.62617], [4.77644, 51.62308], [4.77546, 51.61912], [4.77804, 51.61815], [4.78201, 51.61675], [4.79288, 51.61445], [4.80323, 51.61222], [4.80703, 51.6115], [4.80659, 51.60604], [4.80647, 51.60432], [4.80859, 51.60122], [4.81098, 51.60048], [4.81224, 51.60011], [4.81239, 51.59689], [4.79127, 51.59571], [4.78425, 51.59538]]]]}}, {"type": "Feature", "properties": {"code": "WK075802", "name": "Breda oost"}, "geometry": {"type": "MultiPolygon", "coordinates": [[[[4.84573, 51.58345], [4.83863, 51.57854], [4.82925, 51.57814], [4.82365, 51.57966], [4.82037, 51.57952], [4.81853, 51.58146], [4.80796, 51.57968], [4.80607, 51.57932], [4.80539, 51.57977], [4.79793, 51.57768], [4.79093, 51.57651], [4.78363, 51.57363], [4.7785, 51.57203], [4.77597, 51.57278], [4.77733, 51.58081], [4.78108, 51.58214], [4.78656, 51.5872], [4.78942, 51.59134], [4.78814, 51.59321], [4.79127, 51.59571], [4.81239, 51.59689], [4.81916, 51.59725], [4.82256, 51.59742], [4.83407, 51.59741], [4.83472, 51.59735], [4.84137, 51.59626], [4.84202, 51.59603], [4.84262, 51.58583], [4.84573, 51.58345]]]]}}, {"type": "Feature", "properties": {"code": "WK075803", "name": "Breda zuid-oost"}, "geometry": {"type": "MultiPolygon", "coordinates": [[[[4.80539, 51.57977], [4.80607, 51.57932], [4.80796, 51.57968], [4.80748, 51.57891], [4.81652, 51.57436], [4.8164, 51.57341], [4.81604, 51.57149], [4.81165, 51.56759], [4.81183, 51.56596], [4.81155, 51.56493], [4.80954, 51.56453], [4.80793, 51.56308], [4.8079, 51.56002], [4.80538, 51.55735], [4.80097, 51.55739], [4.79761, 51.55735], [4.79406, 51.55557], [4.79211, 51.55332], [4.78953, 51.5529], [4.78732, 51.55094], [4.78793, 51.54809], [4.78704, 51.54616], [4.78435, 51.54456], [4.7814, 51.54437], [4.78014, 51.54338], [4.78197, 51.53588], [4.77805, 51.53283], [4.77726, 51.53076], [4.7781, 51.52945], [4.77785, 51.52939], [4.77006, 51.52736], [4.76931, 51.52538], [4.77029, 51.5244], [4.77002, 51.52364], [4.76863, 51.52513], [4.76755, 51.52511], [4.76447, 51.52405], [4.76018, 51.51931], [4.74893, 51.51896], [4.7506, 51.52424], [4.75251, 51.52644], [4.74634, 51.52758], [4.7427, 51.5312], [4.74046, 51.53771], [4.73926, 51.55043], [4.73556, 51.5593], [4.7388, 51.5634], [4.74419, 51.56481], [4.7458, 51.56254], [4.74746, 51.56321], [4.74964, 51.56089], [4.75113, 51.56135], [4.75132, 51.56291], [4.75318, 51.56444], [4.75425, 51.56456], [4.75579, 51.56346], [4.75465, 51.56198], [4.75547, 51.5609], [4.76013, 51.56322], [4.76501, 51.56425], [4.77175, 51.56431], [4.77568, 51.56652], [4.77688, 51.5668], [4.77739, 51.56772], [4.7785, 51.57203], [4.78363, 51.57363], [4.79093, 51.57651], [4.79793, 51.57768], [4.80539, 51.57977]]]]}}, {"type": "Feature", "properties": {"code": "WK075804", "name": "Breda zuid"}, "geometry": {"type": "MultiPolygon", "coordinates": [[[[4.77568, 51.56652], [4.77175, 51.56431], [4.76501, 51.56425], [4.76013, 51.56322], [4.75547, 51.5609], [4.75465, 51.56198], [4.75579, 51.56346], [4.75425, 51.56456], [4.75318, 51.56444], [4.75132, 51.56291], [4.75113, 51.56135], [4.74964, 51.56089], [4.74746, 51.56321], [4.74797, 51.56342], [4.74614, 51.56592], [4.7434, 51.56524], [4.74342, 51.56704], [4.74482, 51.56744], [4.75712, 51.57078], [4.75696, 51.57194], [4.7627, 51.5792], [4.76498, 51.58115], [4.7659, 51.58318], [4.7731, 51.58228], [4.77733, 51.58081], [4.77597, 51.57278], [4.7785, 51.57203], [4.77739, 51.56772], [4.77688, 51.5668], [4.77568, 51.56652]]]]}}, {"type": "Feature", "properties": {"code": "WK075805", "name": "Breda west"}, "geometry": {"type": "MultiPolygon", "coordinates": [[[[4.74493, 51.5992], [4.75679, 51.59219], [4.76346, 51.59245], [4.77101, 51.59406], [4.77152, 51.59284], [4.7713, 51.59264], [4.76412, 51.58952], [4.76315, 51.58778], [4.76349, 51.58567], [4.7659, 51.58318], [4.76498, 51.58115], [4.7627, 51.5792], [4.75696, 51.57194], [4.75712, 51.57078], [4.74482, 51.56744], [4.74342, 51.56704], [4.7434, 51.56524], [4.74614, 51.56592], [4.74797, 51.56342], [4.74746, 51.56321], [4.7458, 51.56254], [4.74419, 51.56481], [4.7388, 51.5634], [4.73556, 51.5593], [4.73926, 51.55043], [4.74046, 51.53771], [4.7427, 51.5312], [4.74634, 51.52758], [4.75251, 51.52644], [4.7506, 51.52424], [4.74893, 51.51896], [4.74699, 51.51548], [4.75095, 51.50911], [4.75347, 51.5058], [4.76002, 51.50237], [4.75879, 51.50095], [4.75836, 51.50016], [4.75538, 51.50036], [4.75526, 51.50054], [4.7527, 51.49981], [4.74894, 51.49668], [4.75, 51.49543], [4.7497, 51.49436], [4.74813, 51.49194], [4.74683, 51.4907], [4.74656, 51.4895], [4.734, 51.48555], [4.73565, 51.49175], [4.74216, 51.50563], [4.74348, 51.51091], [4.74398, 51.51876], [4.74323, 51.52539], [4.74113, 51.52631], [4.74012, 51.52786], [4.7418, 51.5311], [4.74146, 51.53286], [4.73973, 51.53211], [4.7388, 51.53227], [4.73562, 51.53369], [4.73203, 51.53634], [4.7302, 51.53642], [4.73001, 51.53519], [4.72886, 51.53484], [4.72817, 51.53366], [4.7255, 51.5331], [4.72508, 51.53292], [4.72249, 51.53516], [4.72842, 51.53688], [4.704, 51.5498], [4.69419, 51.54485], [4.69462, 51.55673], [4.69329, 51.56259], [4.69372, 51.56795], [4.69086, 51.57412], [4.68605, 51.58757], [4.68601, 51.58771], [4.69424, 51.58945], [4.70308, 51.59009], [4.72365, 51.59152], [4.74169, 51.59271], [4.74825, 51.59274], [4.7424, 51.59344], [4.73254, 51.59684], [4.72801, 51.59903], [4.72386, 51.60229], [4.73293, 51.60228], [4.74493, 51.5992]]]]}}, {"type": "Feature", "properties": {"code": "WK075806", "name": "Breda noord-west"}, "geometry": {"type": "MultiPolygon", "coordinates": [[[[4.76346, 51.59245], [4.75679, 51.59219], [4.74493, 51.5992], [4.73293, 51.60228], [4.72386, 51.60229], [4.72333, 51.60285], [4.71795, 51.61035], [4.7177, 51.61071], [4.71504, 51.61456], [4.69874, 51.63797], [4.69906, 51.63807], [4.70433, 51.63825], [4.73184, 51.64306], [4.73854, 51.64281], [4.745, 51.64044], [4.74903, 51.63898], [4.75737, 51.63758], [4.76265, 51.63503], [4.76502, 51.63191], [4.76569, 51.62914], [4.7672, 51.6239], [4.76338, 51.61741], [4.75983, 51.61171], [4.75917, 51.60699], [4.76397, 51.60019], [4.76438, 51.59766], [4.76704, 51.59627], [4.76991, 51.59576], [4.77101, 51.59406], [4.76346, 51.59245]]]]}}, {"type": "Feature", "properties": {"code": "WK075807", "name": "Bavel"}, "geometry": {"type": "MultiPolygon", "coordinates": [[[[4.86424, 51.57909], [4.86537, 51.57292], [4.87008, 51.57082], [4.87168, 51.56711], [4.8691, 51.56676], [4.86828, 51.55993], [4.86731, 51.55887], [4.86415, 51.5594], [4.86298, 51.55727], [4.8437, 51.55424], [4.83978, 51.55319], [4.8374, 51.54951], [4.8329, 51.54958], [4.83077, 51.55035], [4.82452, 51.54784], [4.81655, 51.55497], [4.81044, 51.55882], [4.8079, 51.56002], [4.80793, 51.56308], [4.80954, 51.56453], [4.81155, 51.56493], [4.81183, 51.56596], [4.81165, 51.56759], [4.81604, 51.57149], [4.8164, 51.57341], [4.81652, 51.57436], [4.80748, 51.57891], [4.80796, 51.57968], [4.81853, 51.58146], [4.82037, 51.57952], [4.82365, 51.57966], [4.82925, 51.57814], [4.83863, 51.57854], [4.84573, 51.58345], [4.8544, 51.57937], [4.86424, 51.57909]]]]}}, {"type": "Feature", "properties": {"code": "WK075808", "name": "Ulvenhout"}, "geometry": {"type": "MultiPolygon", "coordinates": [[[[4.81044, 51.55882], [4.81655, 51.55497], [4.82452, 51.54784], [4.79935, 51.53706], [4.80133, 51.53608], [4.79804, 51.53514], [4.79425, 51.5349], [4.7781, 51.52945], [4.77726, 51.53076], [4.77805, 51.53283], [4.78197, 51.53588], [4.78014, 51.54338], [4.7814, 51.54437], [4.78435, 51.54456], [4.78704, 51.54616], [4.78793, 51.54809], [4.78732, 51.55094], [4.78953, 51.5529], [4.79211, 51.55332], [4.79406, 51.55557], [4.79761, 51.55735], [4.80097, 51.55739], [4.80538, 51.55735], [4.8079, 51.56002], [4.81044, 51.55882]]]]}}, {"type": "Feature", "properties": {"code": "WK075809", "name": "Prinsenbeek"}, "geometry": {"type": "MultiPolygon", "coordinates": [[[[4.69874, 51.63797], [4.71504, 51.61456], [4.7177, 51.61071], [4.71795, 51.61035], [4.72333, 51.60285], [4.72386, 51.60229], [4.72801, 51.59903], [4.73254, 51.59684], [4.7424, 51.59344], [4.74825, 51.59274], [4.74169, 51.59271], [4.72365, 51.59152], [4.70308, 51.59009], [4.69424, 51.58945], [4.68601, 51.58771], [4.68211, 51.59889], [4.67488, 51.60019], [4.67556, 51.60385], [4.66387, 51.60407], [4.66433, 51.60872], [4.66038, 51.6124], [4.65798, 51.62045], [4.66029, 51.62159], [4.66356, 51.62536], [4.66481, 51.62836], [4.66416, 51.63088], [4.66507, 51.63432], [4.67226, 51.63262], [4.67851, 51.63259], [4.68275, 51.63364], [4.69096, 51.63736], [4.69874, 51.63797]]]]}}, {"type": "Feature", "properties": {"code": "WK075810", "name": "Teteringen"}, "geometry": {"type": "MultiPolygon", "coordinates": [[[[4.78891, 51.63442], [4.80697, 51.63261], [4.81184, 51.63291], [4.81827, 51.63162], [4.82003, 51.63062], [4.82126, 51.62956], [4.82187, 51.62727], [4.82378, 51.6277], [4.82604, 51.62698], [4.82804, 51.62458], [4.84268, 51.61699], [4.83908, 51.60893], [4.84355, 51.60388], [4.83989, 51.60246], [4.8398, 51.60168], [4.83407, 51.59741], [4.82256, 51.59742], [4.81916, 51.59725], [4.81239, 51.59689], [4.81224, 51.60011], [4.81098, 51.60048], [4.80859, 51.60122], [4.80647, 51.60432], [4.80659, 51.60604], [4.80703, 51.6115], [4.80323, 51.61222], [4.79288, 51.61445], [4.78201, 51.61675], [4.77804, 51.61815], [4.77546, 51.61912], [4.77644, 51.62308], [4.7805, 51.62617], [4.78176, 51.62941], [4.78461, 51.63176], [4.78894, 51.63232], [4.78891, 51.63442]]]]}}]}