{"type": "FeatureCollection", "features": [{"type": "Feature", "properties": {"code": "WK098311", "name": "Wijk 11 Venlo-Centrum"}, "geometry": {"type": "MultiPolygon", "coordinates": [[[[6.17416, 51.3671], [6.17101, 51.36527], [6.16675, 51.36717], [6.16221, 51.36917], [6.16554, 51.3717], [6.16747, 51.37472], [6.1671, 51.37669], [6.17528, 51.37608], [6.17848, 51.37507], [6.18074, 51.3734], [6.17835, 51.37081], [6.17802, 51.37009], [6.17416, 51.3671]]]]}}, {"type": "Feature", "properties": {"code": "WK098312", "name": "Wijk 12 Venlo-Zuid"}, "geometry": {"type": "MultiPolygon", "coordinates": [[[[6.17582, 51.3519], [6.17861, 51.34838], [6.18571, 51.34465], [6.18433, 51.34332], [6.18061, 51.34392], [6.17987, 51.34189], [6.17097, 51.3432], [6.16552, 51.34334], [6.16607, 51.34242], [6.16441, 51.34235], [6.16223, 51.34356], [6.16217, 51.34636], [6.16109, 51.34739], [6.16026, 51.34841], [6.15769, 51.34909], [6.15387, 51.349], [6.1498, 51.35038], [6.15089, 51.35304], [6.14581, 51.35592], [6.1493, 51.35742], [6.1524, 51.36051], [6.15654, 51.36537], [6.16221, 51.36917], [6.16675, 51.36717], [6.17101, 51.36527], [6.1761, 51.3611], [6.17726, 51.35845], [6.1761, 51.35489], [6.17582, 51.3519]]]]}}, {"type": "Feature", "properties": {"code": "WK098313", "name": "Wijk 13 Venlo-Oost-Noord"}, "geometry": {"type": "MultiPolygon", "coordinates": [[[[6.1941, 51.37661], [6.20074, 51.37514], [6.20207, 51.37521], [6.20215, 51.37575], [6.22033, 51.37462], [6.22639, 51.36034], [6.22461, 51.35932], [6.20586, 51.36452], [6.19943, 51.36594], [6.1989, 51.36502], [6.19722, 51.36436], [6.18973, 51.36388], [6.18929, 51.36424], [6.18859, 51.36404], [6.18749, 51.36187], [6.18451, 51.36029], [6.18036, 51.36052], [6.17905, 51.36123], [6.1761, 51.3611], [6.17101, 51.36527], [6.17416, 51.3671], [6.17802, 51.37009], [6.17835, 51.37081], [6.18074, 51.3734], [6.18342, 51.37558], [6.18806, 51.37909], [6.1941, 51.37661]]]]}}, {"type": "Feature", "properties": {"code": "WK098314", "name": "Wijk 14 Venlo-Noord"}, "geometry": {"type": "MultiPolygon", "coordinates": [[[[6.1723, 51.39567], [6.17415, 51.3917], [6.17525, 51.38943], [6.17741, 51.38632], [6.18281, 51.38209], [6.18406, 51.38116], [6.18806, 51.37909], [6.18342, 51.37558], [6.18074, 51.3734], [6.17848, 51.37507], [6.17528, 51.37608], [6.1671, 51.37669], [6.16539, 51.37949], [6.16153, 51.38444], [6.15304, 51.39592], [6.1543, 51.3956], [6.16477, 51.39631], [6.17167, 51.39707], [6.1723, 51.39567]]]]}}, {"type": "Feature", "properties": {"code": "WK098315", "name": "Wijk 15 Venlo-Oost-Zuid"}, "geometry": {"type": "MultiPolygon", "coordinates": [[[[6.20586, 51.36452], [6.22461, 51.35932], [6.19718, 51.34365], [6.19242, 51.34093], [6.18988, 51.33946], [6.19413, 51.33471], [6.19091, 51.33494], [6.1883, 51.33507], [6.1789, 51.33357], [6.17739, 51.33831], [6.17987, 51.34189], [6.18061, 51.34392], [6.18433, 51.34332], [6.18571, 51.34465], [6.17861, 51.34838], [6.17582, 51.3519], [6.1761, 51.35489], [6.17726, 51.35845], [6.1761, 51.3611], [6.17905, 51.36123], [6.18036, 51.36052], [6.18451, 51.36029], [6.18749, 51.36187], [6.18859, 51.36404], [6.18929, 51.36424], [6.18973, 51.36388], [6.19722, 51.36436], [6.1989, 51.36502], [6.19943, 51.36594], [6.20586, 51.36452]]]]}}, {"type": "Feature", "properties": {"code": "WK098316", "name": "Wijk 16 Het Ven"}, "geometry": {"type": "MultiPolygon", "coordinates": [[[[6.20689, 51.40542], [6.20526, 51.39952], [6.21136, 51.40092], [6.22667, 51.40027], [6.22677, 51.39937], [6.22432, 51.3971], [6.21445, 51.38962], [6.2163, 51.38409], [6.22033, 51.37462], [6.20215, 51.37575], [6.20207, 51.37521], [6.20074, 51.37514], [6.1941, 51.37661], [6.18806, 51.37909], [6.18406, 51.38116], [6.18281, 51.38209], [6.17741, 51.38632], [6.17525, 51.38943], [6.17415, 51.3917], [6.1723, 51.39567], [6.17167, 51.39707], [6.20689, 51.40542]]]]}}, {"type": "Feature", "properties": {"code": "WK098321", "name": "Wijk 21 Blerick-Midden"}, "geometry": {"type": "MultiPolygon", "coordinates": [[[[6.15835, 51.37083], [6.16221, 51.36917], [6.15654, 51.36537], [6.1524, 51.36051], [6.14992, 51.36093], [6.15114, 51.3619], [6.14819, 51.3628], [6.14586, 51.3631], [6.14413, 51.36283], [6.14043, 51.36468], [6.13743, 51.36411], [6.1349, 51.365], [6.13575, 51.36767], [6.13607, 51.37015], [6.13697, 51.37068], [6.14324, 51.37035], [6.14359, 51.36982], [6.14641, 51.37158], [6.15835, 51.37083]]]]}}, {"type": "Feature", "properties": {"code": "WK098322", "name": "Wijk 22 Blerick-Noord"}, "geometry": {"type": "MultiPolygon", "coordinates": [[[[6.15511, 51.37282], [6.15835, 51.37083], [6.14641, 51.37158], [6.14359, 51.36982], [6.14324, 51.37035], [6.13697, 51.37068], [6.13607, 51.37015], [6.13621, 51.37149], [6.13647, 51.37288], [6.13401, 51.37594], [6.13824, 51.38047], [6.1487, 51.37627], [6.15511, 51.37282]]]]}}, {"type": "Feature", "properties": {"code": "WK098323", "name": "Wijk 23 Blerick-Zuid"}, "geometry": {"type": "MultiPolygon", "coordinates": [[[[6.1349, 51.365], [6.13743, 51.36411], [6.14043, 51.36468], [6.14413, 51.36283], [6.14586, 51.3631], [6.14819, 51.3628], [6.15114, 51.3619], [6.14992, 51.36093], [6.1524, 51.36051], [6.1493, 51.35742], [6.14581, 51.35592], [6.14185, 51.35806], [6.13856, 51.35935], [6.13193, 51.36155], [6.13368, 51.3633], [6.1349, 51.365]]]]}}, {"type": "Feature", "properties": {"code": "WK098324", "name": "Wijk 24 Vossener"}, "geometry": {"type": "MultiPolygon", "coordinates": [[[[6.13368, 51.3633], [6.13193, 51.36155], [6.12714, 51.36358], [6.12462, 51.36562], [6.12636, 51.37088], [6.13125, 51.3712], [6.13621, 51.37149], [6.13607, 51.37015], [6.13575, 51.36767], [6.1349, 51.365], [6.13368, 51.3633]]]]}}, {"type": "Feature", "properties": {"code": "WK098325", "name": "Wijk 25 Klingerberg"}, "geometry": {"type": "MultiPolygon", "coordinates": [[[[6.13125, 51.3712], [6.12636, 51.37088], [6.12304, 51.37727], [6.12284, 51.38145], [6.12771, 51.38483], [6.13824, 51.38047], [6.13401, 51.37594], [6.13647, 51.37288], [6.13621, 51.37149], [6.13125, 51.3712]]]]}}, {"type": "Feature", "properties": {"code": "WK098326", "name": "Wijk 26 Hout-Blerick"}, "geometry": {"type": "MultiPolygon", "coordinates": [[[[6.11053, 51.36592], [6.11257, 51.36408], [6.12007, 51.36402], [6.12334, 51.3633], [6.12462, 51.36562], [6.12714, 51.36358], [6.13193, 51.36155], [6.13856, 51.35935], [6.14185, 51.35806], [6.14581, 51.35592], [6.13921, 51.35261], [6.1376, 51.35163], [6.13071, 51.34732], [6.12325, 51.34337], [6.11959, 51.34648], [6.11877, 51.34593], [6.11247, 51.35162], [6.1071, 51.356], [6.10184, 51.35679], [6.09965, 51.3571], [6.09494, 51.3656], [6.10326, 51.3659], [6.10375, 51.36455], [6.10755, 51.3644], [6.10758, 51.3659], [6.11053, 51.36592]]]]}}, {"type": "Feature", "properties": {"code": "WK098327", "name": "Wijk 27 Boekend"}, "geometry": {"type": "MultiPolygon", "coordinates": [[[[6.12636, 51.37088], [6.12462, 51.36562], [6.12334, 51.3633], [6.12007, 51.36402], [6.11257, 51.36408], [6.11053, 51.36592], [6.10758, 51.3659], [6.10755, 51.3644], [6.10375, 51.36455], [6.10326, 51.3659], [6.09494, 51.3656], [6.09076, 51.37148], [6.08719, 51.37166], [6.07759, 51.37817], [6.09046, 51.38591], [6.09037, 51.38911], [6.08892, 51.38923], [6.11895, 51.38903], [6.1243, 51.38649], [6.12771, 51.38483], [6.12284, 51.38145], [6.12304, 51.37727], [6.12636, 51.37088]]]]}}, {"type": "Feature", "properties": {"code": "WK098328", "name": "Wijk 28 Trade-Port"}, "geometry": {"type": "MultiPolygon", "coordinates": [[[[6.11647, 51.42099], [6.12084, 51.41711], [6.12241, 51.41586], [6.1245, 51.41544], [6.12455, 51.4148], [6.12773, 51.41479], [6.1282, 51.41389], [6.13117, 51.4147], [6.1326, 51.41378], [6.13409, 51.41614], [6.13527, 51.41611], [6.14089, 51.39487], [6.15304, 51.39592], [6.16153, 51.38444], [6.16539, 51.37949], [6.1671, 51.37669], [6.16747, 51.37472], [6.16554, 51.3717], [6.16221, 51.36917], [6.15835, 51.37083], [6.15511, 51.37282], [6.1487, 51.37627], [6.13824, 51.38047], [6.12771, 51.38483], [6.1243, 51.38649], [6.11895, 51.38903], [6.08892, 51.38923], [6.0876, 51.38954], [6.08422, 51.39172], [6.07737, 51.39427], [6.07437, 51.39391], [6.07312, 51.39573], [6.07208, 51.3983], [6.0719, 51.40163], [6.07401, 51.40546], [6.07336, 51.40611], [6.07687, 51.40958], [6.07761, 51.41961], [6.07769, 51.42017], [6.08182, 51.42058], [6.10205, 51.41958], [6.10764, 51.42025], [6.10896, 51.41943], [6.10948, 51.42046], [6.11668, 51.42132], [6.11675, 51.42102], [6.11647, 51.42099]]]]}}, {"type": "Feature", "properties": {"code": "WK098331", "name": "Wijk 31 Tegelen-Centrum"}, "geometry": {"type": "MultiPolygon", "coordinates": [[[[6.1498, 51.35038], [6.15387, 51.349], [6.15769, 51.34909], [6.16026, 51.34841], [6.16109, 51.34739], [6.15727, 51.34569], [6.14515, 51.3403], [6.14261, 51.33905], [6.13983, 51.33748], [6.13509, 51.33357], [6.13463, 51.33758], [6.13007, 51.33621], [6.13086, 51.33733], [6.13008, 51.33809], [6.12793, 51.338], [6.12746, 51.34137], [6.126, 51.34079], [6.12434, 51.34126], [6.12325, 51.34337], [6.13071, 51.34732], [6.1376, 51.35163], [6.13921, 51.35261], [6.14581, 51.35592], [6.15089, 51.35304], [6.1498, 51.35038]]]]}}, {"type": "Feature", "properties": {"code": "WK098332", "name": "Wijk 32 Op de Hei"}, "geometry": {"type": "MultiPolygon", "coordinates": [[[[6.16223, 51.34356], [6.16441, 51.34235], [6.16607, 51.34242], [6.16552, 51.34334], [6.17097, 51.3432], [6.17987, 51.34189], [6.17739, 51.33831], [6.1789, 51.33357], [6.16892, 51.33301], [6.16928, 51.32969], [6.16419, 51.32555], [6.15959, 51.31969], [6.15916, 51.31542], [6.14586, 51.32258], [6.14048, 51.32387], [6.12873, 51.32787], [6.13509, 51.33357], [6.13983, 51.33748], [6.14261, 51.33905], [6.14515, 51.3403], [6.15727, 51.34569], [6.16109, 51.34739], [6.16217, 51.34636], [6.16223, 51.34356]]]]}}, {"type": "Feature", "properties": {"code": "WK098335", "name": "Wijk 35 Steyl"}, "geometry": {"type": "MultiPolygon", "coordinates": [[[[6.12434, 51.34126], [6.126, 51.34079], [6.12746, 51.34137], [6.12793, 51.338], [6.13008, 51.33809], [6.13086, 51.33733], [6.13007, 51.33621], [6.13463, 51.33758], [6.13509, 51.33357], [6.12873, 51.32787], [6.12621, 51.32858], [6.12274, 51.32793], [6.11735, 51.32682], [6.11743, 51.32699], [6.1182, 51.32992], [6.11706, 51.33377], [6.11666, 51.33911], [6.11879, 51.34102], [6.12325, 51.34337], [6.12434, 51.34126]]]]}}, {"type": "Feature", "properties": {"code": "WK098341", "name": "Wijk 41 Velden"}, "geometry": {"type": "MultiPolygon", "coordinates": [[[[6.214, 51.44545], [6.21476, 51.43388], [6.20689, 51.40542], [6.17167, 51.39707], [6.16477, 51.39631], [6.1543, 51.3956], [6.15304, 51.39592], [6.14899, 51.40777], [6.15137, 51.41461], [6.15682, 51.41912], [6.15838, 51.42273], [6.15783, 51.42667], [6.15461, 51.4347], [6.15392, 51.43809], [6.15675, 51.43838], [6.15661, 51.43642], [6.1644, 51.43629], [6.17134, 51.43707], [6.1738, 51.43781], [6.2026, 51.44392], [6.214, 51.44545]]]]}}, {"type": "Feature", "properties": {"code": "WK098343", "name": "Wijk 43 Lomm"}, "geometry": {"type": "MultiPolygon", "coordinates": [[[[6.214, 51.47491], [6.22203, 51.47269], [6.22345, 51.47281], [6.22211, 51.46153], [6.22012, 51.45552], [6.22059, 51.44665], [6.21424, 51.44674], [6.214, 51.44545], [6.2026, 51.44392], [6.1738, 51.43781], [6.17134, 51.43707], [6.1644, 51.43629], [6.15661, 51.43642], [6.15675, 51.43838], [6.15392, 51.43809], [6.15524, 51.44267], [6.15729, 51.44539], [6.16484, 51.45257], [6.1734, 51.45888], [6.17664, 51.45769], [6.17906, 51.46073], [6.18724, 51.46746], [6.1956, 51.46811], [6.19586, 51.47117], [6.214, 51.47491]]]]}}, {"type": "Feature", "properties": {"code": "WK098344", "name": "Wijk 44 Arcen"}, "geometry": {"type": "MultiPolygon", "coordinates": [[[[6.21336, 51.50782], [6.21419, 51.50291], [6.21276, 51.49131], [6.21772, 51.48535], [6.21903, 51.48498], [6.22355, 51.47496], [6.22345, 51.47281], [6.22203, 51.47269], [6.214, 51.47491], [6.19586, 51.47117], [6.1956, 51.46811], [6.18724, 51.46746], [6.17906, 51.46073], [6.17664, 51.45769], [6.1734, 51.45888], [6.17813, 51.46445], [6.17871, 51.47029], [6.17761, 51.47383], [6.17464, 51.47728], [6.1705, 51.48125], [6.16711, 51.48579], [6.16656, 51.48801], [6.1666, 51.48979], [6.16922, 51.49923], [6.16919, 51.50308], [6.18836, 51.50508], [6.20404, 51.50431], [6.21336, 51.50782]]]]}}, {"type": "Feature", "properties": {"code": "WK098351", "name": "Wijk 51 Belfeld"}, "geometry": {"type": "MultiPolygon", "coordinates": [[[[6.14514, 51.29812], [6.12901, 51.2857], [6.12476, 51.27755], [6.12006, 51.28511], [6.11446, 51.28918], [6.10701, 51.29147], [6.10315, 51.2887], [6.0933, 51.29544], [6.09277, 51.29539], [6.09171, 51.29494], [6.08722, 51.29511], [6.08472, 51.29745], [6.08914, 51.29924], [6.09228, 51.30132], [6.10045, 51.30721], [6.10593, 51.31216], [6.10788, 51.31448], [6.10933, 51.31618], [6.11539, 51.322], [6.11735, 51.32682], [6.12274, 51.32793], [6.12621, 51.32858], [6.12873, 51.32787], [6.14048, 51.32387], [6.14586, 51.32258], [6.15916, 51.31542], [6.15424, 51.31111], [6.15382, 51.30745], [6.14514, 51.29812]]]]}}]}