{"type": "FeatureCollection", "features": [{"type": "Feature", "properties": {"code": "WK093500", "name": "Wijk 00 Centrum"}, "geometry": {"type": "MultiPolygon", "coordinates": [[[[5.70668, 50.8477], [5.70307, 50.84116], [5.69976, 50.84056], [5.69987, 50.8419], [5.69593, 50.84273], [5.68833, 50.84147], [5.68342, 50.84277], [5.68063, 50.84455], [5.68089, 50.84495], [5.6777, 50.84898], [5.67706, 50.84923], [5.6777, 50.84998], [5.6898, 50.85852], [5.68985, 50.85854], [5.69329, 50.85987], [5.69751, 50.86015], [5.70157, 50.86034], [5.70209, 50.85712], [5.70554, 50.85175], [5.70668, 50.8477]]]]}}, {"type": "Feature", "properties": {"code": "WK093501", "name": "Wijk 01 Buitenwijk Zuidwest"}, "geometry": {"type": "MultiPolygon", "coordinates": [[[[5.68342, 50.84277], [5.68833, 50.84147], [5.69593, 50.84273], [5.69987, 50.8419], [5.69976, 50.84056], [5.69786, 50.83423], [5.69796, 50.82519], [5.69734, 50.81984], [5.69384, 50.8111], [5.69385, 50.81152], [5.69168, 50.81212], [5.68877, 50.81163], [5.68599, 50.81222], [5.68436, 50.81342], [5.6806, 50.81203], [5.67942, 50.81471], [5.67845, 50.81507], [5.67828, 50.81647], [5.67317, 50.81599], [5.67275, 50.81695], [5.66967, 50.81725], [5.66945, 50.81785], [5.66807, 50.81774], [5.66765, 50.81654], [5.6664, 50.81683], [5.66669, 50.81726], [5.66427, 50.81719], [5.66318, 50.81807], [5.65901, 50.81848], [5.65418, 50.81997], [5.65516, 50.82097], [5.65434, 50.82127], [5.65645, 50.82316], [5.6555, 50.8238], [5.65618, 50.82429], [5.65188, 50.82748], [5.64927, 50.82636], [5.64886, 50.82675], [5.65136, 50.83183], [5.64996, 50.83387], [5.64898, 50.83495], [5.65176, 50.83795], [5.65709, 50.83682], [5.66647, 50.84066], [5.68063, 50.84455], [5.68342, 50.84277]]]]}}, {"type": "Feature", "properties": {"code": "WK093502", "name": "Wijk 02 Buitenwijk West"}, "geometry": {"type": "MultiPolygon", "coordinates": [[[[5.66093, 50.87737], [5.67138, 50.86627], [5.67236, 50.86624], [5.6723, 50.86533], [5.67217, 50.86313], [5.67501, 50.86253], [5.6769, 50.86093], [5.67906, 50.85771], [5.67788, 50.8564], [5.67594, 50.85602], [5.67635, 50.85442], [5.67474, 50.85415], [5.67447, 50.85178], [5.6777, 50.84998], [5.67706, 50.84923], [5.6777, 50.84898], [5.68089, 50.84495], [5.68063, 50.84455], [5.66647, 50.84066], [5.65709, 50.83682], [5.65176, 50.83795], [5.64898, 50.83495], [5.64996, 50.83387], [5.64833, 50.83322], [5.64742, 50.83593], [5.64373, 50.83794], [5.64534, 50.83939], [5.64185, 50.84079], [5.64279, 50.84147], [5.64122, 50.84289], [5.64226, 50.84312], [5.63922, 50.84633], [5.63886, 50.84767], [5.64076, 50.8477], [5.64028, 50.84947], [5.64271, 50.85008], [5.64178, 50.85239], [5.64032, 50.85372], [5.64351, 50.85678], [5.64168, 50.85755], [5.64379, 50.85888], [5.6418, 50.85925], [5.64361, 50.86048], [5.64228, 50.86141], [5.644, 50.86292], [5.64166, 50.86416], [5.64947, 50.86834], [5.64416, 50.87135], [5.64789, 50.87371], [5.64856, 50.87334], [5.65132, 50.87509], [5.65337, 50.874], [5.65644, 50.87657], [5.65791, 50.87666], [5.65859, 50.87618], [5.66093, 50.87737]]]]}}, {"type": "Feature", "properties": {"code": "WK093503", "name": "Wijk 03 Buitenwijk Noordwest"}, "geometry": {"type": "MultiPolygon", "coordinates": [[[[5.6898, 50.85852], [5.6777, 50.84998], [5.67447, 50.85178], [5.67474, 50.85415], [5.67635, 50.85442], [5.67594, 50.85602], [5.67788, 50.8564], [5.67906, 50.85771], [5.6769, 50.86093], [5.67501, 50.86253], [5.67217, 50.86313], [5.6723, 50.86533], [5.67236, 50.86624], [5.67138, 50.86627], [5.66093, 50.87737], [5.66168, 50.87867], [5.66587, 50.87973], [5.66964, 50.88182], [5.67327, 50.88105], [5.67573, 50.88091], [5.67933, 50.88054], [5.68113, 50.87672], [5.68288, 50.87518], [5.69465, 50.87086], [5.69885, 50.86676], [5.69751, 50.86015], [5.69329, 50.85987], [5.68985, 50.85854], [5.6898, 50.85852]]]]}}, {"type": "Feature", "properties": {"code": "WK093504", "name": "Wijk 04 Buitenwijk Oost"}, "geometry": {"type": "MultiPolygon", "coordinates": [[[[5.74198, 50.87301], [5.74264, 50.87142], [5.746, 50.87227], [5.74697, 50.8707], [5.74877, 50.87111], [5.74943, 50.87043], [5.75544, 50.87149], [5.75916, 50.8661], [5.76266, 50.86651], [5.76292, 50.86414], [5.75288, 50.85945], [5.75294, 50.85852], [5.74933, 50.85705], [5.75734, 50.85529], [5.75731, 50.84562], [5.75485, 50.84184], [5.74801, 50.84091], [5.74446, 50.8419], [5.72098, 50.84425], [5.71694, 50.84316], [5.71693, 50.84317], [5.7149, 50.84179], [5.71086, 50.84027], [5.70307, 50.84116], [5.70668, 50.8477], [5.70554, 50.85175], [5.70209, 50.85712], [5.70157, 50.86034], [5.69751, 50.86015], [5.69885, 50.86676], [5.70116, 50.8742], [5.70381, 50.87387], [5.71653, 50.86943], [5.72106, 50.87332], [5.72724, 50.87638], [5.73494, 50.87893], [5.73304, 50.87506], [5.73677, 50.87366], [5.73845, 50.87353], [5.73941, 50.8731], [5.74198, 50.87301]]]]}}, {"type": "Feature", "properties": {"code": "WK093505", "name": "Wijk 05 Buitenwijk Noordoost"}, "geometry": {"type": "MultiPolygon", "coordinates": [[[[5.73148, 50.8829], [5.73251, 50.88243], [5.73431, 50.88279], [5.73593, 50.88215], [5.73494, 50.87893], [5.72724, 50.87638], [5.72106, 50.87332], [5.71653, 50.86943], [5.70381, 50.87387], [5.70116, 50.8742], [5.69885, 50.86676], [5.69465, 50.87086], [5.68288, 50.87518], [5.68113, 50.87672], [5.67933, 50.88054], [5.6791, 50.88347], [5.68251, 50.88852], [5.68634, 50.89119], [5.69256, 50.89393], [5.69624, 50.8986], [5.69718, 50.90226], [5.69578, 50.9058], [5.69653, 50.90861], [5.69826, 50.91015], [5.70342, 50.91171], [5.70643, 50.912], [5.70927, 50.91159], [5.71485, 50.90846], [5.71728, 50.90764], [5.71444, 50.90732], [5.71462, 50.90686], [5.71302, 50.90626], [5.71264, 50.90267], [5.71948, 50.89945], [5.71831, 50.89684], [5.72347, 50.89456], [5.72523, 50.89093], [5.72542, 50.88727], [5.72654, 50.88415], [5.73246, 50.88353], [5.73148, 50.8829]]]]}}, {"type": "Feature", "properties": {"code": "WK093506", "name": "Wijk 06 Buitenwijk Zuidoost"}, "geometry": {"type": "MultiPolygon", "coordinates": [[[[5.72098, 50.84425], [5.74446, 50.8419], [5.74801, 50.84091], [5.74685, 50.84082], [5.74681, 50.84027], [5.74126, 50.8401], [5.74064, 50.83916], [5.74045, 50.8384], [5.74631, 50.83732], [5.74556, 50.83634], [5.7467, 50.83587], [5.74556, 50.83562], [5.74556, 50.83479], [5.74649, 50.83029], [5.74626, 50.82765], [5.74491, 50.82777], [5.74536, 50.82401], [5.74487, 50.82292], [5.7437, 50.82299], [5.74348, 50.82132], [5.73259, 50.81905], [5.72873, 50.81792], [5.72818, 50.81714], [5.7232, 50.81473], [5.71898, 50.81411], [5.71731, 50.8145], [5.71701, 50.80608], [5.71694, 50.8038], [5.70982, 50.80419], [5.70997, 50.80474], [5.70853, 50.80491], [5.70945, 50.80828], [5.6965, 50.80855], [5.69382, 50.81045], [5.69384, 50.8111], [5.69734, 50.81984], [5.69796, 50.82519], [5.69786, 50.83423], [5.69976, 50.84056], [5.70307, 50.84116], [5.71086, 50.84027], [5.7149, 50.84179], [5.71693, 50.84317], [5.71694, 50.84316], [5.72098, 50.84425]]]]}}]}