{"type": "FeatureCollection", "features": [{"type": "Feature", "properties": {"code": "BU17830101", "name": "Naaldwijk Centrumgebied"}, "geometry": {"type": "MultiPolygon", "coordinates": [[[[4.21275, 51.99734], [4.21828, 51.99108], [4.20662, 51.9888], [4.20212, 51.99299], [4.20349, 51.99447], [4.21043, 51.99808], [4.21375, 51.99842], [4.21275, 51.99734]]]]}}, {"type": "Feature", "properties": {"code": "BU17830103", "name": "Opstal"}, "geometry": {"type": "MultiPolygon", "coordinates": [[[[4.19911, 51.99605], [4.20349, 51.99447], [4.20212, 51.99299], [4.20662, 51.9888], [4.20073, 51.98801], [4.19563, 51.9896], [4.19356, 51.99478], [4.19417, 51.9957], [4.19712, 51.99699], [4.19911, 51.99605]]]]}}, {"type": "Feature", "properties": {"code": "BU17830105", "name": "Geestcomplex"}, "geometry": {"type": "MultiPolygon", "coordinates": [[[[4.21043, 51.99808], [4.20349, 51.99447], [4.19911, 51.99605], [4.20803, 52.00007], [4.21043, 51.99808]]]]}}, {"type": "Feature", "properties": {"code": "BU17830111", "name": "Kruisbroek"}, "geometry": {"type": "MultiPolygon", "coordinates": [[[[4.22276, 51.99149], [4.22128, 51.98861], [4.20762, 51.98724], [4.20662, 51.9888], [4.21828, 51.99108], [4.22287, 51.9924], [4.22276, 51.99149]]]]}}, {"type": "Feature", "properties": {"code": "BU17830113", "name": "Pijletuinen"}, "geometry": {"type": "MultiPolygon", "coordinates": [[[[4.22344, 51.99646], [4.22287, 51.9924], [4.21828, 51.99108], [4.21275, 51.99734], [4.21375, 51.99842], [4.21874, 52.0012], [4.22344, 51.99646]]]]}}, {"type": "Feature", "properties": {"code": "BU17830151", "name": "Buitengebied 2 Naaldwijk"}, "geometry": {"type": "MultiPolygon", "coordinates": [[[[4.20467, 52.0098], [4.21227, 52.0058], [4.20655, 52.00305], [4.2052, 52.00447], [4.19408, 52.00007], [4.19382, 51.99902], [4.19712, 51.99699], [4.19417, 51.9957], [4.19356, 51.99478], [4.19563, 51.9896], [4.19033, 51.98848], [4.18801, 51.99453], [4.18499, 51.9977], [4.17835, 52.00884], [4.17951, 52.00994], [4.18418, 52.01095], [4.1971, 52.01174], [4.20008, 52.01423], [4.20467, 52.0098]]]]}}, {"type": "Feature", "properties": {"code": "BU17830154", "name": "Buitengebied 1 Naaldwijk"}, "geometry": {"type": "MultiPolygon", "coordinates": [[[[4.23561, 51.99193], [4.24178, 51.99053], [4.24493, 51.99099], [4.24911, 51.98858], [4.23828, 51.98382], [4.23501, 51.98238], [4.2247, 51.97871], [4.21853, 51.97699], [4.21966, 51.98179], [4.22128, 51.98861], [4.22276, 51.99149], [4.23369, 51.99304], [4.23561, 51.99193]]]]}}, {"type": "Feature", "properties": {"code": "BU17830155", "name": "Bedrijventerrein De Woerd"}, "geometry": {"type": "MultiPolygon", "coordinates": [[[[4.2142, 52.00379], [4.21874, 52.0012], [4.21375, 51.99842], [4.21043, 51.99808], [4.20803, 52.00007], [4.20655, 52.00305], [4.21227, 52.0058], [4.2142, 52.00379]]]]}}, {"type": "Feature", "properties": {"code": "BU17830157", "name": "Hoge Bomen"}, "geometry": {"type": "MultiPolygon", "coordinates": [[[[4.21475, 51.98156], [4.21966, 51.98179], [4.21853, 51.97699], [4.21658, 51.97338], [4.2091, 51.98032], [4.20588, 51.9831], [4.20792, 51.98606], [4.2116, 51.98613], [4.21475, 51.98156]]]]}}, {"type": "Feature", "properties": {"code": "BU17830158", "name": "Buitengebied 3 Naaldwijk"}, "geometry": {"type": "MultiPolygon", "coordinates": [[[[4.21658, 51.97338], [4.21674, 51.97147], [4.214, 51.97045], [4.2125, 51.97199], [4.21121, 51.9715], [4.21, 51.97324], [4.20707, 51.9729], [4.20399, 51.97774], [4.20762, 51.9788], [4.2091, 51.98032], [4.21658, 51.97338]]]]}}, {"type": "Feature", "properties": {"code": "BU17830159", "name": "Hoogeland Oost"}, "geometry": {"type": "MultiPolygon", "coordinates": [[[[4.21966, 51.98179], [4.21475, 51.98156], [4.2116, 51.98613], [4.20792, 51.98606], [4.20762, 51.98724], [4.22128, 51.98861], [4.21966, 51.98179]]]]}}, {"type": "Feature", "properties": {"code": "BU17830160", "name": "Hoogeland West"}, "geometry": {"type": "MultiPolygon", "coordinates": [[[[4.20073, 51.98801], [4.20662, 51.9888], [4.20762, 51.98724], [4.20792, 51.98606], [4.20588, 51.9831], [4.20318, 51.98521], [4.19872, 51.98677], [4.19563, 51.9896], [4.20073, 51.98801]]]]}}, {"type": "Feature", "properties": {"code": "BU17830161", "name": "Woerdblok"}, "geometry": {"type": "MultiPolygon", "coordinates": [[[[4.20655, 52.00305], [4.20803, 52.00007], [4.19911, 51.99605], [4.19712, 51.99699], [4.19382, 51.99902], [4.19408, 52.00007], [4.2052, 52.00447], [4.20655, 52.00305]]]]}}, {"type": "Feature", "properties": {"code": "BU17830201", "name": "Honselersdijk centrum"}, "geometry": {"type": "MultiPolygon", "coordinates": [[[[4.22935, 52.00992], [4.23042, 52.00805], [4.22691, 52.00634], [4.22489, 52.00406], [4.22361, 52.00379], [4.22371, 52.00717], [4.22774, 52.00831], [4.2292, 52.01], [4.22935, 52.00992]]]]}}, {"type": "Feature", "properties": {"code": "BU17830207", "name": "Vogelwijk"}, "geometry": {"type": "MultiPolygon", "coordinates": [[[[4.23314, 52.00587], [4.23698, 52.00272], [4.23334, 51.99987], [4.23147, 52.00227], [4.22696, 52.00497], [4.22489, 52.00406], [4.22691, 52.00634], [4.23042, 52.00805], [4.23314, 52.00587]]]]}}, {"type": "Feature", "properties": {"code": "BU17830211", "name": "Burgemeesterswijk"}, "geometry": {"type": "MultiPolygon", "coordinates": [[[[4.23789, 52.00995], [4.23535, 52.00835], [4.23747, 52.00703], [4.23539, 52.00563], [4.23314, 52.00587], [4.23042, 52.00805], [4.22935, 52.00992], [4.23047, 52.01074], [4.23648, 52.01111], [4.23789, 52.00995]]]]}}, {"type": "Feature", "properties": {"code": "BU17830251", "name": "Bedrijventerrein Honsel"}, "geometry": {"type": "MultiPolygon", "coordinates": [[[[4.22566, 52.00931], [4.22371, 52.00717], [4.22361, 52.00379], [4.21874, 52.0012], [4.2142, 52.00379], [4.21693, 52.00557], [4.21834, 52.0048], [4.2222, 52.00786], [4.21755, 52.01028], [4.22168, 52.01135], [4.22566, 52.00931]]]]}}, {"type": "Feature", "properties": {"code": "BU17830253", "name": "Achter de Dijk"}, "geometry": {"type": "MultiPolygon", "coordinates": [[[[4.22557, 52.01177], [4.2292, 52.01], [4.22774, 52.00831], [4.22371, 52.00717], [4.22566, 52.00931], [4.22168, 52.01135], [4.22209, 52.01189], [4.22557, 52.01177]]]]}}, {"type": "Feature", "properties": {"code": "BU17830256", "name": "Bedrijventerrein Bloemenveiling"}, "geometry": {"type": "MultiPolygon", "coordinates": [[[[4.23147, 52.00227], [4.23334, 51.99987], [4.24135, 51.99536], [4.23637, 51.99345], [4.23561, 51.99193], [4.23369, 51.99304], [4.22276, 51.99149], [4.22287, 51.9924], [4.22344, 51.99646], [4.21874, 52.0012], [4.22361, 52.00379], [4.22489, 52.00406], [4.22696, 52.00497], [4.23147, 52.00227]]]]}}, {"type": "Feature", "properties": {"code": "BU17830257", "name": "Buitengebied Honselersdijk"}, "geometry": {"type": "MultiPolygon", "coordinates": [[[[4.22481, 52.02072], [4.23234, 52.01882], [4.2382, 52.01905], [4.24166, 52.01984], [4.24907, 52.01224], [4.2543, 52.00944], [4.27312, 51.99925], [4.26525, 51.99584], [4.24911, 51.98858], [4.24493, 51.99099], [4.24178, 51.99053], [4.23561, 51.99193], [4.23637, 51.99345], [4.24135, 51.99536], [4.23334, 51.99987], [4.23698, 52.00272], [4.23314, 52.00587], [4.23539, 52.00563], [4.23747, 52.00703], [4.23535, 52.00835], [4.23789, 52.00995], [4.23648, 52.01111], [4.23047, 52.01074], [4.22935, 52.00992], [4.2292, 52.01], [4.22557, 52.01177], [4.22209, 52.01189], [4.22168, 52.01135], [4.21755, 52.01028], [4.2222, 52.00786], [4.21834, 52.0048], [4.21693, 52.00557], [4.2142, 52.00379], [4.21227, 52.0058], [4.20467, 52.0098], [4.20008, 52.01423], [4.20143, 52.01519], [4.20803, 52.01764], [4.21313, 52.02], [4.21629, 52.01986], [4.22071, 52.02096], [4.22481, 52.02072]]]]}}, {"type": "Feature", "properties": {"code": "BU17830301", "name": "Woonkern maasdijk"}, "geometry": {"type": "MultiPolygon", "coordinates": [[[[4.22163, 51.9562], [4.2154, 51.95333], [4.2093, 51.95857], [4.20662, 51.95738], [4.20434, 51.95928], [4.20691, 51.96046], [4.20839, 51.95927], [4.21015, 51.96005], [4.21105, 51.9592], [4.21299, 51.96143], [4.21576, 51.96255], [4.22163, 51.9562]]]]}}, {"type": "Feature", "properties": {"code": "BU17830306", "name": "Bedrijventerrein De Hoeven"}, "geometry": {"type": "MultiPolygon", "coordinates": [[[[4.21299, 51.96143], [4.21105, 51.9592], [4.21015, 51.96005], [4.20839, 51.95927], [4.20691, 51.96046], [4.20781, 51.96196], [4.21299, 51.96143]]]]}}, {"type": "Feature", "properties": {"code": "BU17830351", "name": "Bedrijventerrein Honderland & Coldenhove"}, "geometry": {"type": "MultiPolygon", "coordinates": [[[[4.21674, 51.97147], [4.21916, 51.96879], [4.23139, 51.95675], [4.23396, 51.95333], [4.23353, 51.95267], [4.2341, 51.94974], [4.2394, 51.94464], [4.23972, 51.94447], [4.24126, 51.94367], [4.24032, 51.94287], [4.23694, 51.94393], [4.23192, 51.94295], [4.23177, 51.94292], [4.22829, 51.94799], [4.22643, 51.95015], [4.22613, 51.9542], [4.22163, 51.9562], [4.21576, 51.96255], [4.21284, 51.966], [4.20379, 51.96983], [4.21121, 51.9715], [4.2125, 51.97199], [4.214, 51.97045], [4.21674, 51.97147]]]]}}, {"type": "Feature", "properties": {"code": "BU17830352", "name": "Buitengebied Maasdijk"}, "geometry": {"type": "MultiPolygon", "coordinates": [[[[4.20379, 51.96983], [4.21284, 51.966], [4.21576, 51.96255], [4.21299, 51.96143], [4.20781, 51.96196], [4.20691, 51.96046], [4.20434, 51.95928], [4.20662, 51.95738], [4.2093, 51.95857], [4.2154, 51.95333], [4.22163, 51.9562], [4.22613, 51.9542], [4.22643, 51.95015], [4.22829, 51.94799], [4.22145, 51.94267], [4.21953, 51.9414], [4.21782, 51.94164], [4.1924, 51.95481], [4.18672, 51.96268], [4.18937, 51.96476], [4.1912, 51.96544], [4.19061, 51.96598], [4.20231, 51.9704], [4.20379, 51.96983]]]]}}, {"type": "Feature", "properties": {"code": "BU17830401", "name": "centrumgebied 's-Gravenzande"}, "geometry": {"type": "MultiPolygon", "coordinates": [[[[4.16188, 52.00483], [4.16365, 52.00455], [4.16461, 52.00316], [4.16322, 52.00279], [4.16458, 52.00056], [4.16116, 51.99961], [4.15925, 51.99936], [4.15668, 52.00438], [4.1591, 52.00607], [4.16074, 52.00651], [4.16188, 52.00483]]]]}}, {"type": "Feature", "properties": {"code": "BU17830402", "name": "Zandevelt"}, "geometry": {"type": "MultiPolygon", "coordinates": [[[[4.15925, 51.99936], [4.16116, 51.99961], [4.16213, 51.99634], [4.1574, 51.99532], [4.15408, 51.99982], [4.15209, 52.00361], [4.15668, 52.00438], [4.15925, 51.99936]]]]}}, {"type": "Feature", "properties": {"code": "BU17830403", "name": "V/d kasteelewijk"}, "geometry": {"type": "MultiPolygon", "coordinates": [[[[4.17061, 52.00349], [4.17145, 52.0021], [4.16458, 52.00056], [4.16322, 52.00279], [4.16461, 52.00316], [4.16365, 52.00455], [4.16898, 52.00585], [4.17061, 52.00349]]]]}}, {"type": "Feature", "properties": {"code": "BU17830404", "name": "Oudeland"}, "geometry": {"type": "MultiPolygon", "coordinates": [[[[4.17303, 51.99786], [4.16213, 51.99634], [4.16116, 51.99961], [4.16458, 52.00056], [4.17145, 52.0021], [4.17303, 51.99786]]]]}}, {"type": "Feature", "properties": {"code": "BU17830405", "name": "Edelstenenwijk"}, "geometry": {"type": "MultiPolygon", "coordinates": [[[[4.17277, 51.99667], [4.16864, 51.99226], [4.1639, 51.994], [4.16213, 51.99634], [4.17303, 51.99786], [4.17277, 51.99667]]]]}}, {"type": "Feature", "properties": {"code": "BU17830406", "name": "Vreeburgh"}, "geometry": {"type": "MultiPolygon", "coordinates": [[[[4.16718, 52.00847], [4.16898, 52.00585], [4.16365, 52.00455], [4.16188, 52.00483], [4.16074, 52.00651], [4.1591, 52.00607], [4.15769, 52.00742], [4.16615, 52.01], [4.16718, 52.00847]]]]}}, {"type": "Feature", "properties": {"code": "BU17830407", "name": "Dorp oost"}, "geometry": {"type": "MultiPolygon", "coordinates": [[[[4.17562, 52.00732], [4.17593, 52.00476], [4.17061, 52.00349], [4.16898, 52.00585], [4.16718, 52.00847], [4.17349, 52.01032], [4.17562, 52.00732]]]]}}, {"type": "Feature", "properties": {"code": "BU17830408", "name": "Nieuwe Vaart"}, "geometry": {"type": "MultiPolygon", "coordinates": [[[[4.18116, 51.99889], [4.17303, 51.99786], [4.17145, 52.0021], [4.17061, 52.00349], [4.17593, 52.00476], [4.18116, 51.99889]]]]}}, {"type": "Feature", "properties": {"code": "BU17830409", "name": "Bedrijventerrein Teylingen"}, "geometry": {"type": "MultiPolygon", "coordinates": [[[[4.18348, 51.99276], [4.18314, 51.99032], [4.18572, 51.9888], [4.17972, 51.98861], [4.16864, 51.99226], [4.17277, 51.99667], [4.17303, 51.99786], [4.18116, 51.99889], [4.18348, 51.99276]]]]}}, {"type": "Feature", "properties": {"code": "BU17830410", "name": "Heenweg"}, "geometry": {"type": "MultiPolygon", "coordinates": [[[[4.18263, 51.98384], [4.18323, 51.98375], [4.18161, 51.97993], [4.17635, 51.9822], [4.1771, 51.98293], [4.18263, 51.98384]]]]}}, {"type": "Feature", "properties": {"code": "BU17830420", "name": "'s-Gravenzande Buitengebied"}, "geometry": {"type": "MultiPolygon", "coordinates": [[[[4.16666, 52.0166], [4.17261, 52.01651], [4.17544, 52.01566], [4.1782, 52.01376], [4.17951, 52.00994], [4.17835, 52.00884], [4.17562, 52.00732], [4.17349, 52.01032], [4.16718, 52.00847], [4.16615, 52.01], [4.15769, 52.00742], [4.1591, 52.00607], [4.15668, 52.00438], [4.15209, 52.00361], [4.15408, 51.99982], [4.1574, 51.99532], [4.16213, 51.99634], [4.1639, 51.994], [4.16864, 51.99226], [4.17972, 51.98861], [4.18572, 51.9888], [4.18702, 51.98919], [4.19033, 51.98848], [4.19563, 51.9896], [4.19872, 51.98677], [4.20318, 51.98521], [4.20588, 51.9831], [4.2091, 51.98032], [4.20762, 51.9788], [4.20399, 51.97774], [4.20707, 51.9729], [4.21, 51.97324], [4.21121, 51.9715], [4.20379, 51.96983], [4.20231, 51.9704], [4.19061, 51.96598], [4.18792, 51.96539], [4.18658, 51.96587], [4.18747, 51.96682], [4.1759, 51.97169], [4.16961, 51.97397], [4.15506, 51.97784], [4.1553, 51.9796], [4.14728, 51.98139], [4.14995, 51.98481], [4.14894, 51.98509], [4.15096, 51.98762], [4.13861, 51.99165], [4.13557, 51.9927], [4.13236, 51.99546], [4.13099, 51.99718], [4.13252, 51.99854], [4.14213, 52.00734], [4.14638, 52.00947], [4.15035, 52.01629], [4.15567, 52.02067], [4.15953, 52.01892], [4.16666, 52.0166]], [[4.18161, 51.97993], [4.18323, 51.98375], [4.18263, 51.98384], [4.1771, 51.98293], [4.17635, 51.9822], [4.18161, 51.97993]]]]}}, {"type": "Feature", "properties": {"code": "BU17830421", "name": "Kust 's-Gravenzande"}, "geometry": {"type": "MultiPolygon", "coordinates": [[[[4.15567, 52.02067], [4.15035, 52.01629], [4.14638, 52.00947], [4.14213, 52.00734], [4.13252, 51.99854], [4.1253, 52.00164], [4.1374, 52.00989], [4.15274, 52.02222], [4.15567, 52.02067]]]]}}, {"type": "Feature", "properties": {"code": "BU17830480", "name": "Het Nieuwe water"}, "geometry": {"type": "MultiPolygon", "coordinates": [[[[4.18499, 51.9977], [4.18801, 51.99453], [4.19033, 51.98848], [4.18702, 51.98919], [4.18572, 51.9888], [4.18314, 51.99032], [4.18348, 51.99276], [4.18116, 51.99889], [4.17593, 52.00476], [4.17562, 52.00732], [4.17835, 52.00884], [4.18499, 51.9977]]]]}}, {"type": "Feature", "properties": {"code": "BU17830502", "name": "Monster Centrumgebied"}, "geometry": {"type": "MultiPolygon", "coordinates": [[[[4.16928, 52.02408], [4.17054, 52.02353], [4.17272, 52.02403], [4.17331, 52.02511], [4.17818, 52.02172], [4.18023, 52.02164], [4.17309, 52.02011], [4.16444, 52.02068], [4.16673, 52.02136], [4.16793, 52.02254], [4.16893, 52.0254], [4.16928, 52.02408]]]]}}, {"type": "Feature", "properties": {"code": "BU17830504", "name": "Kleine Geest en Molenwijk"}, "geometry": {"type": "MultiPolygon", "coordinates": [[[[4.17838, 52.03002], [4.17331, 52.02511], [4.17272, 52.02403], [4.17054, 52.02353], [4.16928, 52.02408], [4.16893, 52.0254], [4.16807, 52.02872], [4.17267, 52.03121], [4.17486, 52.03228], [4.18063, 52.03333], [4.17838, 52.03002]]]]}}, {"type": "Feature", "properties": {"code": "BU17830505", "name": "Zwartenhoek"}, "geometry": {"type": "MultiPolygon", "coordinates": [[[[4.18162, 52.02781], [4.18496, 52.02208], [4.18023, 52.02164], [4.17818, 52.02172], [4.17331, 52.02511], [4.17838, 52.03002], [4.18162, 52.02781]]]]}}, {"type": "Feature", "properties": {"code": "BU17830506", "name": "Grote Geest en Molenwijk"}, "geometry": {"type": "MultiPolygon", "coordinates": [[[[4.16893, 52.0254], [4.16793, 52.02254], [4.16673, 52.02136], [4.16444, 52.02068], [4.15953, 52.01892], [4.15567, 52.02067], [4.16003, 52.02424], [4.16571, 52.02745], [4.16807, 52.02872], [4.16893, 52.0254]]]]}}, {"type": "Feature", "properties": {"code": "BU17830507", "name": "Polanen"}, "geometry": {"type": "MultiPolygon", "coordinates": [[[[4.18724, 52.0311], [4.1818, 52.02923], [4.18162, 52.02781], [4.17838, 52.03002], [4.18063, 52.03333], [4.1833, 52.03477], [4.18724, 52.0311]]]]}}, {"type": "Feature", "properties": {"code": "BU17830508", "name": "Westlandse Zoom De Duinen"}, "geometry": {"type": "MultiPolygon", "coordinates": [[[[4.20904, 52.03827], [4.20408, 52.03674], [4.20263, 52.03825], [4.19665, 52.03638], [4.19535, 52.03767], [4.19251, 52.03761], [4.18831, 52.03594], [4.19267, 52.0317], [4.18724, 52.0311], [4.1833, 52.03477], [4.18063, 52.03333], [4.17486, 52.03228], [4.17839, 52.03481], [4.18912, 52.04017], [4.19206, 52.03988], [4.19752, 52.04174], [4.2006, 52.04371], [4.20416, 52.04467], [4.20904, 52.03827]]]]}}, {"type": "Feature", "properties": {"code": "BU17830509", "name": "Buitengebied Monster"}, "geometry": {"type": "MultiPolygon", "coordinates": [[[[4.21243, 52.03403], [4.20958, 52.03365], [4.21226, 52.03075], [4.21019, 52.03029], [4.20693, 52.03105], [4.20336, 52.03103], [4.19794, 52.02837], [4.20054, 52.02612], [4.19753, 52.02271], [4.20143, 52.01519], [4.20008, 52.01423], [4.1971, 52.01174], [4.18418, 52.01095], [4.17951, 52.00994], [4.1782, 52.01376], [4.17544, 52.01566], [4.17309, 52.02011], [4.18023, 52.02164], [4.18496, 52.02208], [4.18162, 52.02781], [4.1818, 52.02923], [4.18724, 52.0311], [4.19267, 52.0317], [4.1957, 52.0322], [4.20518, 52.03545], [4.20408, 52.03674], [4.20904, 52.03827], [4.21243, 52.03403]]]]}}, {"type": "Feature", "properties": {"code": "BU17830510", "name": "Westerhonk"}, "geometry": {"type": "MultiPolygon", "coordinates": [[[[4.20408, 52.03674], [4.20518, 52.03545], [4.1957, 52.0322], [4.19267, 52.0317], [4.18831, 52.03594], [4.19251, 52.03761], [4.19535, 52.03767], [4.19665, 52.03638], [4.20263, 52.03825], [4.20408, 52.03674]]]]}}, {"type": "Feature", "properties": {"code": "BU17830511", "name": "Bedrijventerrein Vlotlaan"}, "geometry": {"type": "MultiPolygon", "coordinates": [[[[4.17309, 52.02011], [4.17544, 52.01566], [4.17261, 52.01651], [4.16666, 52.0166], [4.15953, 52.01892], [4.16444, 52.02068], [4.17309, 52.02011]]]]}}, {"type": "Feature", "properties": {"code": "BU17830512", "name": "Kust Monster"}, "geometry": {"type": "MultiPolygon", "coordinates": [[[[4.18918, 52.05547], [4.18748, 52.05212], [4.18957, 52.0515], [4.19174, 52.05219], [4.19634, 52.05566], [4.20412, 52.04473], [4.20416, 52.04467], [4.2006, 52.04371], [4.19752, 52.04174], [4.19206, 52.03988], [4.18912, 52.04017], [4.17839, 52.03481], [4.17486, 52.03228], [4.17267, 52.03121], [4.17048, 52.03254], [4.16403, 52.02852], [4.16571, 52.02745], [4.16003, 52.02424], [4.15567, 52.02067], [4.15274, 52.02222], [4.16059, 52.02883], [4.16819, 52.03399], [4.17548, 52.04155], [4.18765, 52.05645], [4.18918, 52.05547]]]]}}, {"type": "Feature", "properties": {"code": "BU17830601", "name": "Wateringen Centrumgebied"}, "geometry": {"type": "MultiPolygon", "coordinates": [[[[4.28048, 52.02517], [4.27625, 52.0215], [4.27388, 52.02264], [4.27276, 52.02188], [4.27111, 52.02271], [4.27338, 52.02366], [4.2728, 52.02606], [4.28048, 52.02517]]]]}}, {"type": "Feature", "properties": {"code": "BU17830602", "name": "Plan Zuid"}, "geometry": {"type": "MultiPolygon", "coordinates": [[[[4.28505, 52.02627], [4.28565, 52.02591], [4.28515, 52.02562], [4.28825, 52.02376], [4.28677, 52.02297], [4.28033, 52.01956], [4.27625, 52.0215], [4.28048, 52.02517], [4.28505, 52.02627]]]]}}, {"type": "Feature", "properties": {"code": "BU17830603", "name": "Buitengebied 2 wateringen"}, "geometry": {"type": "MultiPolygon", "coordinates": [[[[4.26965, 52.02881], [4.26615, 52.02758], [4.26166, 52.02701], [4.26415, 52.02314], [4.25942, 52.02197], [4.25889, 52.02554], [4.25638, 52.02835], [4.25913, 52.02957], [4.26665, 52.03301], [4.26965, 52.02881]]]]}}, {"type": "Feature", "properties": {"code": "BU17830606", "name": "Hofwijk en Oranjehof"}, "geometry": {"type": "MultiPolygon", "coordinates": [[[[4.2728, 52.02606], [4.27338, 52.02366], [4.27111, 52.02271], [4.26619, 52.02098], [4.26415, 52.02314], [4.26166, 52.02701], [4.26615, 52.02758], [4.26965, 52.02881], [4.27062, 52.02915], [4.2728, 52.02606]]]]}}, {"type": "Feature", "properties": {"code": "BU17830607", "name": "Wateringen Noord en Ambachtshof"}, "geometry": {"type": "MultiPolygon", "coordinates": [[[[4.27297, 52.03552], [4.2759, 52.03156], [4.27062, 52.02915], [4.26965, 52.02881], [4.26665, 52.03301], [4.27266, 52.03592], [4.27297, 52.03552]]]]}}, {"type": "Feature", "properties": {"code": "BU17830608", "name": "Suydervelt"}, "geometry": {"type": "MultiPolygon", "coordinates": [[[[4.27276, 52.02188], [4.27388, 52.02264], [4.27625, 52.0215], [4.28033, 52.01956], [4.28362, 52.01805], [4.28136, 52.01689], [4.27572, 52.01824], [4.27232, 52.01723], [4.26619, 52.02098], [4.27111, 52.02271], [4.27276, 52.02188]]]]}}, {"type": "Feature", "properties": {"code": "BU17830609", "name": "Buitengebied 1 wateringen"}, "geometry": {"type": "MultiPolygon", "coordinates": [[[[4.30759, 52.01469], [4.28146, 52.00292], [4.26959, 52.00905], [4.27871, 52.01401], [4.28648, 52.01054], [4.28964, 52.01011], [4.29403, 52.0108], [4.30217, 52.01442], [4.30493, 52.01494], [4.30759, 52.01469]]]]}}, {"type": "Feature", "properties": {"code": "BU17830610", "name": "Vliettuinen"}, "geometry": {"type": "MultiPolygon", "coordinates": [[[[4.2828, 52.02763], [4.28347, 52.0267], [4.28525, 52.02742], [4.28588, 52.02648], [4.28505, 52.02627], [4.28048, 52.02517], [4.2728, 52.02606], [4.27062, 52.02915], [4.2759, 52.03156], [4.2779, 52.03247], [4.28174, 52.02737], [4.2828, 52.02763]]]]}}, {"type": "Feature", "properties": {"code": "BU17830611", "name": "Essellanden"}, "geometry": {"type": "MultiPolygon", "coordinates": [[[[4.287, 52.02287], [4.29434, 52.01936], [4.28974, 52.01765], [4.28682, 52.01641], [4.28362, 52.01805], [4.28033, 52.01956], [4.28677, 52.02297], [4.287, 52.02287]]]]}}, {"type": "Feature", "properties": {"code": "BU17830612", "name": "Bedrijventerrein Wateringen"}, "geometry": {"type": "MultiPolygon", "coordinates": [[[[4.28136, 52.01689], [4.28362, 52.01805], [4.28682, 52.01641], [4.28974, 52.01765], [4.29551, 52.01485], [4.29861, 52.01688], [4.30108, 52.01787], [4.30266, 52.01649], [4.30764, 52.01815], [4.30982, 52.01563], [4.30759, 52.01469], [4.30493, 52.01494], [4.30217, 52.01442], [4.29403, 52.0108], [4.28964, 52.01011], [4.28648, 52.01054], [4.27871, 52.01401], [4.27232, 52.01723], [4.27572, 52.01824], [4.28136, 52.01689]]]]}}, {"type": "Feature", "properties": {"code": "BU17830701", "name": "Buitengebied 1 De Lier"}, "geometry": {"type": "MultiPolygon", "coordinates": [[[[4.26982, 51.99289], [4.27112, 51.99225], [4.27189, 51.99289], [4.28032, 51.99035], [4.28033, 51.98974], [4.28036, 51.98854], [4.28409, 51.98564], [4.28754, 51.98902], [4.28868, 51.98883], [4.29019, 51.9874], [4.29049, 51.98663], [4.29191, 51.98297], [4.29331, 51.98321], [4.29563, 51.9836], [4.29599, 51.98266], [4.29632, 51.98176], [4.29878, 51.98216], [4.29927, 51.98111], [4.3007, 51.98116], [4.30182, 51.9812], [4.3029, 51.98009], [4.30269, 51.9797], [4.29825, 51.97746], [4.29598, 51.97753], [4.28755, 51.97336], [4.2893, 51.97191], [4.28509, 51.96989], [4.28413, 51.97063], [4.28232, 51.96979], [4.28031, 51.97145], [4.27816, 51.97043], [4.27469, 51.9734], [4.27322, 51.97364], [4.27195, 51.97161], [4.27246, 51.97026], [4.27146, 51.96986], [4.27654, 51.96505], [4.26345, 51.96009], [4.25827, 51.95897], [4.25363, 51.95887], [4.23396, 51.95333], [4.23139, 51.95675], [4.21916, 51.96879], [4.22694, 51.97117], [4.22943, 51.97284], [4.23892, 51.97301], [4.24627, 51.97292], [4.24778, 51.97281], [4.25241, 51.97278], [4.26768, 51.97835], [4.26544, 51.97891], [4.25866, 51.98465], [4.25048, 51.98228], [4.24537, 51.98105], [4.24415, 51.98231], [4.24103, 51.9818], [4.23828, 51.98382], [4.24911, 51.98858], [4.26525, 51.99584], [4.26725, 51.99358], [4.26982, 51.99289]]]]}}, {"type": "Feature", "properties": {"code": "BU17830702", "name": "Bedrijventerrein Westerlee"}, "geometry": {"type": "MultiPolygon", "coordinates": [[[[4.22556, 51.97763], [4.22719, 51.97813], [4.22934, 51.97544], [4.22776, 51.97517], [4.22822, 51.97452], [4.23737, 51.97533], [4.23892, 51.97301], [4.22943, 51.97284], [4.22694, 51.97117], [4.21916, 51.96879], [4.21674, 51.97147], [4.21658, 51.97338], [4.21853, 51.97699], [4.2247, 51.97871], [4.22556, 51.97763]]]]}}, {"type": "Feature", "properties": {"code": "BU17830703", "name": "De Lier Centrumgebied"}, "geometry": {"type": "MultiPolygon", "coordinates": [[[[4.25355, 51.97613], [4.25416, 51.97513], [4.24778, 51.97281], [4.24627, 51.97292], [4.24616, 51.97528], [4.25068, 51.97609], [4.25242, 51.97732], [4.25355, 51.97613]]]]}}, {"type": "Feature", "properties": {"code": "BU17830704", "name": "Buitengebied 2 De Lier"}, "geometry": {"type": "MultiPolygon", "coordinates": [[[[4.23861, 51.97984], [4.2353, 51.97931], [4.23607, 51.9762], [4.23737, 51.97533], [4.22822, 51.97452], [4.22776, 51.97517], [4.22934, 51.97544], [4.22719, 51.97813], [4.22556, 51.97763], [4.2247, 51.97871], [4.23501, 51.98238], [4.23861, 51.97984]]]]}}, {"type": "Feature", "properties": {"code": "BU17830710", "name": "De Lier West"}, "geometry": {"type": "MultiPolygon", "coordinates": [[[[4.24309, 51.98051], [4.24616, 51.97528], [4.24627, 51.97292], [4.23892, 51.97301], [4.23737, 51.97533], [4.23607, 51.9762], [4.2353, 51.97931], [4.23861, 51.97984], [4.24309, 51.98051]]]]}}, {"type": "Feature", "properties": {"code": "BU17830711", "name": "Sportpark de Zweth"}, "geometry": {"type": "MultiPolygon", "coordinates": [[[[4.24103, 51.9818], [4.24415, 51.98231], [4.24537, 51.98105], [4.24309, 51.98051], [4.23861, 51.97984], [4.23501, 51.98238], [4.23828, 51.98382], [4.24103, 51.9818]]]]}}, {"type": "Feature", "properties": {"code": "BU17830712", "name": "Bleyenburg"}, "geometry": {"type": "MultiPolygon", "coordinates": [[[[4.25763, 51.97676], [4.25355, 51.97613], [4.25242, 51.97732], [4.25068, 51.97609], [4.24616, 51.97528], [4.24309, 51.98051], [4.24537, 51.98105], [4.25048, 51.98228], [4.25763, 51.97676]]]]}}, {"type": "Feature", "properties": {"code": "BU17830713", "name": "Molensloot"}, "geometry": {"type": "MultiPolygon", "coordinates": [[[[4.26544, 51.97891], [4.25763, 51.97676], [4.25048, 51.98228], [4.25866, 51.98465], [4.26544, 51.97891]]]]}}, {"type": "Feature", "properties": {"code": "BU17830714", "name": "Zeehelden van Oranje"}, "geometry": {"type": "MultiPolygon", "coordinates": [[[[4.26768, 51.97835], [4.25241, 51.97278], [4.24778, 51.97281], [4.25416, 51.97513], [4.25355, 51.97613], [4.25763, 51.97676], [4.26544, 51.97891], [4.26768, 51.97835]]]]}}, {"type": "Feature", "properties": {"code": "BU17830801", "name": "Kwintsheul Centrumgebied"}, "geometry": {"type": "MultiPolygon", "coordinates": [[[[4.25834, 52.01738], [4.25625, 52.01621], [4.26049, 52.01396], [4.2543, 52.00944], [4.24907, 52.01224], [4.25231, 52.01549], [4.25891, 52.01816], [4.25834, 52.01738]]]]}}, {"type": "Feature", "properties": {"code": "BU17830802", "name": "Bedrijventerrein Bovendijk"}, "geometry": {"type": "MultiPolygon", "coordinates": [[[[4.26399, 52.01465], [4.26282, 52.01433], [4.26413, 52.01291], [4.26049, 52.01396], [4.25625, 52.01621], [4.25834, 52.01738], [4.26399, 52.01465]]]]}}, {"type": "Feature", "properties": {"code": "BU17830803", "name": "Buitengebied Kwintsheul"}, "geometry": {"type": "MultiPolygon", "coordinates": [[[[4.26415, 52.02314], [4.26619, 52.02098], [4.27232, 52.01723], [4.27871, 52.01401], [4.26959, 52.00905], [4.28146, 52.00292], [4.27312, 51.99925], [4.2543, 52.00944], [4.26049, 52.01396], [4.26413, 52.01291], [4.26282, 52.01433], [4.26399, 52.01465], [4.25834, 52.01738], [4.25891, 52.01816], [4.25231, 52.01549], [4.24907, 52.01224], [4.24166, 52.01984], [4.2511, 52.02236], [4.24822, 52.02523], [4.25489, 52.02829], [4.25638, 52.02835], [4.25889, 52.02554], [4.25942, 52.02197], [4.26415, 52.02314]]]]}}, {"type": "Feature", "properties": {"code": "BU17830901", "name": "Poeldijk Centrumgebied"}, "geometry": {"type": "MultiPolygon", "coordinates": [[[[4.22142, 52.02377], [4.22229, 52.02322], [4.22139, 52.02269], [4.22407, 52.02192], [4.22481, 52.02072], [4.22071, 52.02096], [4.21629, 52.01986], [4.21313, 52.02], [4.21244, 52.02257], [4.21279, 52.02287], [4.21453, 52.02266], [4.2167, 52.02395], [4.22142, 52.02377]]]]}}, {"type": "Feature", "properties": {"code": "BU17830902", "name": "Poeldijk Noord"}, "geometry": {"type": "MultiPolygon", "coordinates": [[[[4.21893, 52.02753], [4.22488, 52.0254], [4.22655, 52.0233], [4.22407, 52.02192], [4.22139, 52.02269], [4.22229, 52.02322], [4.22142, 52.02377], [4.2167, 52.02395], [4.21453, 52.02266], [4.21279, 52.02287], [4.21266, 52.0234], [4.2196, 52.02846], [4.21893, 52.02753]]]]}}, {"type": "Feature", "properties": {"code": "BU17830903", "name": "Westhof en Dijkpolder"}, "geometry": {"type": "MultiPolygon", "coordinates": [[[[4.22895, 52.0294], [4.23519, 52.02807], [4.22655, 52.0233], [4.22488, 52.0254], [4.21893, 52.02753], [4.2196, 52.02846], [4.22493, 52.03207], [4.22895, 52.0294]]]]}}, {"type": "Feature", "properties": {"code": "BU17830904", "name": "Bedrijventerrein ABC Westland"}, "geometry": {"type": "MultiPolygon", "coordinates": [[[[4.23505, 52.03926], [4.24142, 52.03195], [4.23519, 52.02807], [4.22895, 52.0294], [4.22493, 52.03207], [4.22833, 52.03464], [4.23505, 52.03926]]]]}}, {"type": "Feature", "properties": {"code": "BU17830905", "name": "Bedrijventerrein Mercurius"}, "geometry": {"type": "MultiPolygon", "coordinates": [[[[4.21244, 52.02257], [4.21313, 52.02], [4.20803, 52.01764], [4.20702, 52.02267], [4.21244, 52.02257]]]]}}, {"type": "Feature", "properties": {"code": "BU17830906", "name": "Buitengebied 1 Poeldijk"}, "geometry": {"type": "MultiPolygon", "coordinates": [[[[4.24822, 52.02523], [4.2511, 52.02236], [4.24166, 52.01984], [4.2382, 52.01905], [4.23234, 52.01882], [4.22481, 52.02072], [4.22407, 52.02192], [4.22655, 52.0233], [4.23519, 52.02807], [4.24142, 52.03195], [4.24429, 52.02885], [4.24481, 52.02873], [4.24822, 52.02523]]]]}}, {"type": "Feature", "properties": {"code": "BU17830907", "name": "Buitengebied 2 Poeldijk"}, "geometry": {"type": "MultiPolygon", "coordinates": [[[[4.22493, 52.03207], [4.2196, 52.02846], [4.21266, 52.0234], [4.21279, 52.02287], [4.21244, 52.02257], [4.20702, 52.02267], [4.20803, 52.01764], [4.20143, 52.01519], [4.19753, 52.02271], [4.20054, 52.02612], [4.19794, 52.02837], [4.20336, 52.03103], [4.20693, 52.03105], [4.21019, 52.03029], [4.21226, 52.03075], [4.21373, 52.03169], [4.21923, 52.03374], [4.22833, 52.03464], [4.22493, 52.03207]]]]}}, {"type": "Feature", "properties": {"code": "BU17831001", "name": "Ter Heijde"}, "geometry": {"type": "MultiPolygon", "coordinates": [[[[4.17267, 52.03121], [4.16807, 52.02872], [4.16571, 52.02745], [4.16403, 52.02852], [4.17048, 52.03254], [4.17267, 52.03121]]]]}}]}