{"type": "FeatureCollection", "features": [{"type": "Feature", "properties": {"statcode": "BU00340101", "statnaam": "Centrum Haven Noord"}, "geometry": {"type": "MultiPolygon", "coordinates": [[[[5.21859, 52.3379], [5.22152, 52.33657], [5.22183, 52.33507], [5.21601, 52.33581], [5.21742, 52.3378], [5.21859, 52.3379]]]]}}, {"type": "Feature", "properties": {"statcode": "BU00340102", "statnaam": "Centrum Haven Zuid"}, "geometry": {"type": "MultiPolygon", "coordinates": [[[[5.22183, 52.33507], [5.22186, 52.33508], [5.22337, 52.33392], [5.22355, 52.33373], [5.22346, 52.33208], [5.22348, 52.33205], [5.22342, 52.33192], [5.22302, 52.332], [5.22116, 52.33131], [5.22078, 52.33132], [5.22121, 52.33177], [5.22081, 52.33187], [5.22024, 52.33254], [5.22127, 52.33237], [5.2216, 52.33307], [5.22092, 52.3338], [5.22013, 52.33395], [5.21939, 52.3337], [5.21907, 52.33307], [5.22019, 52.33189], [5.21918, 52.33134], [5.2183, 52.33223], [5.2158, 52.3313], [5.21683, 52.3302], [5.21792, 52.33059], [5.21872, 52.33032], [5.21971, 52.33049], [5.21637, 52.32939], [5.21256, 52.32998], [5.21284, 52.33145], [5.21352, 52.33206], [5.21281, 52.33291], [5.2103, 52.3338], [5.20945, 52.33304], [5.20848, 52.33246], [5.20616, 52.33339], [5.20601, 52.33435], [5.20477, 52.33551], [5.21349, 52.33463], [5.21456, 52.33579], [5.21601, 52.33581], [5.22183, 52.33507]]]]}}, {"type": "Feature", "properties": {"statcode": "BU00340201", "statnaam": "Rozenwerf en Tuinderswerf"}, "geometry": {"type": "MultiPolygon", "coordinates": [[[[5.22753, 52.34014], [5.23014, 52.3379], [5.23026, 52.33777], [5.22973, 52.33763], [5.22515, 52.33816], [5.22415, 52.33882], [5.22061, 52.34061], [5.22306, 52.34187], [5.22753, 52.34014]]]]}}, {"type": "Feature", "properties": {"statcode": "BU00340202", "statnaam": "Achterwerf"}, "geometry": {"type": "MultiPolygon", "coordinates": [[[[5.23207, 52.3372], [5.23145, 52.33622], [5.23023, 52.33434], [5.22355, 52.33373], [5.22337, 52.33392], [5.22582, 52.33429], [5.22713, 52.33658], [5.22973, 52.33763], [5.23026, 52.33777], [5.23207, 52.3372]]]]}}, {"type": "Feature", "properties": {"statcode": "BU00340203", "statnaam": "Goedewerf en Wittewerf"}, "geometry": {"type": "MultiPolygon", "coordinates": [[[[5.22973, 52.33763], [5.22713, 52.33658], [5.22582, 52.33429], [5.22337, 52.33392], [5.22186, 52.33508], [5.22515, 52.33816], [5.22973, 52.33763]]]]}}, {"type": "Feature", "properties": {"statcode": "BU00340204", "statnaam": "Schoolwerf"}, "geometry": {"type": "MultiPolygon", "coordinates": [[[[5.22515, 52.33816], [5.22186, 52.33508], [5.22183, 52.33507], [5.22152, 52.33657], [5.22415, 52.33882], [5.22515, 52.33816]]]]}}, {"type": "Feature", "properties": {"statcode": "BU00340205", "statnaam": "Parkwerf en Stadswerf"}, "geometry": {"type": "MultiPolygon", "coordinates": [[[[5.22415, 52.33882], [5.22152, 52.33657], [5.21859, 52.3379], [5.2191, 52.34005], [5.22061, 52.34061], [5.22415, 52.33882]]]]}}, {"type": "Feature", "properties": {"statcode": "BU00340301", "statnaam": "Buitenhof en Groenhof"}, "geometry": {"type": "MultiPolygon", "coordinates": [[[[5.22306, 52.34187], [5.22061, 52.34061], [5.2191, 52.34005], [5.21537, 52.34077], [5.21542, 52.34316], [5.22115, 52.34387], [5.22306, 52.34187]]]]}}, {"type": "Feature", "properties": {"statcode": "BU00340302", "statnaam": "Middenhof en Uithof"}, "geometry": {"type": "MultiPolygon", "coordinates": [[[[5.21537, 52.34077], [5.2191, 52.34005], [5.21859, 52.3379], [5.21742, 52.3378], [5.21036, 52.33918], [5.21026, 52.34141], [5.21537, 52.34077]]]]}}, {"type": "Feature", "properties": {"statcode": "BU00340303", "statnaam": "Binnenhof en Langshof (met Nieuwstraat)"}, "geometry": {"type": "MultiPolygon", "coordinates": [[[[5.21742, 52.3378], [5.21601, 52.33581], [5.21456, 52.33579], [5.21241, 52.33688], [5.21036, 52.33918], [5.21742, 52.3378]]]]}}, {"type": "Feature", "properties": {"statcode": "BU00340304", "statnaam": "Park Uithof"}, "geometry": {"type": "MultiPolygon", "coordinates": [[[[5.21537, 52.34077], [5.21026, 52.34141], [5.21035, 52.34155], [5.21542, 52.34316], [5.21537, 52.34077]]]]}}, {"type": "Feature", "properties": {"statcode": "BU00340401", "statnaam": "Jaagmeent en Grasmeent"}, "geometry": {"type": "MultiPolygon", "coordinates": [[[[5.2342, 52.33774], [5.23451, 52.33698], [5.23727, 52.33703], [5.24017, 52.33611], [5.24429, 52.33503], [5.24308, 52.33283], [5.24106, 52.33259], [5.23681, 52.33536], [5.23468, 52.33558], [5.23145, 52.33622], [5.23207, 52.3372], [5.2342, 52.33774]]]]}}, {"type": "Feature", "properties": {"statcode": "BU00340402", "statnaam": "Schapenmeent en Terpmeent"}, "geometry": {"type": "MultiPolygon", "coordinates": [[[[5.24106, 52.33259], [5.24308, 52.33283], [5.24338, 52.3327], [5.23983, 52.32926], [5.23264, 52.33059], [5.23468, 52.33558], [5.23681, 52.33536], [5.24106, 52.33259]]]]}}, {"type": "Feature", "properties": {"statcode": "BU00340403", "statnaam": "Rietmeent en Dijkmeent"}, "geometry": {"type": "MultiPolygon", "coordinates": [[[[5.23145, 52.33622], [5.23468, 52.33558], [5.23264, 52.33059], [5.22367, 52.33216], [5.22346, 52.33208], [5.22355, 52.33373], [5.23023, 52.33434], [5.23145, 52.33622]]]]}}, {"type": "Feature", "properties": {"statcode": "BU00340501", "statnaam": "Klavergriend, Klippriend en Wilgengriend"}, "geometry": {"type": "MultiPolygon", "coordinates": [[[[5.24466, 52.34241], [5.24282, 52.34156], [5.24324, 52.3399], [5.24227, 52.33896], [5.23645, 52.33927], [5.23911, 52.34102], [5.23621, 52.34235], [5.23621, 52.34236], [5.23972, 52.34481], [5.24466, 52.34241]]]]}}, {"type": "Feature", "properties": {"statcode": "BU00340502", "statnaam": "Kolkgriend en Oostgriend"}, "geometry": {"type": "MultiPolygon", "coordinates": [[[[5.24227, 52.33896], [5.24017, 52.33611], [5.23727, 52.33703], [5.23451, 52.33698], [5.2342, 52.33774], [5.23645, 52.33927], [5.24227, 52.33896]]]]}}, {"type": "Feature", "properties": {"statcode": "BU00340503", "statnaam": "Kadegriend en Overgriend"}, "geometry": {"type": "MultiPolygon", "coordinates": [[[[5.23911, 52.34102], [5.23645, 52.33927], [5.2342, 52.33774], [5.23207, 52.3372], [5.23026, 52.33777], [5.23014, 52.3379], [5.23508, 52.34005], [5.23621, 52.34235], [5.23911, 52.34102]]]]}}, {"type": "Feature", "properties": {"statcode": "BU00340504", "statnaam": "Bosgebied De Grienden"}, "geometry": {"type": "MultiPolygon", "coordinates": [[[[5.24776, 52.34105], [5.24429, 52.33503], [5.24017, 52.33611], [5.24227, 52.33896], [5.24324, 52.3399], [5.24282, 52.34156], [5.24466, 52.34241], [5.24776, 52.34105]]]]}}, {"type": "Feature", "properties": {"statcode": "BU00340601", "statnaam": "Hofmark, Redemark en Sportmark"}, "geometry": {"type": "MultiPolygon", "coordinates": [[[[5.23397, 52.34535], [5.2334, 52.34286], [5.23008, 52.34344], [5.2259, 52.34648], [5.23027, 52.34841], [5.23051, 52.34847], [5.23397, 52.34535]]]]}}, {"type": "Feature", "properties": {"statcode": "BU00340602", "statnaam": "Ambachtsmark, Vrijmark en Zuidmark"}, "geometry": {"type": "MultiPolygon", "coordinates": [[[[5.23008, 52.34344], [5.22753, 52.34014], [5.22306, 52.34187], [5.22115, 52.34387], [5.22116, 52.3445], [5.22342, 52.3449], [5.2259, 52.34648], [5.23008, 52.34344]]]]}}, {"type": "Feature", "properties": {"statcode": "BU00340603", "statnaam": "Brugmark, Noordmark en Gildemark"}, "geometry": {"type": "MultiPolygon", "coordinates": [[[[5.23027, 52.34841], [5.2259, 52.34648], [5.22342, 52.3449], [5.22116, 52.3445], [5.22104, 52.34664], [5.22952, 52.34935], [5.23027, 52.34841]]]]}}, {"type": "Feature", "properties": {"statcode": "BU00340604", "statnaam": "Sportpark De Marken"}, "geometry": {"type": "MultiPolygon", "coordinates": [[[[5.2334, 52.34286], [5.23621, 52.34236], [5.23621, 52.34235], [5.23508, 52.34005], [5.23014, 52.3379], [5.22753, 52.34014], [5.23008, 52.34344], [5.2334, 52.34286]]]]}}, {"type": "Feature", "properties": {"statcode": "BU00340605", "statnaam": "Splittershoek"}, "geometry": {"type": "MultiPolygon", "coordinates": [[[[5.2359, 52.34908], [5.23422, 52.3485], [5.23267, 52.34893], [5.23051, 52.34847], [5.23027, 52.34841], [5.22952, 52.34935], [5.23164, 52.35198], [5.2359, 52.34908]]]]}}, {"type": "Feature", "properties": {"statcode": "BU00340606", "statnaam": "Vliegerpark"}, "geometry": {"type": "MultiPolygon", "coordinates": [[[[5.23972, 52.34481], [5.23621, 52.34236], [5.2334, 52.34286], [5.23397, 52.34535], [5.23051, 52.34847], [5.23267, 52.34893], [5.23422, 52.3485], [5.2359, 52.34908], [5.23972, 52.34481]]]]}}, {"type": "Feature", "properties": {"statcode": "BU00340701", "statnaam": "Lindengouw, Muidergouw en Peppengouw"}, "geometry": {"type": "MultiPolygon", "coordinates": [[[[5.21977, 52.34814], [5.21784, 52.34749], [5.21365, 52.34575], [5.20934, 52.34829], [5.21731, 52.35092], [5.21977, 52.34814]]]]}}, {"type": "Feature", "properties": {"statcode": "BU00340702", "statnaam": "Kromgouw en Overgouw"}, "geometry": {"type": "MultiPolygon", "coordinates": [[[[5.21885, 52.34483], [5.22116, 52.3445], [5.22115, 52.34387], [5.21542, 52.34316], [5.21365, 52.34575], [5.21784, 52.34749], [5.21885, 52.34483]]]]}}, {"type": "Feature", "properties": {"statcode": "BU00340703", "statnaam": "Bosgouw, Brongouw en Nijvergouw"}, "geometry": {"type": "MultiPolygon", "coordinates": [[[[5.21365, 52.34575], [5.21542, 52.34316], [5.21035, 52.34155], [5.20831, 52.34226], [5.20515, 52.3443], [5.20468, 52.34664], [5.20934, 52.34829], [5.21365, 52.34575]]]]}}, {"type": "Feature", "properties": {"statcode": "BU00340704", "statnaam": "Bedrijventerrein De Paal"}, "geometry": {"type": "MultiPolygon", "coordinates": [[[[5.22104, 52.34664], [5.22116, 52.3445], [5.21885, 52.34483], [5.21784, 52.34749], [5.21977, 52.34814], [5.22104, 52.34664]]]]}}, {"type": "Feature", "properties": {"statcode": "BU00340801", "statnaam": "Kornwierde en Leemwierde"}, "geometry": {"type": "MultiPolygon", "coordinates": [[[[5.20831, 52.34226], [5.20611, 52.3379], [5.20225, 52.33778], [5.20021, 52.33981], [5.2053, 52.34344], [5.20502, 52.34423], [5.20515, 52.3443], [5.20831, 52.34226]]]]}}, {"type": "Feature", "properties": {"statcode": "BU00340802", "statnaam": "Keiwierde en Oldewierde"}, "geometry": {"type": "MultiPolygon", "coordinates": [[[[5.21035, 52.34155], [5.21026, 52.34141], [5.21036, 52.33918], [5.21241, 52.33688], [5.21001, 52.33598], [5.2078, 52.33758], [5.20611, 52.3379], [5.20831, 52.34226], [5.21035, 52.34155]]]]}}, {"type": "Feature", "properties": {"statcode": "BU00340803", "statnaam": "Hoekwierde, Kimwierde en Zandwierde"}, "geometry": {"type": "MultiPolygon", "coordinates": [[[[5.20015, 52.33981], [5.20021, 52.33981], [5.20225, 52.33778], [5.20611, 52.3379], [5.2078, 52.33758], [5.21001, 52.33598], [5.21241, 52.33688], [5.21456, 52.33579], [5.21349, 52.33463], [5.20477, 52.33551], [5.19518, 52.33649], [5.20015, 52.33981]]]]}}, {"type": "Feature", "properties": {"statcode": "BU00340901", "statnaam": "De Velden Noord"}, "geometry": {"type": "MultiPolygon", "coordinates": [[[[5.19531, 52.34369], [5.19688, 52.34191], [5.19687, 52.3419], [5.18688, 52.33854], [5.18712, 52.3374], [5.18411, 52.33562], [5.1835, 52.33792], [5.18547, 52.34026], [5.19531, 52.34369]]]]}}, {"type": "Feature", "properties": {"statcode": "BU00340902", "statnaam": "De Velden Zuid"}, "geometry": {"type": "MultiPolygon", "coordinates": [[[[5.20015, 52.33981], [5.19518, 52.33649], [5.18423, 52.33532], [5.18411, 52.33562], [5.18712, 52.3374], [5.18688, 52.33854], [5.19687, 52.3419], [5.20015, 52.33981]]]]}}, {"type": "Feature", "properties": {"statcode": "BU00341001", "statnaam": "Overgooi (brt)"}, "geometry": {"type": "MultiPolygon", "coordinates": [[[[5.2676, 52.33826], [5.27387, 52.33465], [5.28319, 52.33206], [5.27921, 52.32732], [5.28842, 52.32345], [5.28432, 52.31787], [5.28518, 52.31709], [5.26334, 52.32387], [5.23983, 52.32926], [5.24338, 52.3327], [5.25007, 52.33137], [5.25475, 52.33246], [5.25834, 52.33233], [5.26194, 52.33733], [5.26335, 52.33709], [5.2676, 52.33826]]]]}}, {"type": "Feature", "properties": {"statcode": "BU00341002", "statnaam": "Waterlandse Tuinen, Windhoek en Schapenbos"}, "geometry": {"type": "MultiPolygon", "coordinates": [[[[5.26194, 52.33733], [5.25834, 52.33233], [5.25475, 52.33246], [5.25007, 52.33137], [5.24338, 52.3327], [5.24308, 52.33283], [5.24429, 52.33503], [5.24776, 52.34105], [5.26194, 52.33733]]]]}}, {"type": "Feature", "properties": {"statcode": "BU00341003", "statnaam": "Cirkelbos"}, "geometry": {"type": "MultiPolygon", "coordinates": [[[[5.30981, 52.32293], [5.29877, 52.31263], [5.29885, 52.31187], [5.28518, 52.31709], [5.28432, 52.31787], [5.28842, 52.32345], [5.27921, 52.32732], [5.28319, 52.33206], [5.30981, 52.32293]]]]}}, {"type": "Feature", "properties": {"statcode": "BU00341101", "statnaam": "De Laren Noord"}, "geometry": {"type": "MultiPolygon", "coordinates": [[[[5.20468, 52.34664], [5.20515, 52.3443], [5.20502, 52.34423], [5.19688, 52.34191], [5.19531, 52.34369], [5.20468, 52.34664]]]]}}, {"type": "Feature", "properties": {"statcode": "BU00341102", "statnaam": "De Laren Zuid"}, "geometry": {"type": "MultiPolygon", "coordinates": [[[[5.2053, 52.34344], [5.20021, 52.33981], [5.20015, 52.33981], [5.19687, 52.3419], [5.19688, 52.34191], [5.20502, 52.34423], [5.2053, 52.34344]]]]}}, {"type": "Feature", "properties": {"statcode": "BU00341401", "statnaam": "De Steiger (brt)"}, "geometry": {"type": "MultiPolygon", "coordinates": [[[[5.22435, 52.35329], [5.23164, 52.35198], [5.22952, 52.34935], [5.22104, 52.34664], [5.21977, 52.34814], [5.21731, 52.35092], [5.22435, 52.35329]]]]}}, {"type": "Feature", "properties": {"statcode": "BU00341501", "statnaam": "Stichtsekant (brt)"}, "geometry": {"type": "MultiPolygon", "coordinates": [[[[5.33293, 52.31389], [5.31716, 52.30356], [5.31599, 52.30415], [5.3139, 52.3031], [5.31341, 52.30337], [5.31545, 52.30441], [5.29885, 52.31187], [5.29877, 52.31263], [5.30981, 52.32293], [5.33293, 52.31389]]]]}}, {"type": "Feature", "properties": {"statcode": "BU00341601", "statnaam": "Overig Almere Haven Oost"}, "geometry": {"type": "MultiPolygon", "coordinates": [[[[5.25798, 52.35342], [5.26239, 52.34434], [5.2676, 52.33826], [5.26335, 52.33709], [5.26194, 52.33733], [5.24776, 52.34105], [5.24466, 52.34241], [5.23972, 52.34481], [5.2359, 52.34908], [5.23164, 52.35198], [5.232, 52.35251], [5.244, 52.35218], [5.25798, 52.35342]]]]}}, {"type": "Feature", "properties": {"statcode": "BU00341602", "statnaam": "Overig Almere Haven West"}, "geometry": {"type": "MultiPolygon", "coordinates": [[[[5.21994, 52.35309], [5.22165, 52.35377], [5.22435, 52.35329], [5.21731, 52.35092], [5.20934, 52.34829], [5.20468, 52.34664], [5.19531, 52.34369], [5.18547, 52.34026], [5.1835, 52.33792], [5.18411, 52.33562], [5.18423, 52.33532], [5.16686, 52.33184], [5.15748, 52.32924], [5.15272, 52.3291], [5.15127, 52.32822], [5.14866, 52.32842], [5.14554, 52.32631], [5.14476, 52.32402], [5.14093, 52.32607], [5.16208, 52.33631], [5.17078, 52.33964], [5.17546, 52.34064], [5.17709, 52.34254], [5.1897, 52.34734], [5.20171, 52.3515], [5.2029, 52.35091], [5.21262, 52.35383], [5.21994, 52.35309]]]]}}, {"type": "Feature", "properties": {"statcode": "BU00341701", "statnaam": "Centrum Stad Noord"}, "geometry": {"type": "MultiPolygon", "coordinates": [[[[5.21714, 52.37747], [5.21721, 52.37746], [5.22036, 52.37791], [5.22058, 52.37744], [5.22088, 52.37682], [5.22089, 52.37681], [5.221, 52.37658], [5.22177, 52.37666], [5.22203, 52.37661], [5.22223, 52.37657], [5.22237, 52.37625], [5.22258, 52.37572], [5.22258, 52.37571], [5.22258, 52.37571], [5.2226, 52.37568], [5.22227, 52.37562], [5.22223, 52.37562], [5.22217, 52.37561], [5.22157, 52.3755], [5.21995, 52.37522], [5.2176, 52.37481], [5.21577, 52.37461], [5.21536, 52.37456], [5.21466, 52.37448], [5.21454, 52.37447], [5.21446, 52.37446], [5.21406, 52.37441], [5.21405, 52.37442], [5.21405, 52.37442], [5.21261, 52.37625], [5.21412, 52.37842], [5.21416, 52.37848], [5.21535, 52.37808], [5.21714, 52.37747]]]]}}, {"type": "Feature", "properties": {"statcode": "BU00341702", "statnaam": "Centrum Stad Oost"}, "geometry": {"type": "MultiPolygon", "coordinates": [[[[5.22531, 52.37276], [5.22603, 52.37108], [5.22661, 52.36878], [5.22795, 52.36681], [5.22302, 52.36607], [5.22146, 52.36986], [5.21922, 52.3716], [5.2176, 52.37481], [5.21995, 52.37522], [5.22157, 52.3755], [5.22217, 52.37561], [5.22223, 52.37562], [5.22227, 52.37562], [5.2226, 52.37568], [5.22531, 52.37276]]]]}}, {"type": "Feature", "properties": {"statcode": "BU00341703", "statnaam": "Centrum Stad Zuidoost"}, "geometry": {"type": "MultiPolygon", "coordinates": [[[[5.22146, 52.36986], [5.22302, 52.36607], [5.21897, 52.36545], [5.21717, 52.36985], [5.21922, 52.3716], [5.22146, 52.36986]]]]}}, {"type": "Feature", "properties": {"statcode": "BU00341704", "statnaam": "Centrum Stad Zuidwest"}, "geometry": {"type": "MultiPolygon", "coordinates": [[[[5.21717, 52.36985], [5.21897, 52.36545], [5.21358, 52.36536], [5.21305, 52.36629], [5.21477, 52.36782], [5.21416, 52.36968], [5.21717, 52.36985]]]]}}, {"type": "Feature", "properties": {"statcode": "BU00341705", "statnaam": "Centrum Stad West"}, "geometry": {"type": "MultiPolygon", "coordinates": [[[[5.21922, 52.3716], [5.21717, 52.36985], [5.21416, 52.36968], [5.21289, 52.37002], [5.21236, 52.37134], [5.21567, 52.37214], [5.21406, 52.37441], [5.21446, 52.37446], [5.21454, 52.37447], [5.21466, 52.37448], [5.21536, 52.37456], [5.21577, 52.37461], [5.2176, 52.37481], [5.21922, 52.3716]]]]}}, {"type": "Feature", "properties": {"statcode": "BU00341801", "statnaam": "Filmwijk Noord"}, "geometry": {"type": "MultiPolygon", "coordinates": [[[[5.23462, 52.37624], [5.23463, 52.37622], [5.2358, 52.37434], [5.22531, 52.37276], [5.2226, 52.37568], [5.22258, 52.37571], [5.22258, 52.37571], [5.23083, 52.37628], [5.23462, 52.37624]]]]}}, {"type": "Feature", "properties": {"statcode": "BU00341802", "statnaam": "Filmwijk Bouwrai Noord"}, "geometry": {"type": "MultiPolygon", "coordinates": [[[[5.2358, 52.37434], [5.23681, 52.37271], [5.22603, 52.37108], [5.22531, 52.37276], [5.2358, 52.37434]]]]}}, {"type": "Feature", "properties": {"statcode": "BU00341803", "statnaam": "Filmwijk Bouwrai Zuid"}, "geometry": {"type": "MultiPolygon", "coordinates": [[[[5.23879, 52.37066], [5.23167, 52.36765], [5.22661, 52.36878], [5.22603, 52.37108], [5.23681, 52.37271], [5.23879, 52.37066]]]]}}, {"type": "Feature", "properties": {"statcode": "BU00341804", "statnaam": "Filmwijk Midden"}, "geometry": {"type": "MultiPolygon", "coordinates": [[[[5.23892, 52.37054], [5.24195, 52.36797], [5.24766, 52.36647], [5.2475, 52.36635], [5.24383, 52.36462], [5.23634, 52.36245], [5.23167, 52.36765], [5.23879, 52.37066], [5.23892, 52.37054]]]]}}, {"type": "Feature", "properties": {"statcode": "BU00341805", "statnaam": "Filmwijk Zuid-noord van Walt Disneyplts."}, "geometry": {"type": "MultiPolygon", "coordinates": [[[[5.24738, 52.3609], [5.2401, 52.35804], [5.23572, 52.36134], [5.23623, 52.36212], [5.23634, 52.36245], [5.24383, 52.36462], [5.24738, 52.3609]]]]}}, {"type": "Feature", "properties": {"statcode": "BU00341806", "statnaam": "Filmwijk Zuid-zuid van Walt Disneyplts."}, "geometry": {"type": "MultiPolygon", "coordinates": [[[[5.25371, 52.3601], [5.2537, 52.36009], [5.24286, 52.35614], [5.2401, 52.35804], [5.24738, 52.3609], [5.25186, 52.36198], [5.25371, 52.3601]]]]}}, {"type": "Feature", "properties": {"statcode": "BU00341807", "statnaam": "Lumièrepark"}, "geometry": {"type": "MultiPolygon", "coordinates": [[[[5.23167, 52.36765], [5.23634, 52.36245], [5.23623, 52.36212], [5.23363, 52.36196], [5.23037, 52.36311], [5.22795, 52.36681], [5.22661, 52.36878], [5.23167, 52.36765]]]]}}, {"type": "Feature", "properties": {"statcode": "BU00341808", "statnaam": "Laterna Magikapark"}, "geometry": {"type": "MultiPolygon", "coordinates": [[[[5.24807, 52.36611], [5.25186, 52.36198], [5.24738, 52.3609], [5.24383, 52.36462], [5.2475, 52.36635], [5.24807, 52.36611]]]]}}, {"type": "Feature", "properties": {"statcode": "BU00341901", "statnaam": "Danswijk Noordwest"}, "geometry": {"type": "MultiPolygon", "coordinates": [[[[5.25633, 52.36361], [5.25186, 52.36198], [5.24807, 52.36611], [5.25293, 52.36775], [5.25633, 52.36361]]]]}}, {"type": "Feature", "properties": {"statcode": "BU00341902", "statnaam": "Danswijk Noordoost"}, "geometry": {"type": "MultiPolygon", "coordinates": [[[[5.26379, 52.36555], [5.25633, 52.36361], [5.25293, 52.36775], [5.25307, 52.36788], [5.25967, 52.36968], [5.26379, 52.36555]]]]}}, {"type": "Feature", "properties": {"statcode": "BU00341903", "statnaam": "Danswijk Zuidoost"}, "geometry": {"type": "MultiPolygon", "coordinates": [[[[5.26551, 52.3639], [5.25801, 52.3615], [5.25633, 52.36361], [5.26379, 52.36555], [5.26551, 52.3639]]]]}}, {"type": "Feature", "properties": {"statcode": "BU00341904", "statnaam": "Danswijk Zuidwest"}, "geometry": {"type": "MultiPolygon", "coordinates": [[[[5.25801, 52.3615], [5.25371, 52.3601], [5.25186, 52.36198], [5.25633, 52.36361], [5.25801, 52.3615]]]]}}, {"type": "Feature", "properties": {"statcode": "BU00342001", "statnaam": "Parkwijk Noordwest"}, "geometry": {"type": "MultiPolygon", "coordinates": [[[[5.24535, 52.37481], [5.25012, 52.37198], [5.24453, 52.36992], [5.24234, 52.37149], [5.23892, 52.37054], [5.23879, 52.37066], [5.23681, 52.37271], [5.2358, 52.37434], [5.23463, 52.37622], [5.24483, 52.37657], [5.24535, 52.37481]]]]}}, {"type": "Feature", "properties": {"statcode": "BU00342002", "statnaam": "Parkwijk Noordoost"}, "geometry": {"type": "MultiPolygon", "coordinates": [[[[5.25575, 52.37408], [5.25012, 52.37198], [5.24535, 52.37481], [5.24483, 52.37657], [5.25165, 52.37788], [5.25575, 52.37408]]]]}}, {"type": "Feature", "properties": {"statcode": "BU00342003", "statnaam": "Parkwijk Zuidoost"}, "geometry": {"type": "MultiPolygon", "coordinates": [[[[5.25657, 52.3735], [5.25967, 52.36968], [5.25307, 52.36788], [5.25012, 52.37198], [5.25575, 52.37408], [5.25657, 52.3735]]]]}}, {"type": "Feature", "properties": {"statcode": "BU00342004", "statnaam": "Parkwijk Zuidwest"}, "geometry": {"type": "MultiPolygon", "coordinates": [[[[5.25307, 52.36788], [5.25293, 52.36775], [5.24807, 52.36611], [5.2475, 52.36635], [5.24766, 52.36647], [5.24453, 52.36992], [5.25012, 52.37198], [5.25307, 52.36788]]]]}}, {"type": "Feature", "properties": {"statcode": "BU00342005", "statnaam": "Ebenezer Howardpark"}, "geometry": {"type": "MultiPolygon", "coordinates": [[[[5.24453, 52.36992], [5.24766, 52.36647], [5.24195, 52.36797], [5.23892, 52.37054], [5.24234, 52.37149], [5.24453, 52.36992]]]]}}, {"type": "Feature", "properties": {"statcode": "BU00342101", "statnaam": "Verzetswijk Oost"}, "geometry": {"type": "MultiPolygon", "coordinates": [[[[5.24796, 52.38174], [5.25191, 52.37795], [5.25165, 52.37788], [5.24483, 52.37657], [5.24029, 52.3817], [5.24531, 52.38445], [5.24796, 52.38174]]]]}}, {"type": "Feature", "properties": {"statcode": "BU00342102", "statnaam": "Verzetswijk West"}, "geometry": {"type": "MultiPolygon", "coordinates": [[[[5.24483, 52.37657], [5.23463, 52.37622], [5.23462, 52.37624], [5.23492, 52.37935], [5.24029, 52.3817], [5.24483, 52.37657]]]]}}, {"type": "Feature", "properties": {"statcode": "BU00342103", "statnaam": "Hannie Schaftpark/Bos der Onverzettelijk"}, "geometry": {"type": "MultiPolygon", "coordinates": [[[[5.24531, 52.38445], [5.24029, 52.3817], [5.23492, 52.37935], [5.23462, 52.37624], [5.23083, 52.37628], [5.23083, 52.37676], [5.22942, 52.38086], [5.22969, 52.38102], [5.24296, 52.38686], [5.24531, 52.38445]]]]}}, {"type": "Feature", "properties": {"statcode": "BU00342201", "statnaam": "Waterwijk Noord"}, "geometry": {"type": "MultiPolygon", "coordinates": [[[[5.23899, 52.39089], [5.23151, 52.38841], [5.2293, 52.39151], [5.23647, 52.39351], [5.23899, 52.39089]]]]}}, {"type": "Feature", "properties": {"statcode": "BU00342202", "statnaam": "Waterwijk Oost"}, "geometry": {"type": "MultiPolygon", "coordinates": [[[[5.24296, 52.38686], [5.22969, 52.38102], [5.22877, 52.38303], [5.2311, 52.38345], [5.23346, 52.38598], [5.23151, 52.38841], [5.23899, 52.39089], [5.24296, 52.38686]]]]}}, {"type": "Feature", "properties": {"statcode": "BU00342203", "statnaam": "Waterwijk Zuid"}, "geometry": {"type": "MultiPolygon", "coordinates": [[[[5.22425, 52.38284], [5.2271, 52.38341], [5.22877, 52.38303], [5.22969, 52.38102], [5.22942, 52.38086], [5.2236, 52.37957], [5.21854, 52.38168], [5.21972, 52.38377], [5.21972, 52.38377], [5.22425, 52.38284]]]]}}, {"type": "Feature", "properties": {"statcode": "BU00342204", "statnaam": "Waterwijk Midden"}, "geometry": {"type": "MultiPolygon", "coordinates": [[[[5.23346, 52.38598], [5.2311, 52.38345], [5.22877, 52.38303], [5.2271, 52.38341], [5.22425, 52.38284], [5.21972, 52.38377], [5.22108, 52.38525], [5.23151, 52.38841], [5.23346, 52.38598]]]]}}, {"type": "Feature", "properties": {"statcode": "BU00342205", "statnaam": "Waterwijk West"}, "geometry": {"type": "MultiPolygon", "coordinates": [[[[5.2293, 52.39151], [5.23151, 52.38841], [5.22108, 52.38525], [5.21972, 52.38377], [5.21972, 52.38377], [5.21938, 52.38398], [5.22177, 52.3883], [5.2167, 52.38987], [5.22814, 52.39314], [5.2293, 52.39151]]]]}}, {"type": "Feature", "properties": {"statcode": "BU00342206", "statnaam": "Bedrijventerrein Gietersplaats"}, "geometry": {"type": "MultiPolygon", "coordinates": [[[[5.23647, 52.39351], [5.2293, 52.39151], [5.22814, 52.39314], [5.23422, 52.39494], [5.23483, 52.39512], [5.23647, 52.39351]]]]}}, {"type": "Feature", "properties": {"statcode": "BU00342301", "statnaam": "Tussen de Vaarten N.- Noord"}, "geometry": {"type": "MultiPolygon", "coordinates": [[[[5.2591, 52.38604], [5.25348, 52.38375], [5.24796, 52.38174], [5.24531, 52.38445], [5.25619, 52.38856], [5.2591, 52.38604]]]]}}, {"type": "Feature", "properties": {"statcode": "BU00342302", "statnaam": "Tussen de Vaarten N.- Oost"}, "geometry": {"type": "MultiPolygon", "coordinates": [[[[5.26332, 52.3824], [5.26281, 52.38212], [5.25643, 52.37928], [5.25348, 52.38375], [5.2591, 52.38604], [5.26332, 52.3824]]]]}}, {"type": "Feature", "properties": {"statcode": "BU00342303", "statnaam": "Tussen de Vaarten N.- West"}, "geometry": {"type": "MultiPolygon", "coordinates": [[[[5.25643, 52.37928], [5.25191, 52.37795], [5.24796, 52.38174], [5.25348, 52.38375], [5.25643, 52.37928]]]]}}, {"type": "Feature", "properties": {"statcode": "BU00342304", "statnaam": "Sportpark Fanny Blankers Koen"}, "geometry": {"type": "MultiPolygon", "coordinates": [[[[5.2451, 52.39787], [5.25033, 52.39363], [5.25348, 52.39091], [5.25619, 52.38856], [5.24531, 52.38445], [5.24296, 52.38686], [5.23899, 52.39089], [5.23647, 52.39351], [5.23483, 52.39512], [5.24196, 52.39747], [5.2451, 52.39787]]]]}}, {"type": "Feature", "properties": {"statcode": "BU00342401", "statnaam": "Tussen de Vaarten Z.- Noordwest"}, "geometry": {"type": "MultiPolygon", "coordinates": [[[[5.26198, 52.37522], [5.25657, 52.3735], [5.25575, 52.37408], [5.25165, 52.37788], [5.25191, 52.37795], [5.25643, 52.37928], [5.26198, 52.37522]]]]}}, {"type": "Feature", "properties": {"statcode": "BU00342402", "statnaam": "Tussen de Vaarten Z.- Noordoost"}, "geometry": {"type": "MultiPolygon", "coordinates": [[[[5.26575, 52.38039], [5.27128, 52.37871], [5.26916, 52.37753], [5.26217, 52.37527], [5.26198, 52.37522], [5.25643, 52.37928], [5.26281, 52.38212], [5.26575, 52.38039]]]]}}, {"type": "Feature", "properties": {"statcode": "BU00342403", "statnaam": "Tussen de Vaarten Z.- Midden oost"}, "geometry": {"type": "MultiPolygon", "coordinates": [[[[5.26916, 52.37753], [5.2739, 52.37463], [5.27124, 52.37368], [5.26729, 52.37206], [5.26217, 52.37527], [5.26916, 52.37753]]]]}}, {"type": "Feature", "properties": {"statcode": "BU00342404", "statnaam": "Tussen de Vaarten Z.- Zuidoost"}, "geometry": {"type": "MultiPolygon", "coordinates": [[[[5.2751, 52.36878], [5.27071, 52.36736], [5.26729, 52.37206], [5.27124, 52.37368], [5.2751, 52.36878]]]]}}, {"type": "Feature", "properties": {"statcode": "BU00342405", "statnaam": "Tussen de Vaarten Z.- Zuidwest"}, "geometry": {"type": "MultiPolygon", "coordinates": [[[[5.27071, 52.36736], [5.2706, 52.36733], [5.26379, 52.36555], [5.25967, 52.36968], [5.26729, 52.37206], [5.27071, 52.36736]]]]}}, {"type": "Feature", "properties": {"statcode": "BU00342406", "statnaam": "Tussen de Vaarten Z.- Midden west"}, "geometry": {"type": "MultiPolygon", "coordinates": [[[[5.26729, 52.37206], [5.25967, 52.36968], [5.25657, 52.3735], [5.26198, 52.37522], [5.26217, 52.37527], [5.26729, 52.37206]]]]}}, {"type": "Feature", "properties": {"statcode": "BU00342407", "statnaam": "Bedrijventerrein Het Atelier"}, "geometry": {"type": "MultiPolygon", "coordinates": [[[[5.27615, 52.3773], [5.27528, 52.37612], [5.2739, 52.37463], [5.26916, 52.37753], [5.27128, 52.37871], [5.27615, 52.3773]]]]}}, {"type": "Feature", "properties": {"statcode": "BU00342408", "statnaam": "Sallandsebos"}, "geometry": {"type": "MultiPolygon", "coordinates": [[[[5.28953, 52.37412], [5.29193, 52.37328], [5.29055, 52.37172], [5.27583, 52.36257], [5.27877, 52.36899], [5.27824, 52.36963], [5.27881, 52.37321], [5.27528, 52.37612], [5.27615, 52.3773], [5.28953, 52.37412]]]]}}, {"type": "Feature", "properties": {"statcode": "BU00342501", "statnaam": "Staatsliedenwijk Oost"}, "geometry": {"type": "MultiPolygon", "coordinates": [[[[5.2236, 52.37957], [5.22351, 52.37955], [5.22192, 52.37934], [5.22145, 52.37854], [5.22215, 52.37678], [5.22223, 52.37657], [5.22203, 52.37661], [5.22177, 52.37666], [5.221, 52.37658], [5.22089, 52.37681], [5.22088, 52.37682], [5.22058, 52.37744], [5.22036, 52.37791], [5.21721, 52.37746], [5.21714, 52.37747], [5.21714, 52.37747], [5.21712, 52.37912], [5.21854, 52.38168], [5.2236, 52.37957]]]]}}, {"type": "Feature", "properties": {"statcode": "BU00342502", "statnaam": "Staatsliedenwijk Midden"}, "geometry": {"type": "MultiPolygon", "coordinates": [[[[5.21712, 52.37912], [5.21714, 52.37747], [5.21714, 52.37747], [5.21535, 52.37808], [5.21416, 52.37848], [5.21412, 52.37842], [5.21261, 52.37625], [5.20899, 52.377], [5.20921, 52.37834], [5.2116, 52.37875], [5.21244, 52.37996], [5.21712, 52.37912]]]]}}, {"type": "Feature", "properties": {"statcode": "BU00342503", "statnaam": "Staatsliedenwijk West"}, "geometry": {"type": "MultiPolygon", "coordinates": [[[[5.21261, 52.37625], [5.21405, 52.37442], [5.21405, 52.37442], [5.21406, 52.37441], [5.20714, 52.37336], [5.20636, 52.37552], [5.20829, 52.37582], [5.20883, 52.37673], [5.20892, 52.37687], [5.20899, 52.377], [5.21261, 52.37625]]]]}}, {"type": "Feature", "properties": {"statcode": "BU00342601", "statnaam": "Kruidenwijk Noordwest"}, "geometry": {"type": "MultiPolygon", "coordinates": [[[[5.19707, 52.38471], [5.19574, 52.38425], [5.19722, 52.38244], [5.19215, 52.38089], [5.18854, 52.38461], [5.19587, 52.3874], [5.19707, 52.38471]]]]}}, {"type": "Feature", "properties": {"statcode": "BU00342602", "statnaam": "Kruidenwijk Noord- midden"}, "geometry": {"type": "MultiPolygon", "coordinates": [[[[5.20531, 52.38441], [5.20383, 52.38173], [5.19722, 52.38244], [5.19574, 52.38425], [5.19707, 52.38471], [5.19587, 52.3874], [5.20071, 52.38792], [5.19927, 52.38568], [5.2036, 52.38538], [5.20531, 52.38723], [5.20349, 52.38814], [5.20552, 52.38831], [5.20531, 52.38441]]]]}}, {"type": "Feature", "properties": {"statcode": "BU00342603", "statnaam": "Kruidenwijk Noordoost"}, "geometry": {"type": "MultiPolygon", "coordinates": [[[[5.21272, 52.38298], [5.21226, 52.38], [5.20383, 52.38173], [5.20383, 52.38173], [5.20531, 52.38441], [5.21165, 52.38564], [5.21272, 52.38298]]]]}}, {"type": "Feature", "properties": {"statcode": "BU00342604", "statnaam": "Kruidenwijk Midden-oost"}, "geometry": {"type": "MultiPolygon", "coordinates": [[[[5.21226, 52.38], [5.21244, 52.37996], [5.2116, 52.37875], [5.20921, 52.37834], [5.20899, 52.377], [5.20892, 52.37687], [5.20795, 52.37878], [5.2028, 52.37985], [5.20383, 52.38173], [5.21226, 52.38]]]]}}, {"type": "Feature", "properties": {"statcode": "BU00342605", "statnaam": "Kruidenwijk Zuid"}, "geometry": {"type": "MultiPolygon", "coordinates": [[[[5.2028, 52.37985], [5.20795, 52.37878], [5.20892, 52.37687], [5.20883, 52.37673], [5.19661, 52.37936], [5.2028, 52.37985]]]]}}, {"type": "Feature", "properties": {"statcode": "BU00342606", "statnaam": "Kruidenwijk Midden-west"}, "geometry": {"type": "MultiPolygon", "coordinates": [[[[5.20383, 52.38173], [5.20383, 52.38173], [5.2028, 52.37985], [5.19661, 52.37936], [5.19215, 52.38089], [5.19722, 52.38244], [5.20383, 52.38173]]]]}}, {"type": "Feature", "properties": {"statcode": "BU00342607", "statnaam": "Bedrijventerrein Frezersplaats"}, "geometry": {"type": "MultiPolygon", "coordinates": [[[[5.20349, 52.38814], [5.20531, 52.38723], [5.2036, 52.38538], [5.19927, 52.38568], [5.20071, 52.38792], [5.20157, 52.38799], [5.20349, 52.38814]]]]}}, {"type": "Feature", "properties": {"statcode": "BU00342608", "statnaam": "Rie Mastenbroeksportpark"}, "geometry": {"type": "MultiPolygon", "coordinates": [[[[5.21165, 52.38564], [5.20531, 52.38441], [5.20552, 52.38831], [5.21292, 52.38908], [5.21165, 52.38564]]]]}}, {"type": "Feature", "properties": {"statcode": "BU00342609", "statnaam": "Koningin Beatrixpark"}, "geometry": {"type": "MultiPolygon", "coordinates": [[[[5.19215, 52.38089], [5.19661, 52.37936], [5.20883, 52.37673], [5.20829, 52.37582], [5.20636, 52.37552], [5.20714, 52.37336], [5.20704, 52.37334], [5.20255, 52.37229], [5.20239, 52.37232], [5.20172, 52.37306], [5.19373, 52.3753], [5.19129, 52.37763], [5.18386, 52.38215], [5.18854, 52.38461], [5.19215, 52.38089]]]]}}, {"type": "Feature", "properties": {"statcode": "BU00342701", "statnaam": "Stedenwijk Noord"}, "geometry": {"type": "MultiPolygon", "coordinates": [[[[5.21567, 52.37214], [5.21236, 52.37134], [5.21289, 52.37002], [5.20826, 52.37042], [5.20704, 52.37334], [5.20714, 52.37336], [5.21406, 52.37441], [5.21567, 52.37214]]]]}}, {"type": "Feature", "properties": {"statcode": "BU00342702", "statnaam": "Stedenwijk Midden-noord"}, "geometry": {"type": "MultiPolygon", "coordinates": [[[[5.21289, 52.37002], [5.21416, 52.36968], [5.21111, 52.36891], [5.2087, 52.36542], [5.20344, 52.36634], [5.20409, 52.36984], [5.20424, 52.36988], [5.20826, 52.37042], [5.21289, 52.37002]]]]}}, {"type": "Feature", "properties": {"statcode": "BU00342703", "statnaam": "Stedenwijk Midden-oost"}, "geometry": {"type": "MultiPolygon", "coordinates": [[[[5.21477, 52.36782], [5.21305, 52.36629], [5.21358, 52.36536], [5.21135, 52.36132], [5.20597, 52.36191], [5.2087, 52.36542], [5.21111, 52.36891], [5.21416, 52.36968], [5.21477, 52.36782]]]]}}, {"type": "Feature", "properties": {"statcode": "BU00342704", "statnaam": "Stedenwijk Zuid"}, "geometry": {"type": "MultiPolygon", "coordinates": [[[[5.21135, 52.36132], [5.21368, 52.35872], [5.21332, 52.35808], [5.21081, 52.35882], [5.208, 52.35802], [5.20149, 52.35636], [5.19622, 52.35614], [5.199, 52.35826], [5.20244, 52.35949], [5.20534, 52.36148], [5.20535, 52.36148], [5.20565, 52.36169], [5.20587, 52.36183], [5.20595, 52.3619], [5.20597, 52.36191], [5.21135, 52.36132]]]]}}, {"type": "Feature", "properties": {"statcode": "BU00342705", "statnaam": "Stedenwijk Midden-west"}, "geometry": {"type": "MultiPolygon", "coordinates": [[[[5.2087, 52.36542], [5.20597, 52.36191], [5.20595, 52.3619], [5.20587, 52.36183], [5.20565, 52.36169], [5.20535, 52.36148], [5.20534, 52.36148], [5.20244, 52.35949], [5.199, 52.35826], [5.19623, 52.36124], [5.19604, 52.36145], [5.19621, 52.3615], [5.19721, 52.36179], [5.19779, 52.36196], [5.19819, 52.36208], [5.19992, 52.36259], [5.20002, 52.36262], [5.20082, 52.36155], [5.20265, 52.36206], [5.20266, 52.36206], [5.20275, 52.36204], [5.20269, 52.36212], [5.20262, 52.36224], [5.20191, 52.36332], [5.20193, 52.36336], [5.20234, 52.36417], [5.20344, 52.36634], [5.2087, 52.36542]]]]}}, {"type": "Feature", "properties": {"statcode": "BU00342706", "statnaam": "Bedrijvensterrein Draaiersplaats"}, "geometry": {"type": "MultiPolygon", "coordinates": [[[[5.20191, 52.36332], [5.20262, 52.36224], [5.20269, 52.36212], [5.20275, 52.36204], [5.20266, 52.36206], [5.20265, 52.36206], [5.20082, 52.36155], [5.20002, 52.36262], [5.2001, 52.36266], [5.20085, 52.36307], [5.20155, 52.36346], [5.20155, 52.36346], [5.20161, 52.36344], [5.20161, 52.36344], [5.20191, 52.36332]]]]}}, {"type": "Feature", "properties": {"statcode": "BU00342707", "statnaam": "De Korver Sportpark en Annapark"}, "geometry": {"type": "MultiPolygon", "coordinates": [[[[5.199, 52.35826], [5.19622, 52.35614], [5.19218, 52.35716], [5.19421, 52.36076], [5.19604, 52.36145], [5.19623, 52.36124], [5.199, 52.35826]]]]}}, {"type": "Feature", "properties": {"statcode": "BU00342708", "statnaam": "Dr J.M. den Uylpark"}, "geometry": {"type": "MultiPolygon", "coordinates": [[[[5.20826, 52.37042], [5.20424, 52.36988], [5.20255, 52.37229], [5.20704, 52.37334], [5.20826, 52.37042]]]]}}, {"type": "Feature", "properties": {"statcode": "BU00342801", "statnaam": "Muziekwijk N.-Noordwest"}, "geometry": {"type": "MultiPolygon", "coordinates": [[[[5.18445, 52.37436], [5.18272, 52.37183], [5.1727, 52.37457], [5.17516, 52.37706], [5.18445, 52.37436]]]]}}, {"type": "Feature", "properties": {"statcode": "BU00342802", "statnaam": "Muziekwijk N.-Noord"}, "geometry": {"type": "MultiPolygon", "coordinates": [[[[5.18386, 52.38215], [5.19129, 52.37763], [5.18565, 52.37574], [5.18445, 52.37436], [5.17516, 52.37706], [5.17523, 52.37711], [5.18254, 52.38262], [5.18386, 52.38215]]]]}}, {"type": "Feature", "properties": {"statcode": "BU00342803", "statnaam": "Muziekwijk N.-Noordoost"}, "geometry": {"type": "MultiPolygon", "coordinates": [[[[5.19373, 52.3753], [5.19076, 52.37409], [5.18976, 52.37351], [5.18445, 52.37436], [5.18565, 52.37574], [5.19129, 52.37763], [5.19373, 52.3753]]]]}}, {"type": "Feature", "properties": {"statcode": "BU00342804", "statnaam": "Muziekwijk N.-Midden"}, "geometry": {"type": "MultiPolygon", "coordinates": [[[[5.18976, 52.37351], [5.18822, 52.36938], [5.18198, 52.37068], [5.18272, 52.37183], [5.18445, 52.37436], [5.18976, 52.37351]]]]}}, {"type": "Feature", "properties": {"statcode": "BU00342805", "statnaam": "Muziekwijk N.-Oost"}, "geometry": {"type": "MultiPolygon", "coordinates": [[[[5.19264, 52.37191], [5.19419, 52.37238], [5.19619, 52.37019], [5.19089, 52.36773], [5.18822, 52.36938], [5.18976, 52.37351], [5.19076, 52.37409], [5.19264, 52.37191]]]]}}, {"type": "Feature", "properties": {"statcode": "BU00342806", "statnaam": "Muziekwijk N.-Zuidoost"}, "geometry": {"type": "MultiPolygon", "coordinates": [[[[5.18822, 52.36938], [5.19089, 52.36773], [5.18702, 52.36594], [5.18326, 52.36418], [5.17959, 52.36563], [5.18088, 52.36851], [5.18198, 52.37068], [5.18822, 52.36938]]]]}}, {"type": "Feature", "properties": {"statcode": "BU00342807", "statnaam": "Muziekwijk N.-Zuidwest"}, "geometry": {"type": "MultiPolygon", "coordinates": [[[[5.18088, 52.36851], [5.17959, 52.36563], [5.1733, 52.36532], [5.17451, 52.36937], [5.18088, 52.36851]]]]}}, {"type": "Feature", "properties": {"statcode": "BU00342808", "statnaam": "Muziekwijk N.-West"}, "geometry": {"type": "MultiPolygon", "coordinates": [[[[5.18272, 52.37183], [5.18198, 52.37068], [5.18088, 52.36851], [5.17451, 52.36937], [5.17107, 52.37001], [5.1727, 52.37457], [5.18272, 52.37183]]]]}}, {"type": "Feature", "properties": {"statcode": "BU00342809", "statnaam": "Bedrijventerrein Josephine Bakerstraat"}, "geometry": {"type": "MultiPolygon", "coordinates": [[[[5.17451, 52.36937], [5.1733, 52.36532], [5.17002, 52.36536], [5.17007, 52.36583], [5.17107, 52.37001], [5.17451, 52.36937]]]]}}, {"type": "Feature", "properties": {"statcode": "BU00342810", "statnaam": "Klein Brandt Sportpark"}, "geometry": {"type": "MultiPolygon", "coordinates": [[[[5.20172, 52.37306], [5.20239, 52.37232], [5.19619, 52.37019], [5.19419, 52.37238], [5.19264, 52.37191], [5.19076, 52.37409], [5.19373, 52.3753], [5.20172, 52.37306]]]]}}, {"type": "Feature", "properties": {"statcode": "BU00342901", "statnaam": "Muziekwijk Z.-Noord"}, "geometry": {"type": "MultiPolygon", "coordinates": [[[[5.20255, 52.37229], [5.20424, 52.36988], [5.20409, 52.36984], [5.19361, 52.36559], [5.19089, 52.36773], [5.19619, 52.37019], [5.20239, 52.37232], [5.20255, 52.37229]]]]}}, {"type": "Feature", "properties": {"statcode": "BU00342902", "statnaam": "Muziekwijk Z.-Oost"}, "geometry": {"type": "MultiPolygon", "coordinates": [[[[5.20344, 52.36634], [5.20234, 52.36417], [5.20193, 52.36336], [5.20191, 52.36332], [5.20161, 52.36344], [5.20161, 52.36344], [5.20155, 52.36346], [5.20155, 52.36346], [5.20085, 52.36307], [5.2001, 52.36266], [5.20002, 52.36262], [5.19992, 52.36259], [5.19819, 52.36208], [5.19779, 52.36196], [5.19721, 52.36179], [5.19621, 52.3615], [5.19604, 52.36145], [5.19421, 52.36076], [5.19115, 52.3614], [5.19361, 52.36559], [5.20409, 52.36984], [5.20344, 52.36634]]]]}}, {"type": "Feature", "properties": {"statcode": "BU00342903", "statnaam": "Muziekwijk Z.-West"}, "geometry": {"type": "MultiPolygon", "coordinates": [[[[5.19361, 52.36559], [5.19115, 52.3614], [5.18838, 52.36189], [5.18945, 52.36395], [5.18702, 52.36594], [5.19089, 52.36773], [5.19361, 52.36559]]]]}}, {"type": "Feature", "properties": {"statcode": "BU00342904", "statnaam": "Bedrijventerrein Felsersplaats"}, "geometry": {"type": "MultiPolygon", "coordinates": [[[[5.18945, 52.36395], [5.18838, 52.36189], [5.18837, 52.36188], [5.18828, 52.36191], [5.18778, 52.36204], [5.18605, 52.36251], [5.18456, 52.36292], [5.18446, 52.36294], [5.18328, 52.36413], [5.18328, 52.36413], [5.18326, 52.36418], [5.18702, 52.36594], [5.18945, 52.36395]]]]}}, {"type": "Feature", "properties": {"statcode": "BU00343001", "statnaam": "Literatuurwijk Noordwest"}, "geometry": {"type": "MultiPolygon", "coordinates": [[[[5.17963, 52.35974], [5.18043, 52.35898], [5.18117, 52.35828], [5.18125, 52.3582], [5.17439, 52.35604], [5.1722, 52.35639], [5.17123, 52.35843], [5.17914, 52.36226], [5.17948, 52.36049], [5.17963, 52.35974]]]]}}, {"type": "Feature", "properties": {"statcode": "BU00343002", "statnaam": "Literatuurwijk Noordoost"}, "geometry": {"type": "MultiPolygon", "coordinates": [[[[5.18837, 52.36188], [5.18735, 52.36028], [5.18125, 52.3582], [5.18117, 52.35828], [5.18043, 52.35898], [5.17963, 52.35974], [5.17948, 52.36049], [5.17914, 52.36226], [5.17928, 52.36232], [5.17949, 52.36235], [5.17965, 52.36237], [5.18073, 52.36121], [5.18306, 52.36202], [5.18357, 52.36284], [5.1838, 52.36287], [5.18446, 52.36294], [5.18456, 52.36292], [5.18605, 52.36251], [5.18778, 52.36204], [5.18828, 52.36191], [5.18837, 52.36188]]]]}}, {"type": "Feature", "properties": {"statcode": "BU00343003", "statnaam": "Literatuurwijk Midden-oost"}, "geometry": {"type": "MultiPolygon", "coordinates": [[[[5.19115, 52.3614], [5.18862, 52.35686], [5.18403, 52.35534], [5.18125, 52.3582], [5.18735, 52.36028], [5.18837, 52.36188], [5.18838, 52.36189], [5.19115, 52.3614]]]]}}, {"type": "Feature", "properties": {"statcode": "BU00343004", "statnaam": "Literatuurwijk Zuid"}, "geometry": {"type": "MultiPolygon", "coordinates": [[[[5.19421, 52.36076], [5.19218, 52.35716], [5.19212, 52.35497], [5.18528, 52.35215], [5.18035, 52.35049], [5.17809, 52.35344], [5.18403, 52.35534], [5.18862, 52.35686], [5.19115, 52.3614], [5.19421, 52.36076]]]]}}, {"type": "Feature", "properties": {"statcode": "BU00343005", "statnaam": "Literatuurwijk Midden-west"}, "geometry": {"type": "MultiPolygon", "coordinates": [[[[5.18403, 52.35534], [5.17809, 52.35344], [5.17362, 52.35276], [5.1722, 52.35639], [5.17439, 52.35604], [5.18125, 52.3582], [5.18403, 52.35534]]]]}}, {"type": "Feature", "properties": {"statcode": "BU00343006", "statnaam": "Bedrijventerrein De Binderij"}, "geometry": {"type": "MultiPolygon", "coordinates": [[[[5.18357, 52.36284], [5.18306, 52.36202], [5.18073, 52.36121], [5.17965, 52.36237], [5.17949, 52.36235], [5.17928, 52.36232], [5.17941, 52.36238], [5.18328, 52.36413], [5.18328, 52.36413], [5.18446, 52.36294], [5.1838, 52.36287], [5.18357, 52.36284]]]]}}, {"type": "Feature", "properties": {"statcode": "BU00343007", "statnaam": "Bedrijventerrein De Uitgeverij"}, "geometry": {"type": "MultiPolygon", "coordinates": [[[[5.17809, 52.35344], [5.18035, 52.35049], [5.17373, 52.34986], [5.17362, 52.35276], [5.17809, 52.35344]]]]}}, {"type": "Feature", "properties": {"statcode": "BU00343101", "statnaam": "Noorderplassen Oost"}, "geometry": {"type": "MultiPolygon", "coordinates": [[[[5.22804, 52.4014], [5.23422, 52.39494], [5.22814, 52.39314], [5.2167, 52.38987], [5.21292, 52.38908], [5.20552, 52.38831], [5.20349, 52.38814], [5.20157, 52.38799], [5.19213, 52.39712], [5.19166, 52.39865], [5.1983, 52.40106], [5.20825, 52.39958], [5.22376, 52.40471], [5.22708, 52.40489], [5.22804, 52.4014]]]]}}, {"type": "Feature", "properties": {"statcode": "BU00343102", "statnaam": "Noorderplassen W.- Noord"}, "geometry": {"type": "MultiPolygon", "coordinates": [[[[5.17505, 52.40201], [5.17736, 52.39944], [5.17073, 52.39703], [5.16212, 52.39367], [5.15838, 52.39489], [5.16192, 52.39945], [5.16156, 52.39979], [5.16964, 52.40277], [5.17505, 52.40201]]]]}}, {"type": "Feature", "properties": {"statcode": "BU00343103", "statnaam": "Noorderplassen W.-Oost"}, "geometry": {"type": "MultiPolygon", "coordinates": [[[[5.18198, 52.39432], [5.18398, 52.39208], [5.18133, 52.39024], [5.17761, 52.38898], [5.17073, 52.39703], [5.17736, 52.39944], [5.18198, 52.39432]]]]}}, {"type": "Feature", "properties": {"statcode": "BU00343104", "statnaam": "Noorderplassen W.-Zuid"}, "geometry": {"type": "MultiPolygon", "coordinates": [[[[5.20157, 52.38799], [5.20071, 52.38792], [5.19587, 52.3874], [5.18854, 52.38461], [5.18386, 52.38215], [5.18254, 52.38262], [5.17523, 52.37711], [5.1761, 52.37816], [5.16839, 52.3862], [5.17761, 52.38898], [5.18133, 52.39024], [5.18398, 52.39208], [5.18198, 52.39432], [5.18327, 52.39404], [5.19213, 52.39712], [5.20157, 52.38799]]]]}}, {"type": "Feature", "properties": {"statcode": "BU00343105", "statnaam": "Noorderplassen W.-West"}, "geometry": {"type": "MultiPolygon", "coordinates": [[[[5.17761, 52.38898], [5.16839, 52.3862], [5.16212, 52.39367], [5.17073, 52.39703], [5.17761, 52.38898]]]]}}, {"type": "Feature", "properties": {"statcode": "BU00343201", "statnaam": "Hortus (brt)"}, "geometry": {"type": "MultiPolygon", "coordinates": [[[[5.22462, 52.36206], [5.22919, 52.36123], [5.23508, 52.35888], [5.23462, 52.35563], [5.232, 52.35251], [5.23164, 52.35198], [5.22435, 52.35329], [5.22165, 52.35377], [5.22203, 52.35716], [5.22062, 52.35744], [5.22251, 52.36135], [5.22462, 52.36206]]]]}}, {"type": "Feature", "properties": {"statcode": "BU00343401", "statnaam": "Randstad Oost"}, "geometry": {"type": "MultiPolygon", "coordinates": [[[[5.23083, 52.37676], [5.22501, 52.37708], [5.22381, 52.3792], [5.2236, 52.37957], [5.22942, 52.38086], [5.23083, 52.37676]]]]}}, {"type": "Feature", "properties": {"statcode": "BU00343402", "statnaam": "Randstad Zuid"}, "geometry": {"type": "MultiPolygon", "coordinates": [[[[5.23083, 52.37676], [5.23083, 52.37628], [5.22258, 52.37571], [5.22258, 52.37572], [5.22237, 52.37625], [5.22223, 52.37657], [5.22246, 52.37662], [5.22255, 52.37663], [5.22481, 52.37704], [5.22501, 52.37708], [5.23083, 52.37676]]]]}}, {"type": "Feature", "properties": {"statcode": "BU00343403", "statnaam": "Randstad West"}, "geometry": {"type": "MultiPolygon", "coordinates": [[[[5.22501, 52.37708], [5.22481, 52.37704], [5.22255, 52.37663], [5.22246, 52.37662], [5.22223, 52.37657], [5.22215, 52.37678], [5.22145, 52.37854], [5.22192, 52.37934], [5.22351, 52.37955], [5.2236, 52.37957], [5.22381, 52.3792], [5.22501, 52.37708]]]]}}, {"type": "Feature", "properties": {"statcode": "BU00343501", "statnaam": "Markerkant Noord"}, "geometry": {"type": "MultiPolygon", "coordinates": [[[[5.22177, 52.3883], [5.21938, 52.38398], [5.21272, 52.38298], [5.21165, 52.38564], [5.21292, 52.38908], [5.2167, 52.38987], [5.22177, 52.3883]]]]}}, {"type": "Feature", "properties": {"statcode": "BU00343502", "statnaam": "Markerkant Zuid"}, "geometry": {"type": "MultiPolygon", "coordinates": [[[[5.21972, 52.38377], [5.21854, 52.38168], [5.21712, 52.37912], [5.21244, 52.37996], [5.21226, 52.38], [5.21272, 52.38298], [5.21938, 52.38398], [5.21972, 52.38377]]]]}}, {"type": "Feature", "properties": {"statcode": "BU00343601", "statnaam": "Hollandsekant (brt)"}, "geometry": {"type": "MultiPolygon", "coordinates": [[[[5.18326, 52.36418], [5.18328, 52.36413], [5.17941, 52.36238], [5.17928, 52.36232], [5.17914, 52.36226], [5.17123, 52.35843], [5.16977, 52.36169], [5.17002, 52.36536], [5.1733, 52.36532], [5.17959, 52.36563], [5.18326, 52.36418]]]]}}, {"type": "Feature", "properties": {"statcode": "BU00343701", "statnaam": "Gooisekant Oost"}, "geometry": {"type": "MultiPolygon", "coordinates": [[[[5.19622, 52.35614], [5.20149, 52.35636], [5.19998, 52.35375], [5.20171, 52.3515], [5.1897, 52.34734], [5.18528, 52.35215], [5.19212, 52.35497], [5.19218, 52.35716], [5.19622, 52.35614]]]]}}, {"type": "Feature", "properties": {"statcode": "BU00343702", "statnaam": "Gooisekant West"}, "geometry": {"type": "MultiPolygon", "coordinates": [[[[5.1897, 52.34734], [5.17709, 52.34254], [5.17373, 52.34614], [5.17373, 52.34986], [5.18035, 52.35049], [5.18528, 52.35215], [5.1897, 52.34734]]]]}}, {"type": "Feature", "properties": {"statcode": "BU00343801", "statnaam": "Veluwsekant Oost"}, "geometry": {"type": "MultiPolygon", "coordinates": [[[[5.26932, 52.3601], [5.26958, 52.35988], [5.25803, 52.35438], [5.2537, 52.36009], [5.25371, 52.3601], [5.25801, 52.3615], [5.26551, 52.3639], [5.26932, 52.3601]]]]}}, {"type": "Feature", "properties": {"statcode": "BU00343802", "statnaam": "Veluwsekant West"}, "geometry": {"type": "MultiPolygon", "coordinates": [[[[5.25803, 52.35438], [5.25798, 52.35342], [5.244, 52.35218], [5.24255, 52.35405], [5.24344, 52.35522], [5.24286, 52.35614], [5.2537, 52.36009], [5.25803, 52.35438]]]]}}, {"type": "Feature", "properties": {"statcode": "BU00343901", "statnaam": "Sallandsekant Noordoost"}, "geometry": {"type": "MultiPolygon", "coordinates": [[[[5.27881, 52.37321], [5.27824, 52.36963], [5.2751, 52.36878], [5.27124, 52.37368], [5.2739, 52.37463], [5.27528, 52.37612], [5.27881, 52.37321]]]]}}, {"type": "Feature", "properties": {"statcode": "BU00343902", "statnaam": "Sallandsekant Zuidoost"}, "geometry": {"type": "MultiPolygon", "coordinates": [[[[5.27877, 52.36899], [5.27583, 52.36257], [5.27333, 52.36151], [5.27153, 52.36364], [5.2706, 52.36733], [5.27071, 52.36736], [5.2751, 52.36878], [5.27824, 52.36963], [5.27877, 52.36899]]]]}}, {"type": "Feature", "properties": {"statcode": "BU00343903", "statnaam": "Sallandsekant Zuidwest"}, "geometry": {"type": "MultiPolygon", "coordinates": [[[[5.2706, 52.36733], [5.27153, 52.36364], [5.27333, 52.36151], [5.27335, 52.36147], [5.26932, 52.3601], [5.26551, 52.3639], [5.26379, 52.36555], [5.2706, 52.36733]]]]}}, {"type": "Feature", "properties": {"statcode": "BU00344001", "statnaam": "Overig Almere Stad Noord"}, "geometry": {"type": "MultiPolygon", "coordinates": [[[[5.2298, 52.41416], [5.23474, 52.40872], [5.24594, 52.39813], [5.2451, 52.39787], [5.24196, 52.39747], [5.23483, 52.39512], [5.23422, 52.39494], [5.22804, 52.4014], [5.22708, 52.40489], [5.22376, 52.40471], [5.20825, 52.39958], [5.1983, 52.40106], [5.19166, 52.39865], [5.19213, 52.39712], [5.18327, 52.39404], [5.18198, 52.39432], [5.17736, 52.39944], [5.17505, 52.40201], [5.16964, 52.40277], [5.20598, 52.41605], [5.21767, 52.41604], [5.22522, 52.41744], [5.2298, 52.41416]]]]}}, {"type": "Feature", "properties": {"statcode": "BU00344002", "statnaam": "Overig Almere Stad Zuid"}, "geometry": {"type": "MultiPolygon", "coordinates": [[[[5.23037, 52.36311], [5.23363, 52.36196], [5.23623, 52.36212], [5.23572, 52.36134], [5.2401, 52.35804], [5.24286, 52.35614], [5.24344, 52.35522], [5.24255, 52.35405], [5.244, 52.35218], [5.232, 52.35251], [5.23462, 52.35563], [5.23508, 52.35888], [5.22919, 52.36123], [5.22462, 52.36206], [5.22251, 52.36135], [5.22062, 52.35744], [5.22203, 52.35716], [5.22165, 52.35377], [5.21994, 52.35309], [5.21262, 52.35383], [5.208, 52.35802], [5.21081, 52.35882], [5.21332, 52.35808], [5.21368, 52.35872], [5.21135, 52.36132], [5.21358, 52.36536], [5.21897, 52.36545], [5.22302, 52.36607], [5.22795, 52.36681], [5.23037, 52.36311]]]]}}, {"type": "Feature", "properties": {"statcode": "BU00344003", "statnaam": "Overig Almere Stad West"}, "geometry": {"type": "MultiPolygon", "coordinates": [[[[5.21262, 52.35383], [5.2029, 52.35091], [5.20171, 52.3515], [5.19998, 52.35375], [5.20149, 52.35636], [5.208, 52.35802], [5.21262, 52.35383]]]]}}, {"type": "Feature", "properties": {"statcode": "BU00344101", "statnaam": "Centrum Almere Buiten Noord"}, "geometry": {"type": "MultiPolygon", "coordinates": [[[[5.28254, 52.39653], [5.28264, 52.39644], [5.27555, 52.39237], [5.2755, 52.39226], [5.27238, 52.39223], [5.26872, 52.39392], [5.26868, 52.39398], [5.2706, 52.3948], [5.27404, 52.39645], [5.27989, 52.39881], [5.28254, 52.39653]]]]}}, {"type": "Feature", "properties": {"statcode": "BU00344102", "statnaam": "Centrum Almere Buiten Zuid"}, "geometry": {"type": "MultiPolygon", "coordinates": [[[[5.28466, 52.39469], [5.27971, 52.39248], [5.27718, 52.39148], [5.27555, 52.39237], [5.28264, 52.39644], [5.28466, 52.39469]]]]}}, {"type": "Feature", "properties": {"statcode": "BU00344201", "statnaam": "Oostvaardersbuurt Noord"}, "geometry": {"type": "MultiPolygon", "coordinates": [[[[5.29753, 52.41259], [5.30082, 52.41032], [5.29585, 52.40845], [5.28922, 52.40639], [5.28619, 52.40829], [5.29316, 52.41128], [5.29753, 52.41259]]]]}}, {"type": "Feature", "properties": {"statcode": "BU00344202", "statnaam": "Oostvaardersbuurt Oost"}, "geometry": {"type": "MultiPolygon", "coordinates": [[[[5.30791, 52.40598], [5.30506, 52.40518], [5.30046, 52.40345], [5.29585, 52.40845], [5.30082, 52.41032], [5.30791, 52.40598]]]]}}, {"type": "Feature", "properties": {"statcode": "BU00344203", "statnaam": "Oostvaardersbuurt West"}, "geometry": {"type": "MultiPolygon", "coordinates": [[[[5.30046, 52.40345], [5.3005, 52.40291], [5.29349, 52.40054], [5.29408, 52.40217], [5.28922, 52.40639], [5.29585, 52.40845], [5.30046, 52.40345]]]]}}, {"type": "Feature", "properties": {"statcode": "BU00344204", "statnaam": "Oostrandpark West"}, "geometry": {"type": "MultiPolygon", "coordinates": [[[[5.29091, 52.41331], [5.29316, 52.41128], [5.28619, 52.40829], [5.28162, 52.41061], [5.28087, 52.41097], [5.28344, 52.41174], [5.29091, 52.41331]]]]}}, {"type": "Feature", "properties": {"statcode": "BU00344301", "statnaam": "Seizoenenbuurt Noord"}, "geometry": {"type": "MultiPolygon", "coordinates": [[[[5.28619, 52.40829], [5.28922, 52.40639], [5.28458, 52.40439], [5.28009, 52.4023], [5.27634, 52.40532], [5.27492, 52.40775], [5.28162, 52.41061], [5.28619, 52.40829]]]]}}, {"type": "Feature", "properties": {"statcode": "BU00344302", "statnaam": "Seizoenenbuurt Oost"}, "geometry": {"type": "MultiPolygon", "coordinates": [[[[5.29408, 52.40217], [5.29349, 52.40054], [5.29042, 52.39931], [5.28458, 52.40439], [5.28922, 52.40639], [5.29408, 52.40217]]]]}}, {"type": "Feature", "properties": {"statcode": "BU00344303", "statnaam": "Seizoenenbuurt West"}, "geometry": {"type": "MultiPolygon", "coordinates": [[[[5.29042, 52.39931], [5.28559, 52.39758], [5.28009, 52.4023], [5.28458, 52.40439], [5.29042, 52.39931]]]]}}, {"type": "Feature", "properties": {"statcode": "BU00344304", "statnaam": "Meridiaanpark Noord en Bosrand"}, "geometry": {"type": "MultiPolygon", "coordinates": [[[[5.28162, 52.41061], [5.27492, 52.40775], [5.27634, 52.40532], [5.28009, 52.4023], [5.28559, 52.39758], [5.28254, 52.39653], [5.27989, 52.39881], [5.27382, 52.40406], [5.26921, 52.4077], [5.28087, 52.41097], [5.28162, 52.41061]]]]}}, {"type": "Feature", "properties": {"statcode": "BU00344401", "statnaam": "Molenbuurt Oost"}, "geometry": {"type": "MultiPolygon", "coordinates": [[[[5.27989, 52.39881], [5.27404, 52.39645], [5.26798, 52.4017], [5.27382, 52.40406], [5.27989, 52.39881]]]]}}, {"type": "Feature", "properties": {"statcode": "BU00344402", "statnaam": "Molenbuurt West"}, "geometry": {"type": "MultiPolygon", "coordinates": [[[[5.27404, 52.39645], [5.2706, 52.3948], [5.26452, 52.40004], [5.26798, 52.4017], [5.27404, 52.39645]]]]}}, {"type": "Feature", "properties": {"statcode": "BU00344403", "statnaam": "Bedrijventerrein Molenbuurt"}, "geometry": {"type": "MultiPolygon", "coordinates": [[[[5.2706, 52.3948], [5.26868, 52.39398], [5.26628, 52.39658], [5.26292, 52.39934], [5.26294, 52.39935], [5.26452, 52.40004], [5.2706, 52.3948]]]]}}, {"type": "Feature", "properties": {"statcode": "BU00344501", "statnaam": "Bouwmeesterbuurt Noord"}, "geometry": {"type": "MultiPolygon", "coordinates": [[[[5.2607, 52.39839], [5.25609, 52.39612], [5.25033, 52.39363], [5.2451, 52.39787], [5.24594, 52.39813], [5.25584, 52.4012], [5.2607, 52.39839]]]]}}, {"type": "Feature", "properties": {"statcode": "BU00344502", "statnaam": "Bouwmeesterbuurt Oost"}, "geometry": {"type": "MultiPolygon", "coordinates": [[[[5.26628, 52.39658], [5.25944, 52.3933], [5.25609, 52.39612], [5.2607, 52.39839], [5.26292, 52.39934], [5.26628, 52.39658]]]]}}, {"type": "Feature", "properties": {"statcode": "BU00344503", "statnaam": "Bouwmeesterbuurt West"}, "geometry": {"type": "MultiPolygon", "coordinates": [[[[5.25944, 52.3933], [5.25348, 52.39091], [5.25033, 52.39363], [5.25609, 52.39612], [5.25944, 52.3933]]]]}}, {"type": "Feature", "properties": {"statcode": "BU00344504", "statnaam": "Bedrijventerrein Bouwmeesterbuurt"}, "geometry": {"type": "MultiPolygon", "coordinates": [[[[5.26294, 52.39935], [5.26292, 52.39934], [5.2607, 52.39839], [5.25584, 52.4012], [5.25842, 52.40239], [5.26294, 52.39935]]]]}}, {"type": "Feature", "properties": {"statcode": "BU00344505", "statnaam": "Sportpark Polderkwartier en Polderpark"}, "geometry": {"type": "MultiPolygon", "coordinates": [[[[5.26868, 52.39398], [5.26872, 52.39392], [5.26216, 52.39094], [5.25619, 52.38856], [5.25348, 52.39091], [5.25944, 52.3933], [5.26628, 52.39658], [5.26868, 52.39398]]]]}}, {"type": "Feature", "properties": {"statcode": "BU00344601", "statnaam": "Landgoederenbuurt Noord"}, "geometry": {"type": "MultiPolygon", "coordinates": [[[[5.27238, 52.39223], [5.26471, 52.38867], [5.26216, 52.39094], [5.26872, 52.39392], [5.27238, 52.39223]]]]}}, {"type": "Feature", "properties": {"statcode": "BU00344602", "statnaam": "Landgoederenbuurt Oost"}, "geometry": {"type": "MultiPolygon", "coordinates": [[[[5.2755, 52.39226], [5.26861, 52.38596], [5.26471, 52.38867], [5.27238, 52.39223], [5.2755, 52.39226]]]]}}, {"type": "Feature", "properties": {"statcode": "BU00344603", "statnaam": "Landgoederenbuurt Zuid en West"}, "geometry": {"type": "MultiPolygon", "coordinates": [[[[5.26216, 52.39094], [5.26471, 52.38867], [5.26861, 52.38596], [5.26383, 52.3827], [5.26332, 52.3824], [5.2591, 52.38604], [5.25619, 52.38856], [5.26216, 52.39094]]]]}}, {"type": "Feature", "properties": {"statcode": "BU00344701", "statnaam": "Faunabuurt Noord"}, "geometry": {"type": "MultiPolygon", "coordinates": [[[[5.27718, 52.39148], [5.27496, 52.38897], [5.27803, 52.38646], [5.27802, 52.38645], [5.27659, 52.38585], [5.27251, 52.38519], [5.26861, 52.38596], [5.2755, 52.39226], [5.27555, 52.39237], [5.27718, 52.39148]]]]}}, {"type": "Feature", "properties": {"statcode": "BU00344702", "statnaam": "Faunabuurt Zuidoost"}, "geometry": {"type": "MultiPolygon", "coordinates": [[[[5.27965, 52.38314], [5.27252, 52.38095], [5.27251, 52.38519], [5.27659, 52.38585], [5.27965, 52.38314]]]]}}, {"type": "Feature", "properties": {"statcode": "BU00344703", "statnaam": "Faunabuurt Zuidwest"}, "geometry": {"type": "MultiPolygon", "coordinates": [[[[5.27251, 52.38519], [5.27252, 52.38095], [5.26782, 52.38106], [5.26383, 52.3827], [5.26861, 52.38596], [5.27251, 52.38519]]]]}}, {"type": "Feature", "properties": {"statcode": "BU00344704", "statnaam": "Bedrijventerrein Faunabuurt"}, "geometry": {"type": "MultiPolygon", "coordinates": [[[[5.28097, 52.38356], [5.27965, 52.38314], [5.27659, 52.38585], [5.27802, 52.38645], [5.28097, 52.38356]]]]}}, {"type": "Feature", "properties": {"statcode": "BU00344801", "statnaam": "Bloemenbuurt Noord"}, "geometry": {"type": "MultiPolygon", "coordinates": [[[[5.28858, 52.391], [5.284, 52.38904], [5.27971, 52.39248], [5.28466, 52.39469], [5.28858, 52.391]]]]}}, {"type": "Feature", "properties": {"statcode": "BU00344802", "statnaam": "Bloemenbuurt Oost"}, "geometry": {"type": "MultiPolygon", "coordinates": [[[[5.29183, 52.38846], [5.29247, 52.38749], [5.2872, 52.38569], [5.284, 52.38904], [5.28858, 52.391], [5.29183, 52.38846]]]]}}, {"type": "Feature", "properties": {"statcode": "BU00344803", "statnaam": "Bloemenbuurt Zuid"}, "geometry": {"type": "MultiPolygon", "coordinates": [[[[5.2872, 52.38569], [5.28097, 52.38356], [5.27802, 52.38645], [5.27803, 52.38646], [5.284, 52.38904], [5.2872, 52.38569]]]]}}, {"type": "Feature", "properties": {"statcode": "BU00344804", "statnaam": "Bloemenbuurt West"}, "geometry": {"type": "MultiPolygon", "coordinates": [[[[5.284, 52.38904], [5.27803, 52.38646], [5.27496, 52.38897], [5.27718, 52.39148], [5.27971, 52.39248], [5.284, 52.38904]]]]}}, {"type": "Feature", "properties": {"statcode": "BU00344901", "statnaam": "Regenboogbuurt Noord en Oost"}, "geometry": {"type": "MultiPolygon", "coordinates": [[[[5.30083, 52.39648], [5.30238, 52.3954], [5.30241, 52.39538], [5.30262, 52.39523], [5.30281, 52.39514], [5.30355, 52.39482], [5.30381, 52.39471], [5.30404, 52.3946], [5.29747, 52.39202], [5.29194, 52.39776], [5.29707, 52.39994], [5.30083, 52.39648]]]]}}, {"type": "Feature", "properties": {"statcode": "BU00344902", "statnaam": "Regenboogbuurt Zuid"}, "geometry": {"type": "MultiPolygon", "coordinates": [[[[5.30773, 52.39258], [5.29947, 52.38981], [5.29747, 52.39202], [5.30404, 52.3946], [5.30773, 52.39258]]]]}}, {"type": "Feature", "properties": {"statcode": "BU00344903", "statnaam": "Regenboogbuurt West"}, "geometry": {"type": "MultiPolygon", "coordinates": [[[[5.29747, 52.39202], [5.29947, 52.38981], [5.29525, 52.38838], [5.28737, 52.39579], [5.29194, 52.39776], [5.29747, 52.39202]]]]}}, {"type": "Feature", "properties": {"statcode": "BU00344904", "statnaam": "Meridiaanpark Zuid"}, "geometry": {"type": "MultiPolygon", "coordinates": [[[[5.29525, 52.38838], [5.29183, 52.38846], [5.28858, 52.391], [5.28466, 52.39469], [5.28737, 52.39579], [5.29525, 52.38838]]]]}}, {"type": "Feature", "properties": {"statcode": "BU00345001", "statnaam": "Indische Buurt Oost"}, "geometry": {"type": "MultiPolygon", "coordinates": [[[[5.31732, 52.41005], [5.32042, 52.40921], [5.31829, 52.40749], [5.31304, 52.40701], [5.30629, 52.40411], [5.30506, 52.40518], [5.30791, 52.40598], [5.31732, 52.41005]]]]}}, {"type": "Feature", "properties": {"statcode": "BU00345002", "statnaam": "Indische Buurt West"}, "geometry": {"type": "MultiPolygon", "coordinates": [[[[5.30506, 52.40518], [5.30629, 52.40411], [5.30195, 52.40209], [5.29707, 52.39994], [5.29194, 52.39776], [5.28737, 52.39579], [5.28466, 52.39469], [5.28264, 52.39644], [5.28254, 52.39653], [5.28559, 52.39758], [5.29042, 52.39931], [5.29349, 52.40054], [5.3005, 52.40291], [5.30046, 52.40345], [5.30506, 52.40518]]]]}}, {"type": "Feature", "properties": {"statcode": "BU00345101", "statnaam": "Eilandenbuurt Noord"}, "geometry": {"type": "MultiPolygon", "coordinates": [[[[5.31038, 52.40058], [5.30589, 52.39864], [5.30195, 52.40209], [5.30629, 52.40411], [5.31038, 52.40058]]]]}}, {"type": "Feature", "properties": {"statcode": "BU00345102", "statnaam": "Eilandenbuurt Oost"}, "geometry": {"type": "MultiPolygon", "coordinates": [[[[5.31051, 52.40047], [5.3146, 52.39691], [5.31621, 52.3955], [5.30923, 52.39309], [5.3092, 52.39342], [5.30916, 52.39379], [5.30916, 52.39385], [5.30914, 52.39406], [5.30913, 52.39412], [5.30909, 52.39459], [5.30908, 52.39465], [5.30905, 52.39499], [5.30905, 52.39505], [5.30899, 52.39569], [5.30898, 52.39575], [5.30895, 52.39609], [5.30894, 52.39615], [5.30891, 52.3965], [5.30589, 52.39864], [5.31038, 52.40058], [5.31051, 52.40047]]]]}}, {"type": "Feature", "properties": {"statcode": "BU00345103", "statnaam": "Eilandenbuurt Zuid"}, "geometry": {"type": "MultiPolygon", "coordinates": [[[[5.30899, 52.39569], [5.30905, 52.39505], [5.30905, 52.39499], [5.30908, 52.39465], [5.30909, 52.39459], [5.30913, 52.39412], [5.30914, 52.39406], [5.30916, 52.39385], [5.30916, 52.39379], [5.3092, 52.39342], [5.30923, 52.39309], [5.30773, 52.39258], [5.30773, 52.39258], [5.30404, 52.3946], [5.30381, 52.39471], [5.30355, 52.39482], [5.30281, 52.39514], [5.30262, 52.39523], [5.30262, 52.39524], [5.30295, 52.39557], [5.30347, 52.39536], [5.30476, 52.39595], [5.30294, 52.39736], [5.30562, 52.39852], [5.30589, 52.39864], [5.30891, 52.3965], [5.30894, 52.39615], [5.30895, 52.39609], [5.30898, 52.39575], [5.30899, 52.39569]]]]}}, {"type": "Feature", "properties": {"statcode": "BU00345104", "statnaam": "Eilandenbuurt West"}, "geometry": {"type": "MultiPolygon", "coordinates": [[[[5.30589, 52.39864], [5.30562, 52.39852], [5.30294, 52.39736], [5.30108, 52.39659], [5.30083, 52.39648], [5.29707, 52.39994], [5.30195, 52.40209], [5.30589, 52.39864]]]]}}, {"type": "Feature", "properties": {"statcode": "BU00345105", "statnaam": "Bedrijventerrein De Rederij"}, "geometry": {"type": "MultiPolygon", "coordinates": [[[[5.30476, 52.39595], [5.30347, 52.39536], [5.30295, 52.39557], [5.30262, 52.39524], [5.30262, 52.39523], [5.30241, 52.39538], [5.30238, 52.3954], [5.30083, 52.39648], [5.30108, 52.39659], [5.30294, 52.39736], [5.30476, 52.39595]]]]}}, {"type": "Feature", "properties": {"statcode": "BU00345201", "statnaam": "Stripheldenbuurt Noordwest"}, "geometry": {"type": "MultiPolygon", "coordinates": [[[[5.31749, 52.40321], [5.31051, 52.40047], [5.31038, 52.40058], [5.30629, 52.40411], [5.31304, 52.40701], [5.31749, 52.40321]]]]}}, {"type": "Feature", "properties": {"statcode": "BU00345202", "statnaam": "Stripheldenbuurt Noordoost"}, "geometry": {"type": "MultiPolygon", "coordinates": [[[[5.31829, 52.40749], [5.3233, 52.40567], [5.32228, 52.40516], [5.31749, 52.40321], [5.31304, 52.40701], [5.31829, 52.40749]]]]}}, {"type": "Feature", "properties": {"statcode": "BU00345203", "statnaam": "Stripheldenbuurt Midden- oost"}, "geometry": {"type": "MultiPolygon", "coordinates": [[[[5.32228, 52.40516], [5.32636, 52.40162], [5.32123, 52.39952], [5.31749, 52.40321], [5.32228, 52.40516]]]]}}, {"type": "Feature", "properties": {"statcode": "BU00345204", "statnaam": "Stripheldenbuurt Oost"}, "geometry": {"type": "MultiPolygon", "coordinates": [[[[5.33878, 52.40312], [5.32867, 52.39961], [5.32636, 52.40162], [5.32228, 52.40516], [5.3233, 52.40567], [5.32631, 52.40736], [5.33878, 52.40312]]]]}}, {"type": "Feature", "properties": {"statcode": "BU00345205", "statnaam": "Stripheldenbuurt Zuid"}, "geometry": {"type": "MultiPolygon", "coordinates": [[[[5.32867, 52.39961], [5.31621, 52.3955], [5.3146, 52.39691], [5.32123, 52.39952], [5.32636, 52.40162], [5.32867, 52.39961]]]]}}, {"type": "Feature", "properties": {"statcode": "BU00345206", "statnaam": "Stripheldenbuurt Midden- west"}, "geometry": {"type": "MultiPolygon", "coordinates": [[[[5.32123, 52.39952], [5.3146, 52.39691], [5.31051, 52.40047], [5.31749, 52.40321], [5.32123, 52.39952]]]]}}, {"type": "Feature", "properties": {"statcode": "BU00345207", "statnaam": "Bedrijventerrein De Striptekenaar"}, "geometry": {"type": "MultiPolygon", "coordinates": [[[[5.32631, 52.40736], [5.3233, 52.40567], [5.31829, 52.40749], [5.32042, 52.40921], [5.32631, 52.40736]]]]}}, {"type": "Feature", "properties": {"statcode": "BU00345301", "statnaam": "Sieradenbuurt (brt)"}, "geometry": {"type": "MultiPolygon", "coordinates": [[[[5.31732, 52.41005], [5.30791, 52.40598], [5.30082, 52.41032], [5.30615, 52.41345], [5.31732, 52.41005]]]]}}, {"type": "Feature", "properties": {"statcode": "BU00345302", "statnaam": "Oostrandpark Oost"}, "geometry": {"type": "MultiPolygon", "coordinates": [[[[5.30615, 52.41345], [5.30082, 52.41032], [5.29753, 52.41259], [5.29316, 52.41128], [5.29091, 52.41331], [5.29872, 52.41456], [5.30615, 52.41345]]]]}}, {"type": "Feature", "properties": {"statcode": "BU00345601", "statnaam": "Poldervlak Oost"}, "geometry": {"type": "MultiPolygon", "coordinates": [[[[5.27382, 52.40406], [5.26798, 52.4017], [5.26347, 52.40507], [5.26921, 52.4077], [5.27382, 52.40406]]]]}}, {"type": "Feature", "properties": {"statcode": "BU00345602", "statnaam": "Poldervlak West"}, "geometry": {"type": "MultiPolygon", "coordinates": [[[[5.26798, 52.4017], [5.26452, 52.40004], [5.26294, 52.39935], [5.25842, 52.40239], [5.25844, 52.40247], [5.26347, 52.40507], [5.26798, 52.4017]]]]}}, {"type": "Feature", "properties": {"statcode": "BU00345701", "statnaam": "Bedrijventerrein De Vaart 4-6"}, "geometry": {"type": "MultiPolygon", "coordinates": [[[[5.26921, 52.4077], [5.26347, 52.40507], [5.25844, 52.40247], [5.25118, 52.41073], [5.24747, 52.41186], [5.24556, 52.41344], [5.23745, 52.4203], [5.23644, 52.42271], [5.23788, 52.42424], [5.24711, 52.42762], [5.26921, 52.4077]]]]}}, {"type": "Feature", "properties": {"statcode": "BU00345702", "statnaam": "Bedrijventerrein De Vaart 1-3"}, "geometry": {"type": "MultiPolygon", "coordinates": [[[[5.24747, 52.41186], [5.25118, 52.41073], [5.25844, 52.40247], [5.25842, 52.40239], [5.25584, 52.4012], [5.24594, 52.39813], [5.23474, 52.40872], [5.24556, 52.41344], [5.24747, 52.41186]]]]}}, {"type": "Feature", "properties": {"statcode": "BU00345801", "statnaam": "Buitenvaart (brt)"}, "geometry": {"type": "MultiPolygon", "coordinates": [[[[5.25802, 52.43205], [5.26754, 52.42213], [5.27068, 52.42239], [5.27419, 52.42004], [5.27966, 52.41805], [5.28237, 52.41591], [5.28356, 52.41493], [5.28248, 52.41291], [5.28344, 52.41174], [5.28087, 52.41097], [5.26921, 52.4077], [5.24711, 52.42762], [5.25802, 52.43205]]]]}}, {"type": "Feature", "properties": {"statcode": "BU00345901", "statnaam": "Overig Almere Buiten Noord"}, "geometry": {"type": "MultiPolygon", "coordinates": [[[[5.26798, 52.42737], [5.27581, 52.42332], [5.31886, 52.41071], [5.31732, 52.41005], [5.30615, 52.41345], [5.29872, 52.41456], [5.29091, 52.41331], [5.28344, 52.41174], [5.28248, 52.41291], [5.28356, 52.41493], [5.28237, 52.41591], [5.27966, 52.41805], [5.27419, 52.42004], [5.27068, 52.42239], [5.26754, 52.42213], [5.25802, 52.43205], [5.24711, 52.42762], [5.23788, 52.42424], [5.23644, 52.42271], [5.23745, 52.4203], [5.24556, 52.41344], [5.23474, 52.40872], [5.2298, 52.41416], [5.22522, 52.41744], [5.21767, 52.41604], [5.20598, 52.41605], [5.22713, 52.42363], [5.22714, 52.42336], [5.20825, 52.41637], [5.21697, 52.41643], [5.22051, 52.41772], [5.22011, 52.41836], [5.22211, 52.4179], [5.22268, 52.41837], [5.22397, 52.4178], [5.22459, 52.41806], [5.2245, 52.41911], [5.22845, 52.42066], [5.23177, 52.42429], [5.23325, 52.42562], [5.22987, 52.42469], [5.25842, 52.43543], [5.26798, 52.42737]]]]}}, {"type": "Feature", "properties": {"statcode": "BU00345902", "statnaam": "Overig Almere Buiten Zuid"}, "geometry": {"type": "MultiPolygon", "coordinates": [[[[5.33484, 52.40573], [5.34371, 52.40124], [5.34951, 52.40147], [5.35077, 52.40021], [5.34817, 52.39703], [5.34637, 52.39611], [5.33935, 52.39581], [5.33237, 52.39325], [5.33293, 52.39277], [5.31352, 52.38574], [5.31304, 52.38625], [5.30124, 52.38199], [5.29669, 52.37992], [5.28953, 52.37412], [5.27615, 52.3773], [5.27128, 52.37871], [5.26575, 52.38039], [5.26281, 52.38212], [5.26332, 52.3824], [5.26383, 52.3827], [5.26782, 52.38106], [5.27252, 52.38095], [5.27965, 52.38314], [5.28097, 52.38356], [5.2872, 52.38569], [5.29247, 52.38749], [5.29183, 52.38846], [5.29525, 52.38838], [5.29947, 52.38981], [5.30773, 52.39258], [5.30773, 52.39258], [5.30923, 52.39309], [5.31621, 52.3955], [5.32867, 52.39961], [5.33878, 52.40312], [5.32631, 52.40736], [5.32042, 52.40921], [5.31732, 52.41005], [5.31886, 52.41071], [5.33484, 52.40573]]]]}}, {"type": "Feature", "properties": {"statcode": "BU00346001", "statnaam": "Europakwartier Oost (brt)"}, "geometry": {"type": "MultiPolygon", "coordinates": [[[[5.15606, 52.34928], [5.16344, 52.34607], [5.15955, 52.34242], [5.15261, 52.3441], [5.15383, 52.34638], [5.15606, 52.34928]]]]}}, {"type": "Feature", "properties": {"statcode": "BU00346101", "statnaam": "Europakwartier W.-Noord"}, "geometry": {"type": "MultiPolygon", "coordinates": [[[[5.1527, 52.3492], [5.15609, 52.34932], [5.15606, 52.34928], [5.15383, 52.34638], [5.14558, 52.34592], [5.14149, 52.35047], [5.1527, 52.3492]]]]}}, {"type": "Feature", "properties": {"statcode": "BU00346102", "statnaam": "Europakwartier W.-Zuid"}, "geometry": {"type": "MultiPolygon", "coordinates": [[[[5.15383, 52.34638], [5.15261, 52.3441], [5.15258, 52.34403], [5.14799, 52.34383], [5.14558, 52.34592], [5.15383, 52.34638]]]]}}, {"type": "Feature", "properties": {"statcode": "BU00346103", "statnaam": "Europakwartier W.-West"}, "geometry": {"type": "MultiPolygon", "coordinates": [[[[5.13928, 52.35066], [5.14149, 52.35047], [5.14558, 52.34592], [5.14799, 52.34383], [5.14569, 52.3433], [5.14546, 52.34335], [5.13928, 52.35066]]]]}}, {"type": "Feature", "properties": {"statcode": "BU00346201", "statnaam": "Columbuskwartier Noord"}, "geometry": {"type": "MultiPolygon", "coordinates": [[[[5.1456, 52.35484], [5.14869, 52.35145], [5.13707, 52.35287], [5.13506, 52.35485], [5.14313, 52.35777], [5.1456, 52.35484]]]]}}, {"type": "Feature", "properties": {"statcode": "BU00346202", "statnaam": "Columbuskwartier Zuid"}, "geometry": {"type": "MultiPolygon", "coordinates": [[[[5.14869, 52.35145], [5.15736, 52.35061], [5.15609, 52.34932], [5.1527, 52.3492], [5.14149, 52.35047], [5.13928, 52.35066], [5.13707, 52.35287], [5.14869, 52.35145]]]]}}, {"type": "Feature", "properties": {"statcode": "BU00346301", "statnaam": "Homeruskwartier Noord"}, "geometry": {"type": "MultiPolygon", "coordinates": [[[[5.15451, 52.36139], [5.15507, 52.3603], [5.15091, 52.35833], [5.15083, 52.35684], [5.14831, 52.35575], [5.1456, 52.35484], [5.14313, 52.35777], [5.15451, 52.36139]]]]}}, {"type": "Feature", "properties": {"statcode": "BU00346302", "statnaam": "Homeruskwartier Midden"}, "geometry": {"type": "MultiPolygon", "coordinates": [[[[5.1579, 52.35927], [5.15951, 52.35753], [5.15806, 52.3542], [5.15319, 52.35343], [5.1506, 52.35414], [5.14831, 52.35575], [5.15083, 52.35684], [5.15091, 52.35833], [5.15507, 52.3603], [5.1579, 52.35927]]]]}}, {"type": "Feature", "properties": {"statcode": "BU00346303", "statnaam": "Homeruskwartier Oost"}, "geometry": {"type": "MultiPolygon", "coordinates": [[[[5.1636, 52.35515], [5.15951, 52.3524], [5.15806, 52.3542], [5.15951, 52.35753], [5.1579, 52.35927], [5.15507, 52.3603], [5.15451, 52.36139], [5.15703, 52.36239], [5.1636, 52.35515]]]]}}, {"type": "Feature", "properties": {"statcode": "BU00346304", "statnaam": "Homeruskwartier Zuid"}, "geometry": {"type": "MultiPolygon", "coordinates": [[[[5.1506, 52.35414], [5.15319, 52.35343], [5.15806, 52.3542], [5.15951, 52.3524], [5.15736, 52.35061], [5.14869, 52.35145], [5.1456, 52.35484], [5.14831, 52.35575], [5.1506, 52.35414]]]]}}, {"type": "Feature", "properties": {"statcode": "BU00346401", "statnaam": "Olympiakwartier Oost (brt)"}, "geometry": {"type": "MultiPolygon", "coordinates": [[[[5.15955, 52.34242], [5.16178, 52.3413], [5.15491, 52.33783], [5.15284, 52.33559], [5.15065, 52.33445], [5.15005, 52.3354], [5.15258, 52.34403], [5.15261, 52.3441], [5.15955, 52.34242]]]]}}, {"type": "Feature", "properties": {"statcode": "BU00346501", "statnaam": "Olympiakwartier West (brt)"}, "geometry": {"type": "MultiPolygon", "coordinates": [[[[5.15258, 52.34403], [5.15005, 52.3354], [5.14939, 52.3381], [5.14569, 52.3433], [5.14799, 52.34383], [5.15258, 52.34403]]]]}}, {"type": "Feature", "properties": {"statcode": "BU00346601", "statnaam": "Duin Noord"}, "geometry": {"type": "MultiPolygon", "coordinates": [[[[5.13356, 52.35703], [5.13506, 52.35485], [5.13707, 52.35287], [5.13928, 52.35066], [5.14546, 52.34335], [5.14099, 52.34152], [5.13829, 52.34168], [5.13672, 52.34325], [5.13392, 52.34399], [5.13363, 52.3442], [5.1342, 52.34474], [5.13346, 52.34527], [5.13347, 52.34599], [5.13394, 52.3465], [5.13314, 52.34713], [5.1342, 52.34796], [5.13282, 52.35708], [5.13356, 52.35703]]]]}}, {"type": "Feature", "properties": {"statcode": "BU00346602", "statnaam": "Duin Zuid"}, "geometry": {"type": "MultiPolygon", "coordinates": [[[[5.14546, 52.34335], [5.14569, 52.3433], [5.14939, 52.3381], [5.15005, 52.3354], [5.15065, 52.33445], [5.14582, 52.32973], [5.13844, 52.32581], [5.13832, 52.3259], [5.14005, 52.32678], [5.13696, 52.32934], [5.13724, 52.32944], [5.13933, 52.32803], [5.14141, 52.3282], [5.14361, 52.32964], [5.14487, 52.33141], [5.14049, 52.33407], [5.13599, 52.33759], [5.13417, 52.33789], [5.13445, 52.33807], [5.13476, 52.33824], [5.13515, 52.33866], [5.13593, 52.33873], [5.13607, 52.33894], [5.13553, 52.33922], [5.13468, 52.33861], [5.13265, 52.33793], [5.13287, 52.33774], [5.1328, 52.33769], [5.13242, 52.33774], [5.13212, 52.33747], [5.13216, 52.3371], [5.13094, 52.3377], [5.13099, 52.33823], [5.13215, 52.33811], [5.13462, 52.34106], [5.13457, 52.34138], [5.13175, 52.34246], [5.12971, 52.33989], [5.13117, 52.34201], [5.13098, 52.34346], [5.13235, 52.34374], [5.13392, 52.34399], [5.13672, 52.34325], [5.13829, 52.34168], [5.14099, 52.34152], [5.14546, 52.34335]]]]}}, {"type": "Feature", "properties": {"statcode": "BU00347101", "statnaam": "Hogekant (brt)"}, "geometry": {"type": "MultiPolygon", "coordinates": [[[[5.1722, 52.35639], [5.17362, 52.35276], [5.17373, 52.34986], [5.16866, 52.34911], [5.16408, 52.3548], [5.17123, 52.35843], [5.1722, 52.35639]]]]}}, {"type": "Feature", "properties": {"statcode": "BU00347201", "statnaam": "Middenkant (brt)"}, "geometry": {"type": "MultiPolygon", "coordinates": [[[[5.16408, 52.3548], [5.16866, 52.34911], [5.16827, 52.34629], [5.16344, 52.34607], [5.15606, 52.34928], [5.15609, 52.34932], [5.15736, 52.35061], [5.15951, 52.3524], [5.1636, 52.35515], [5.16408, 52.3548]]]]}}, {"type": "Feature", "properties": {"statcode": "BU00347301", "statnaam": "Lagekant (brt)"}, "geometry": {"type": "MultiPolygon", "coordinates": [[[[5.16827, 52.34629], [5.16782, 52.34439], [5.16178, 52.3413], [5.15955, 52.34242], [5.16344, 52.34607], [5.16827, 52.34629]]]]}}, {"type": "Feature", "properties": {"statcode": "BU00347401", "statnaam": "Overig Almere Poort Noord"}, "geometry": {"type": "MultiPolygon", "coordinates": [[[[5.16118, 52.36641], [5.16677, 52.3656], [5.17007, 52.36583], [5.17002, 52.36536], [5.16977, 52.36169], [5.17123, 52.35843], [5.16408, 52.3548], [5.1636, 52.35515], [5.15703, 52.36239], [5.15451, 52.36139], [5.14313, 52.35777], [5.13506, 52.35485], [5.13356, 52.35703], [5.13371, 52.35769], [5.15443, 52.36468], [5.16118, 52.36641]]]]}}, {"type": "Feature", "properties": {"statcode": "BU00347402", "statnaam": "Overig Almere Poort Zuid"}, "geometry": {"type": "MultiPolygon", "coordinates": [[[[5.17709, 52.34254], [5.17546, 52.34064], [5.17078, 52.33964], [5.16208, 52.33631], [5.14093, 52.32607], [5.13921, 52.32522], [5.13882, 52.32552], [5.13844, 52.32581], [5.14582, 52.32973], [5.15065, 52.33445], [5.15284, 52.33559], [5.15491, 52.33783], [5.16178, 52.3413], [5.16782, 52.34439], [5.16827, 52.34629], [5.16866, 52.34911], [5.17373, 52.34986], [5.17373, 52.34614], [5.17709, 52.34254]]]]}}, {"type": "Feature", "properties": {"statcode": "BU00347501", "statnaam": "Vogelhorst Noord"}, "geometry": {"type": "MultiPolygon", "coordinates": [[[[5.30725, 52.3487], [5.31168, 52.34461], [5.29669, 52.33818], [5.2918, 52.34293], [5.28944, 52.34423], [5.29205, 52.34378], [5.30168, 52.34822], [5.30725, 52.3487]]]]}}, {"type": "Feature", "properties": {"statcode": "BU00347502", "statnaam": "Vogelhorst Zuid"}, "geometry": {"type": "MultiPolygon", "coordinates": [[[[5.31583, 52.34095], [5.30706, 52.33668], [5.30223, 52.334], [5.29669, 52.33818], [5.31168, 52.34461], [5.31583, 52.34095]]]]}}, {"type": "Feature", "properties": {"statcode": "BU00347503", "statnaam": "Vogelhorst-Golfbaan Almeerderhout"}, "geometry": {"type": "MultiPolygon", "coordinates": [[[[5.30725, 52.3487], [5.30168, 52.34822], [5.29205, 52.34378], [5.28944, 52.34423], [5.28563, 52.34747], [5.28192, 52.34853], [5.29962, 52.35617], [5.30725, 52.3487]]]]}}, {"type": "Feature", "properties": {"statcode": "BU00347504", "statnaam": "Bosgebied Vogelhorst"}, "geometry": {"type": "MultiPolygon", "coordinates": [[[[5.28192, 52.34853], [5.28563, 52.34747], [5.28944, 52.34423], [5.2918, 52.34293], [5.29669, 52.33818], [5.30223, 52.334], [5.29825, 52.33174], [5.28873, 52.34112], [5.28735, 52.34264], [5.28786, 52.3431], [5.28097, 52.34877], [5.28192, 52.34853]]]]}}, {"type": "Feature", "properties": {"statcode": "BU00347601", "statnaam": "Nobelhorst Oost"}, "geometry": {"type": "MultiPolygon", "coordinates": [[[[5.30545, 52.3615], [5.29054, 52.35503], [5.28277, 52.36185], [5.29113, 52.36572], [5.2937, 52.36783], [5.29637, 52.36663], [5.29921, 52.36825], [5.30545, 52.3615]]]]}}, {"type": "Feature", "properties": {"statcode": "BU00347602", "statnaam": "Nobelhorst Zuid"}, "geometry": {"type": "MultiPolygon", "coordinates": [[[[5.30707, 52.35976], [5.29962, 52.35617], [5.28192, 52.34853], [5.28097, 52.34877], [5.27949, 52.35019], [5.29054, 52.35503], [5.30545, 52.3615], [5.30707, 52.35976]]]]}}, {"type": "Feature", "properties": {"statcode": "BU00347603", "statnaam": "Nobelhorst West"}, "geometry": {"type": "MultiPolygon", "coordinates": [[[[5.29054, 52.35503], [5.27949, 52.35019], [5.26958, 52.35988], [5.26932, 52.3601], [5.27335, 52.36147], [5.27581, 52.35954], [5.27997, 52.3595], [5.27961, 52.36082], [5.28277, 52.36185], [5.29054, 52.35503]]]]}}, {"type": "Feature", "properties": {"statcode": "BU00347604", "statnaam": "Bedrijventerrein Het Ambacht"}, "geometry": {"type": "MultiPolygon", "coordinates": [[[[5.27997, 52.3595], [5.27581, 52.35954], [5.27867, 52.36038], [5.27961, 52.36082], [5.27997, 52.3595]]]]}}, {"type": "Feature", "properties": {"statcode": "BU00347701", "statnaam": "Oosterwold Noord"}, "geometry": {"type": "MultiPolygon", "coordinates": [[[[5.30124, 52.38199], [5.33749, 52.35037], [5.31583, 52.34095], [5.31168, 52.34461], [5.30725, 52.3487], [5.29962, 52.35617], [5.30707, 52.35976], [5.30545, 52.3615], [5.29921, 52.36825], [5.29635, 52.37156], [5.29193, 52.37328], [5.28953, 52.37412], [5.29669, 52.37992], [5.30124, 52.38199]]]]}}, {"type": "Feature", "properties": {"statcode": "BU00347702", "statnaam": "Oosterwold Zuid"}, "geometry": {"type": "MultiPolygon", "coordinates": [[[[5.35054, 52.33904], [5.34759, 52.33616], [5.34747, 52.33108], [5.34591, 52.32671], [5.3449, 52.32679], [5.32767, 52.31946], [5.30706, 52.33668], [5.31583, 52.34095], [5.33749, 52.35037], [5.35054, 52.33904]]]]}}, {"type": "Feature", "properties": {"statcode": "BU00347703", "statnaam": "Kathadralenbos"}, "geometry": {"type": "MultiPolygon", "coordinates": [[[[5.32767, 52.31946], [5.3449, 52.32679], [5.34591, 52.32671], [5.34195, 52.32154], [5.33359, 52.31486], [5.30771, 52.32502], [5.30226, 52.32824], [5.29825, 52.33174], [5.30223, 52.334], [5.30706, 52.33668], [5.32767, 52.31946]]]]}}, {"type": "Feature", "properties": {"statcode": "BU00347901", "statnaam": "Twentsekant (brt)"}, "geometry": {"type": "MultiPolygon", "coordinates": [[[[5.29635, 52.37156], [5.29921, 52.36825], [5.29637, 52.36663], [5.2937, 52.36783], [5.29113, 52.36572], [5.28277, 52.36185], [5.27961, 52.36082], [5.27867, 52.36038], [5.27581, 52.35954], [5.27335, 52.36147], [5.27333, 52.36151], [5.27583, 52.36257], [5.29055, 52.37172], [5.29193, 52.37328], [5.29635, 52.37156]]]]}}, {"type": "Feature", "properties": {"statcode": "BU00348501", "statnaam": "Overig Almere Hout Oost"}, "geometry": {"type": "MultiPolygon", "coordinates": [[[[5.37916, 52.31411], [5.35401, 52.30941], [5.3505, 52.30923], [5.34492, 52.30994], [5.3335, 52.31427], [5.33359, 52.31486], [5.34195, 52.32154], [5.34591, 52.32671], [5.34747, 52.33108], [5.34759, 52.33616], [5.35054, 52.33904], [5.37916, 52.31411]]]]}}, {"type": "Feature", "properties": {"statcode": "BU00348502", "statnaam": "Overig Almere Hout West"}, "geometry": {"type": "MultiPolygon", "coordinates": [[[[5.27949, 52.35019], [5.28097, 52.34877], [5.28786, 52.3431], [5.28735, 52.34264], [5.28873, 52.34112], [5.29825, 52.33174], [5.30226, 52.32824], [5.30771, 52.32502], [5.33359, 52.31486], [5.3335, 52.31427], [5.33293, 52.31389], [5.30981, 52.32293], [5.28319, 52.33206], [5.27387, 52.33465], [5.2676, 52.33826], [5.26239, 52.34434], [5.25798, 52.35342], [5.25803, 52.35438], [5.26958, 52.35988], [5.27949, 52.35019]]]]}}, {"type": "Feature", "properties": {"statcode": "BU00349615", "statnaam": "Overig Almere Pampus (brt)"}, "geometry": {"type": "MultiPolygon", "coordinates": [[[[5.16212, 52.39367], [5.16839, 52.3862], [5.1761, 52.37816], [5.17523, 52.37711], [5.17516, 52.37706], [5.1727, 52.37457], [5.17107, 52.37001], [5.17007, 52.36583], [5.16677, 52.3656], [5.16118, 52.36641], [5.15443, 52.36468], [5.13371, 52.35769], [5.13356, 52.35703], [5.13282, 52.35708], [5.13124, 52.36546], [5.12266, 52.3748], [5.12275, 52.37886], [5.1243, 52.38054], [5.12875, 52.38291], [5.15676, 52.39311], [5.15838, 52.39489], [5.16212, 52.39367]]]]}}]}