{"type": "FeatureCollection", "features": [{"type": "Feature", "properties": {"statcode": "WK008010", "statnaam": "Binnenstad"}, "geometry": {"type": "MultiPolygon", "coordinates": [[[[5.79801, 53.20701], [5.80089, 53.20624], [5.80205, 53.20679], [5.80299, 53.2057], [5.80339, 53.20295], [5.80311, 53.20192], [5.80247, 53.19945], [5.79829, 53.19917], [5.7967, 53.19832], [5.79677, 53.19677], [5.78902, 53.19553], [5.78769, 53.19801], [5.78769, 53.19801], [5.78831, 53.1987], [5.78857, 53.20041], [5.78752, 53.20227], [5.78801, 53.20405], [5.79217, 53.20533], [5.79502, 53.20528], [5.79688, 53.20631], [5.79801, 53.20701]]]]}}, {"type": "Feature", "properties": {"statcode": "WK008011", "statnaam": "Potmargezone"}, "geometry": {"type": "MultiPolygon", "coordinates": [[[[5.83, 53.20065], [5.83406, 53.1954], [5.83592, 53.19299], [5.81673, 53.18966], [5.80933, 53.18814], [5.80928, 53.18814], [5.80155, 53.18655], [5.79686, 53.18662], [5.79757, 53.19043], [5.79782, 53.19101], [5.79822, 53.19262], [5.79844, 53.19343], [5.79677, 53.19677], [5.7967, 53.19832], [5.79829, 53.19917], [5.80247, 53.19945], [5.80286, 53.19944], [5.81015, 53.19981], [5.81695, 53.20029], [5.82795, 53.20216], [5.83, 53.20065]]]]}}, {"type": "Feature", "properties": {"statcode": "WK008020", "statnaam": "Oud-Oost"}, "geometry": {"type": "MultiPolygon", "coordinates": [[[[5.81349, 53.21329], [5.81403, 53.21205], [5.81873, 53.20851], [5.81951, 53.20781], [5.81953, 53.20459], [5.81799, 53.20262], [5.81695, 53.20029], [5.81015, 53.19981], [5.80286, 53.19944], [5.80247, 53.19945], [5.80311, 53.20192], [5.80339, 53.20295], [5.80299, 53.2057], [5.80205, 53.20679], [5.80089, 53.20624], [5.79801, 53.20701], [5.79888, 53.20949], [5.80271, 53.21289], [5.80342, 53.21277], [5.81088, 53.21254], [5.81349, 53.21329]]]]}}, {"type": "Feature", "properties": {"statcode": "WK008030", "statnaam": "Sonnenborgh e.o."}, "geometry": {"type": "MultiPolygon", "coordinates": [[[[5.78102, 53.21341], [5.78223, 53.21166], [5.78849, 53.21311], [5.80271, 53.21289], [5.79888, 53.20949], [5.79801, 53.20701], [5.79688, 53.20631], [5.79502, 53.20528], [5.79217, 53.20533], [5.78801, 53.20405], [5.78726, 53.20402], [5.77667, 53.20497], [5.77626, 53.20501], [5.77256, 53.20537], [5.77516, 53.21188], [5.77516, 53.2122], [5.77522, 53.2179], [5.78092, 53.2175], [5.78086, 53.21704], [5.78102, 53.21341]]]]}}, {"type": "Feature", "properties": {"statcode": "WK008031", "statnaam": "Westeinde e.o."}, "geometry": {"type": "MultiPolygon", "coordinates": [[[[5.76167, 53.23894], [5.76306, 53.23454], [5.77299, 53.23397], [5.77496, 53.2303], [5.7751, 53.22637], [5.77964, 53.2261], [5.78092, 53.2175], [5.77522, 53.2179], [5.77516, 53.2122], [5.77516, 53.21188], [5.77256, 53.20537], [5.76988, 53.20558], [5.7643, 53.20616], [5.76143, 53.20714], [5.75819, 53.20914], [5.75434, 53.2105], [5.74391, 53.21138], [5.74711, 53.21515], [5.74561, 53.21588], [5.73416, 53.21581], [5.7336, 53.22232], [5.73255, 53.23032], [5.73363, 53.2309], [5.73815, 53.23128], [5.72977, 53.23526], [5.73495, 53.23806], [5.73601, 53.23744], [5.74392, 53.2411], [5.74464, 53.24061], [5.76144, 53.23986], [5.76167, 53.23894]]]]}}, {"type": "Feature", "properties": {"statcode": "WK008032", "statnaam": "Vossepark & Helicon"}, "geometry": {"type": "MultiPolygon", "coordinates": [[[[5.77667, 53.20497], [5.78726, 53.20402], [5.78801, 53.20405], [5.78752, 53.20227], [5.78857, 53.20041], [5.78831, 53.1987], [5.78769, 53.19801], [5.78769, 53.19801], [5.78902, 53.19553], [5.78305, 53.19494], [5.77874, 53.19453], [5.77695, 53.19435], [5.77454, 53.19785], [5.7697, 53.19824], [5.77136, 53.20329], [5.76988, 53.20558], [5.77256, 53.20537], [5.77626, 53.20501], [5.77667, 53.20497]]]]}}, {"type": "Feature", "properties": {"statcode": "WK008040", "statnaam": "Huizum-West"}, "geometry": {"type": "MultiPolygon", "coordinates": [[[[5.79757, 53.19043], [5.79686, 53.18662], [5.78695, 53.189], [5.78054, 53.19171], [5.77714, 53.19418], [5.77874, 53.19453], [5.78305, 53.19494], [5.78902, 53.19553], [5.79677, 53.19677], [5.79844, 53.19343], [5.79822, 53.19262], [5.79782, 53.19101], [5.79757, 53.19043]]]]}}, {"type": "Feature", "properties": {"statcode": "WK008041", "statnaam": "Nijlân & De Zwette"}, "geometry": {"type": "MultiPolygon", "coordinates": [[[[5.7643, 53.20616], [5.76988, 53.20558], [5.77136, 53.20329], [5.7697, 53.19824], [5.77454, 53.19785], [5.77695, 53.19435], [5.77874, 53.19453], [5.77714, 53.19418], [5.78054, 53.19171], [5.78695, 53.189], [5.79686, 53.18662], [5.79681, 53.18329], [5.79466, 53.18335], [5.78383, 53.18423], [5.77395, 53.18526], [5.78271, 53.16995], [5.78495, 53.16545], [5.78846, 53.15831], [5.78373, 53.1587], [5.77976, 53.15985], [5.76361, 53.16897], [5.75583, 53.17325], [5.75148, 53.17338], [5.74494, 53.17211], [5.74203, 53.1721], [5.74088, 53.17277], [5.73779, 53.17255], [5.74142, 53.1809], [5.74541, 53.18523], [5.74034, 53.18537], [5.7407, 53.18745], [5.74212, 53.19428], [5.74457, 53.19781], [5.74241, 53.2001], [5.7374, 53.20622], [5.73609, 53.20609], [5.73474, 53.21122], [5.74391, 53.21138], [5.75434, 53.2105], [5.75819, 53.20914], [5.76143, 53.20714], [5.7643, 53.20616]]]]}}, {"type": "Feature", "properties": {"statcode": "WK008050", "statnaam": "Heechterp & Schieringen"}, "geometry": {"type": "MultiPolygon", "coordinates": [[[[5.8309, 53.21134], [5.83686, 53.20145], [5.83, 53.20065], [5.82795, 53.20216], [5.81695, 53.20029], [5.81799, 53.20262], [5.81953, 53.20459], [5.81951, 53.20781], [5.81873, 53.20851], [5.81403, 53.21205], [5.82474, 53.21626], [5.8292, 53.21718], [5.82941, 53.21423], [5.8309, 53.21134]]]]}}, {"type": "Feature", "properties": {"statcode": "WK008051", "statnaam": "Camminghaburen e.o."}, "geometry": {"type": "MultiPolygon", "coordinates": [[[[5.87989, 53.23325], [5.88066, 53.22498], [5.88999, 53.225], [5.88917, 53.22282], [5.89693, 53.22296], [5.89712, 53.22097], [5.88895, 53.22095], [5.88901, 53.21798], [5.89419, 53.21765], [5.89382, 53.21552], [5.8979, 53.21539], [5.89786, 53.21466], [5.90593, 53.21501], [5.90497, 53.21392], [5.905, 53.21248], [5.90565, 53.21184], [5.90705, 53.21103], [5.89789, 53.2087], [5.85773, 53.20406], [5.85766, 53.20387], [5.83686, 53.20145], [5.8309, 53.21134], [5.82941, 53.21423], [5.8292, 53.21718], [5.85124, 53.217], [5.86162, 53.21719], [5.86159, 53.2178], [5.85869, 53.21784], [5.85884, 53.22057], [5.85262, 53.22058], [5.851, 53.22241], [5.85049, 53.22456], [5.85255, 53.23048], [5.85904, 53.23057], [5.87623, 53.23231], [5.87795, 53.23323], [5.87989, 53.23325]]]]}}, {"type": "Feature", "properties": {"statcode": "WK008060", "statnaam": "Bilgaard & Havankpark e.o."}, "geometry": {"type": "MultiPolygon", "coordinates": [[[[5.80777, 53.21735], [5.80271, 53.21289], [5.78849, 53.21311], [5.78223, 53.21166], [5.78102, 53.21341], [5.78086, 53.21704], [5.78092, 53.2175], [5.77964, 53.2261], [5.78046, 53.2266], [5.78243, 53.2265], [5.80808, 53.224], [5.80789, 53.22122], [5.80801, 53.21755], [5.80777, 53.21735]]]]}}, {"type": "Feature", "properties": {"statcode": "WK008061", "statnaam": "Vrijheidswijk"}, "geometry": {"type": "MultiPolygon", "coordinates": [[[[5.82474, 53.21626], [5.81403, 53.21205], [5.81349, 53.21329], [5.81088, 53.21254], [5.80342, 53.21277], [5.80271, 53.21289], [5.80777, 53.21735], [5.80801, 53.21755], [5.81192, 53.2175], [5.81474, 53.21743], [5.8231, 53.21739], [5.8292, 53.21718], [5.82474, 53.21626]]]]}}, {"type": "Feature", "properties": {"statcode": "WK008062", "statnaam": "Dokkumer Ie e.o."}, "geometry": {"type": "MultiPolygon", "coordinates": [[[[5.82158, 53.25497], [5.82351, 53.25037], [5.83205, 53.2464], [5.83102, 53.24472], [5.83216, 53.24286], [5.8592, 53.24329], [5.85924, 53.24329], [5.85255, 53.23048], [5.85049, 53.22456], [5.851, 53.22241], [5.85262, 53.22058], [5.85884, 53.22057], [5.85869, 53.21784], [5.86159, 53.2178], [5.86162, 53.21719], [5.85124, 53.217], [5.8292, 53.21718], [5.8231, 53.21739], [5.81474, 53.21743], [5.81192, 53.2175], [5.80801, 53.21755], [5.80789, 53.22122], [5.80808, 53.224], [5.78243, 53.2265], [5.78046, 53.2266], [5.77964, 53.2261], [5.7751, 53.22637], [5.77496, 53.2303], [5.77299, 53.23397], [5.76306, 53.23454], [5.76167, 53.23894], [5.76144, 53.23986], [5.74464, 53.24061], [5.74392, 53.2411], [5.73527, 53.24705], [5.73362, 53.24852], [5.73613, 53.2489], [5.73596, 53.25147], [5.74127, 53.25131], [5.74144, 53.25219], [5.7645, 53.2517], [5.76667, 53.25131], [5.76808, 53.25245], [5.78322, 53.25646], [5.78638, 53.25729], [5.81568, 53.25584], [5.82158, 53.25497]]]]}}, {"type": "Feature", "properties": {"statcode": "WK008063", "statnaam": "Stiens e.o."}, "geometry": {"type": "MultiPolygon", "coordinates": [[[[5.73685, 53.29459], [5.74936, 53.29394], [5.75966, 53.2941], [5.76328, 53.29449], [5.76641, 53.29343], [5.7672, 53.29344], [5.76835, 53.29322], [5.76903, 53.29255], [5.77199, 53.29155], [5.79459, 53.28405], [5.79775, 53.2838], [5.79857, 53.28295], [5.81105, 53.28081], [5.81052, 53.27985], [5.81323, 53.27924], [5.81054, 53.27742], [5.81127, 53.27699], [5.81204, 53.27674], [5.81389, 53.27765], [5.81531, 53.27747], [5.81691, 53.27639], [5.83151, 53.27543], [5.83865, 53.27495], [5.83782, 53.27383], [5.83269, 53.26849], [5.83213, 53.25989], [5.8297, 53.25758], [5.8299, 53.25535], [5.83106, 53.25199], [5.83317, 53.24775], [5.83319, 53.24701], [5.83205, 53.2464], [5.82351, 53.25037], [5.82158, 53.25497], [5.81568, 53.25584], [5.78638, 53.25729], [5.78322, 53.25646], [5.76808, 53.25245], [5.76667, 53.25131], [5.7645, 53.2517], [5.74144, 53.25219], [5.74127, 53.25131], [5.73596, 53.25147], [5.7326, 53.25717], [5.72984, 53.26124], [5.73539, 53.26471], [5.72734, 53.26835], [5.72231, 53.27153], [5.72013, 53.27492], [5.72136, 53.27957], [5.72204, 53.28048], [5.72403, 53.28438], [5.72384, 53.28443], [5.72635, 53.28761], [5.72485, 53.28773], [5.7255, 53.28915], [5.72662, 53.28899], [5.72762, 53.28895], [5.72764, 53.28907], [5.72703, 53.28915], [5.72708, 53.28938], [5.72798, 53.2917], [5.72988, 53.29389], [5.73057, 53.29447], [5.73516, 53.29437], [5.73538, 53.29472], [5.73685, 53.29459]]]]}}, {"type": "Feature", "properties": {"statcode": "WK008070", "statnaam": "Aldlân & De Hemrik"}, "geometry": {"type": "MultiPolygon", "coordinates": [[[[5.85342, 53.18937], [5.85498, 53.18582], [5.85127, 53.1882], [5.84755, 53.18909], [5.83782, 53.18801], [5.81867, 53.18494], [5.81659, 53.1846], [5.80818, 53.18338], [5.79681, 53.18329], [5.79686, 53.18662], [5.80155, 53.18655], [5.80928, 53.18814], [5.80933, 53.18814], [5.81673, 53.18966], [5.83592, 53.19299], [5.83406, 53.1954], [5.83, 53.20065], [5.83686, 53.20145], [5.85766, 53.20387], [5.85699, 53.20293], [5.85747, 53.2016], [5.86207, 53.1936], [5.85097, 53.19172], [5.85342, 53.18937]]]]}}, {"type": "Feature", "properties": {"statcode": "WK008071", "statnaam": "Goutum"}, "geometry": {"type": "MultiPolygon", "coordinates": [[[[5.81815, 53.18011], [5.81373, 53.17968], [5.81304, 53.17738], [5.81127, 53.17575], [5.80213, 53.17579], [5.8043, 53.17184], [5.79993, 53.17017], [5.7992, 53.17099], [5.79231, 53.17315], [5.79587, 53.17912], [5.79389, 53.17974], [5.7941, 53.18043], [5.79466, 53.18335], [5.79681, 53.18329], [5.80818, 53.18338], [5.81659, 53.1846], [5.81815, 53.18011]]]]}}, {"type": "Feature", "properties": {"statcode": "WK008072", "statnaam": "Hempens/Teerns & Zuiderburen"}, "geometry": {"type": "MultiPolygon", "coordinates": [[[[5.85707, 53.18142], [5.86194, 53.17152], [5.85615, 53.17035], [5.84963, 53.16988], [5.84219, 53.16992], [5.84147, 53.16879], [5.82965, 53.16683], [5.82637, 53.17194], [5.82311, 53.17703], [5.82158, 53.17619], [5.81603, 53.17782], [5.81815, 53.18011], [5.81659, 53.1846], [5.81867, 53.18494], [5.83782, 53.18801], [5.84755, 53.18909], [5.85127, 53.1882], [5.85498, 53.18582], [5.85707, 53.18142]]]]}}, {"type": "Feature", "properties": {"statcode": "WK008073", "statnaam": "De Zuidlanden"}, "geometry": {"type": "MultiPolygon", "coordinates": [[[[5.81603, 53.17782], [5.82158, 53.17619], [5.82311, 53.17703], [5.82637, 53.17194], [5.82965, 53.16683], [5.80952, 53.16203], [5.80462, 53.16112], [5.78846, 53.15831], [5.78495, 53.16545], [5.79242, 53.16646], [5.79107, 53.16996], [5.79231, 53.17315], [5.7992, 53.17099], [5.79993, 53.17017], [5.8043, 53.17184], [5.80213, 53.17579], [5.81127, 53.17575], [5.81304, 53.17738], [5.81373, 53.17968], [5.81815, 53.18011], [5.81603, 53.17782]]]]}}, {"type": "Feature", "properties": {"statcode": "WK008074", "statnaam": "Middelsee"}, "geometry": {"type": "MultiPolygon", "coordinates": [[[[5.79242, 53.16646], [5.78495, 53.16545], [5.78271, 53.16995], [5.77395, 53.18526], [5.78383, 53.18423], [5.79466, 53.18335], [5.7941, 53.18043], [5.79389, 53.17974], [5.79587, 53.17912], [5.79231, 53.17315], [5.79107, 53.16996], [5.79242, 53.16646]]]]}}, {"type": "Feature", "properties": {"statcode": "WK008080", "statnaam": "Dorpen Zuid-Oost"}, "geometry": {"type": "MultiPolygon", "coordinates": [[[[5.88028, 53.17032], [5.91557, 53.16876], [5.92595, 53.16843], [5.93278, 53.1703], [5.93375, 53.16887], [5.93192, 53.16108], [5.9233, 53.15296], [5.91896, 53.14917], [5.90863, 53.14478], [5.92336, 53.13091], [5.92767, 53.12916], [5.9324, 53.12813], [5.93858, 53.1254], [5.94346, 53.12161], [5.94569, 53.11722], [5.94966, 53.10489], [5.94594, 53.10368], [5.93373, 53.10912], [5.93044, 53.10993], [5.92651, 53.10895], [5.9154, 53.10907], [5.91639, 53.11215], [5.91382, 53.11224], [5.91372, 53.11915], [5.90942, 53.12145], [5.89597, 53.11855], [5.87867, 53.11621], [5.87086, 53.12063], [5.86841, 53.1233], [5.86322, 53.1263], [5.86068, 53.12594], [5.85633, 53.12387], [5.85345, 53.12359], [5.85111, 53.12423], [5.8509, 53.12589], [5.848, 53.12689], [5.84439, 53.12412], [5.8426, 53.12166], [5.83059, 53.12224], [5.83054, 53.12268], [5.83106, 53.12433], [5.83714, 53.13383], [5.83332, 53.13433], [5.82624, 53.13388], [5.82349, 53.13502], [5.8224, 53.13636], [5.81662, 53.1347], [5.81316, 53.12756], [5.80732, 53.12603], [5.80496, 53.12495], [5.79458, 53.14594], [5.79117, 53.1459], [5.78724, 53.15064], [5.77998, 53.15207], [5.76494, 53.15355], [5.76536, 53.15449], [5.76561, 53.16141], [5.76361, 53.16897], [5.77976, 53.15985], [5.78373, 53.1587], [5.78846, 53.15831], [5.80462, 53.16112], [5.80952, 53.16203], [5.82965, 53.16683], [5.84147, 53.16879], [5.84219, 53.16992], [5.84963, 53.16988], [5.85615, 53.17035], [5.86194, 53.17152], [5.88028, 53.17032]]]]}}, {"type": "Feature", "properties": {"statcode": "WK008081", "statnaam": "Dorpen Zuid-West"}, "geometry": {"type": "MultiPolygon", "coordinates": [[[[5.6973, 53.17772], [5.6979, 53.17448], [5.69929, 53.17371], [5.7061, 53.17338], [5.71324, 53.17523], [5.71879, 53.16948], [5.72013, 53.17053], [5.72376, 53.16998], [5.72353, 53.16842], [5.72492, 53.16608], [5.72833, 53.16793], [5.72822, 53.16979], [5.73135, 53.17074], [5.73238, 53.16939], [5.73333, 53.16947], [5.73481, 53.17148], [5.73779, 53.17255], [5.74088, 53.17277], [5.74203, 53.1721], [5.74494, 53.17211], [5.75148, 53.17338], [5.75583, 53.17325], [5.76361, 53.16897], [5.76561, 53.16141], [5.76536, 53.15449], [5.76494, 53.15355], [5.77998, 53.15207], [5.78724, 53.15064], [5.79117, 53.1459], [5.79458, 53.14594], [5.80496, 53.12495], [5.80467, 53.12484], [5.79935, 53.12291], [5.79404, 53.12391], [5.78899, 53.1238], [5.78492, 53.12245], [5.78164, 53.12553], [5.77957, 53.12595], [5.76927, 53.12598], [5.7662, 53.12467], [5.75456, 53.12466], [5.75148, 53.12594], [5.74552, 53.12548], [5.73618, 53.1219], [5.73715, 53.12084], [5.73325, 53.12019], [5.73056, 53.12054], [5.72443, 53.12343], [5.71943, 53.12052], [5.70987, 53.1196], [5.70762, 53.11912], [5.70061, 53.11578], [5.69611, 53.11994], [5.69545, 53.12258], [5.69389, 53.1229], [5.69562, 53.12683], [5.69437, 53.12697], [5.69437, 53.12697], [5.69157, 53.12736], [5.69222, 53.12881], [5.69223, 53.12885], [5.68597, 53.12987], [5.68488, 53.12827], [5.68004, 53.12858], [5.65948, 53.11599], [5.65657, 53.11238], [5.65651, 53.11237], [5.64641, 53.11635], [5.64303, 53.12288], [5.63735, 53.12415], [5.63749, 53.12805], [5.63618, 53.13065], [5.63199, 53.13302], [5.63821, 53.13657], [5.64389, 53.13746], [5.64483, 53.13781], [5.64811, 53.13837], [5.6497, 53.13929], [5.65412, 53.14164], [5.64934, 53.14713], [5.65203, 53.14869], [5.65545, 53.14773], [5.65847, 53.14942], [5.66332, 53.14982], [5.66197, 53.15092], [5.66281, 53.15232], [5.6619, 53.15497], [5.65693, 53.15444], [5.65666, 53.15543], [5.65766, 53.15724], [5.65944, 53.15762], [5.6575, 53.15862], [5.66099, 53.16311], [5.6603, 53.16428], [5.65608, 53.16573], [5.65514, 53.16514], [5.65354, 53.16593], [5.65284, 53.16626], [5.66126, 53.16976], [5.66258, 53.17071], [5.66206, 53.1722], [5.66359, 53.17397], [5.66583, 53.17528], [5.66804, 53.17507], [5.6681, 53.17367], [5.66901, 53.17333], [5.67252, 53.17517], [5.67426, 53.17745], [5.67517, 53.17772], [5.67729, 53.17639], [5.6794, 53.17913], [5.68464, 53.18183], [5.68591, 53.18169], [5.6871, 53.18004], [5.69269, 53.17993], [5.6973, 53.17772]]]]}}, {"type": "Feature", "properties": {"statcode": "WK008082", "statnaam": "Grou e.o."}, "geometry": {"type": "MultiPolygon", "coordinates": [[[[5.82349, 53.13502], [5.82624, 53.13388], [5.83332, 53.13433], [5.83714, 53.13383], [5.83106, 53.12433], [5.83054, 53.12268], [5.83059, 53.12224], [5.8426, 53.12166], [5.84439, 53.12412], [5.848, 53.12689], [5.8509, 53.12589], [5.85111, 53.12423], [5.85345, 53.12359], [5.85633, 53.12387], [5.86068, 53.12594], [5.86322, 53.1263], [5.86841, 53.1233], [5.87086, 53.12063], [5.87867, 53.11621], [5.89597, 53.11855], [5.90942, 53.12145], [5.91372, 53.11915], [5.91382, 53.11224], [5.91639, 53.11215], [5.9154, 53.10907], [5.91049, 53.10916], [5.88201, 53.10694], [5.88598, 53.09445], [5.88598, 53.09445], [5.8823, 53.09333], [5.87825, 53.09096], [5.88085, 53.09017], [5.88312, 53.09098], [5.88311, 53.08896], [5.87725, 53.08538], [5.87464, 53.08507], [5.87287, 53.08514], [5.85912, 53.08198], [5.85444, 53.08241], [5.84477, 53.07958], [5.84336, 53.08038], [5.83102, 53.07838], [5.83016, 53.0796], [5.81927, 53.07586], [5.81418, 53.07239], [5.80824, 53.06659], [5.8067, 53.06557], [5.79639, 53.05884], [5.77391, 53.04592], [5.76985, 53.04585], [5.77101, 53.04697], [5.7707, 53.04744], [5.76954, 53.04953], [5.76681, 53.05055], [5.76313, 53.05662], [5.76184, 53.0608], [5.76668, 53.06224], [5.77505, 53.06664], [5.77356, 53.07411], [5.76428, 53.08028], [5.77101, 53.08108], [5.77263, 53.08182], [5.77438, 53.0857], [5.77281, 53.08761], [5.77148, 53.08765], [5.77119, 53.08794], [5.77204, 53.08838], [5.77138, 53.08911], [5.77813, 53.09273], [5.78815, 53.09656], [5.78738, 53.0985], [5.78462, 53.09903], [5.78057, 53.1019], [5.77696, 53.10346], [5.77421, 53.10381], [5.77111, 53.10292], [5.76953, 53.10326], [5.76778, 53.10506], [5.76972, 53.10599], [5.7694, 53.10654], [5.76483, 53.10897], [5.76318, 53.10906], [5.76265, 53.11164], [5.7614, 53.11368], [5.75745, 53.11272], [5.75659, 53.11578], [5.75624, 53.12084], [5.75456, 53.12466], [5.7662, 53.12467], [5.76927, 53.12598], [5.77957, 53.12595], [5.78164, 53.12553], [5.78492, 53.12245], [5.78899, 53.1238], [5.79404, 53.12391], [5.79935, 53.12291], [5.80467, 53.12484], [5.80496, 53.12495], [5.80732, 53.12603], [5.81316, 53.12756], [5.81662, 53.1347], [5.8224, 53.13636], [5.82349, 53.13502]]]]}}]}