{"type": "FeatureCollection", "features": [{"type": "Feature", "properties": {"statcode": "WK011401", "statnaam": "Wijk 01 Nieuw-Weerdinge"}, "geometry": {"type": "MultiPolygon", "coordinates": [[[[7.04029, 52.87282], [7.04349, 52.86522], [7.04643, 52.86586], [7.04788, 52.86451], [7.04763, 52.86374], [7.0428, 52.86329], [7.0413, 52.8647], [7.03424, 52.86317], [7.03643, 52.8607], [7.03454, 52.85992], [7.03192, 52.86239], [7.01921, 52.85727], [7.02193, 52.855], [7.00973, 52.85023], [7.00638, 52.84892], [7.00208, 52.84726], [6.99818, 52.84577], [6.98414, 52.84036], [6.98359, 52.83877], [6.9753, 52.8356], [6.98765, 52.81653], [6.98519, 52.81994], [6.9827, 52.81967], [6.98257, 52.81874], [6.97261, 52.81765], [6.97285, 52.81582], [6.94647, 52.81294], [6.94587, 52.81574], [6.94647, 52.81816], [6.93511, 52.81732], [6.9338, 52.82041], [6.92657, 52.82445], [6.92839, 52.82505], [6.93227, 52.82631], [6.92683, 52.82925], [6.93039, 52.83256], [6.92557, 52.8379], [6.91397, 52.83397], [6.9124, 52.83372], [6.91093, 52.8354], [6.91925, 52.83835], [6.94991, 52.8488], [6.95189, 52.85219], [6.95208, 52.85532], [6.95762, 52.86191], [6.96145, 52.86428], [6.96449, 52.86495], [6.96664, 52.86387], [7.00759, 52.87301], [7.01315, 52.87299], [7.0148, 52.87299], [7.01858, 52.87298], [7.04029, 52.87282]]]]}}, {"type": "Feature", "properties": {"statcode": "WK011402", "statnaam": "Wijk 02 Roswinkel"}, "geometry": {"type": "MultiPolygon", "coordinates": [[[[7.0413, 52.8647], [7.0428, 52.86329], [7.04763, 52.86374], [7.04788, 52.86451], [7.05146, 52.86118], [7.0523, 52.8615], [7.06273, 52.85147], [7.06375, 52.85179], [7.06427, 52.85104], [7.06592, 52.85164], [7.06914, 52.84786], [7.07007, 52.84779], [7.07624, 52.85003], [7.07632, 52.84875], [7.07219, 52.84521], [7.07164, 52.83928], [7.07086, 52.83776], [7.04796, 52.82981], [7.04695, 52.82927], [7.04626, 52.82812], [7.0388, 52.82543], [7.03666, 52.82335], [7.04228, 52.82356], [7.04252, 52.82256], [7.03305, 52.82173], [7.03135, 52.82164], [7.02732, 52.81929], [7.0259, 52.81916], [7.02547, 52.8201], [7.02379, 52.81997], [6.98765, 52.81653], [6.9753, 52.8356], [6.98359, 52.83877], [6.98414, 52.84036], [6.99818, 52.84577], [7.00208, 52.84726], [7.00638, 52.84892], [7.00973, 52.85023], [7.02193, 52.855], [7.01921, 52.85727], [7.03192, 52.86239], [7.03454, 52.85992], [7.03643, 52.8607], [7.03424, 52.86317], [7.0413, 52.8647]]]]}}, {"type": "Feature", "properties": {"statcode": "WK011403", "statnaam": "Wijk 03 Emmer-Compascuum"}, "geometry": {"type": "MultiPolygon", "coordinates": [[[[7.09274, 52.8382], [7.07951, 52.82162], [7.07155, 52.81042], [7.06907, 52.78032], [7.04568, 52.77994], [7.04171, 52.77987], [7.04085, 52.77985], [7.01964, 52.77952], [7.01329, 52.7779], [7.00383, 52.77831], [7.00387, 52.77872], [7.00055, 52.77884], [7.00177, 52.77839], [7.00116, 52.7725], [6.99981, 52.77254], [6.97455, 52.77332], [6.96568, 52.78458], [6.96698, 52.78464], [6.96652, 52.79486], [6.9603, 52.79526], [6.96025, 52.8009], [6.95782, 52.80272], [6.95074, 52.80269], [6.94821, 52.80705], [6.94647, 52.81294], [6.97285, 52.81582], [6.97261, 52.81765], [6.98257, 52.81874], [6.9827, 52.81967], [6.98519, 52.81994], [6.98765, 52.81653], [7.02379, 52.81997], [7.02547, 52.8201], [7.0259, 52.81916], [7.02732, 52.81929], [7.03135, 52.82164], [7.03305, 52.82173], [7.04252, 52.82256], [7.04228, 52.82356], [7.03666, 52.82335], [7.0388, 52.82543], [7.04626, 52.82812], [7.04695, 52.82927], [7.04796, 52.82981], [7.07086, 52.83776], [7.07164, 52.83928], [7.07238, 52.83851], [7.09274, 52.8382]]]]}}, {"type": "Feature", "properties": {"statcode": "WK011404", "statnaam": "Wijk 04 Barger-Compascuum"}, "geometry": {"type": "MultiPolygon", "coordinates": [[[[7.06907, 52.78032], [7.06415, 52.7232], [7.05906, 52.72406], [7.04065, 52.73006], [7.04083, 52.73127], [7.04265, 52.73119], [7.04279, 52.733], [7.03994, 52.73295], [7.03986, 52.732], [7.03799, 52.7316], [7.03268, 52.73303], [7.02184, 52.73348], [7.02348, 52.74626], [7.02612, 52.7544], [7.02168, 52.75471], [7.02059, 52.75343], [7.00046, 52.75437], [6.99799, 52.74183], [6.99621, 52.74185], [6.98782, 52.7422], [6.9868, 52.74526], [6.9779, 52.75113], [6.99104, 52.75569], [6.98955, 52.75671], [6.98714, 52.75687], [6.98215, 52.75723], [6.97905, 52.76429], [6.97694, 52.76995], [6.97455, 52.77332], [6.99981, 52.77254], [7.00116, 52.7725], [7.00177, 52.77839], [7.00055, 52.77884], [7.00387, 52.77872], [7.00383, 52.77831], [7.01329, 52.7779], [7.01964, 52.77952], [7.04085, 52.77985], [7.04171, 52.77987], [7.04568, 52.77994], [7.06907, 52.78032]]]]}}, {"type": "Feature", "properties": {"statcode": "WK011405", "statnaam": "Wijk 05 Nieuw-Dordrecht"}, "geometry": {"type": "MultiPolygon", "coordinates": [[[[6.92648, 52.75254], [6.92855, 52.75358], [6.93185, 52.7529], [6.93685, 52.7496], [6.93602, 52.74916], [6.9365, 52.7483], [6.94479, 52.74294], [6.94775, 52.74354], [6.94897, 52.74262], [6.95107, 52.73883], [6.95928, 52.73301], [6.9579, 52.73267], [6.96829, 52.7257], [6.96558, 52.72416], [6.96492, 52.7238], [6.95579, 52.71885], [6.9548, 52.71952], [6.95259, 52.71832], [6.93547, 52.74261], [6.92687, 52.7482], [6.92235, 52.75121], [6.92481, 52.75142], [6.92562, 52.75366], [6.92648, 52.75254]]], [[[6.98215, 52.75723], [6.98714, 52.75687], [6.98955, 52.75671], [6.99104, 52.75569], [6.9779, 52.75113], [6.9868, 52.74526], [6.98782, 52.7422], [6.98951, 52.73528], [6.98789, 52.73534], [6.98383, 52.73463], [6.97808, 52.73408], [6.96126, 52.74546], [6.95991, 52.74638], [6.95563, 52.74926], [6.94794, 52.75446], [6.96311, 52.75973], [6.96482, 52.75938], [6.96683, 52.76007], [6.97905, 52.76429], [6.98215, 52.75723]]]]}}, {"type": "Feature", "properties": {"statcode": "WK011406", "statnaam": "Wijk 06 Nieuw-Amsterdam"}, "geometry": {"type": "MultiPolygon", "coordinates": [[[[6.88059, 52.73803], [6.88184, 52.7366], [6.88666, 52.73692], [6.8895, 52.73169], [6.89526, 52.73453], [6.89518, 52.72901], [6.90008, 52.72634], [6.90448, 52.72633], [6.90701, 52.72698], [6.90789, 52.72561], [6.90338, 52.72476], [6.90058, 52.7131], [6.9004, 52.71171], [6.89985, 52.71028], [6.88442, 52.71158], [6.88461, 52.71238], [6.88172, 52.71263], [6.88082, 52.70906], [6.88126, 52.70649], [6.87877, 52.69806], [6.89708, 52.69612], [6.89441, 52.69516], [6.89422, 52.69409], [6.88961, 52.69409], [6.88593, 52.68327], [6.87834, 52.68792], [6.8705, 52.69258], [6.86779, 52.69485], [6.86687, 52.69671], [6.86243, 52.69526], [6.85831, 52.69538], [6.85794, 52.69627], [6.8466, 52.72519], [6.84521, 52.72885], [6.84425, 52.73137], [6.85023, 52.73324], [6.85653, 52.73393], [6.85673, 52.73395], [6.86617, 52.73493], [6.86615, 52.73586], [6.87625, 52.73691], [6.87621, 52.73525], [6.87743, 52.73521], [6.87832, 52.73545], [6.87854, 52.73749], [6.88059, 52.73803]]]]}}, {"type": "Feature", "properties": {"statcode": "WK011407", "statnaam": "Wijk 07 Erica"}, "geometry": {"type": "MultiPolygon", "coordinates": [[[[6.92687, 52.7482], [6.93547, 52.74261], [6.95259, 52.71832], [6.9548, 52.71952], [6.95579, 52.71885], [6.95921, 52.71645], [6.95645, 52.71494], [6.95918, 52.71292], [6.95434, 52.7104], [6.95367, 52.70753], [6.95963, 52.70667], [6.96096, 52.70543], [6.96168, 52.69997], [6.95974, 52.68106], [6.95493, 52.68223], [6.95025, 52.67623], [6.92347, 52.68394], [6.9119, 52.68724], [6.90842, 52.6856], [6.89727, 52.69398], [6.89422, 52.69409], [6.89441, 52.69516], [6.89708, 52.69612], [6.87877, 52.69806], [6.88126, 52.70649], [6.88082, 52.70906], [6.88172, 52.71263], [6.88461, 52.71238], [6.88442, 52.71158], [6.89985, 52.71028], [6.9004, 52.71171], [6.90058, 52.7131], [6.90338, 52.72476], [6.90789, 52.72561], [6.9172, 52.72799], [6.91843, 52.72915], [6.91807, 52.73156], [6.91497, 52.73611], [6.91691, 52.73662], [6.91152, 52.74304], [6.91026, 52.74272], [6.90937, 52.74382], [6.91234, 52.74455], [6.92687, 52.7482]]]]}}, {"type": "Feature", "properties": {"statcode": "WK011408", "statnaam": "Wijk 08 Klazienaveen"}, "geometry": {"type": "MultiPolygon", "coordinates": [[[[7.02612, 52.7544], [7.02348, 52.74626], [7.02184, 52.73348], [7.02177, 52.73292], [7.02953, 52.73229], [7.03481, 52.73107], [7.03664, 52.7295], [7.03704, 52.72739], [7.03623, 52.72741], [7.02441, 52.72788], [7.02402, 52.72444], [7.0239, 52.7234], [7.02521, 52.72335], [7.02466, 52.72089], [7.0221, 52.72075], [7.02182, 52.7183], [7.02129, 52.71379], [7.00798, 52.71426], [7.00789, 52.71345], [7.01968, 52.71275], [7.01865, 52.7038], [7.02587, 52.70401], [7.02499, 52.6946], [7.02647, 52.69453], [7.02554, 52.68634], [7.01745, 52.68671], [7.01705, 52.67854], [7.01156, 52.67878], [6.95974, 52.68106], [6.96168, 52.69997], [6.96096, 52.70543], [6.95963, 52.70667], [6.95367, 52.70753], [6.95434, 52.7104], [6.95918, 52.71292], [6.95645, 52.71494], [6.95921, 52.71645], [6.95579, 52.71885], [6.96492, 52.7238], [6.96558, 52.72416], [6.96829, 52.7257], [6.9579, 52.73267], [6.95928, 52.73301], [6.97004, 52.73487], [6.97875, 52.73278], [6.97947, 52.73316], [6.97808, 52.73408], [6.98383, 52.73463], [6.98789, 52.73534], [6.98951, 52.73528], [6.98782, 52.7422], [6.99621, 52.74185], [6.99799, 52.74183], [7.00046, 52.75437], [7.02059, 52.75343], [7.02168, 52.75471], [7.02612, 52.7544]]]]}}, {"type": "Feature", "properties": {"statcode": "WK011409", "statnaam": "Wijk 09 Zwartemeer"}, "geometry": {"type": "MultiPolygon", "coordinates": [[[[7.03268, 52.73303], [7.03799, 52.7316], [7.03986, 52.732], [7.03994, 52.73295], [7.04279, 52.733], [7.04265, 52.73119], [7.04083, 52.73127], [7.04065, 52.73006], [7.05906, 52.72406], [7.06415, 52.7232], [7.05859, 52.6767], [7.03004, 52.67796], [7.02984, 52.67255], [7.02856, 52.66977], [7.02621, 52.66988], [7.01063, 52.6707], [7.01156, 52.67878], [7.01705, 52.67854], [7.01745, 52.68671], [7.02554, 52.68634], [7.02647, 52.69453], [7.02499, 52.6946], [7.02587, 52.70401], [7.01865, 52.7038], [7.01968, 52.71275], [7.00789, 52.71345], [7.00798, 52.71426], [7.02129, 52.71379], [7.02182, 52.7183], [7.0221, 52.72075], [7.02466, 52.72089], [7.02521, 52.72335], [7.0239, 52.7234], [7.02402, 52.72444], [7.02441, 52.72788], [7.03623, 52.72741], [7.03704, 52.72739], [7.03664, 52.7295], [7.03481, 52.73107], [7.02953, 52.73229], [7.02177, 52.73292], [7.02184, 52.73348], [7.03268, 52.73303]]]]}}, {"type": "Feature", "properties": {"statcode": "WK011410", "statnaam": "Wijk 10 Schoonebeek"}, "geometry": {"type": "MultiPolygon", "coordinates": [[[[6.86687, 52.69671], [6.86779, 52.69485], [6.8705, 52.69258], [6.87834, 52.68792], [6.88593, 52.68327], [6.88961, 52.69409], [6.89422, 52.69409], [6.89727, 52.69398], [6.90842, 52.6856], [6.9119, 52.68724], [6.92347, 52.68394], [6.95025, 52.67623], [6.95937, 52.67349], [6.95843, 52.67246], [6.94838, 52.66154], [6.93933, 52.65153], [6.93803, 52.65183], [6.93486, 52.65115], [6.93386, 52.64918], [6.92836, 52.64969], [6.92583, 52.64996], [6.92653, 52.64937], [6.91634, 52.64133], [6.91446, 52.64648], [6.90294, 52.64859], [6.89718, 52.65137], [6.8915, 52.65152], [6.87995, 52.65055], [6.87281, 52.65327], [6.86474, 52.64986], [6.86188, 52.64969], [6.85885, 52.66106], [6.85603, 52.67168], [6.85467, 52.67631], [6.85253, 52.68596], [6.85215, 52.68764], [6.85161, 52.69009], [6.85016, 52.69658], [6.8517, 52.69652], [6.85494, 52.69306], [6.85678, 52.69329], [6.85608, 52.69635], [6.85794, 52.69627], [6.85831, 52.69538], [6.86243, 52.69526], [6.86687, 52.69671]]]]}}, {"type": "Feature", "properties": {"statcode": "WK011413", "statnaam": "Wijk 13 Veenoord"}, "geometry": {"type": "MultiPolygon", "coordinates": [[[[6.8466, 52.72519], [6.85794, 52.69627], [6.85608, 52.69635], [6.85678, 52.69329], [6.85494, 52.69306], [6.8517, 52.69652], [6.85016, 52.69658], [6.84881, 52.69937], [6.84087, 52.69957], [6.83274, 52.71951], [6.82991, 52.72598], [6.82832, 52.72631], [6.82636, 52.73088], [6.83735, 52.73441], [6.83485, 52.73811], [6.83097, 52.74195], [6.83277, 52.74405], [6.83689, 52.74234], [6.83911, 52.73981], [6.84072, 52.73933], [6.84425, 52.73137], [6.84521, 52.72885], [6.8466, 52.72519]]]]}}, {"type": "Feature", "properties": {"statcode": "WK011421", "statnaam": "Wijk 21 Nieuw-Schoonebeek"}, "geometry": {"type": "MultiPolygon", "coordinates": [[[[6.99345, 52.65916], [7.0233, 52.65519], [7.03977, 52.65613], [7.05605, 52.65539], [7.05506, 52.64708], [7.05476, 52.64442], [7.05564, 52.64436], [7.05572, 52.6435], [7.04173, 52.63271], [7.03861, 52.63287], [7.03547, 52.63485], [7.02876, 52.63464], [7.01249, 52.63678], [7.0066, 52.63852], [7.00449, 52.64088], [7.00188, 52.64192], [6.99923, 52.64215], [6.99246, 52.64133], [6.98427, 52.64364], [6.98192, 52.64501], [6.97599, 52.64625], [6.97493, 52.64611], [6.96832, 52.64183], [6.95923, 52.64173], [6.95356, 52.63899], [6.94543, 52.63934], [6.9386, 52.63789], [6.93465, 52.63832], [6.92852, 52.64019], [6.91926, 52.63985], [6.91634, 52.64133], [6.92653, 52.64937], [6.92583, 52.64996], [6.92836, 52.64969], [6.93386, 52.64918], [6.93486, 52.65115], [6.93803, 52.65183], [6.93933, 52.65153], [6.94838, 52.66154], [6.99345, 52.65916]]]]}}, {"type": "Feature", "properties": {"statcode": "WK011432", "statnaam": "Wijk 32 Weiteveen"}, "geometry": {"type": "MultiPolygon", "coordinates": [[[[7.02621, 52.66988], [7.02856, 52.66977], [7.02984, 52.67255], [7.03004, 52.67796], [7.05859, 52.6767], [7.05605, 52.65539], [7.03977, 52.65613], [7.0233, 52.65519], [6.99345, 52.65916], [6.94838, 52.66154], [6.95843, 52.67246], [6.95937, 52.67349], [6.95025, 52.67623], [6.95493, 52.68223], [6.95974, 52.68106], [7.01156, 52.67878], [7.01063, 52.6707], [7.02621, 52.66988]]]]}}, {"type": "Feature", "properties": {"statcode": "WK011440", "statnaam": "Wijk 40 Emmen-Centrum"}, "geometry": {"type": "MultiPolygon", "coordinates": [[[[6.89967, 52.78939], [6.90143, 52.78217], [6.90057, 52.77708], [6.88876, 52.77711], [6.88941, 52.78088], [6.88642, 52.7883], [6.88862, 52.78857], [6.89218, 52.78876], [6.89726, 52.79115], [6.89924, 52.79485], [6.90104, 52.79465], [6.89967, 52.78939]]]]}}, {"type": "Feature", "properties": {"statcode": "WK011441", "statnaam": "Wijk 41 Emmen-Centrum Oost"}, "geometry": {"type": "MultiPolygon", "coordinates": [[[[6.9093, 52.79033], [6.91039, 52.78728], [6.91513, 52.78724], [6.91627, 52.78403], [6.91695, 52.78106], [6.9119, 52.77752], [6.90057, 52.77708], [6.90143, 52.78217], [6.89967, 52.78939], [6.90104, 52.79465], [6.89924, 52.79485], [6.90431, 52.80471], [6.9089, 52.80372], [6.91113, 52.80192], [6.91198, 52.80011], [6.91229, 52.7981], [6.9069, 52.79518], [6.90922, 52.79257], [6.9093, 52.79033]]]]}}, {"type": "Feature", "properties": {"statcode": "WK011442", "statnaam": "Wijk 42 Emmermeer"}, "geometry": {"type": "MultiPolygon", "coordinates": [[[[6.90431, 52.80471], [6.89924, 52.79485], [6.89726, 52.79115], [6.89218, 52.78876], [6.88862, 52.78857], [6.88836, 52.79217], [6.88333, 52.80146], [6.88195, 52.8026], [6.88425, 52.80533], [6.88684, 52.80357], [6.89663, 52.80602], [6.90431, 52.80471]]]]}}, {"type": "Feature", "properties": {"statcode": "WK011443", "statnaam": "Wijk 43 Angelslo"}, "geometry": {"type": "MultiPolygon", "coordinates": [[[[6.94885, 52.78569], [6.94551, 52.78114], [6.93185, 52.77014], [6.92268, 52.77489], [6.9119, 52.77752], [6.91695, 52.78106], [6.91627, 52.78403], [6.92618, 52.78485], [6.94297, 52.78626], [6.94853, 52.78624], [6.94885, 52.78569]]]]}}, {"type": "Feature", "properties": {"statcode": "WK011444", "statnaam": "Wijk 44 Emmerhout"}, "geometry": {"type": "MultiPolygon", "coordinates": [[[[6.94908, 52.79785], [6.94988, 52.79145], [6.94885, 52.78569], [6.94853, 52.78624], [6.94297, 52.78626], [6.92618, 52.78485], [6.9243, 52.79138], [6.92474, 52.79274], [6.93107, 52.79713], [6.93229, 52.79526], [6.93813, 52.7971], [6.93968, 52.79852], [6.94908, 52.79785]]]]}}, {"type": "Feature", "properties": {"statcode": "WK011445", "statnaam": "Wijk 45 Emmerschans"}, "geometry": {"type": "MultiPolygon", "coordinates": [[[[6.94908, 52.79785], [6.93968, 52.79852], [6.93813, 52.7971], [6.93229, 52.79526], [6.93107, 52.79713], [6.92868, 52.80151], [6.9315, 52.8026], [6.93211, 52.80203], [6.93755, 52.80415], [6.93988, 52.80377], [6.94195, 52.80231], [6.94196, 52.80039], [6.94851, 52.80009], [6.94908, 52.79785]]]]}}, {"type": "Feature", "properties": {"statcode": "WK011446", "statnaam": "Wijk 46 Bargeres"}, "geometry": {"type": "MultiPolygon", "coordinates": [[[[6.89549, 52.77191], [6.8969, 52.76961], [6.89608, 52.76615], [6.89676, 52.76408], [6.89475, 52.76127], [6.88917, 52.75749], [6.87492, 52.74902], [6.87487, 52.74936], [6.87452, 52.75115], [6.87359, 52.75786], [6.87564, 52.76258], [6.87549, 52.76707], [6.87814, 52.76774], [6.87905, 52.76915], [6.88465, 52.77141], [6.89495, 52.77262], [6.89549, 52.77191]]]]}}, {"type": "Feature", "properties": {"statcode": "WK011447", "statnaam": "Wijk 47 Rietlanden"}, "geometry": {"type": "MultiPolygon", "coordinates": [[[[6.90738, 52.74499], [6.88827, 52.74002], [6.88849, 52.73719], [6.88666, 52.73692], [6.88184, 52.7366], [6.88059, 52.73803], [6.87854, 52.73749], [6.87704, 52.73815], [6.87492, 52.74902], [6.88917, 52.75749], [6.89292, 52.75818], [6.89896, 52.75136], [6.90337, 52.7487], [6.90811, 52.74723], [6.90951, 52.74554], [6.90738, 52.74499]]]]}}, {"type": "Feature", "properties": {"statcode": "WK011448", "statnaam": "Wijk 48 Parc Sandur"}, "geometry": {"type": "MultiPolygon", "coordinates": [[[[6.90937, 52.74382], [6.91026, 52.74272], [6.91152, 52.74304], [6.91691, 52.73662], [6.91497, 52.73611], [6.91807, 52.73156], [6.91843, 52.72915], [6.9172, 52.72799], [6.90789, 52.72561], [6.90701, 52.72698], [6.90448, 52.72633], [6.90008, 52.72634], [6.89518, 52.72901], [6.89526, 52.73453], [6.8895, 52.73169], [6.88666, 52.73692], [6.88849, 52.73719], [6.88827, 52.74002], [6.90738, 52.74499], [6.90937, 52.74382]]]]}}, {"type": "Feature", "properties": {"statcode": "WK011449", "statnaam": "Wijk 49 Delftlanden"}, "geometry": {"type": "MultiPolygon", "coordinates": [[[[6.87359, 52.75786], [6.87452, 52.75115], [6.87487, 52.74936], [6.86597, 52.7441], [6.86157, 52.74329], [6.86101, 52.74681], [6.86, 52.74801], [6.85082, 52.75082], [6.84934, 52.7527], [6.84838, 52.75735], [6.84554, 52.75827], [6.84725, 52.76145], [6.85891, 52.75926], [6.87359, 52.75786]]]]}}, {"type": "Feature", "properties": {"statcode": "WK011450", "statnaam": "Wijk 50 Barger-Oosterveld"}, "geometry": {"type": "MultiPolygon", "coordinates": [[[[6.96683, 52.76007], [6.96482, 52.75938], [6.96311, 52.75973], [6.95689, 52.76538], [6.94462, 52.77124], [6.9461, 52.7732], [6.94988, 52.77348], [6.95124, 52.77931], [6.95292, 52.78171], [6.95588, 52.78143], [6.95934, 52.77942], [6.96166, 52.77622], [6.9679, 52.77639], [6.97002, 52.77369], [6.96956, 52.77111], [6.96198, 52.76544], [6.96683, 52.76007]]]]}}, {"type": "Feature", "properties": {"statcode": "WK011451", "statnaam": "Wijk 51 Kern Emmen Noord"}, "geometry": {"type": "MultiPolygon", "coordinates": [[[[6.91769, 52.75067], [6.92265, 52.7518], [6.92562, 52.75366], [6.92481, 52.75142], [6.92235, 52.75121], [6.92687, 52.7482], [6.91234, 52.74455], [6.90915, 52.74846], [6.91159, 52.74872], [6.91118, 52.75046], [6.90853, 52.75042], [6.90545, 52.75484], [6.90666, 52.75611], [6.90519, 52.75954], [6.90052, 52.75883], [6.90002, 52.76024], [6.90931, 52.76186], [6.91769, 52.75067]]], [[[6.93039, 52.83256], [6.92683, 52.82925], [6.93227, 52.82631], [6.92839, 52.82505], [6.92657, 52.82445], [6.9338, 52.82041], [6.93511, 52.81732], [6.94647, 52.81816], [6.94587, 52.81574], [6.94647, 52.81294], [6.94821, 52.80705], [6.95074, 52.80269], [6.95782, 52.80272], [6.96025, 52.8009], [6.9603, 52.79526], [6.96652, 52.79486], [6.96698, 52.78464], [6.96568, 52.78458], [6.97455, 52.77332], [6.97694, 52.76995], [6.97905, 52.76429], [6.96683, 52.76007], [6.96198, 52.76544], [6.96956, 52.77111], [6.97002, 52.77369], [6.9679, 52.77639], [6.96166, 52.77622], [6.95934, 52.77942], [6.95588, 52.78143], [6.95292, 52.78171], [6.95124, 52.77931], [6.94988, 52.77348], [6.9461, 52.7732], [6.94462, 52.77124], [6.95689, 52.76538], [6.96311, 52.75973], [6.94794, 52.75446], [6.9385, 52.76079], [6.93543, 52.7669], [6.93185, 52.77014], [6.94551, 52.78114], [6.94885, 52.78569], [6.94988, 52.79145], [6.94908, 52.79785], [6.94851, 52.80009], [6.94196, 52.80039], [6.94195, 52.80231], [6.93988, 52.80377], [6.93755, 52.80415], [6.93211, 52.80203], [6.9315, 52.8026], [6.92868, 52.80151], [6.93107, 52.79713], [6.92474, 52.79274], [6.9243, 52.79138], [6.92618, 52.78485], [6.91627, 52.78403], [6.91513, 52.78724], [6.91039, 52.78728], [6.9093, 52.79033], [6.90922, 52.79257], [6.9069, 52.79518], [6.91229, 52.7981], [6.91198, 52.80011], [6.91113, 52.80192], [6.9089, 52.80372], [6.90431, 52.80471], [6.89663, 52.80602], [6.88684, 52.80357], [6.88425, 52.80533], [6.88195, 52.8026], [6.88333, 52.80146], [6.88836, 52.79217], [6.88862, 52.78857], [6.88642, 52.7883], [6.88941, 52.78088], [6.88876, 52.77711], [6.88276, 52.77671], [6.87926, 52.776], [6.87953, 52.77544], [6.87756, 52.77496], [6.87475, 52.77724], [6.87137, 52.77612], [6.87067, 52.77412], [6.8743, 52.77064], [6.87549, 52.76707], [6.87564, 52.76258], [6.87359, 52.75786], [6.85891, 52.75926], [6.84725, 52.76145], [6.84554, 52.75827], [6.84838, 52.75735], [6.84934, 52.7527], [6.85082, 52.75082], [6.86, 52.74801], [6.86101, 52.74681], [6.86157, 52.74329], [6.86597, 52.7441], [6.87487, 52.74936], [6.87492, 52.74902], [6.87704, 52.73815], [6.87854, 52.73749], [6.87832, 52.73545], [6.87743, 52.73521], [6.87621, 52.73525], [6.87625, 52.73691], [6.86615, 52.73586], [6.86617, 52.73493], [6.85673, 52.73395], [6.85653, 52.73393], [6.85023, 52.73324], [6.84425, 52.73137], [6.84072, 52.73933], [6.83911, 52.73981], [6.83689, 52.74234], [6.83277, 52.74405], [6.83358, 52.74731], [6.83837, 52.7514], [6.83808, 52.75582], [6.83497, 52.75612], [6.83792, 52.75835], [6.83969, 52.761], [6.83122, 52.76677], [6.83107, 52.7683], [6.83422, 52.77143], [6.83105, 52.77583], [6.83105, 52.77816], [6.83238, 52.78008], [6.84586, 52.79854], [6.84981, 52.80463], [6.85562, 52.81158], [6.85881, 52.81379], [6.86506, 52.81582], [6.869, 52.81929], [6.87142, 52.82005], [6.88494, 52.8245], [6.91093, 52.8354], [6.9124, 52.83372], [6.91397, 52.83397], [6.92557, 52.8379], [6.93039, 52.83256]]]]}}, {"type": "Feature", "properties": {"statcode": "WK011452", "statnaam": "Wijk 52 Kern Emmen Zuid"}, "geometry": {"type": "MultiPolygon", "coordinates": [[[[6.90052, 52.75883], [6.90519, 52.75954], [6.90666, 52.75611], [6.90545, 52.75484], [6.90853, 52.75042], [6.91118, 52.75046], [6.91159, 52.74872], [6.90915, 52.74846], [6.91234, 52.74455], [6.90937, 52.74382], [6.90738, 52.74499], [6.90951, 52.74554], [6.90811, 52.74723], [6.90337, 52.7487], [6.89896, 52.75136], [6.89292, 52.75818], [6.90002, 52.76024], [6.90052, 52.75883]]], [[[6.89952, 52.77345], [6.89552, 52.77277], [6.89549, 52.77191], [6.89495, 52.77262], [6.88465, 52.77141], [6.87905, 52.76915], [6.87814, 52.76774], [6.87549, 52.76707], [6.8743, 52.77064], [6.87067, 52.77412], [6.87137, 52.77612], [6.87475, 52.77724], [6.87756, 52.77496], [6.87953, 52.77544], [6.87926, 52.776], [6.88276, 52.77671], [6.88876, 52.77711], [6.90057, 52.77708], [6.89952, 52.77345]]]]}}, {"type": "Feature", "properties": {"statcode": "WK011453", "statnaam": "Wijk 53 Kern Emmen Industrieterreinen"}, "geometry": {"type": "MultiPolygon", "coordinates": [[[[6.93543, 52.7669], [6.9385, 52.76079], [6.94794, 52.75446], [6.95563, 52.74926], [6.95991, 52.74638], [6.96126, 52.74546], [6.97808, 52.73408], [6.97947, 52.73316], [6.97875, 52.73278], [6.97004, 52.73487], [6.95928, 52.73301], [6.95107, 52.73883], [6.94897, 52.74262], [6.94775, 52.74354], [6.94479, 52.74294], [6.9365, 52.7483], [6.93602, 52.74916], [6.93685, 52.7496], [6.93185, 52.7529], [6.92855, 52.75358], [6.92648, 52.75254], [6.92562, 52.75366], [6.92265, 52.7518], [6.91769, 52.75067], [6.90931, 52.76186], [6.90002, 52.76024], [6.89292, 52.75818], [6.88917, 52.75749], [6.89475, 52.76127], [6.89676, 52.76408], [6.89608, 52.76615], [6.8969, 52.76961], [6.89549, 52.77191], [6.89552, 52.77277], [6.89952, 52.77345], [6.90057, 52.77708], [6.9119, 52.77752], [6.92268, 52.77489], [6.93185, 52.77014], [6.93543, 52.7669]]]]}}]}