{"type": "FeatureCollection", "features": [{"type": "Feature", "properties": {"statcode": "BU01931000", "statnaam": "Binnenstad-Zuid"}, "geometry": {"type": "MultiPolygon", "coordinates": [[[[6.093, 52.51214], [6.09752, 52.51298], [6.09921, 52.51389], [6.10056, 52.51332], [6.10123, 52.51313], [6.09723, 52.50889], [6.09591, 52.50902], [6.0941, 52.50936], [6.09112, 52.50857], [6.08942, 52.5103], [6.08633, 52.51058], [6.0886, 52.51403], [6.093, 52.51214]]]]}}, {"type": "Feature", "properties": {"statcode": "BU01931010", "statnaam": "Binnenstad-Noord"}, "geometry": {"type": "MultiPolygon", "coordinates": [[[[6.09638, 52.51453], [6.09921, 52.51389], [6.09752, 52.51298], [6.093, 52.51214], [6.0886, 52.51403], [6.08901, 52.51463], [6.09638, 52.51453]]]]}}, {"type": "Feature", "properties": {"statcode": "BU01931020", "statnaam": "Noordereiland"}, "geometry": {"type": "MultiPolygon", "coordinates": [[[[6.09873, 52.5161], [6.09915, 52.51519], [6.10178, 52.51467], [6.10056, 52.51332], [6.09921, 52.51389], [6.09638, 52.51453], [6.08901, 52.51463], [6.09344, 52.51597], [6.09538, 52.51697], [6.09873, 52.5161]]]]}}, {"type": "Feature", "properties": {"statcode": "BU01931100", "statnaam": "Het Noorden"}, "geometry": {"type": "MultiPolygon", "coordinates": [[[[6.09254, 52.51984], [6.09344, 52.51597], [6.08901, 52.51463], [6.08371, 52.51697], [6.08532, 52.51777], [6.09182, 52.52091], [6.09254, 52.51984]]]]}}, {"type": "Feature", "properties": {"statcode": "BU01931110", "statnaam": "Schildersbuurt"}, "geometry": {"type": "MultiPolygon", "coordinates": [[[[6.09538, 52.51697], [6.09344, 52.51597], [6.09254, 52.51984], [6.09538, 52.51697]]]]}}, {"type": "Feature", "properties": {"statcode": "BU01931120", "statnaam": "Bollebieste"}, "geometry": {"type": "MultiPolygon", "coordinates": [[[[6.10246, 52.51926], [6.09873, 52.5161], [6.09538, 52.51697], [6.09254, 52.51984], [6.09182, 52.52091], [6.09631, 52.52269], [6.10246, 52.51926]]]]}}, {"type": "Feature", "properties": {"statcode": "BU01931130", "statnaam": "Dieze-Centrum"}, "geometry": {"type": "MultiPolygon", "coordinates": [[[[6.10656, 52.5166], [6.10178, 52.51467], [6.09915, 52.51519], [6.09873, 52.5161], [6.10246, 52.51926], [6.10656, 52.5166]]]]}}, {"type": "Feature", "properties": {"statcode": "BU01931140", "statnaam": "Bagijneweide"}, "geometry": {"type": "MultiPolygon", "coordinates": [[[[6.10887, 52.51469], [6.10408, 52.51204], [6.10123, 52.51313], [6.10056, 52.51332], [6.10178, 52.51467], [6.10656, 52.5166], [6.10887, 52.51469]]]]}}, {"type": "Feature", "properties": {"statcode": "BU01931150", "statnaam": "Hogenkamp"}, "geometry": {"type": "MultiPolygon", "coordinates": [[[[6.11717, 52.52312], [6.11582, 52.52281], [6.1097, 52.51866], [6.10656, 52.5166], [6.10246, 52.51926], [6.09631, 52.52269], [6.10247, 52.52415], [6.11617, 52.52586], [6.11717, 52.52312]]]]}}, {"type": "Feature", "properties": {"statcode": "BU01931160", "statnaam": "Indischebuurt"}, "geometry": {"type": "MultiPolygon", "coordinates": [[[[6.11109, 52.51842], [6.11309, 52.51735], [6.10887, 52.51469], [6.10656, 52.5166], [6.1097, 52.51866], [6.11109, 52.51842]]]]}}, {"type": "Feature", "properties": {"statcode": "BU01931170", "statnaam": "Meppelerstraatweg-Zuid"}, "geometry": {"type": "MultiPolygon", "coordinates": [[[[6.1163, 52.52188], [6.11109, 52.51842], [6.1097, 52.51866], [6.11582, 52.52281], [6.1163, 52.52188]]]]}}, {"type": "Feature", "properties": {"statcode": "BU01931180", "statnaam": "Bedrijventerrein Floresstraat"}, "geometry": {"type": "MultiPolygon", "coordinates": [[[[6.11866, 52.51849], [6.11309, 52.51735], [6.11109, 52.51842], [6.1163, 52.52188], [6.11582, 52.52281], [6.11717, 52.52312], [6.11866, 52.51849]]]]}}, {"type": "Feature", "properties": {"statcode": "BU01931200", "statnaam": "Wipstrik-Noord"}, "geometry": {"type": "MultiPolygon", "coordinates": [[[[6.12138, 52.51074], [6.12593, 52.50529], [6.12542, 52.50493], [6.12328, 52.50589], [6.10887, 52.51469], [6.11309, 52.51735], [6.11866, 52.51849], [6.12138, 52.51074]]]]}}, {"type": "Feature", "properties": {"statcode": "BU01931210", "statnaam": "Wipstrik-Zuid"}, "geometry": {"type": "MultiPolygon", "coordinates": [[[[6.12328, 52.50589], [6.12542, 52.50493], [6.12593, 52.50529], [6.13071, 52.50214], [6.12694, 52.50035], [6.12309, 52.50415], [6.12177, 52.50557], [6.11599, 52.50723], [6.11027, 52.50898], [6.10408, 52.51204], [6.10887, 52.51469], [6.12328, 52.50589]]]]}}, {"type": "Feature", "properties": {"statcode": "BU01931300", "statnaam": "Stationsbuurt"}, "geometry": {"type": "MultiPolygon", "coordinates": [[[[6.09591, 52.50902], [6.09605, 52.50333], [6.08487, 52.50713], [6.08293, 52.50795], [6.08633, 52.51058], [6.08942, 52.5103], [6.09112, 52.50857], [6.0941, 52.50936], [6.09591, 52.50902]]]]}}, {"type": "Feature", "properties": {"statcode": "BU01931310", "statnaam": "Oud-Assendorp"}, "geometry": {"type": "MultiPolygon", "coordinates": [[[[6.09723, 52.50889], [6.09932, 52.50799], [6.10069, 52.50854], [6.10831, 52.5046], [6.10321, 52.50475], [6.10219, 52.50292], [6.10385, 52.50233], [6.10442, 52.50124], [6.1035, 52.50032], [6.09605, 52.50333], [6.09591, 52.50902], [6.09723, 52.50889]]]]}}, {"type": "Feature", "properties": {"statcode": "BU01931320", "statnaam": "Nieuw-Assendorp"}, "geometry": {"type": "MultiPolygon", "coordinates": [[[[6.10831, 52.5046], [6.10906, 52.50425], [6.11348, 52.50467], [6.1081, 52.49945], [6.10863, 52.49863], [6.10542, 52.49957], [6.1035, 52.50032], [6.10442, 52.50124], [6.10385, 52.50233], [6.10219, 52.50292], [6.10321, 52.50475], [6.10831, 52.5046]]]]}}, {"type": "Feature", "properties": {"statcode": "BU01931330", "statnaam": "Wezenlanden"}, "geometry": {"type": "MultiPolygon", "coordinates": [[[[6.10408, 52.51204], [6.11027, 52.50898], [6.11599, 52.50723], [6.11348, 52.50467], [6.10906, 52.50425], [6.10831, 52.5046], [6.10069, 52.50854], [6.09932, 52.50799], [6.09723, 52.50889], [6.10123, 52.51313], [6.10408, 52.51204]]]]}}, {"type": "Feature", "properties": {"statcode": "BU01931340", "statnaam": "Pierik"}, "geometry": {"type": "MultiPolygon", "coordinates": [[[[6.12177, 52.50557], [6.12309, 52.50415], [6.11981, 52.50342], [6.12259, 52.49875], [6.11308, 52.49809], [6.10863, 52.49863], [6.1081, 52.49945], [6.11348, 52.50467], [6.11599, 52.50723], [6.12177, 52.50557]]]]}}, {"type": "Feature", "properties": {"statcode": "BU01931350", "statnaam": "Bedrijventerrein Marslanden-Noord"}, "geometry": {"type": "MultiPolygon", "coordinates": [[[[6.12694, 52.50035], [6.12259, 52.49875], [6.11981, 52.50342], [6.12309, 52.50415], [6.12694, 52.50035]]]]}}, {"type": "Feature", "properties": {"statcode": "BU01931360", "statnaam": "Hanzeland"}, "geometry": {"type": "MultiPolygon", "coordinates": [[[[6.09605, 52.50333], [6.1035, 52.50032], [6.10542, 52.49957], [6.10822, 52.49736], [6.10221, 52.50004], [6.09408, 52.50086], [6.08415, 52.5014], [6.07749, 52.50245], [6.07989, 52.50596], [6.08189, 52.50691], [6.08487, 52.50713], [6.09605, 52.50333]]]]}}, {"type": "Feature", "properties": {"statcode": "BU01931400", "statnaam": "Kamperpoort"}, "geometry": {"type": "MultiPolygon", "coordinates": [[[[6.08901, 52.51463], [6.0886, 52.51403], [6.08633, 52.51058], [6.08293, 52.50795], [6.07588, 52.51239], [6.08371, 52.51697], [6.08901, 52.51463]]]]}}, {"type": "Feature", "properties": {"statcode": "BU01931410", "statnaam": "Veerallee"}, "geometry": {"type": "MultiPolygon", "coordinates": [[[[6.08293, 52.50795], [6.08487, 52.50713], [6.08189, 52.50691], [6.07989, 52.50596], [6.07749, 52.50245], [6.07462, 52.50316], [6.06719, 52.50662], [6.07588, 52.51239], [6.08293, 52.50795]]]]}}, {"type": "Feature", "properties": {"statcode": "BU01932000", "statnaam": "Bedrijventerrein Voorst-A"}, "geometry": {"type": "MultiPolygon", "coordinates": [[[[6.07392, 52.52369], [6.07625, 52.52039], [6.08371, 52.51697], [6.07588, 52.51239], [6.06622, 52.51867], [6.06996, 52.52184], [6.0717, 52.52468], [6.07392, 52.52369]]]]}}, {"type": "Feature", "properties": {"statcode": "BU01932010", "statnaam": "Bedrijventerrein Voorst-B"}, "geometry": {"type": "MultiPolygon", "coordinates": [[[[6.07588, 52.51239], [6.06719, 52.50662], [6.06264, 52.50926], [6.0592, 52.50865], [6.05465, 52.50988], [6.0552, 52.51029], [6.06622, 52.51867], [6.07588, 52.51239]]]]}}, {"type": "Feature", "properties": {"statcode": "BU01932020", "statnaam": "Spoolde"}, "geometry": {"type": "MultiPolygon", "coordinates": [[[[6.0592, 52.50865], [6.06264, 52.50926], [6.06719, 52.50662], [6.05422, 52.49979], [6.04619, 52.50386], [6.05038, 52.50671], [6.05465, 52.50988], [6.0592, 52.50865]]]]}}, {"type": "Feature", "properties": {"statcode": "BU01932100", "statnaam": "Oud-Westenholte"}, "geometry": {"type": "MultiPolygon", "coordinates": [[[[6.06124, 52.52177], [6.05611, 52.51808], [6.05419, 52.51893], [6.05394, 52.52058], [6.04719, 52.52212], [6.04471, 52.52353], [6.04325, 52.52364], [6.04117, 52.52259], [6.0403, 52.52321], [6.04437, 52.52728], [6.05162, 52.52755], [6.06124, 52.52177]]]]}}, {"type": "Feature", "properties": {"statcode": "BU01932110", "statnaam": "Westenholte-Stins"}, "geometry": {"type": "MultiPolygon", "coordinates": [[[[6.04471, 52.52353], [6.04719, 52.52212], [6.05394, 52.52058], [6.05419, 52.51893], [6.05611, 52.51808], [6.05375, 52.51627], [6.05117, 52.51755], [6.04759, 52.51486], [6.04628, 52.5151], [6.03975, 52.52101], [6.0403, 52.52321], [6.04117, 52.52259], [6.04325, 52.52364], [6.04471, 52.52353]]]]}}, {"type": "Feature", "properties": {"statcode": "BU01932120", "statnaam": "Vreugderijk"}, "geometry": {"type": "MultiPolygon", "coordinates": [[[[6.04437, 52.52728], [6.0403, 52.52321], [6.03975, 52.52101], [6.04628, 52.5151], [6.04604, 52.51427], [6.04503, 52.50802], [6.05038, 52.50671], [6.04619, 52.50386], [6.04051, 52.50626], [6.02786, 52.50961], [6.01881, 52.51388], [6.01507, 52.51791], [6.01477, 52.52046], [6.01551, 52.52277], [6.01897, 52.52601], [6.02364, 52.52737], [6.02501, 52.5263], [6.03017, 52.52675], [6.03009, 52.53082], [6.04437, 52.52728]]]]}}, {"type": "Feature", "properties": {"statcode": "BU01932130", "statnaam": "Bedrijventerrein Voorst-C"}, "geometry": {"type": "MultiPolygon", "coordinates": [[[[6.06622, 52.51867], [6.0552, 52.51029], [6.04792, 52.51425], [6.04604, 52.51427], [6.04628, 52.5151], [6.04759, 52.51486], [6.05117, 52.51755], [6.05375, 52.51627], [6.05611, 52.51808], [6.06124, 52.52177], [6.06622, 52.51867]]]]}}, {"type": "Feature", "properties": {"statcode": "BU01932140", "statnaam": "Bedrijventerrein Voorst-D"}, "geometry": {"type": "MultiPolygon", "coordinates": [[[[6.04792, 52.51425], [6.0552, 52.51029], [6.05465, 52.50988], [6.05038, 52.50671], [6.04503, 52.50802], [6.04604, 52.51427], [6.04792, 52.51425]]]]}}, {"type": "Feature", "properties": {"statcode": "BU01932200", "statnaam": "Frankhuis"}, "geometry": {"type": "MultiPolygon", "coordinates": [[[[6.0605, 52.53098], [6.06543, 52.52927], [6.07098, 52.52933], [6.07043, 52.52861], [6.0717, 52.52468], [6.06996, 52.52184], [6.06622, 52.51867], [6.06124, 52.52177], [6.05162, 52.52755], [6.05149, 52.52763], [6.05384, 52.53206], [6.0605, 52.53098]]]]}}, {"type": "Feature", "properties": {"statcode": "BU01932210", "statnaam": "Mastenbroek"}, "geometry": {"type": "MultiPolygon", "coordinates": [[[[6.07016, 52.55823], [6.06826, 52.55545], [6.04141, 52.54778], [6.01965, 52.54189], [6.00699, 52.54554], [6.00362, 52.55039], [6.03304, 52.5594], [6.03355, 52.55903], [6.06315, 52.56728], [6.07016, 52.55823]]]]}}, {"type": "Feature", "properties": {"statcode": "BU01932220", "statnaam": "Schoonhorst"}, "geometry": {"type": "MultiPolygon", "coordinates": [[[[6.06437, 52.53806], [6.067, 52.53608], [6.07411, 52.53512], [6.07387, 52.53289], [6.07098, 52.52933], [6.06543, 52.52927], [6.0605, 52.53098], [6.06189, 52.53362], [6.05787, 52.5348], [6.06003, 52.53891], [6.06437, 52.53806]]]]}}, {"type": "Feature", "properties": {"statcode": "BU01932230", "statnaam": "Werkeren"}, "geometry": {"type": "MultiPolygon", "coordinates": [[[[6.05234, 52.53275], [6.05384, 52.53206], [6.05149, 52.52763], [6.04406, 52.53191], [6.03223, 52.53744], [6.0323, 52.53939], [6.04025, 52.53917], [6.04637, 52.54098], [6.05234, 52.53275]]]]}}, {"type": "Feature", "properties": {"statcode": "BU01932240", "statnaam": "Milligen"}, "geometry": {"type": "MultiPolygon", "coordinates": [[[[6.06437, 52.53806], [6.06003, 52.53891], [6.05787, 52.5348], [6.06189, 52.53362], [6.0605, 52.53098], [6.05384, 52.53206], [6.05234, 52.53275], [6.04637, 52.54098], [6.05182, 52.54269], [6.05382, 52.54406], [6.05554, 52.54747], [6.05805, 52.54987], [6.06752, 52.55312], [6.06258, 52.54375], [6.06659, 52.54227], [6.06437, 52.53806]]]]}}, {"type": "Feature", "properties": {"statcode": "BU01932250", "statnaam": "Tippe bij de IJssel"}, "geometry": {"type": "MultiPolygon", "coordinates": [[[[6.03223, 52.53744], [6.04406, 52.53191], [6.05149, 52.52763], [6.05162, 52.52755], [6.04437, 52.52728], [6.03009, 52.53082], [6.03046, 52.53806], [6.03223, 52.53744]]]]}}, {"type": "Feature", "properties": {"statcode": "BU01932260", "statnaam": "Breecamp"}, "geometry": {"type": "MultiPolygon", "coordinates": [[[[6.04637, 52.54098], [6.04025, 52.53917], [6.0323, 52.53939], [6.03223, 52.53744], [6.03046, 52.53806], [6.01965, 52.54189], [6.04141, 52.54778], [6.04637, 52.54098]]]]}}, {"type": "Feature", "properties": {"statcode": "BU01932270", "statnaam": "Breezicht"}, "geometry": {"type": "MultiPolygon", "coordinates": [[[[6.07419, 52.5564], [6.06752, 52.55312], [6.05805, 52.54987], [6.05554, 52.54747], [6.05382, 52.54406], [6.05182, 52.54269], [6.04637, 52.54098], [6.04141, 52.54778], [6.06826, 52.55545], [6.07016, 52.55823], [6.07355, 52.55918], [6.07419, 52.5564]]]]}}, {"type": "Feature", "properties": {"statcode": "BU01932280", "statnaam": "Stadsbroek"}, "geometry": {"type": "MultiPolygon", "coordinates": [[[[6.08105, 52.55388], [6.0894, 52.55184], [6.08982, 52.55157], [6.07728, 52.54412], [6.07511, 52.54141], [6.07434, 52.53729], [6.07411, 52.53512], [6.067, 52.53608], [6.06437, 52.53806], [6.06659, 52.54227], [6.06258, 52.54375], [6.06752, 52.55312], [6.07419, 52.5564], [6.08105, 52.55388]]]]}}, {"type": "Feature", "properties": {"statcode": "BU01933000", "statnaam": "Holtenbroek IV"}, "geometry": {"type": "MultiPolygon", "coordinates": [[[[6.09515, 52.52402], [6.09631, 52.52269], [6.09182, 52.52091], [6.08532, 52.51777], [6.07997, 52.52096], [6.08346, 52.52142], [6.08236, 52.52546], [6.08312, 52.52654], [6.09331, 52.52769], [6.09515, 52.52402]]]]}}, {"type": "Feature", "properties": {"statcode": "BU01933010", "statnaam": "Holtenbroek I"}, "geometry": {"type": "MultiPolygon", "coordinates": [[[[6.08346, 52.52142], [6.07997, 52.52096], [6.08532, 52.51777], [6.08371, 52.51697], [6.07625, 52.52039], [6.07392, 52.52369], [6.07661, 52.52478], [6.08236, 52.52546], [6.08346, 52.52142]]]]}}, {"type": "Feature", "properties": {"statcode": "BU01933020", "statnaam": "Holtenbroek II"}, "geometry": {"type": "MultiPolygon", "coordinates": [[[[6.07863, 52.53665], [6.08227, 52.53496], [6.08136, 52.5315], [6.08168, 52.52992], [6.0828, 52.52938], [6.08312, 52.52654], [6.08236, 52.52546], [6.07661, 52.52478], [6.07392, 52.52369], [6.0717, 52.52468], [6.07043, 52.52861], [6.07098, 52.52933], [6.07387, 52.53289], [6.07411, 52.53512], [6.07434, 52.53729], [6.07863, 52.53665]]]]}}, {"type": "Feature", "properties": {"statcode": "BU01933030", "statnaam": "Holtenbroek III"}, "geometry": {"type": "MultiPolygon", "coordinates": [[[[6.08399, 52.53415], [6.09126, 52.53185], [6.09292, 52.52987], [6.09331, 52.52769], [6.08312, 52.52654], [6.0828, 52.52938], [6.08168, 52.52992], [6.08136, 52.5315], [6.08227, 52.53496], [6.08399, 52.53415]]]]}}, {"type": "Feature", "properties": {"statcode": "BU01933100", "statnaam": "Aa-landen-Zuid"}, "geometry": {"type": "MultiPolygon", "coordinates": [[[[6.11663, 52.52592], [6.11617, 52.52586], [6.10247, 52.52415], [6.09631, 52.52269], [6.09515, 52.52402], [6.10154, 52.52716], [6.10956, 52.52991], [6.11153, 52.52993], [6.11546, 52.52836], [6.11663, 52.52592]]]]}}, {"type": "Feature", "properties": {"statcode": "BU01933110", "statnaam": "Aa-landen-Midden"}, "geometry": {"type": "MultiPolygon", "coordinates": [[[[6.1066, 52.53289], [6.10956, 52.52991], [6.10154, 52.52716], [6.09515, 52.52402], [6.09331, 52.52769], [6.09292, 52.52987], [6.09126, 52.53185], [6.09247, 52.53272], [6.10459, 52.53452], [6.10618, 52.53533], [6.1066, 52.53289]]]]}}, {"type": "Feature", "properties": {"statcode": "BU01933120", "statnaam": "Aa-landen-Noord"}, "geometry": {"type": "MultiPolygon", "coordinates": [[[[6.10225, 52.54134], [6.10618, 52.53533], [6.10459, 52.53452], [6.09247, 52.53272], [6.09126, 52.53185], [6.08399, 52.53415], [6.08521, 52.53576], [6.09024, 52.53858], [6.09743, 52.54156], [6.10225, 52.54134]]]]}}, {"type": "Feature", "properties": {"statcode": "BU01933130", "statnaam": "Aa-landen-Oost"}, "geometry": {"type": "MultiPolygon", "coordinates": [[[[6.10697, 52.54084], [6.11144, 52.53866], [6.1124, 52.53846], [6.11421, 52.53622], [6.11524, 52.53279], [6.11433, 52.53004], [6.11153, 52.52993], [6.10956, 52.52991], [6.1066, 52.53289], [6.10618, 52.53533], [6.10225, 52.54134], [6.10697, 52.54084]]]]}}, {"type": "Feature", "properties": {"statcode": "BU01933200", "statnaam": "Brinkhoek"}, "geometry": {"type": "MultiPolygon", "coordinates": [[[[6.12965, 52.54636], [6.13178, 52.54262], [6.1349, 52.5402], [6.14303, 52.53808], [6.14506, 52.53679], [6.14623, 52.53412], [6.14411, 52.5295], [6.12371, 52.52679], [6.11663, 52.52592], [6.11546, 52.52836], [6.11153, 52.52993], [6.11433, 52.53004], [6.11524, 52.53279], [6.11421, 52.53622], [6.1124, 52.53846], [6.11144, 52.53866], [6.11714, 52.54236], [6.12211, 52.54363], [6.12364, 52.54554], [6.12206, 52.54643], [6.12398, 52.54831], [6.12965, 52.54636]]]]}}, {"type": "Feature", "properties": {"statcode": "BU01933210", "statnaam": "Langenholte"}, "geometry": {"type": "MultiPolygon", "coordinates": [[[[6.10159, 52.56112], [6.1046, 52.55889], [6.1093, 52.55716], [6.1167, 52.556], [6.12076, 52.55339], [6.12282, 52.54895], [6.12398, 52.54831], [6.12206, 52.54643], [6.12364, 52.54554], [6.12211, 52.54363], [6.11714, 52.54236], [6.11144, 52.53866], [6.10697, 52.54084], [6.10225, 52.54134], [6.09743, 52.54156], [6.09024, 52.53858], [6.08521, 52.53576], [6.08399, 52.53415], [6.08227, 52.53496], [6.07863, 52.53665], [6.07434, 52.53729], [6.07511, 52.54141], [6.07728, 52.54412], [6.08982, 52.55157], [6.0894, 52.55184], [6.09241, 52.55352], [6.09768, 52.55863], [6.10079, 52.56376], [6.10159, 52.56112]]]]}}, {"type": "Feature", "properties": {"statcode": "BU01933220", "statnaam": "Haerst"}, "geometry": {"type": "MultiPolygon", "coordinates": [[[[6.19356, 52.58433], [6.19361, 52.58432], [6.17485, 52.5553], [6.16607, 52.54203], [6.16165, 52.53735], [6.15435, 52.53283], [6.14411, 52.5295], [6.14623, 52.53412], [6.14506, 52.53679], [6.14303, 52.53808], [6.1349, 52.5402], [6.13178, 52.54262], [6.12965, 52.54636], [6.12398, 52.54831], [6.12282, 52.54895], [6.12076, 52.55339], [6.1167, 52.556], [6.1093, 52.55716], [6.1046, 52.55889], [6.10159, 52.56112], [6.10079, 52.56376], [6.10368, 52.56735], [6.11006, 52.56741], [6.10979, 52.56111], [6.11396, 52.56081], [6.11596, 52.55887], [6.11722, 52.5585], [6.11808, 52.5574], [6.119, 52.55767], [6.12669, 52.55611], [6.12782, 52.55673], [6.14053, 52.5521], [6.16681, 52.56525], [6.15871, 52.57593], [6.15743, 52.58078], [6.15507, 52.58271], [6.14753, 52.5838], [6.14742, 52.58441], [6.14758, 52.5852], [6.15661, 52.58597], [6.17684, 52.5877], [6.17705, 52.58772], [6.18269, 52.58781], [6.19356, 52.58433]]]]}}, {"type": "Feature", "properties": {"statcode": "BU01934000", "statnaam": "Berkum"}, "geometry": {"type": "MultiPolygon", "coordinates": [[[[6.14534, 52.52694], [6.14912, 52.52504], [6.15099, 52.52242], [6.14141, 52.52013], [6.13887, 52.51981], [6.12915, 52.52044], [6.12675, 52.51997], [6.1265, 52.51991], [6.12371, 52.52679], [6.14411, 52.5295], [6.14534, 52.52694]]]]}}, {"type": "Feature", "properties": {"statcode": "BU01934010", "statnaam": "Bedrijventerrein de Vrolijkheid"}, "geometry": {"type": "MultiPolygon", "coordinates": [[[[6.1265, 52.51991], [6.11866, 52.51849], [6.11717, 52.52312], [6.11617, 52.52586], [6.11663, 52.52592], [6.12371, 52.52679], [6.1265, 52.51991]]]]}}, {"type": "Feature", "properties": {"statcode": "BU01934020", "statnaam": "Veldhoek"}, "geometry": {"type": "MultiPolygon", "coordinates": [[[[6.16079, 52.52486], [6.16522, 52.52366], [6.16959, 52.5206], [6.13684, 52.50508], [6.13167, 52.50867], [6.12922, 52.51232], [6.12675, 52.51997], [6.12915, 52.52044], [6.13887, 52.51981], [6.14141, 52.52013], [6.15099, 52.52242], [6.14912, 52.52504], [6.15173, 52.52464], [6.16079, 52.52486]]]]}}, {"type": "Feature", "properties": {"statcode": "BU01934030", "statnaam": "Kantorenterrein Oosterenk"}, "geometry": {"type": "MultiPolygon", "coordinates": [[[[6.12922, 52.51232], [6.13167, 52.50867], [6.13684, 52.50508], [6.13071, 52.50214], [6.12593, 52.50529], [6.12138, 52.51074], [6.11866, 52.51849], [6.1265, 52.51991], [6.12675, 52.51997], [6.12922, 52.51232]]]]}}, {"type": "Feature", "properties": {"statcode": "BU01934040", "statnaam": "Bedrijventerrein Hessenpoort"}, "geometry": {"type": "MultiPolygon", "coordinates": [[[[6.18963, 52.53616], [6.19297, 52.53197], [6.18744, 52.52478], [6.18785, 52.52352], [6.18614, 52.52269], [6.18611, 52.52267], [6.17869, 52.52223], [6.17328, 52.51959], [6.17094, 52.51973], [6.16959, 52.5206], [6.16522, 52.52366], [6.16079, 52.52486], [6.15173, 52.52464], [6.14912, 52.52504], [6.14534, 52.52694], [6.14411, 52.5295], [6.15435, 52.53283], [6.16165, 52.53735], [6.16607, 52.54203], [6.17485, 52.5553], [6.18963, 52.53616]]]]}}, {"type": "Feature", "properties": {"statcode": "BU01934050", "statnaam": "Tolhuislanden"}, "geometry": {"type": "MultiPolygon", "coordinates": [[[[6.20566, 52.57508], [6.20948, 52.56853], [6.21081, 52.5678], [6.19697, 52.54724], [6.18963, 52.53616], [6.17485, 52.5553], [6.19361, 52.58432], [6.19509, 52.58411], [6.20214, 52.58495], [6.20566, 52.57508]]]]}}, {"type": "Feature", "properties": {"statcode": "BU01934100", "statnaam": "Herfte"}, "geometry": {"type": "MultiPolygon", "coordinates": [[[[6.18311, 52.52089], [6.18258, 52.51951], [6.18297, 52.51945], [6.18295, 52.51934], [6.17332, 52.51883], [6.18407, 52.50774], [6.18772, 52.50056], [6.17168, 52.49634], [6.17184, 52.49529], [6.16753, 52.49332], [6.16681, 52.4938], [6.15974, 52.48992], [6.1485, 52.48765], [6.14683, 52.48853], [6.144, 52.49271], [6.13071, 52.50214], [6.13684, 52.50508], [6.16959, 52.5206], [6.17094, 52.51973], [6.17328, 52.51959], [6.17869, 52.52223], [6.18611, 52.52267], [6.18311, 52.52089]]]]}}, {"type": "Feature", "properties": {"statcode": "BU01934110", "statnaam": "Bedrijventerrein Marslanden-Zuid"}, "geometry": {"type": "MultiPolygon", "coordinates": [[[[6.144, 52.49271], [6.14683, 52.48853], [6.13557, 52.48392], [6.13808, 52.4806], [6.13775, 52.4799], [6.13025, 52.48462], [6.12344, 52.48902], [6.11543, 52.49402], [6.10542, 52.49957], [6.10863, 52.49863], [6.11308, 52.49809], [6.12259, 52.49875], [6.12694, 52.50035], [6.13071, 52.50214], [6.144, 52.49271]]]]}}, {"type": "Feature", "properties": {"statcode": "BU01934120", "statnaam": "Wijthmen"}, "geometry": {"type": "MultiPolygon", "coordinates": [[[[6.18909, 52.49901], [6.19683, 52.49553], [6.19791, 52.49576], [6.19971, 52.49527], [6.19995, 52.49318], [6.19874, 52.49282], [6.20017, 52.49088], [6.20097, 52.49106], [6.19652, 52.48968], [6.19368, 52.48625], [6.19239, 52.48562], [6.19367, 52.48296], [6.19214, 52.48173], [6.18953, 52.48068], [6.18283, 52.48081], [6.1822, 52.4791], [6.17753, 52.47982], [6.17701, 52.47941], [6.17766, 52.47786], [6.17473, 52.47821], [6.17358, 52.4768], [6.17132, 52.47726], [6.1625, 52.47439], [6.15223, 52.47084], [6.13775, 52.4799], [6.13808, 52.4806], [6.13557, 52.48392], [6.14683, 52.48853], [6.1485, 52.48765], [6.15974, 52.48992], [6.16681, 52.4938], [6.16753, 52.49332], [6.17184, 52.49529], [6.17168, 52.49634], [6.18772, 52.50056], [6.18909, 52.49901]]]]}}, {"type": "Feature", "properties": {"statcode": "BU01935000", "statnaam": "Oud-Schelle"}, "geometry": {"type": "MultiPolygon", "coordinates": [[[[6.10529, 52.49295], [6.10408, 52.49274], [6.0984, 52.49547], [6.09528, 52.49775], [6.09351, 52.49766], [6.09126, 52.49906], [6.09413, 52.50058], [6.09677, 52.49943], [6.10259, 52.49884], [6.10536, 52.49661], [6.10556, 52.49527], [6.10422, 52.49423], [6.10529, 52.49295]]]]}}, {"type": "Feature", "properties": {"statcode": "BU01935010", "statnaam": "Schellerhoek"}, "geometry": {"type": "MultiPolygon", "coordinates": [[[[6.10221, 52.50004], [6.10822, 52.49736], [6.10817, 52.49522], [6.10643, 52.49239], [6.10628, 52.49216], [6.10529, 52.49295], [6.10422, 52.49423], [6.10556, 52.49527], [6.10536, 52.49661], [6.10259, 52.49884], [6.09677, 52.49943], [6.09413, 52.50058], [6.09408, 52.50086], [6.10221, 52.50004]]]]}}, {"type": "Feature", "properties": {"statcode": "BU01935020", "statnaam": "Schellerbroek"}, "geometry": {"type": "MultiPolygon", "coordinates": [[[[6.08415, 52.5014], [6.09408, 52.50086], [6.09413, 52.50058], [6.09126, 52.49906], [6.09351, 52.49766], [6.08636, 52.49399], [6.08504, 52.49483], [6.08572, 52.49734], [6.08211, 52.4986], [6.08198, 52.49684], [6.07858, 52.49612], [6.07728, 52.49766], [6.07475, 52.49717], [6.07749, 52.50245], [6.08415, 52.5014]]]]}}, {"type": "Feature", "properties": {"statcode": "BU01935030", "statnaam": "Schellerlanden"}, "geometry": {"type": "MultiPolygon", "coordinates": [[[[6.10529, 52.49295], [6.10628, 52.49216], [6.10473, 52.48847], [6.10211, 52.48848], [6.10064, 52.49004], [6.09609, 52.48938], [6.0958, 52.48891], [6.09332, 52.48919], [6.0911, 52.49173], [6.08636, 52.49399], [6.09351, 52.49766], [6.09528, 52.49775], [6.0984, 52.49547], [6.10408, 52.49274], [6.10529, 52.49295]]]]}}, {"type": "Feature", "properties": {"statcode": "BU01935040", "statnaam": "Oldenelerlanden-Oost"}, "geometry": {"type": "MultiPolygon", "coordinates": [[[[6.10211, 52.48848], [6.10473, 52.48847], [6.10713, 52.48295], [6.10342, 52.48186], [6.0958, 52.48891], [6.09609, 52.48938], [6.10064, 52.49004], [6.10211, 52.48848]]]]}}, {"type": "Feature", "properties": {"statcode": "BU01935050", "statnaam": "Oldenelerlanden-West"}, "geometry": {"type": "MultiPolygon", "coordinates": [[[[6.0958, 52.48891], [6.10342, 52.48186], [6.10302, 52.48125], [6.10188, 52.48181], [6.09572, 52.48137], [6.09355, 52.48264], [6.09201, 52.48883], [6.09332, 52.48919], [6.0958, 52.48891]]]]}}, {"type": "Feature", "properties": {"statcode": "BU01935060", "statnaam": "Oldenelerbroek"}, "geometry": {"type": "MultiPolygon", "coordinates": [[[[6.11165, 52.47487], [6.11319, 52.47214], [6.10314, 52.47021], [6.10061, 52.47213], [6.09955, 52.47426], [6.09965, 52.47582], [6.10302, 52.48125], [6.10342, 52.48186], [6.10713, 52.48295], [6.11165, 52.47487]]]]}}, {"type": "Feature", "properties": {"statcode": "BU01935070", "statnaam": "Schelle-Zuid en Oldeneel"}, "geometry": {"type": "MultiPolygon", "coordinates": [[[[6.08572, 52.49734], [6.08504, 52.49483], [6.08636, 52.49399], [6.0911, 52.49173], [6.09332, 52.48919], [6.09201, 52.48883], [6.09355, 52.48264], [6.09572, 52.48137], [6.10188, 52.48181], [6.10302, 52.48125], [6.09965, 52.47582], [6.09955, 52.47426], [6.10061, 52.47213], [6.10314, 52.47021], [6.09915, 52.47031], [6.09425, 52.47411], [6.08927, 52.47681], [6.07642, 52.48022], [6.07143, 52.48211], [6.06637, 52.48517], [6.06343, 52.48805], [6.06178, 52.4904], [6.07014, 52.49298], [6.073, 52.49493], [6.07475, 52.49717], [6.07728, 52.49766], [6.07858, 52.49612], [6.08198, 52.49684], [6.08211, 52.4986], [6.08572, 52.49734]]]]}}, {"type": "Feature", "properties": {"statcode": "BU01935080", "statnaam": "Katerveer-Engelse werk"}, "geometry": {"type": "MultiPolygon", "coordinates": [[[[6.07462, 52.50316], [6.07749, 52.50245], [6.07475, 52.49717], [6.073, 52.49493], [6.07014, 52.49298], [6.06178, 52.4904], [6.0584, 52.496], [6.05422, 52.49979], [6.06719, 52.50662], [6.07462, 52.50316]]]]}}, {"type": "Feature", "properties": {"statcode": "BU01935100", "statnaam": "Oud-Ittersum"}, "geometry": {"type": "MultiPolygon", "coordinates": [[[[6.11438, 52.48509], [6.10713, 52.48295], [6.10473, 52.48847], [6.10628, 52.49216], [6.11438, 52.48509]]]]}}, {"type": "Feature", "properties": {"statcode": "BU01935110", "statnaam": "Ittersumerlanden"}, "geometry": {"type": "MultiPolygon", "coordinates": [[[[6.11913, 52.48064], [6.12014, 52.47963], [6.11408, 52.47715], [6.11165, 52.47487], [6.10713, 52.48295], [6.11438, 52.48509], [6.11913, 52.48064]]]]}}, {"type": "Feature", "properties": {"statcode": "BU01935120", "statnaam": "Ittersumerbroek"}, "geometry": {"type": "MultiPolygon", "coordinates": [[[[6.12876, 52.47283], [6.12091, 52.47261], [6.11359, 52.47143], [6.11319, 52.47214], [6.11165, 52.47487], [6.11408, 52.47715], [6.12014, 52.47963], [6.12876, 52.47283]]]]}}, {"type": "Feature", "properties": {"statcode": "BU01935130", "statnaam": "Geren"}, "geometry": {"type": "MultiPolygon", "coordinates": [[[[6.11543, 52.49402], [6.11231, 52.49281], [6.10643, 52.49239], [6.10817, 52.49522], [6.10822, 52.49736], [6.10542, 52.49957], [6.11543, 52.49402]]]]}}, {"type": "Feature", "properties": {"statcode": "BU01935140", "statnaam": "Gerenlanden"}, "geometry": {"type": "MultiPolygon", "coordinates": [[[[6.12344, 52.48902], [6.11438, 52.48509], [6.10628, 52.49216], [6.10643, 52.49239], [6.11231, 52.49281], [6.11543, 52.49402], [6.12344, 52.48902]]]]}}, {"type": "Feature", "properties": {"statcode": "BU01935150", "statnaam": "Gerenbroek"}, "geometry": {"type": "MultiPolygon", "coordinates": [[[[6.13025, 52.48462], [6.12714, 52.48378], [6.12638, 52.48268], [6.12101, 52.48213], [6.11913, 52.48064], [6.11438, 52.48509], [6.12344, 52.48902], [6.13025, 52.48462]]]]}}, {"type": "Feature", "properties": {"statcode": "BU01935160", "statnaam": "Oude Mars"}, "geometry": {"type": "MultiPolygon", "coordinates": [[[[6.13775, 52.4799], [6.13716, 52.47889], [6.13783, 52.47615], [6.12762, 52.47787], [6.12742, 52.48108], [6.12638, 52.48268], [6.12714, 52.48378], [6.13025, 52.48462], [6.13775, 52.4799]]]]}}, {"type": "Feature", "properties": {"statcode": "BU01935200", "statnaam": "Windesheim"}, "geometry": {"type": "MultiPolygon", "coordinates": [[[[6.13075, 52.45233], [6.13708, 52.44076], [6.13591, 52.44157], [6.13027, 52.44161], [6.12482, 52.45137], [6.12733, 52.45287], [6.13075, 52.45233]]]]}}, {"type": "Feature", "properties": {"statcode": "BU01935210", "statnaam": "Harculo en Hoog-Zuthem"}, "geometry": {"type": "MultiPolygon", "coordinates": [[[[6.12742, 52.48108], [6.12762, 52.47787], [6.13783, 52.47615], [6.13716, 52.47889], [6.13775, 52.4799], [6.15223, 52.47084], [6.15132, 52.47109], [6.14415, 52.46767], [6.14749, 52.46573], [6.15159, 52.46177], [6.15229, 52.4578], [6.15492, 52.45318], [6.15313, 52.45023], [6.14768, 52.44444], [6.14044, 52.44341], [6.13966, 52.44162], [6.13708, 52.44076], [6.13075, 52.45233], [6.12733, 52.45287], [6.12482, 52.45137], [6.13027, 52.44161], [6.12041, 52.44231], [6.10958, 52.44053], [6.10502, 52.44259], [6.1023, 52.44577], [6.10199, 52.4478], [6.10355, 52.45396], [6.1017, 52.46635], [6.09915, 52.47031], [6.10314, 52.47021], [6.11319, 52.47214], [6.11359, 52.47143], [6.12091, 52.47261], [6.12876, 52.47283], [6.12014, 52.47963], [6.11913, 52.48064], [6.12101, 52.48213], [6.12638, 52.48268], [6.12742, 52.48108]]]]}}]}