{"type": "FeatureCollection", "features": [{"type": "Feature", "properties": {"statcode": "WK026801", "statnaam": "Nijmegen-Centrum"}, "geometry": {"type": "MultiPolygon", "coordinates": [[[[5.85673, 51.85213], [5.86424, 51.85131], [5.87135, 51.85157], [5.87285, 51.84867], [5.87471, 51.84613], [5.87439, 51.84508], [5.87049, 51.84284], [5.86791, 51.84112], [5.86243, 51.84058], [5.85958, 51.84067], [5.85828, 51.84176], [5.85375, 51.84215], [5.85119, 51.83898], [5.85111, 51.84094], [5.85239, 51.84362], [5.85497, 51.84877], [5.85673, 51.85213]]]]}}, {"type": "Feature", "properties": {"statcode": "WK026802", "statnaam": "Nijmegen-Oost"}, "geometry": {"type": "MultiPolygon", "coordinates": [[[[5.89453, 51.84056], [5.89217, 51.84001], [5.89809, 51.8364], [5.89579, 51.83358], [5.89589, 51.83258], [5.89698, 51.83217], [5.90394, 51.83134], [5.90651, 51.83059], [5.90825, 51.82935], [5.9053, 51.82745], [5.90143, 51.82739], [5.90033, 51.82572], [5.89909, 51.82462], [5.89371, 51.82393], [5.89352, 51.82428], [5.89234, 51.82389], [5.88875, 51.82269], [5.88831, 51.8231], [5.88806, 51.823], [5.88261, 51.82116], [5.88193, 51.82104], [5.88049, 51.82033], [5.88152, 51.8174], [5.88409, 51.81386], [5.88596, 51.8125], [5.88615, 51.81085], [5.88555, 51.8102], [5.88245, 51.8095], [5.87911, 51.80953], [5.8767, 51.80986], [5.87634, 51.8206], [5.87434, 51.82278], [5.86552, 51.82827], [5.85869, 51.83261], [5.85819, 51.83292], [5.85274, 51.83642], [5.85119, 51.83898], [5.85375, 51.84215], [5.85828, 51.84176], [5.85958, 51.84067], [5.86243, 51.84058], [5.86791, 51.84112], [5.87049, 51.84284], [5.87439, 51.84508], [5.87471, 51.84613], [5.87285, 51.84867], [5.87135, 51.85157], [5.87781, 51.85437], [5.88158, 51.8591], [5.88158, 51.8591], [5.88737, 51.85881], [5.88741, 51.85454], [5.88462, 51.85017], [5.88734, 51.84969], [5.88549, 51.84766], [5.88039, 51.84505], [5.88457, 51.84384], [5.89453, 51.84056]]]]}}, {"type": "Feature", "properties": {"statcode": "WK026803", "statnaam": "Nijmegen-Oud-West"}, "geometry": {"type": "MultiPolygon", "coordinates": [[[[5.84779, 51.83673], [5.84257, 51.83378], [5.83778, 51.8365], [5.83646, 51.8378], [5.83669, 51.83913], [5.83853, 51.83926], [5.84075, 51.84206], [5.84094, 51.84451], [5.83672, 51.84585], [5.83915, 51.84879], [5.84058, 51.8527], [5.84416, 51.85682], [5.85288, 51.85309], [5.85673, 51.85213], [5.85497, 51.84877], [5.85239, 51.84362], [5.85111, 51.84094], [5.84779, 51.83673]]]]}}, {"type": "Feature", "properties": {"statcode": "WK026804", "statnaam": "Nijmegen-Nieuw-West"}, "geometry": {"type": "MultiPolygon", "coordinates": [[[[5.84416, 51.85682], [5.84058, 51.8527], [5.83915, 51.84879], [5.83672, 51.84585], [5.84094, 51.84451], [5.84075, 51.84206], [5.83853, 51.83926], [5.83669, 51.83913], [5.83646, 51.8378], [5.83778, 51.8365], [5.84257, 51.83378], [5.835, 51.83104], [5.82813, 51.82857], [5.8224, 51.82728], [5.80842, 51.82562], [5.80714, 51.83118], [5.80931, 51.83752], [5.81292, 51.84206], [5.81727, 51.84732], [5.81737, 51.84949], [5.82033, 51.85387], [5.82151, 51.8556], [5.82215, 51.85542], [5.82539, 51.86013], [5.82549, 51.86269], [5.82369, 51.86431], [5.82569, 51.86621], [5.83144, 51.86333], [5.84416, 51.85682]]]]}}, {"type": "Feature", "properties": {"statcode": "WK026805", "statnaam": "Nijmegen-Midden"}, "geometry": {"type": "MultiPolygon", "coordinates": [[[[5.87634, 51.8206], [5.87443, 51.82003], [5.87026, 51.81679], [5.86712, 51.8167], [5.86668, 51.81852], [5.86236, 51.8185], [5.86203, 51.81643], [5.85491, 51.8165], [5.85563, 51.81912], [5.84688, 51.82028], [5.84097, 51.81681], [5.83992, 51.8161], [5.83896, 51.81664], [5.8324, 51.81259], [5.83154, 51.81316], [5.82724, 51.81335], [5.82279, 51.8119], [5.81421, 51.81112], [5.81164, 51.8176], [5.80842, 51.82562], [5.8224, 51.82728], [5.82813, 51.82857], [5.835, 51.83104], [5.84257, 51.83378], [5.84779, 51.83673], [5.85111, 51.84094], [5.85119, 51.83898], [5.85274, 51.83642], [5.85819, 51.83292], [5.85869, 51.83261], [5.86552, 51.82827], [5.87434, 51.82278], [5.87634, 51.8206]]]]}}, {"type": "Feature", "properties": {"statcode": "WK026806", "statnaam": "Nijmegen-Zuid"}, "geometry": {"type": "MultiPolygon", "coordinates": [[[[5.87634, 51.8206], [5.8767, 51.80986], [5.86476, 51.8098], [5.85303, 51.80785], [5.85263, 51.8075], [5.84696, 51.80811], [5.84094, 51.8072], [5.84133, 51.8059], [5.83917, 51.80461], [5.83696, 51.80611], [5.82551, 51.80013], [5.82686, 51.79954], [5.82468, 51.79809], [5.81978, 51.80179], [5.81612, 51.80633], [5.81421, 51.81112], [5.82279, 51.8119], [5.82724, 51.81335], [5.83154, 51.81316], [5.8324, 51.81259], [5.83896, 51.81664], [5.83992, 51.8161], [5.84097, 51.81681], [5.84688, 51.82028], [5.85563, 51.81912], [5.85491, 51.8165], [5.86203, 51.81643], [5.86236, 51.8185], [5.86668, 51.81852], [5.86712, 51.8167], [5.87026, 51.81679], [5.87443, 51.82003], [5.87634, 51.8206]]]]}}, {"type": "Feature", "properties": {"statcode": "WK026807", "statnaam": "Dukenburg"}, "geometry": {"type": "MultiPolygon", "coordinates": [[[[5.82468, 51.79809], [5.8245, 51.798], [5.81408, 51.79282], [5.81381, 51.79281], [5.81022, 51.79059], [5.80095, 51.79515], [5.79608, 51.79814], [5.79437, 51.79731], [5.79225, 51.79893], [5.79043, 51.80202], [5.7813, 51.80983], [5.77472, 51.82053], [5.77552, 51.82069], [5.78046, 51.82158], [5.79216, 51.82368], [5.80842, 51.82562], [5.81164, 51.8176], [5.81421, 51.81112], [5.81612, 51.80633], [5.81978, 51.80179], [5.82468, 51.79809]]]]}}, {"type": "Feature", "properties": {"statcode": "WK026808", "statnaam": "Lindenholt"}, "geometry": {"type": "MultiPolygon", "coordinates": [[[[5.81292, 51.84206], [5.80931, 51.83752], [5.80714, 51.83118], [5.80842, 51.82562], [5.79216, 51.82368], [5.78046, 51.82158], [5.77552, 51.82069], [5.77472, 51.82053], [5.77471, 51.82055], [5.77406, 51.82159], [5.77133, 51.82306], [5.75762, 51.82399], [5.76473, 51.83229], [5.77508, 51.84425], [5.77715, 51.84447], [5.77965, 51.84457], [5.7812, 51.84298], [5.78359, 51.842], [5.7865, 51.84092], [5.79793, 51.84619], [5.8061, 51.85046], [5.80733, 51.85184], [5.81236, 51.85033], [5.81232, 51.84964], [5.81737, 51.84949], [5.81727, 51.84732], [5.81292, 51.84206]]]]}}, {"type": "Feature", "properties": {"statcode": "WK026809", "statnaam": "Nijmegen-Noord"}, "geometry": {"type": "MultiPolygon", "coordinates": [[[[5.85712, 51.89462], [5.85763, 51.88839], [5.85949, 51.88867], [5.86131, 51.88877], [5.8641, 51.88872], [5.86549, 51.88898], [5.86542, 51.88854], [5.8687, 51.8882], [5.87148, 51.88865], [5.8742, 51.88458], [5.87584, 51.88086], [5.87614, 51.8766], [5.87695, 51.8765], [5.88027, 51.86921], [5.88195, 51.8671], [5.88299, 51.86667], [5.88253, 51.86629], [5.88274, 51.86614], [5.88435, 51.86702], [5.88677, 51.8652], [5.88158, 51.8591], [5.87781, 51.85437], [5.87135, 51.85157], [5.86424, 51.85131], [5.85673, 51.85213], [5.85288, 51.85309], [5.84416, 51.85682], [5.83144, 51.86333], [5.82569, 51.86621], [5.81707, 51.87026], [5.82697, 51.87319], [5.83161, 51.87223], [5.83258, 51.87344], [5.83417, 51.87562], [5.83515, 51.87762], [5.83281, 51.87843], [5.83779, 51.88343], [5.83682, 51.88366], [5.83587, 51.88603], [5.83594, 51.88815], [5.83439, 51.89034], [5.83043, 51.89165], [5.83024, 51.89368], [5.83672, 51.89375], [5.83685, 51.89375], [5.85712, 51.89462]]]]}}]}