{"type": "FeatureCollection", "features": [{"type": "Feature", "properties": {"statcode": "BU03440111", "statnaam": "Welgelegen, Den Hommel"}, "geometry": {"type": "MultiPolygon", "coordinates": [[[[5.0983, 52.08522], [5.09422, 52.08241], [5.09077, 52.08098], [5.08133, 52.07895], [5.08029, 52.08217], [5.08539, 52.08155], [5.0876, 52.08264], [5.09455, 52.08717], [5.0983, 52.08522]]]]}}, {"type": "Feature", "properties": {"statcode": "BU03440112", "statnaam": "Oog in Al"}, "geometry": {"type": "MultiPolygon", "coordinates": [[[[5.09361, 52.08765], [5.09455, 52.08717], [5.0876, 52.08264], [5.08392, 52.08469], [5.08316, 52.08739], [5.08276, 52.09012], [5.08432, 52.09244], [5.09361, 52.08765]]]]}}, {"type": "Feature", "properties": {"statcode": "BU03440113", "statnaam": "Halve Maan-Zuid"}, "geometry": {"type": "MultiPolygon", "coordinates": [[[[5.08316, 52.08739], [5.08392, 52.08469], [5.0876, 52.08264], [5.08539, 52.08155], [5.08029, 52.08217], [5.08028, 52.08219], [5.07893, 52.08839], [5.08179, 52.0886], [5.08214, 52.08731], [5.08316, 52.08739]]]]}}, {"type": "Feature", "properties": {"statcode": "BU03440114", "statnaam": "Halve Maan-Noord"}, "geometry": {"type": "MultiPolygon", "coordinates": [[[[5.08001, 52.09483], [5.08432, 52.09244], [5.08276, 52.09012], [5.08316, 52.08739], [5.08214, 52.08731], [5.08179, 52.0886], [5.07893, 52.08839], [5.07717, 52.09804], [5.07716, 52.0981], [5.08001, 52.09483]]]]}}, {"type": "Feature", "properties": {"statcode": "BU03440121", "statnaam": "Lombok-Oost"}, "geometry": {"type": "MultiPolygon", "coordinates": [[[[5.10542, 52.09075], [5.10116, 52.08945], [5.09958, 52.09314], [5.10629, 52.09356], [5.10542, 52.09075]]]]}}, {"type": "Feature", "properties": {"statcode": "BU03440122", "statnaam": "Leidseweg en omgeving"}, "geometry": {"type": "MultiPolygon", "coordinates": [[[[5.0983, 52.08522], [5.09455, 52.08717], [5.10116, 52.08945], [5.10542, 52.09075], [5.10104, 52.08832], [5.0983, 52.08522]]]]}}, {"type": "Feature", "properties": {"statcode": "BU03440123", "statnaam": "Lombok-West"}, "geometry": {"type": "MultiPolygon", "coordinates": [[[[5.09958, 52.09314], [5.10116, 52.08945], [5.09455, 52.08717], [5.09361, 52.08765], [5.09276, 52.09396], [5.09958, 52.09314]]]]}}, {"type": "Feature", "properties": {"statcode": "BU03440124", "statnaam": "Laan van Nieuw-Guinea, Spinozaweg e.o."}, "geometry": {"type": "MultiPolygon", "coordinates": [[[[5.09276, 52.09396], [5.09361, 52.08765], [5.08432, 52.09244], [5.08001, 52.09483], [5.08178, 52.09548], [5.09276, 52.09396]]]]}}, {"type": "Feature", "properties": {"statcode": "BU03440131", "statnaam": "Nieuw Engeland, Th. a. Kempisplantsoen en omgeving"}, "geometry": {"type": "MultiPolygon", "coordinates": [[[[5.10375, 52.09521], [5.10547, 52.09422], [5.10629, 52.09356], [5.09958, 52.09314], [5.09276, 52.09396], [5.08178, 52.09548], [5.08001, 52.09483], [5.07716, 52.0981], [5.09736, 52.09658], [5.10375, 52.09521]]]]}}, {"type": "Feature", "properties": {"statcode": "BU03440132", "statnaam": "Schepenbuurt, Cartesiusweg e.o."}, "geometry": {"type": "MultiPolygon", "coordinates": [[[[5.07815, 52.10978], [5.08388, 52.10648], [5.0894, 52.10329], [5.09374, 52.10074], [5.10013, 52.0966], [5.10375, 52.09521], [5.09736, 52.09658], [5.07716, 52.0981], [5.07714, 52.09818], [5.07641, 52.10207], [5.07724, 52.1103], [5.07815, 52.10978]]]]}}, {"type": "Feature", "properties": {"statcode": "BU03440133", "statnaam": "Bedrijventerrein Lageweide"}, "geometry": {"type": "MultiPolygon", "coordinates": [[[[5.0612, 52.12256], [5.07406, 52.11511], [5.0762, 52.11288], [5.07724, 52.1103], [5.07641, 52.10207], [5.07714, 52.09818], [5.0673, 52.09892], [5.0652, 52.10122], [5.05827, 52.10681], [5.05286, 52.10977], [5.03882, 52.11585], [5.03707, 52.11571], [5.03354, 52.11676], [5.04088, 52.1255], [5.04542, 52.12846], [5.04498, 52.12878], [5.04756, 52.12997], [5.0612, 52.12256]]]]}}, {"type": "Feature", "properties": {"statcode": "BU03440211", "statnaam": "Pijlsweerd-Zuid"}, "geometry": {"type": "MultiPolygon", "coordinates": [[[[5.11522, 52.09714], [5.10955, 52.09524], [5.10629, 52.09356], [5.10547, 52.09422], [5.10407, 52.09835], [5.10557, 52.09747], [5.10853, 52.10014], [5.1117, 52.10081], [5.11522, 52.09714]]]]}}, {"type": "Feature", "properties": {"statcode": "BU03440212", "statnaam": "Pijlsweerd-Noord"}, "geometry": {"type": "MultiPolygon", "coordinates": [[[[5.1117, 52.10081], [5.10853, 52.10014], [5.10557, 52.09747], [5.10407, 52.09835], [5.10502, 52.10093], [5.10982, 52.1047], [5.1117, 52.10081]]]]}}, {"type": "Feature", "properties": {"statcode": "BU03440221", "statnaam": "Nijenoord, Hoogstraat en omgeving"}, "geometry": {"type": "MultiPolygon", "coordinates": [[[[5.11444, 52.10707], [5.10982, 52.1047], [5.10502, 52.10093], [5.10215, 52.10227], [5.10503, 52.10322], [5.10578, 52.10541], [5.10731, 52.10642], [5.11277, 52.10867], [5.11444, 52.10707]]]]}}, {"type": "Feature", "properties": {"statcode": "BU03440222", "statnaam": "Ondiep"}, "geometry": {"type": "MultiPolygon", "coordinates": [[[[5.10731, 52.10642], [5.10578, 52.10541], [5.10503, 52.10322], [5.10215, 52.10227], [5.09925, 52.10374], [5.09433, 52.10661], [5.10188, 52.1111], [5.1057, 52.10852], [5.10731, 52.10642]]]]}}, {"type": "Feature", "properties": {"statcode": "BU03440223", "statnaam": "2e Daalsebuurt en omgeving"}, "geometry": {"type": "MultiPolygon", "coordinates": [[[[5.10215, 52.10227], [5.10502, 52.10093], [5.10407, 52.09835], [5.10547, 52.09422], [5.10375, 52.09521], [5.10013, 52.0966], [5.09374, 52.10074], [5.09925, 52.10374], [5.10215, 52.10227]]]]}}, {"type": "Feature", "properties": {"statcode": "BU03440224", "statnaam": "Egelantierstraat, Mariëndaalstraat e.o."}, "geometry": {"type": "MultiPolygon", "coordinates": [[[[5.09925, 52.10374], [5.09374, 52.10074], [5.0894, 52.10329], [5.09433, 52.10661], [5.09925, 52.10374]]]]}}, {"type": "Feature", "properties": {"statcode": "BU03440231", "statnaam": "Julianapark en omgeving"}, "geometry": {"type": "MultiPolygon", "coordinates": [[[[5.09433, 52.10661], [5.0894, 52.10329], [5.08388, 52.10648], [5.08684, 52.10832], [5.09203, 52.11011], [5.09433, 52.10661]]]]}}, {"type": "Feature", "properties": {"statcode": "BU03440232", "statnaam": "Elinkwijk en omgeving"}, "geometry": {"type": "MultiPolygon", "coordinates": [[[[5.09203, 52.11011], [5.08684, 52.10832], [5.08388, 52.10648], [5.07815, 52.10978], [5.08221, 52.11101], [5.08147, 52.11143], [5.08706, 52.11296], [5.09203, 52.11011]]]]}}, {"type": "Feature", "properties": {"statcode": "BU03440233", "statnaam": "Prins Bernhardplein en omgeving"}, "geometry": {"type": "MultiPolygon", "coordinates": [[[[5.08248, 52.11562], [5.08706, 52.11296], [5.08147, 52.11143], [5.08221, 52.11101], [5.07815, 52.10978], [5.07724, 52.1103], [5.0762, 52.11288], [5.07406, 52.11511], [5.07866, 52.11782], [5.08248, 52.11562]]]]}}, {"type": "Feature", "properties": {"statcode": "BU03440241", "statnaam": "Geuzenwijk"}, "geometry": {"type": "MultiPolygon", "coordinates": [[[[5.10188, 52.1111], [5.09433, 52.10661], [5.09203, 52.11011], [5.09459, 52.11353], [5.09649, 52.11479], [5.10188, 52.1111]]]]}}, {"type": "Feature", "properties": {"statcode": "BU03440242", "statnaam": "Schaakbuurt en omgeving"}, "geometry": {"type": "MultiPolygon", "coordinates": [[[[5.09384, 52.11741], [5.09649, 52.11479], [5.09459, 52.11353], [5.09203, 52.11011], [5.08706, 52.11296], [5.08248, 52.11562], [5.0852, 52.11748], [5.08549, 52.11883], [5.09384, 52.11741]]]]}}, {"type": "Feature", "properties": {"statcode": "BU03440243", "statnaam": "Queeckhovenplein en omgeving"}, "geometry": {"type": "MultiPolygon", "coordinates": [[[[5.08549, 52.11883], [5.0852, 52.11748], [5.08248, 52.11562], [5.07866, 52.11782], [5.08047, 52.11903], [5.08549, 52.11883]]]]}}, {"type": "Feature", "properties": {"statcode": "BU03440244", "statnaam": "Zuilen-Noord"}, "geometry": {"type": "MultiPolygon", "coordinates": [[[[5.07239, 52.12536], [5.0752, 52.12167], [5.08047, 52.11903], [5.07866, 52.11782], [5.07406, 52.11511], [5.0612, 52.12256], [5.06573, 52.12526], [5.06699, 52.12599], [5.06973, 52.12641], [5.0702, 52.12718], [5.07239, 52.12536]]]]}}, {"type": "Feature", "properties": {"statcode": "BU03440311", "statnaam": "Taag- en Rubicondreef en omgeving"}, "geometry": {"type": "MultiPolygon", "coordinates": [[[[5.1222, 52.11367], [5.12669, 52.11026], [5.11444, 52.10707], [5.11277, 52.10867], [5.11104, 52.11036], [5.11759, 52.11521], [5.1222, 52.11367]]]]}}, {"type": "Feature", "properties": {"statcode": "BU03440312", "statnaam": "Wolga- en Donaudreef en omgeving"}, "geometry": {"type": "MultiPolygon", "coordinates": [[[[5.1368, 52.11247], [5.12669, 52.11026], [5.1222, 52.11367], [5.12737, 52.11691], [5.12844, 52.11839], [5.1334, 52.11725], [5.1368, 52.11247]]]]}}, {"type": "Feature", "properties": {"statcode": "BU03440321", "statnaam": "Zamenhofdreef en omgeving"}, "geometry": {"type": "MultiPolygon", "coordinates": [[[[5.11759, 52.11521], [5.11104, 52.11036], [5.11277, 52.10867], [5.10731, 52.10642], [5.1057, 52.10852], [5.10188, 52.1111], [5.10973, 52.11617], [5.11274, 52.1191], [5.11813, 52.11554], [5.11759, 52.11521]]]]}}, {"type": "Feature", "properties": {"statcode": "BU03440322", "statnaam": "Neckardreef en omgeving"}, "geometry": {"type": "MultiPolygon", "coordinates": [[[[5.12844, 52.11839], [5.12737, 52.11691], [5.1222, 52.11367], [5.11759, 52.11521], [5.11813, 52.11554], [5.11274, 52.1191], [5.11676, 52.12275], [5.12281, 52.12004], [5.12844, 52.11839]]]]}}, {"type": "Feature", "properties": {"statcode": "BU03440331", "statnaam": "Vechtzoom-zuid"}, "geometry": {"type": "MultiPolygon", "coordinates": [[[[5.10423, 52.11951], [5.10973, 52.11617], [5.10188, 52.1111], [5.09649, 52.11479], [5.09384, 52.11741], [5.10082, 52.12158], [5.10423, 52.11951]]]]}}, {"type": "Feature", "properties": {"statcode": "BU03440332", "statnaam": "Vechtzoom-noord, Klopvaart"}, "geometry": {"type": "MultiPolygon", "coordinates": [[[[5.10187, 52.12857], [5.09613, 52.12346], [5.10082, 52.12158], [5.09384, 52.11741], [5.08549, 52.11883], [5.08593, 52.12046], [5.09885, 52.12847], [5.09873, 52.1291], [5.10187, 52.12857]]]]}}, {"type": "Feature", "properties": {"statcode": "BU03440333", "statnaam": "Bedrijventerrein en omgeving"}, "geometry": {"type": "MultiPolygon", "coordinates": [[[[5.10019, 52.13021], [5.09873, 52.1291], [5.09885, 52.12847], [5.08593, 52.12046], [5.08549, 52.11883], [5.08047, 52.11903], [5.0752, 52.12167], [5.07239, 52.12536], [5.07616, 52.12705], [5.08553, 52.13437], [5.08576, 52.13455], [5.08716, 52.13567], [5.10019, 52.13021]]]]}}, {"type": "Feature", "properties": {"statcode": "BU03440341", "statnaam": "Zambesidreef en omgeving"}, "geometry": {"type": "MultiPolygon", "coordinates": [[[[5.11676, 52.12275], [5.11274, 52.1191], [5.10973, 52.11617], [5.10423, 52.11951], [5.10685, 52.1211], [5.10587, 52.1217], [5.11129, 52.12528], [5.11676, 52.12275]]]]}}, {"type": "Feature", "properties": {"statcode": "BU03440342", "statnaam": "Tigrisdreef en omgeving"}, "geometry": {"type": "MultiPolygon", "coordinates": [[[[5.11129, 52.12528], [5.10587, 52.1217], [5.10685, 52.1211], [5.10423, 52.11951], [5.10082, 52.12158], [5.09613, 52.12346], [5.10187, 52.12857], [5.10493, 52.12801], [5.11129, 52.12528]]]]}}, {"type": "Feature", "properties": {"statcode": "BU03440343", "statnaam": "Poldergebied Overvecht"}, "geometry": {"type": "MultiPolygon", "coordinates": [[[[5.1416, 52.12117], [5.1422, 52.12019], [5.14262, 52.12084], [5.14673, 52.12041], [5.14931, 52.11849], [5.14865, 52.11524], [5.14196, 52.11361], [5.1368, 52.11247], [5.1334, 52.11725], [5.12844, 52.11839], [5.12281, 52.12004], [5.11676, 52.12275], [5.11129, 52.12528], [5.10493, 52.12801], [5.10187, 52.12857], [5.09873, 52.1291], [5.10019, 52.13021], [5.10108, 52.12984], [5.10227, 52.13033], [5.1034, 52.12985], [5.10558, 52.13189], [5.10709, 52.13321], [5.12655, 52.1246], [5.1404, 52.12099], [5.14016, 52.12058], [5.1416, 52.12117]]]]}}, {"type": "Feature", "properties": {"statcode": "BU03440411", "statnaam": "Vogelenbuurt"}, "geometry": {"type": "MultiPolygon", "coordinates": [[[[5.11704, 52.1007], [5.1183, 52.10054], [5.12466, 52.0994], [5.12426, 52.09751], [5.1175, 52.09653], [5.11468, 52.0999], [5.11489, 52.10099], [5.11704, 52.1007]]]]}}, {"type": "Feature", "properties": {"statcode": "BU03440412", "statnaam": "Lauwerecht"}, "geometry": {"type": "MultiPolygon", "coordinates": [[[[5.11538, 52.1062], [5.11489, 52.10099], [5.11468, 52.0999], [5.1175, 52.09653], [5.1159, 52.09647], [5.11522, 52.09714], [5.1117, 52.10081], [5.10982, 52.1047], [5.11444, 52.10707], [5.11538, 52.1062]]]]}}, {"type": "Feature", "properties": {"statcode": "BU03440413", "statnaam": "Staatsliedenbuurt"}, "geometry": {"type": "MultiPolygon", "coordinates": [[[[5.11948, 52.10592], [5.11779, 52.10509], [5.11704, 52.1007], [5.11489, 52.10099], [5.11538, 52.1062], [5.11948, 52.10592]]]]}}, {"type": "Feature", "properties": {"statcode": "BU03440414", "statnaam": "Tuinwijk-West"}, "geometry": {"type": "MultiPolygon", "coordinates": [[[[5.12564, 52.10463], [5.1183, 52.10054], [5.11704, 52.1007], [5.11779, 52.10509], [5.11948, 52.10592], [5.12564, 52.10463]]]]}}, {"type": "Feature", "properties": {"statcode": "BU03440415", "statnaam": "Tuinwijk-Oost"}, "geometry": {"type": "MultiPolygon", "coordinates": [[[[5.1306, 52.10355], [5.12904, 52.10006], [5.12667, 52.09781], [5.12426, 52.09751], [5.12466, 52.0994], [5.1183, 52.10054], [5.12564, 52.10463], [5.1306, 52.10355]]]]}}, {"type": "Feature", "properties": {"statcode": "BU03440421", "statnaam": "Tuindorp en Van Lieflandlaan-West"}, "geometry": {"type": "MultiPolygon", "coordinates": [[[[5.13184, 52.10325], [5.1306, 52.10355], [5.12564, 52.10463], [5.11948, 52.10592], [5.11538, 52.1062], [5.11444, 52.10707], [5.12669, 52.11026], [5.1368, 52.11247], [5.13184, 52.10325]]]]}}, {"type": "Feature", "properties": {"statcode": "BU03440422", "statnaam": "Tuindorp-Oost"}, "geometry": {"type": "MultiPolygon", "coordinates": [[[[5.14039, 52.10249], [5.13356, 52.10294], [5.13184, 52.10325], [5.1368, 52.11247], [5.14196, 52.11361], [5.14039, 52.10249]]]]}}, {"type": "Feature", "properties": {"statcode": "BU03440423", "statnaam": "Voordorp en Voorveldsepolder"}, "geometry": {"type": "MultiPolygon", "coordinates": [[[[5.16191, 52.10722], [5.15627, 52.0984], [5.14393, 52.09616], [5.14301, 52.09883], [5.1433, 52.10235], [5.14039, 52.10249], [5.14196, 52.11361], [5.14865, 52.11524], [5.15038, 52.11088], [5.15726, 52.10814], [5.16191, 52.10722]]]]}}, {"type": "Feature", "properties": {"statcode": "BU03440431", "statnaam": "Huizingalaan, K. Doormanlaan en omgeving"}, "geometry": {"type": "MultiPolygon", "coordinates": [[[[5.14039, 52.10249], [5.1433, 52.10235], [5.14301, 52.09883], [5.14393, 52.09616], [5.142, 52.09571], [5.14148, 52.09911], [5.1332, 52.10228], [5.13356, 52.10294], [5.14039, 52.10249]]]]}}, {"type": "Feature", "properties": {"statcode": "BU03440432", "statnaam": "Zeeheldenbuurt, Hengeveldstraat en omgeving"}, "geometry": {"type": "MultiPolygon", "coordinates": [[[[5.13184, 52.10325], [5.13356, 52.10294], [5.1332, 52.10228], [5.14148, 52.09911], [5.142, 52.09571], [5.13904, 52.09563], [5.13806, 52.09563], [5.1379, 52.09853], [5.13629, 52.09963], [5.13331, 52.10049], [5.12904, 52.10006], [5.1306, 52.10355], [5.13184, 52.10325]]]]}}, {"type": "Feature", "properties": {"statcode": "BU03440433", "statnaam": "Wittevrouwen"}, "geometry": {"type": "MultiPolygon", "coordinates": [[[[5.13806, 52.09563], [5.12624, 52.09502], [5.12667, 52.09781], [5.12904, 52.10006], [5.13331, 52.10049], [5.13629, 52.09963], [5.1379, 52.09853], [5.13806, 52.09563]]]]}}, {"type": "Feature", "properties": {"statcode": "BU03440511", "statnaam": "Buiten Wittevrouwen"}, "geometry": {"type": "MultiPolygon", "coordinates": [[[[5.13832, 52.09438], [5.13643, 52.09192], [5.13241, 52.08912], [5.13038, 52.08549], [5.1298, 52.08541], [5.12739, 52.09142], [5.12624, 52.09502], [5.13806, 52.09563], [5.13904, 52.09563], [5.13832, 52.09438]]]]}}, {"type": "Feature", "properties": {"statcode": "BU03440512", "statnaam": "Oudwijk"}, "geometry": {"type": "MultiPolygon", "coordinates": [[[[5.13882, 52.08421], [5.13038, 52.08549], [5.13241, 52.08912], [5.13643, 52.09192], [5.13832, 52.09438], [5.14084, 52.09161], [5.13725, 52.08747], [5.13727, 52.08503], [5.13882, 52.08421]]]]}}, {"type": "Feature", "properties": {"statcode": "BU03440521", "statnaam": "Abstede, Tolsteegsingel e.o."}, "geometry": {"type": "MultiPolygon", "coordinates": [[[[5.13882, 52.08421], [5.14059, 52.08247], [5.13335, 52.08331], [5.13093, 52.08281], [5.12618, 52.08079], [5.12521, 52.08136], [5.12821, 52.08443], [5.1298, 52.08541], [5.13038, 52.08549], [5.13882, 52.08421]]]]}}, {"type": "Feature", "properties": {"statcode": "BU03440522", "statnaam": "Sterrenwijk"}, "geometry": {"type": "MultiPolygon", "coordinates": [[[[5.13232, 52.07854], [5.12618, 52.08079], [5.13093, 52.08281], [5.13232, 52.07854]]]]}}, {"type": "Feature", "properties": {"statcode": "BU03440523", "statnaam": "Rubenslaan en omgeving"}, "geometry": {"type": "MultiPolygon", "coordinates": [[[[5.14059, 52.08247], [5.14295, 52.07954], [5.14124, 52.07714], [5.13232, 52.07854], [5.13093, 52.08281], [5.13335, 52.08331], [5.14059, 52.08247]]]]}}, {"type": "Feature", "properties": {"statcode": "BU03440524", "statnaam": "Watervogelbuurt"}, "geometry": {"type": "MultiPolygon", "coordinates": [[[[5.12521, 52.08136], [5.12618, 52.08079], [5.13232, 52.07854], [5.13395, 52.07381], [5.12988, 52.07572], [5.12237, 52.07866], [5.12402, 52.08133], [5.12418, 52.08136], [5.12521, 52.08136]]]]}}, {"type": "Feature", "properties": {"statcode": "BU03440525", "statnaam": "L. Napoleonplantsoen en omgeving"}, "geometry": {"type": "MultiPolygon", "coordinates": [[[[5.14124, 52.07714], [5.1389, 52.07413], [5.13623, 52.07272], [5.13395, 52.07381], [5.13232, 52.07854], [5.14124, 52.07714]]]]}}, {"type": "Feature", "properties": {"statcode": "BU03440526", "statnaam": "Maarschalkerweerd en Mereveld"}, "geometry": {"type": "MultiPolygon", "coordinates": [[[[5.16018, 52.0803], [5.16044, 52.07779], [5.15566, 52.07142], [5.1564, 52.06906], [5.15939, 52.06706], [5.15833, 52.06525], [5.1589, 52.06486], [5.15689, 52.06343], [5.15775, 52.05834], [5.15303, 52.05676], [5.15281, 52.05669], [5.14387, 52.06583], [5.13623, 52.07272], [5.1389, 52.07413], [5.14124, 52.07714], [5.14709, 52.0772], [5.15396, 52.08088], [5.15577, 52.08119], [5.16018, 52.0803]]]]}}, {"type": "Feature", "properties": {"statcode": "BU03440531", "statnaam": "Schildersbuurt"}, "geometry": {"type": "MultiPolygon", "coordinates": [[[[5.14784, 52.08505], [5.14295, 52.07954], [5.14059, 52.08247], [5.13882, 52.08421], [5.14796, 52.08851], [5.14877, 52.08655], [5.14784, 52.08505]]]]}}, {"type": "Feature", "properties": {"statcode": "BU03440532", "statnaam": "Wilhelminapark en omgeving"}, "geometry": {"type": "MultiPolygon", "coordinates": [[[[5.14796, 52.08851], [5.13882, 52.08421], [5.13727, 52.08503], [5.13725, 52.08747], [5.14084, 52.09161], [5.13832, 52.09438], [5.13904, 52.09563], [5.142, 52.09571], [5.14393, 52.09616], [5.14796, 52.08851]]]]}}, {"type": "Feature", "properties": {"statcode": "BU03440533", "statnaam": "Utrecht Science Park"}, "geometry": {"type": "MultiPolygon", "coordinates": [[[[5.16132, 52.09438], [5.16611, 52.09373], [5.17201, 52.09378], [5.17586, 52.09341], [5.17601, 52.09408], [5.17681, 52.09336], [5.18056, 52.09313], [5.1807, 52.09461], [5.18269, 52.09431], [5.18462, 52.09315], [5.18617, 52.09293], [5.18976, 52.08633], [5.19275, 52.08608], [5.19515, 52.07735], [5.19264, 52.07791], [5.18155, 52.07626], [5.1791, 52.07791], [5.17161, 52.07867], [5.16692, 52.07668], [5.1624, 52.07861], [5.16072, 52.08056], [5.16207, 52.08379], [5.1623, 52.08817], [5.15964, 52.09424], [5.1564, 52.09815], [5.15731, 52.09834], [5.16132, 52.09438]]]]}}, {"type": "Feature", "properties": {"statcode": "BU03440534", "statnaam": "Rijnsweerd"}, "geometry": {"type": "MultiPolygon", "coordinates": [[[[5.1564, 52.09815], [5.15964, 52.09424], [5.1623, 52.08817], [5.16207, 52.08379], [5.16072, 52.08056], [5.16018, 52.0803], [5.15577, 52.08119], [5.15248, 52.08417], [5.15081, 52.08402], [5.14784, 52.08505], [5.14877, 52.08655], [5.14796, 52.08851], [5.14393, 52.09616], [5.15627, 52.0984], [5.1564, 52.09815]]]]}}, {"type": "Feature", "properties": {"statcode": "BU03440535", "statnaam": "Galgenwaard en omgeving"}, "geometry": {"type": "MultiPolygon", "coordinates": [[[[5.15577, 52.08119], [5.15396, 52.08088], [5.14709, 52.0772], [5.14124, 52.07714], [5.14295, 52.07954], [5.14784, 52.08505], [5.15081, 52.08402], [5.15248, 52.08417], [5.15577, 52.08119]]]]}}, {"type": "Feature", "properties": {"statcode": "BU03440611", "statnaam": "Domplein, Neude, Janskerkhof"}, "geometry": {"type": "MultiPolygon", "coordinates": [[[[5.12639, 52.09118], [5.12386, 52.09003], [5.12429, 52.08893], [5.12145, 52.0884], [5.11987, 52.09142], [5.11687, 52.09194], [5.1168, 52.09342], [5.12356, 52.09519], [5.12307, 52.09268], [5.12639, 52.09118]]]]}}, {"type": "Feature", "properties": {"statcode": "BU03440612", "statnaam": "Lange Elisabethstraat, Mariaplaats en omgeving"}, "geometry": {"type": "MultiPolygon", "coordinates": [[[[5.12145, 52.0884], [5.11661, 52.08769], [5.11442, 52.08996], [5.11471, 52.09313], [5.1168, 52.09342], [5.11687, 52.09194], [5.11987, 52.09142], [5.12145, 52.0884]]]]}}, {"type": "Feature", "properties": {"statcode": "BU03440613", "statnaam": "Hoog-Catharijne NS en Jaarbeurs"}, "geometry": {"type": "MultiPolygon", "coordinates": [[[[5.11471, 52.09313], [5.11442, 52.08996], [5.11661, 52.08769], [5.11698, 52.0873], [5.11363, 52.08614], [5.11954, 52.08015], [5.11969, 52.07976], [5.1192, 52.07957], [5.11555, 52.08088], [5.11196, 52.08466], [5.10881, 52.08501], [5.10503, 52.0818], [5.0983, 52.08522], [5.10104, 52.08832], [5.10542, 52.09075], [5.10629, 52.09356], [5.10955, 52.09524], [5.11182, 52.09264], [5.11471, 52.09313]]]]}}, {"type": "Feature", "properties": {"statcode": "BU03440621", "statnaam": "Wijk C"}, "geometry": {"type": "MultiPolygon", "coordinates": [[[[5.1159, 52.09647], [5.1168, 52.09342], [5.11471, 52.09313], [5.11182, 52.09264], [5.10955, 52.09524], [5.11522, 52.09714], [5.1159, 52.09647]]]]}}, {"type": "Feature", "properties": {"statcode": "BU03440622", "statnaam": "Breedstraat en Plompetorengracht en omgeving"}, "geometry": {"type": "MultiPolygon", "coordinates": [[[[5.12624, 52.09502], [5.12356, 52.09519], [5.1168, 52.09342], [5.1159, 52.09647], [5.1175, 52.09653], [5.12426, 52.09751], [5.12667, 52.09781], [5.12624, 52.09502]]]]}}, {"type": "Feature", "properties": {"statcode": "BU03440623", "statnaam": "Nobelstraat en omgeving"}, "geometry": {"type": "MultiPolygon", "coordinates": [[[[5.12624, 52.09502], [5.12739, 52.09142], [5.12639, 52.09118], [5.12307, 52.09268], [5.12356, 52.09519], [5.12624, 52.09502]]]]}}, {"type": "Feature", "properties": {"statcode": "BU03440624", "statnaam": "Springweg en omgeving Geertebuurt"}, "geometry": {"type": "MultiPolygon", "coordinates": [[[[5.12418, 52.08136], [5.12402, 52.08133], [5.12132, 52.08115], [5.11986, 52.08416], [5.11698, 52.0873], [5.11661, 52.08769], [5.12145, 52.0884], [5.12302, 52.08389], [5.12273, 52.0824], [5.12418, 52.08136]]]]}}, {"type": "Feature", "properties": {"statcode": "BU03440625", "statnaam": "Lange Nieuwstraat en omgeving"}, "geometry": {"type": "MultiPolygon", "coordinates": [[[[5.12821, 52.08443], [5.12521, 52.08136], [5.12418, 52.08136], [5.12273, 52.0824], [5.12302, 52.08389], [5.12145, 52.0884], [5.12429, 52.08893], [5.12821, 52.08443]]]]}}, {"type": "Feature", "properties": {"statcode": "BU03440626", "statnaam": "Nieuwegracht-Oost"}, "geometry": {"type": "MultiPolygon", "coordinates": [[[[5.1298, 52.08541], [5.12821, 52.08443], [5.12429, 52.08893], [5.12386, 52.09003], [5.12639, 52.09118], [5.12739, 52.09142], [5.1298, 52.08541]]]]}}, {"type": "Feature", "properties": {"statcode": "BU03440627", "statnaam": "Bleekstraat en omgeving"}, "geometry": {"type": "MultiPolygon", "coordinates": [[[[5.12237, 52.07866], [5.11969, 52.07976], [5.11954, 52.08015], [5.12132, 52.08115], [5.12402, 52.08133], [5.12237, 52.07866]]]]}}, {"type": "Feature", "properties": {"statcode": "BU03440628", "statnaam": "Hooch Boulandt"}, "geometry": {"type": "MultiPolygon", "coordinates": [[[[5.12132, 52.08115], [5.11954, 52.08015], [5.11363, 52.08614], [5.11698, 52.0873], [5.11986, 52.08416], [5.12132, 52.08115]]]]}}, {"type": "Feature", "properties": {"statcode": "BU03440711", "statnaam": "Lunetten-Noord"}, "geometry": {"type": "MultiPolygon", "coordinates": [[[[5.14387, 52.06583], [5.1387, 52.06389], [5.12639, 52.06506], [5.12982, 52.06894], [5.13623, 52.07272], [5.14387, 52.06583]]]]}}, {"type": "Feature", "properties": {"statcode": "BU03440712", "statnaam": "Lunetten-Zuid"}, "geometry": {"type": "MultiPolygon", "coordinates": [[[[5.15281, 52.05669], [5.14994, 52.05559], [5.14568, 52.05256], [5.12683, 52.05492], [5.12408, 52.05522], [5.12125, 52.05439], [5.12639, 52.06506], [5.1387, 52.06389], [5.14387, 52.06583], [5.15281, 52.05669]]]]}}, {"type": "Feature", "properties": {"statcode": "BU03440721", "statnaam": "Tolsteeg en Rotsoord"}, "geometry": {"type": "MultiPolygon", "coordinates": [[[[5.12988, 52.07572], [5.12854, 52.06993], [5.12551, 52.07046], [5.12591, 52.07137], [5.11919, 52.07312], [5.12237, 52.07866], [5.12988, 52.07572]]]]}}, {"type": "Feature", "properties": {"statcode": "BU03440722", "statnaam": "Oud Hoograven-Noord"}, "geometry": {"type": "MultiPolygon", "coordinates": [[[[5.12551, 52.07046], [5.12496, 52.06928], [5.12133, 52.06991], [5.11979, 52.06623], [5.11557, 52.0669], [5.11919, 52.07312], [5.12591, 52.07137], [5.12551, 52.07046]]]]}}, {"type": "Feature", "properties": {"statcode": "BU03440723", "statnaam": "Oud Hoograven-Zuid"}, "geometry": {"type": "MultiPolygon", "coordinates": [[[[5.11979, 52.06623], [5.11693, 52.06031], [5.1124, 52.06139], [5.11308, 52.06259], [5.11557, 52.0669], [5.11979, 52.06623]]]]}}, {"type": "Feature", "properties": {"statcode": "BU03440731", "statnaam": "Bokkenbuurt"}, "geometry": {"type": "MultiPolygon", "coordinates": [[[[5.13395, 52.07381], [5.13623, 52.07272], [5.12982, 52.06894], [5.12854, 52.06993], [5.12988, 52.07572], [5.13395, 52.07381]]]]}}, {"type": "Feature", "properties": {"statcode": "BU03440732", "statnaam": "Nieuw Hoograven-Noord"}, "geometry": {"type": "MultiPolygon", "coordinates": [[[[5.12854, 52.06993], [5.12982, 52.06894], [5.12639, 52.06506], [5.11979, 52.06623], [5.12133, 52.06991], [5.12496, 52.06928], [5.12551, 52.07046], [5.12854, 52.06993]]]]}}, {"type": "Feature", "properties": {"statcode": "BU03440733", "statnaam": "Nieuw Hoograven-Zuid"}, "geometry": {"type": "MultiPolygon", "coordinates": [[[[5.12639, 52.06506], [5.12125, 52.05439], [5.11775, 52.05664], [5.11316, 52.0577], [5.11328, 52.05788], [5.11126, 52.05832], [5.1124, 52.06139], [5.11693, 52.06031], [5.11979, 52.06623], [5.12639, 52.06506]]]]}}, {"type": "Feature", "properties": {"statcode": "BU03440811", "statnaam": "Dichterswijk"}, "geometry": {"type": "MultiPolygon", "coordinates": [[[[5.1192, 52.07957], [5.11436, 52.0776], [5.10946, 52.07696], [5.10804, 52.07942], [5.10503, 52.0818], [5.10881, 52.08501], [5.11196, 52.08466], [5.11555, 52.08088], [5.1192, 52.07957]]]]}}, {"type": "Feature", "properties": {"statcode": "BU03440812", "statnaam": "Rivierenwijk"}, "geometry": {"type": "MultiPolygon", "coordinates": [[[[5.12237, 52.07866], [5.11919, 52.07312], [5.11557, 52.0669], [5.11308, 52.06259], [5.11202, 52.06709], [5.10946, 52.07696], [5.11436, 52.0776], [5.1192, 52.07957], [5.11969, 52.07976], [5.12237, 52.07866]]]]}}, {"type": "Feature", "properties": {"statcode": "BU03440821", "statnaam": "Bedrijvengebied Kanaleneiland"}, "geometry": {"type": "MultiPolygon", "coordinates": [[[[5.11308, 52.06259], [5.1124, 52.06139], [5.11126, 52.05832], [5.11038, 52.0574], [5.10944, 52.05551], [5.10842, 52.05201], [5.10734, 52.05003], [5.10539, 52.05011], [5.1044, 52.04994], [5.10209, 52.05426], [5.09735, 52.05948], [5.09725, 52.06104], [5.09543, 52.06302], [5.10371, 52.06594], [5.10788, 52.06546], [5.10748, 52.06669], [5.11202, 52.06709], [5.11308, 52.06259]]]]}}, {"type": "Feature", "properties": {"statcode": "BU03440822", "statnaam": "Transwijk-Zuid"}, "geometry": {"type": "MultiPolygon", "coordinates": [[[[5.11202, 52.06709], [5.10748, 52.06669], [5.10515, 52.06669], [5.10347, 52.06739], [5.0971, 52.07416], [5.10276, 52.07608], [5.10946, 52.07696], [5.11202, 52.06709]]]]}}, {"type": "Feature", "properties": {"statcode": "BU03440823", "statnaam": "Transwijk-Noord"}, "geometry": {"type": "MultiPolygon", "coordinates": [[[[5.10503, 52.0818], [5.10804, 52.07942], [5.10946, 52.07696], [5.10276, 52.07608], [5.0971, 52.07416], [5.09077, 52.08098], [5.09422, 52.08241], [5.0983, 52.08522], [5.10503, 52.0818]]]]}}, {"type": "Feature", "properties": {"statcode": "BU03440831", "statnaam": "Kanaleneiland-Zuid"}, "geometry": {"type": "MultiPolygon", "coordinates": [[[[5.10748, 52.06669], [5.10788, 52.06546], [5.10371, 52.06594], [5.09543, 52.06302], [5.08803, 52.07097], [5.0971, 52.07416], [5.10347, 52.06739], [5.10515, 52.06669], [5.10748, 52.06669]]]]}}, {"type": "Feature", "properties": {"statcode": "BU03440832", "statnaam": "Kanaleneiland-Noord"}, "geometry": {"type": "MultiPolygon", "coordinates": [[[[5.0971, 52.07416], [5.08803, 52.07097], [5.08133, 52.07895], [5.09077, 52.08098], [5.0971, 52.07416]]]]}}, {"type": "Feature", "properties": {"statcode": "BU03440911", "statnaam": "Bedrijventerrein De Wetering"}, "geometry": {"type": "MultiPolygon", "coordinates": [[[[5.03354, 52.11676], [5.03707, 52.11571], [5.03882, 52.11585], [5.05286, 52.10977], [5.05827, 52.10681], [5.0652, 52.10122], [5.06132, 52.10242], [5.06116, 52.10168], [5.05582, 52.10201], [5.05331, 52.10433], [5.04524, 52.10831], [5.03519, 52.11286], [5.03084, 52.11504], [5.03251, 52.11684], [5.03354, 52.11676]]]]}}, {"type": "Feature", "properties": {"statcode": "BU03440912", "statnaam": "Terwijde-West"}, "geometry": {"type": "MultiPolygon", "coordinates": [[[[5.04524, 52.10831], [5.04296, 52.10358], [5.04333, 52.10045], [5.02895, 52.10155], [5.03203, 52.1092], [5.03519, 52.11286], [5.04524, 52.10831]]]]}}, {"type": "Feature", "properties": {"statcode": "BU03440913", "statnaam": "Terwijde-Oost"}, "geometry": {"type": "MultiPolygon", "coordinates": [[[[5.06116, 52.10168], [5.06088, 52.09936], [5.05626, 52.09971], [5.04747, 52.10025], [5.04333, 52.10045], [5.04296, 52.10358], [5.04524, 52.10831], [5.05331, 52.10433], [5.05582, 52.10201], [5.06116, 52.10168]]]]}}, {"type": "Feature", "properties": {"statcode": "BU03440921", "statnaam": "Het Zand-West"}, "geometry": {"type": "MultiPolygon", "coordinates": [[[[5.04333, 52.10045], [5.04747, 52.10025], [5.04418, 52.09091], [5.04391, 52.08978], [5.04023, 52.08923], [5.03968, 52.09137], [5.03585, 52.09588], [5.03293, 52.09773], [5.02935, 52.09799], [5.02751, 52.09947], [5.02895, 52.10155], [5.04333, 52.10045]]]]}}, {"type": "Feature", "properties": {"statcode": "BU03440922", "statnaam": "Het Zand-Oost"}, "geometry": {"type": "MultiPolygon", "coordinates": [[[[5.05626, 52.09971], [5.0575, 52.0957], [5.05389, 52.09273], [5.05037, 52.09118], [5.04418, 52.09091], [5.04747, 52.10025], [5.05626, 52.09971]]]]}}, {"type": "Feature", "properties": {"statcode": "BU03440931", "statnaam": "Leidsche Rijn-Centrum"}, "geometry": {"type": "MultiPolygon", "coordinates": [[[[5.0652, 52.10122], [5.0673, 52.09892], [5.07714, 52.09818], [5.07716, 52.0981], [5.07717, 52.09804], [5.07228, 52.09661], [5.07346, 52.09519], [5.07033, 52.09427], [5.06568, 52.09289], [5.06088, 52.09936], [5.06116, 52.10168], [5.06132, 52.10242], [5.0652, 52.10122]]]]}}, {"type": "Feature", "properties": {"statcode": "BU03440932", "statnaam": "Grauwaart"}, "geometry": {"type": "MultiPolygon", "coordinates": [[[[5.06088, 52.09936], [5.06568, 52.09289], [5.06269, 52.092], [5.0575, 52.0957], [5.05626, 52.09971], [5.06088, 52.09936]]]]}}, {"type": "Feature", "properties": {"statcode": "BU03440933", "statnaam": "Hoge Weide"}, "geometry": {"type": "MultiPolygon", "coordinates": [[[[5.07472, 52.08685], [5.06946, 52.08653], [5.07014, 52.08698], [5.06269, 52.092], [5.06568, 52.09289], [5.07033, 52.09427], [5.07472, 52.08685]]]]}}, {"type": "Feature", "properties": {"statcode": "BU03440934", "statnaam": "Leeuwesteyn"}, "geometry": {"type": "MultiPolygon", "coordinates": [[[[5.07893, 52.08839], [5.08028, 52.08219], [5.0752, 52.08242], [5.07472, 52.08685], [5.07033, 52.09427], [5.07346, 52.09519], [5.07228, 52.09661], [5.07717, 52.09804], [5.07893, 52.08839]]]]}}, {"type": "Feature", "properties": {"statcode": "BU03440941", "statnaam": "Parkwijk-Noord"}, "geometry": {"type": "MultiPolygon", "coordinates": [[[[5.06269, 52.092], [5.05419, 52.08958], [5.04963, 52.08713], [5.04813, 52.08712], [5.04837, 52.08974], [5.04391, 52.08978], [5.04418, 52.09091], [5.05037, 52.09118], [5.05389, 52.09273], [5.0575, 52.0957], [5.06269, 52.092]]]]}}, {"type": "Feature", "properties": {"statcode": "BU03440942", "statnaam": "Parkwijk-Zuid"}, "geometry": {"type": "MultiPolygon", "coordinates": [[[[5.06946, 52.08653], [5.06501, 52.08731], [5.04963, 52.08713], [5.05419, 52.08958], [5.06269, 52.092], [5.07014, 52.08698], [5.06946, 52.08653]]]]}}, {"type": "Feature", "properties": {"statcode": "BU03440943", "statnaam": "Langerak"}, "geometry": {"type": "MultiPolygon", "coordinates": [[[[5.06946, 52.08653], [5.07472, 52.08685], [5.0752, 52.08242], [5.06011, 52.08241], [5.0585, 52.08319], [5.05428, 52.0835], [5.05329, 52.08353], [5.0531, 52.0828], [5.04849, 52.08282], [5.04893, 52.0855], [5.04771, 52.08562], [5.04813, 52.08712], [5.04963, 52.08713], [5.06501, 52.08731], [5.06946, 52.08653]]]]}}, {"type": "Feature", "properties": {"statcode": "BU03440951", "statnaam": "Rijnvliet"}, "geometry": {"type": "MultiPolygon", "coordinates": [[[[5.0752, 52.08242], [5.07448, 52.07883], [5.07338, 52.07899], [5.07162, 52.07489], [5.06994, 52.07529], [5.06899, 52.07329], [5.06024, 52.07494], [5.05823, 52.07102], [5.05491, 52.07199], [5.05835, 52.07872], [5.06014, 52.07875], [5.06126, 52.0811], [5.06011, 52.08241], [5.0752, 52.08242]]]]}}, {"type": "Feature", "properties": {"statcode": "BU03440952", "statnaam": "Bedrijvengebied Strijkviertel"}, "geometry": {"type": "MultiPolygon", "coordinates": [[[[5.07448, 52.07883], [5.07521, 52.07873], [5.07323, 52.07404], [5.07238, 52.07432], [5.06919, 52.06923], [5.06562, 52.06814], [5.06255, 52.06805], [5.05341, 52.06976], [5.05491, 52.07199], [5.05823, 52.07102], [5.06024, 52.07494], [5.06899, 52.07329], [5.06994, 52.07529], [5.07162, 52.07489], [5.07338, 52.07899], [5.07448, 52.07883]]]]}}, {"type": "Feature", "properties": {"statcode": "BU03440953", "statnaam": "Bedrijvengebied Papendorp"}, "geometry": {"type": "MultiPolygon", "coordinates": [[[[5.08028, 52.08219], [5.08029, 52.08217], [5.08133, 52.07895], [5.08803, 52.07097], [5.09543, 52.06302], [5.09725, 52.06104], [5.08582, 52.06249], [5.07572, 52.06548], [5.07309, 52.06805], [5.0742, 52.07372], [5.07323, 52.07404], [5.07521, 52.07873], [5.07448, 52.07883], [5.0752, 52.08242], [5.08028, 52.08219]]]]}}, {"type": "Feature", "properties": {"statcode": "BU03441011", "statnaam": "Haarrijn"}, "geometry": {"type": "MultiPolygon", "coordinates": [[[[5.03251, 52.11684], [5.03084, 52.11504], [5.02766, 52.11045], [5.0106, 52.11516], [5.007, 52.11731], [5.00387, 52.1178], [5.01008, 52.12937], [5.01168, 52.12918], [5.01211, 52.12969], [5.03251, 52.11684]]]]}}, {"type": "Feature", "properties": {"statcode": "BU03441012", "statnaam": "Haarzuilens en omgeving"}, "geometry": {"type": "MultiPolygon", "coordinates": [[[[5.01211, 52.12969], [5.01168, 52.12918], [5.01008, 52.12937], [5.00387, 52.1178], [4.99835, 52.10692], [4.99991, 52.10591], [4.99985, 52.10381], [4.99505, 52.10418], [4.99595, 52.09887], [4.99461, 52.09468], [4.99352, 52.09223], [4.98933, 52.10076], [4.97566, 52.09979], [4.97344, 52.10123], [4.97305, 52.10278], [4.97582, 52.10572], [4.97627, 52.10797], [4.97873, 52.1081], [4.97962, 52.10872], [4.97958, 52.11156], [4.98022, 52.1122], [4.97847, 52.11316], [4.9782, 52.11285], [4.9701, 52.12244], [4.97394, 52.12967], [4.98524, 52.13244], [4.98638, 52.13524], [4.9945, 52.13861], [5.0031, 52.14205], [5.0027, 52.1413], [5.01211, 52.12969]]]]}}, {"type": "Feature", "properties": {"statcode": "BU03441013", "statnaam": "Vleuten"}, "geometry": {"type": "MultiPolygon", "coordinates": [[[[5.02766, 52.11045], [5.02258, 52.10198], [5.01289, 52.10272], [4.99985, 52.10381], [4.99991, 52.10591], [4.99835, 52.10692], [5.00387, 52.1178], [5.007, 52.11731], [5.0106, 52.11516], [5.02766, 52.11045]]]]}}, {"type": "Feature", "properties": {"statcode": "BU03441014", "statnaam": "Máximapark"}, "geometry": {"type": "MultiPolygon", "coordinates": [[[[5.03519, 52.11286], [5.03203, 52.1092], [5.02895, 52.10155], [5.02751, 52.09947], [5.02935, 52.09799], [5.03293, 52.09773], [5.03585, 52.09588], [5.03968, 52.09137], [5.04023, 52.08923], [5.03162, 52.08967], [5.03196, 52.09121], [5.02992, 52.09247], [5.02676, 52.09263], [5.02124, 52.09086], [5.01289, 52.10272], [5.02258, 52.10198], [5.02766, 52.11045], [5.03084, 52.11504], [5.03519, 52.11286]]]]}}, {"type": "Feature", "properties": {"statcode": "BU03441021", "statnaam": "Vleuterweide-West"}, "geometry": {"type": "MultiPolygon", "coordinates": [[[[4.99985, 52.10381], [4.99957, 52.103], [5.00254, 52.10092], [5.00201, 52.09999], [5.00771, 52.09957], [5.00794, 52.09781], [5.01109, 52.09555], [5.00586, 52.09236], [4.99461, 52.09468], [4.99595, 52.09887], [4.99505, 52.10418], [4.99985, 52.10381]]]]}}, {"type": "Feature", "properties": {"statcode": "BU03441022", "statnaam": "Vleuterweide-Noord/Oost/Centrum"}, "geometry": {"type": "MultiPolygon", "coordinates": [[[[5.01289, 52.10272], [5.02124, 52.09086], [5.0214, 52.09048], [5.01729, 52.09007], [5.00586, 52.09236], [5.01109, 52.09555], [5.00794, 52.09781], [5.00771, 52.09957], [5.00201, 52.09999], [5.00254, 52.10092], [4.99957, 52.103], [4.99985, 52.10381], [5.01289, 52.10272]]]]}}, {"type": "Feature", "properties": {"statcode": "BU03441023", "statnaam": "Vleuterweide-Zuid"}, "geometry": {"type": "MultiPolygon", "coordinates": [[[[5.00586, 52.09236], [5.01729, 52.09007], [5.0214, 52.09048], [5.01966, 52.08598], [5.00501, 52.08845], [4.99422, 52.09039], [4.99352, 52.09223], [4.99461, 52.09468], [5.00586, 52.09236]]]]}}, {"type": "Feature", "properties": {"statcode": "BU03441024", "statnaam": "Veldhuizen"}, "geometry": {"type": "MultiPolygon", "coordinates": [[[[5.01966, 52.08598], [5.02574, 52.08482], [5.02704, 52.0837], [5.02524, 52.07359], [5.00323, 52.07796], [5.00501, 52.08845], [5.01966, 52.08598]]]]}}, {"type": "Feature", "properties": {"statcode": "BU03441031", "statnaam": "De Meern-Noord"}, "geometry": {"type": "MultiPolygon", "coordinates": [[[[5.04023, 52.08923], [5.04391, 52.08978], [5.04837, 52.08974], [5.04813, 52.08712], [5.04771, 52.08562], [5.04893, 52.0855], [5.04849, 52.08282], [5.04815, 52.08194], [5.04343, 52.08174], [5.02574, 52.08482], [5.01966, 52.08598], [5.0214, 52.09048], [5.02124, 52.09086], [5.02676, 52.09263], [5.02992, 52.09247], [5.03196, 52.09121], [5.03162, 52.08967], [5.04023, 52.08923]]]]}}, {"type": "Feature", "properties": {"statcode": "BU03441032", "statnaam": "De Meern-Zuid"}, "geometry": {"type": "MultiPolygon", "coordinates": [[[[5.04815, 52.08194], [5.04809, 52.0807], [5.04528, 52.08121], [5.03828, 52.06939], [5.0284, 52.07066], [5.02179, 52.06382], [5.01801, 52.06222], [4.9995, 52.06613], [5.00162, 52.07814], [5.00323, 52.07796], [5.02524, 52.07359], [5.02704, 52.0837], [5.02574, 52.08482], [5.04343, 52.08174], [5.04815, 52.08194]]]]}}, {"type": "Feature", "properties": {"statcode": "BU03441033", "statnaam": "Bedrijvengebied Oudenrijn"}, "geometry": {"type": "MultiPolygon", "coordinates": [[[[5.06011, 52.08241], [5.06126, 52.0811], [5.06014, 52.07875], [5.05835, 52.07872], [5.05491, 52.07199], [5.05341, 52.06976], [5.05254, 52.06743], [5.03828, 52.06939], [5.04528, 52.08121], [5.04809, 52.0807], [5.04815, 52.08194], [5.04849, 52.08282], [5.0531, 52.0828], [5.05329, 52.08353], [5.05428, 52.0835], [5.0585, 52.08319], [5.06011, 52.08241]]]]}}, {"type": "Feature", "properties": {"statcode": "BU03441041", "statnaam": "Rijnenburg"}, "geometry": {"type": "MultiPolygon", "coordinates": [[[[5.0742, 52.07372], [5.07309, 52.06805], [5.07572, 52.06548], [5.08582, 52.06249], [5.09725, 52.06104], [5.09735, 52.05948], [5.09679, 52.05928], [5.09412, 52.05875], [5.08999, 52.06073], [5.07322, 52.06222], [5.06964, 52.06142], [5.06723, 52.0575], [5.06514, 52.05498], [5.06417, 52.05158], [5.06362, 52.04136], [5.06344, 52.04111], [5.06355, 52.04072], [5.06356, 52.03835], [5.06251, 52.0286], [5.06314, 52.02788], [5.0628, 52.02682], [5.06102, 52.02628], [5.05491, 52.02887], [5.05534, 52.02974], [5.05198, 52.03089], [5.05142, 52.03011], [5.04558, 52.03477], [5.03804, 52.04417], [5.02834, 52.05076], [5.02767, 52.0517], [5.02826, 52.05358], [5.02696, 52.05463], [5.02712, 52.0554], [5.02559, 52.05586], [5.02161, 52.05581], [5.01743, 52.06099], [5.01707, 52.06114], [5.01801, 52.06222], [5.02179, 52.06382], [5.0284, 52.07066], [5.03828, 52.06939], [5.05254, 52.06743], [5.05341, 52.06976], [5.06255, 52.06805], [5.06562, 52.06814], [5.06919, 52.06923], [5.07238, 52.07432], [5.07323, 52.07404], [5.0742, 52.07372]]]]}}]}