{"type": "FeatureCollection", "features": [{"type": "Feature", "properties": {"statcode": "WK038401", "statnaam": "Diemen Noord"}, "geometry": {"type": "MultiPolygon", "coordinates": [[[[4.97248, 52.35546], [4.97671, 52.35349], [4.98036, 52.35154], [4.9838, 52.34971], [4.98991, 52.34646], [4.99834, 52.34201], [4.99572, 52.34098], [4.98795, 52.34315], [4.98481, 52.3418], [4.9856, 52.3398], [4.97966, 52.34433], [4.97802, 52.34524], [4.97592, 52.34624], [4.97088, 52.34831], [4.96585, 52.3504], [4.96454, 52.35277], [4.96586, 52.35465], [4.96624, 52.35416], [4.96887, 52.35515], [4.96952, 52.3555], [4.9695, 52.35558], [4.96931, 52.35561], [4.96959, 52.3561], [4.97248, 52.35546]]]]}}, {"type": "Feature", "properties": {"statcode": "WK038402", "statnaam": "Diemen Centrum"}, "geometry": {"type": "MultiPolygon", "coordinates": [[[[4.97966, 52.34433], [4.9856, 52.3398], [4.98413, 52.33883], [4.98236, 52.33926], [4.97742, 52.34015], [4.97244, 52.3391], [4.97097, 52.33849], [4.96846, 52.33677], [4.9671, 52.33587], [4.96128, 52.33803], [4.96047, 52.33817], [4.95496, 52.33915], [4.9525, 52.34001], [4.95273, 52.34016], [4.95627, 52.34359], [4.95636, 52.34368], [4.96038, 52.34789], [4.96043, 52.34794], [4.96454, 52.35277], [4.96585, 52.3504], [4.97088, 52.34831], [4.97592, 52.34624], [4.97802, 52.34524], [4.97966, 52.34433]]]]}}, {"type": "Feature", "properties": {"statcode": "WK038403", "statnaam": "Diemen Zuid"}, "geometry": {"type": "MultiPolygon", "coordinates": [[[[4.95496, 52.33915], [4.96047, 52.33817], [4.96128, 52.33803], [4.9671, 52.33587], [4.96525, 52.33464], [4.9614, 52.33236], [4.95757, 52.33088], [4.95694, 52.33067], [4.95234, 52.32909], [4.94812, 52.32763], [4.94766, 52.32814], [4.94472, 52.32713], [4.94269, 52.32933], [4.94891, 52.33153], [4.94867, 52.33171], [4.94601, 52.33377], [4.948, 52.335], [4.95045, 52.33777], [4.95062, 52.33794], [4.95033, 52.33864], [4.94986, 52.33853], [4.9497, 52.33873], [4.9525, 52.34001], [4.95496, 52.33915]]]]}}, {"type": "Feature", "properties": {"statcode": "WK038404", "statnaam": "Bergwijkpark"}, "geometry": {"type": "MultiPolygon", "coordinates": [[[[4.95398, 52.32729], [4.95533, 52.32568], [4.95671, 52.32403], [4.95267, 52.32264], [4.94812, 52.32763], [4.95234, 52.32909], [4.95398, 52.32729]]]]}}, {"type": "Feature", "properties": {"statcode": "WK038405", "statnaam": "Holland Park"}, "geometry": {"type": "MultiPolygon", "coordinates": [[[[4.96614, 52.32898], [4.97066, 52.32638], [4.97047, 52.32629], [4.97027, 52.32618], [4.96754, 52.32776], [4.95675, 52.32404], [4.95671, 52.32403], [4.95533, 52.32568], [4.95398, 52.32729], [4.95234, 52.32909], [4.95694, 52.33067], [4.95757, 52.33088], [4.96229, 52.33093], [4.96614, 52.32898]]]]}}, {"type": "Feature", "properties": {"statcode": "WK038406", "statnaam": "Bedrijventerreinen"}, "geometry": {"type": "MultiPolygon", "coordinates": [[[[4.9671, 52.33587], [4.97546, 52.33207], [4.97745, 52.3339], [4.97952, 52.33353], [4.98683, 52.33317], [4.98693, 52.32984], [4.98618, 52.32972], [4.98395, 52.33067], [4.98011, 52.33091], [4.97774, 52.33103], [4.97714, 52.33064], [4.97531, 52.33056], [4.97066, 52.32638], [4.96614, 52.32898], [4.96229, 52.33093], [4.95757, 52.33088], [4.9614, 52.33236], [4.96525, 52.33464], [4.9671, 52.33587]]]]}}, {"type": "Feature", "properties": {"statcode": "WK038407", "statnaam": "Plantage de Sniep"}, "geometry": {"type": "MultiPolygon", "coordinates": [[[[4.97745, 52.3339], [4.97546, 52.33207], [4.9671, 52.33587], [4.96846, 52.33677], [4.97097, 52.33849], [4.97244, 52.3391], [4.97742, 52.34015], [4.98236, 52.33926], [4.97922, 52.33755], [4.97669, 52.33441], [4.97745, 52.3339]]]]}}, {"type": "Feature", "properties": {"statcode": "WK038408", "statnaam": "Buitengebied"}, "geometry": {"type": "MultiPolygon", "coordinates": [[[[5.02686, 52.34877], [5.03494, 52.34453], [5.034, 52.34064], [5.02619, 52.33806], [5.02614, 52.33749], [5.02742, 52.33783], [5.02749, 52.33772], [5.02534, 52.33705], [5.01846, 52.33407], [5.01499, 52.33178], [5.01445, 52.33143], [5.01279, 52.33021], [5.01613, 52.32451], [4.99808, 52.31404], [4.99786, 52.31398], [4.99746, 52.31425], [4.9973, 52.3142], [4.99709, 52.31446], [4.99742, 52.31674], [4.99689, 52.31764], [4.99167, 52.32444], [4.9896, 52.32755], [4.98618, 52.32972], [4.98693, 52.32984], [4.98683, 52.33317], [4.97952, 52.33353], [4.97745, 52.3339], [4.97669, 52.33441], [4.97922, 52.33755], [4.98236, 52.33926], [4.98413, 52.33883], [4.9856, 52.3398], [4.98481, 52.3418], [4.98795, 52.34315], [4.99572, 52.34098], [4.99834, 52.34201], [4.99932, 52.34154], [5.00416, 52.34258], [5.00907, 52.34189], [5.01226, 52.3438], [5.0123, 52.34385], [5.01254, 52.34394], [5.01337, 52.34376], [5.01479, 52.34457], [5.01547, 52.34369], [5.01532, 52.34326], [5.01578, 52.34316], [5.01621, 52.34374], [5.01602, 52.34527], [5.01655, 52.34572], [5.01512, 52.34743], [5.01529, 52.34763], [5.01675, 52.3459], [5.01905, 52.34788], [5.02365, 52.34802], [5.02686, 52.34877]]]]}}]}