{"type": "FeatureCollection", "features": [{"type": "Feature", "properties": {"statcode": "WK036101", "statnaam": "Zuid"}, "geometry": {"type": "MultiPolygon", "coordinates": [[[[4.73999, 52.61444], [4.73945, 52.61387], [4.73319, 52.61766], [4.73126, 52.61869], [4.73126, 52.61869], [4.72153, 52.62251], [4.72387, 52.62508], [4.7279, 52.62948], [4.73051, 52.63231], [4.73294, 52.63497], [4.73559, 52.63691], [4.73937, 52.63527], [4.74204, 52.63411], [4.73942, 52.63361], [4.741, 52.62959], [4.74283, 52.62941], [4.74655, 52.62765], [4.74734, 52.62762], [4.75273, 52.62657], [4.75171, 52.62498], [4.74774, 52.62046], [4.74512, 52.61879], [4.73999, 52.61444]]]]}}, {"type": "Feature", "properties": {"statcode": "WK036102", "statnaam": "Oudorp"}, "geometry": {"type": "MultiPolygon", "coordinates": [[[[4.78669, 52.64059], [4.78528, 52.63812], [4.7884, 52.63889], [4.79164, 52.63823], [4.79057, 52.6365], [4.78318, 52.63117], [4.77858, 52.62355], [4.77338, 52.61672], [4.76792, 52.61564], [4.7682, 52.61694], [4.7694, 52.62162], [4.76472, 52.62412], [4.7582, 52.62692], [4.75497, 52.6283], [4.75659, 52.63089], [4.75283, 52.63276], [4.7535, 52.63511], [4.75825, 52.6395], [4.75651, 52.64046], [4.76195, 52.64287], [4.76893, 52.64596], [4.77367, 52.64836], [4.79194, 52.65629], [4.79202, 52.65644], [4.79362, 52.65714], [4.80051, 52.66024], [4.80054, 52.66003], [4.80056, 52.65787], [4.80056, 52.65787], [4.80041, 52.65724], [4.79864, 52.65356], [4.79298, 52.64842], [4.78669, 52.64059]]]]}}, {"type": "Feature", "properties": {"statcode": "WK036103", "statnaam": "Overdie"}, "geometry": {"type": "MultiPolygon", "coordinates": [[[[4.76391, 52.60502], [4.75648, 52.59157], [4.75248, 52.59258], [4.75214, 52.59189], [4.73746, 52.59386], [4.73696, 52.59576], [4.73791, 52.59729], [4.73541, 52.60383], [4.73619, 52.60545], [4.7339, 52.6073], [4.73335, 52.60755], [4.73788, 52.61216], [4.73788, 52.61216], [4.73945, 52.61387], [4.73999, 52.61444], [4.74512, 52.61879], [4.74774, 52.62046], [4.75171, 52.62498], [4.75273, 52.62657], [4.7582, 52.62692], [4.76472, 52.62412], [4.7694, 52.62162], [4.7682, 52.61694], [4.76792, 52.61564], [4.76582, 52.6076], [4.76391, 52.60502]]]]}}, {"type": "Feature", "properties": {"statcode": "WK036104", "statnaam": "West"}, "geometry": {"type": "MultiPolygon", "coordinates": [[[[4.74593, 52.66308], [4.74525, 52.66037], [4.74622, 52.65815], [4.74602, 52.65685], [4.74289, 52.6539], [4.74389, 52.64647], [4.74428, 52.64518], [4.74627, 52.63867], [4.73729, 52.63762], [4.73559, 52.63691], [4.73294, 52.63497], [4.73051, 52.63231], [4.7279, 52.62948], [4.72387, 52.62508], [4.72153, 52.62251], [4.71631, 52.62499], [4.71459, 52.62478], [4.7149, 52.62535], [4.71529, 52.62582], [4.7098, 52.62872], [4.71133, 52.62991], [4.70831, 52.63088], [4.70981, 52.63251], [4.70887, 52.63551], [4.71003, 52.64247], [4.7142, 52.64282], [4.71281, 52.64621], [4.71761, 52.64665], [4.71693, 52.6496], [4.72039, 52.65008], [4.72194, 52.64918], [4.72268, 52.64937], [4.72179, 52.65073], [4.72525, 52.65195], [4.72682, 52.65549], [4.72925, 52.65612], [4.72571, 52.65731], [4.72755, 52.65739], [4.72762, 52.6585], [4.73064, 52.65875], [4.73153, 52.65981], [4.73285, 52.65989], [4.73115, 52.66159], [4.7337, 52.6618], [4.73521, 52.66139], [4.7341, 52.66293], [4.73925, 52.66294], [4.7426, 52.66118], [4.74516, 52.66336], [4.74593, 52.66308]]]]}}, {"type": "Feature", "properties": {"statcode": "WK036105", "statnaam": "Huiswaard"}, "geometry": {"type": "MultiPolygon", "coordinates": [[[[4.75315, 52.63946], [4.74627, 52.63867], [4.74428, 52.64518], [4.74389, 52.64647], [4.75247, 52.64744], [4.75727, 52.648], [4.76462, 52.6489], [4.76893, 52.64596], [4.76195, 52.64287], [4.75651, 52.64046], [4.75315, 52.63946]]]]}}, {"type": "Feature", "properties": {"statcode": "WK036106", "statnaam": "De Mare"}, "geometry": {"type": "MultiPolygon", "coordinates": [[[[4.75972, 52.66421], [4.75955, 52.66337], [4.7582, 52.66361], [4.75828, 52.66219], [4.76054, 52.661], [4.7609, 52.66084], [4.76234, 52.66043], [4.76548, 52.66078], [4.76596, 52.66154], [4.76457, 52.66276], [4.77169, 52.66537], [4.77416, 52.66478], [4.76909, 52.65631], [4.76462, 52.6489], [4.75727, 52.648], [4.75247, 52.64744], [4.74389, 52.64647], [4.74289, 52.6539], [4.74602, 52.65685], [4.74622, 52.65815], [4.74781, 52.65819], [4.74611, 52.65983], [4.74709, 52.66281], [4.75147, 52.66756], [4.756, 52.66673], [4.75972, 52.66421]]]]}}, {"type": "Feature", "properties": {"statcode": "WK036107", "statnaam": "Daalmeer/Koedijk"}, "geometry": {"type": "MultiPolygon", "coordinates": [[[[4.77597, 52.66785], [4.77449, 52.66534], [4.77416, 52.66478], [4.77169, 52.66537], [4.76457, 52.66276], [4.76596, 52.66154], [4.76548, 52.66078], [4.76234, 52.66043], [4.7609, 52.66084], [4.76054, 52.661], [4.75828, 52.66219], [4.7582, 52.66361], [4.75955, 52.66337], [4.75972, 52.66421], [4.756, 52.66673], [4.75147, 52.66756], [4.74709, 52.66281], [4.74611, 52.65983], [4.74781, 52.65819], [4.74622, 52.65815], [4.74525, 52.66037], [4.74593, 52.66308], [4.74901, 52.66597], [4.75241, 52.67145], [4.74771, 52.67685], [4.74384, 52.6787], [4.74174, 52.68081], [4.74358, 52.68131], [4.74477, 52.68168], [4.74691, 52.6823], [4.74998, 52.68237], [4.77251, 52.67771], [4.77902, 52.67648], [4.77901, 52.67405], [4.77858, 52.67231], [4.77597, 52.66785]]]]}}, {"type": "Feature", "properties": {"statcode": "WK036108", "statnaam": "Centrum"}, "geometry": {"type": "MultiPolygon", "coordinates": [[[[4.7582, 52.62692], [4.75273, 52.62657], [4.74734, 52.62762], [4.74655, 52.62765], [4.74283, 52.62941], [4.741, 52.62959], [4.73942, 52.63361], [4.74204, 52.63411], [4.73937, 52.63527], [4.73559, 52.63691], [4.73729, 52.63762], [4.74627, 52.63867], [4.75315, 52.63946], [4.75651, 52.64046], [4.75825, 52.6395], [4.7535, 52.63511], [4.75283, 52.63276], [4.75659, 52.63089], [4.75497, 52.6283], [4.7582, 52.62692]]]]}}, {"type": "Feature", "properties": {"statcode": "WK036109", "statnaam": "Schermer"}, "geometry": {"type": "MultiPolygon", "coordinates": [[[[4.88137, 52.63344], [4.88535, 52.63014], [4.88805, 52.62738], [4.8894, 52.62392], [4.88725, 52.62259], [4.88399, 52.61314], [4.89693, 52.61335], [4.92204, 52.61148], [4.92579, 52.60948], [4.92692, 52.6067], [4.92144, 52.60831], [4.91537, 52.60864], [4.90117, 52.60293], [4.89349, 52.59784], [4.89052, 52.59462], [4.88475, 52.58424], [4.87638, 52.57783], [4.86863, 52.57595], [4.86567, 52.57375], [4.86424, 52.57162], [4.85472, 52.57189], [4.83599, 52.57341], [4.83041, 52.57151], [4.83029, 52.57147], [4.82668, 52.57189], [4.8239, 52.57622], [4.81528, 52.57631], [4.81081, 52.57442], [4.81037, 52.57395], [4.80748, 52.57379], [4.8015, 52.57445], [4.79274, 52.57345], [4.79335, 52.57234], [4.79456, 52.56834], [4.79181, 52.55629], [4.7861, 52.55606], [4.78162, 52.5571], [4.77197, 52.5599], [4.75686, 52.56207], [4.75254, 52.56278], [4.74508, 52.56685], [4.7447, 52.56794], [4.74728, 52.57136], [4.7489, 52.57399], [4.75131, 52.58228], [4.75648, 52.59157], [4.76391, 52.60502], [4.76582, 52.6076], [4.76792, 52.61564], [4.77338, 52.61672], [4.77858, 52.62355], [4.78318, 52.63117], [4.79057, 52.6365], [4.79164, 52.63823], [4.7947, 52.63788], [4.80781, 52.63398], [4.81448, 52.63387], [4.82421, 52.63382], [4.83022, 52.63268], [4.83441, 52.63743], [4.83454, 52.63799], [4.83451, 52.63915], [4.83518, 52.6409], [4.83553, 52.64244], [4.83855, 52.64614], [4.84273, 52.64594], [4.84742, 52.64206], [4.8516, 52.64056], [4.86055, 52.63914], [4.86297, 52.63745], [4.86388, 52.63536], [4.8734, 52.63444], [4.87553, 52.63411], [4.88137, 52.63344]]]]}}, {"type": "Feature", "properties": {"statcode": "WK036110", "statnaam": "Graft-De Rijp"}, "geometry": {"type": "MultiPolygon", "coordinates": [[[[4.8239, 52.57622], [4.82668, 52.57189], [4.83029, 52.57147], [4.83041, 52.57151], [4.83599, 52.57341], [4.85472, 52.57189], [4.86424, 52.57162], [4.86303, 52.56873], [4.86294, 52.56505], [4.86134, 52.56228], [4.85868, 52.55946], [4.85384, 52.55677], [4.85183, 52.55483], [4.84831, 52.55007], [4.84459, 52.54731], [4.84228, 52.54349], [4.83549, 52.54067], [4.83391, 52.53896], [4.82803, 52.54167], [4.82438, 52.5426], [4.82099, 52.53825], [4.81903, 52.53873], [4.81699, 52.53565], [4.82441, 52.53381], [4.82019, 52.53123], [4.81163, 52.53019], [4.80471, 52.52536], [4.79828, 52.52436], [4.79244, 52.51973], [4.78986, 52.51924], [4.78497, 52.51942], [4.78497, 52.51942], [4.78471, 52.51944], [4.78248, 52.51958], [4.77784, 52.53177], [4.77773, 52.53375], [4.77806, 52.54418], [4.78162, 52.5571], [4.7861, 52.55606], [4.79181, 52.55629], [4.79456, 52.56834], [4.79335, 52.57234], [4.79274, 52.57345], [4.8015, 52.57445], [4.80748, 52.57379], [4.81037, 52.57395], [4.81081, 52.57442], [4.81528, 52.57631], [4.8239, 52.57622]]]]}}, {"type": "Feature", "properties": {"statcode": "WK036111", "statnaam": "Vroonermeer"}, "geometry": {"type": "MultiPolygon", "coordinates": [[[[4.77367, 52.64836], [4.76893, 52.64596], [4.76462, 52.6489], [4.76909, 52.65631], [4.77416, 52.66478], [4.77449, 52.66534], [4.77804, 52.66432], [4.77403, 52.65522], [4.77403, 52.65522], [4.773, 52.65341], [4.77561, 52.65265], [4.77367, 52.64836]]]]}}]}