{"type": "FeatureCollection", "features": [{"type": "Feature", "properties": {"statcode": "WK039401", "statnaam": "Hoofddorp"}, "geometry": {"type": "MultiPolygon", "coordinates": [[[[4.70676, 52.33479], [4.70592, 52.32562], [4.70984, 52.32513], [4.71119, 52.32544], [4.71211, 52.3282], [4.71655, 52.3289], [4.73296, 52.3202], [4.73352, 52.31876], [4.73172, 52.29912], [4.73339, 52.29777], [4.73779, 52.29585], [4.72835, 52.2893], [4.7259, 52.28759], [4.71524, 52.28019], [4.71464, 52.27977], [4.68881, 52.26175], [4.69242, 52.25977], [4.69146, 52.2591], [4.68808, 52.25734], [4.683, 52.25769], [4.68208, 52.25962], [4.68656, 52.26276], [4.68831, 52.26202], [4.69584, 52.26731], [4.67394, 52.27952], [4.67161, 52.28019], [4.66724, 52.281], [4.66168, 52.28395], [4.64152, 52.29488], [4.64304, 52.29598], [4.64094, 52.29732], [4.63975, 52.29797], [4.63802, 52.29676], [4.63571, 52.29804], [4.63338, 52.2964], [4.63531, 52.29536], [4.63389, 52.29371], [4.62401, 52.29904], [4.62056, 52.29664], [4.61869, 52.30223], [4.61982, 52.30405], [4.62278, 52.30615], [4.6453, 52.32195], [4.65344, 52.32664], [4.65908, 52.32361], [4.65917, 52.32356], [4.66011, 52.32422], [4.65456, 52.32723], [4.65933, 52.32935], [4.66576, 52.33088], [4.66976, 52.33252], [4.67103, 52.33184], [4.68852, 52.34405], [4.70676, 52.33479]]]]}}, {"type": "Feature", "properties": {"statcode": "WK039402", "statnaam": "Nieuw-Vennep"}, "geometry": {"type": "MultiPolygon", "coordinates": [[[[4.62401, 52.29904], [4.63389, 52.29371], [4.63531, 52.29536], [4.63338, 52.2964], [4.63571, 52.29804], [4.63802, 52.29676], [4.63975, 52.29797], [4.64094, 52.29732], [4.64304, 52.29598], [4.64152, 52.29488], [4.66168, 52.28395], [4.66724, 52.281], [4.67161, 52.28019], [4.67394, 52.27952], [4.69584, 52.26731], [4.68831, 52.26202], [4.68656, 52.26276], [4.68208, 52.25962], [4.683, 52.25769], [4.66747, 52.24685], [4.66153, 52.2427], [4.65157, 52.23561], [4.63827, 52.22642], [4.63036, 52.23067], [4.62904, 52.23133], [4.62397, 52.23151], [4.61432, 52.23667], [4.61529, 52.23873], [4.59346, 52.25038], [4.59932, 52.25447], [4.57734, 52.26621], [4.5834, 52.27046], [4.58568, 52.26925], [4.58995, 52.27383], [4.61543, 52.29164], [4.61942, 52.29462], [4.62056, 52.29664], [4.62401, 52.29904]]]]}}, {"type": "Feature", "properties": {"statcode": "WK039403", "statnaam": "Zwanenburg"}, "geometry": {"type": "MultiPolygon", "coordinates": [[[[4.74647, 52.36286], [4.74001, 52.35689], [4.72117, 52.36702], [4.71057, 52.3728], [4.70885, 52.37557], [4.70773, 52.38266], [4.72118, 52.38498], [4.72877, 52.3863], [4.73226, 52.38636], [4.74833, 52.38291], [4.75444, 52.38003], [4.75672, 52.37784], [4.75838, 52.37402], [4.75847, 52.37109], [4.75784, 52.36872], [4.75486, 52.36742], [4.74647, 52.36286]]]]}}, {"type": "Feature", "properties": {"statcode": "WK039404", "statnaam": "Lijnden / Boesingheliede"}, "geometry": {"type": "MultiPolygon", "coordinates": [[[[4.75484, 52.35791], [4.75568, 52.35615], [4.76739, 52.35127], [4.7733, 52.34892], [4.77274, 52.3484], [4.77186, 52.34731], [4.77037, 52.34807], [4.7673, 52.34613], [4.76332, 52.34512], [4.761, 52.34121], [4.7595, 52.34201], [4.75793, 52.34091], [4.75772, 52.33677], [4.74565, 52.32835], [4.74622, 52.33452], [4.73975, 52.33792], [4.73497, 52.33467], [4.73392, 52.32319], [4.73315, 52.32229], [4.72666, 52.32731], [4.71382, 52.3341], [4.71654, 52.33631], [4.71414, 52.3376], [4.71494, 52.34639], [4.71319, 52.34733], [4.71544, 52.36552], [4.71804, 52.36483], [4.72117, 52.36702], [4.74001, 52.35689], [4.74647, 52.36286], [4.75486, 52.36742], [4.75784, 52.36872], [4.75588, 52.36181], [4.75484, 52.35791]]]]}}, {"type": "Feature", "properties": {"statcode": "WK039405", "statnaam": "Badhoevedorp"}, "geometry": {"type": "MultiPolygon", "coordinates": [[[[4.7733, 52.34892], [4.7808, 52.34585], [4.7911, 52.3415], [4.79733, 52.3356], [4.79822, 52.33504], [4.7988, 52.3348], [4.80305, 52.33303], [4.8164, 52.32741], [4.81712, 52.32693], [4.81875, 52.32556], [4.81906, 52.32332], [4.81612, 52.31349], [4.81715, 52.31197], [4.81708, 52.31182], [4.81227, 52.31524], [4.80505, 52.32269], [4.79863, 52.32682], [4.79408, 52.32327], [4.78765, 52.32575], [4.76606, 52.32316], [4.76152, 52.32178], [4.75545, 52.31886], [4.74518, 52.3184], [4.74565, 52.32835], [4.75772, 52.33677], [4.75793, 52.34091], [4.7595, 52.34201], [4.761, 52.34121], [4.76332, 52.34512], [4.7673, 52.34613], [4.77037, 52.34807], [4.77186, 52.34731], [4.77274, 52.3484], [4.7733, 52.34892]]]]}}, {"type": "Feature", "properties": {"statcode": "WK039406", "statnaam": "Aalsmeerderbrug/ Oude Meer/ Rozenburg / Schiphol Rijk"}, "geometry": {"type": "MultiPolygon", "coordinates": [[[[4.78834, 52.28853], [4.77991, 52.28313], [4.77102, 52.27937], [4.76511, 52.27678], [4.75688, 52.2744], [4.75132, 52.27369], [4.7467, 52.27225], [4.74562, 52.27164], [4.74377, 52.26984], [4.73923, 52.26761], [4.73457, 52.26655], [4.7339, 52.26715], [4.73256, 52.27018], [4.71464, 52.27977], [4.71524, 52.28019], [4.7259, 52.28759], [4.72835, 52.2893], [4.73898, 52.28372], [4.74333, 52.28567], [4.74839, 52.28294], [4.75105, 52.28338], [4.75501, 52.28298], [4.75795, 52.28367], [4.76558, 52.28727], [4.772, 52.29173], [4.77417, 52.29056], [4.77432, 52.28574], [4.77935, 52.28557], [4.78161, 52.29528], [4.78554, 52.29789], [4.79325, 52.2941], [4.78834, 52.28853]]]]}}, {"type": "Feature", "properties": {"statcode": "WK039407", "statnaam": "Rijsenhout"}, "geometry": {"type": "MultiPolygon", "coordinates": [[[[4.72079, 52.25878], [4.71322, 52.2554], [4.70527, 52.24676], [4.70187, 52.24447], [4.69551, 52.24322], [4.6943, 52.24446], [4.6886, 52.24752], [4.68473, 52.24483], [4.68658, 52.24383], [4.68318, 52.2415], [4.67824, 52.24087], [4.66747, 52.24685], [4.683, 52.25769], [4.68808, 52.25734], [4.69146, 52.2591], [4.69242, 52.25977], [4.68881, 52.26175], [4.71464, 52.27977], [4.73256, 52.27018], [4.7339, 52.26715], [4.73457, 52.26655], [4.7298, 52.26516], [4.72588, 52.26334], [4.72079, 52.25878]]]]}}, {"type": "Feature", "properties": {"statcode": "WK039408", "statnaam": "Burgerveen / Leimuiderbrug / Weteringbrug"}, "geometry": {"type": "MultiPolygon", "coordinates": [[[[4.69271, 52.24272], [4.68125, 52.23914], [4.67707, 52.23439], [4.67035, 52.23076], [4.66835, 52.22958], [4.66585, 52.228], [4.65847, 52.2261], [4.65385, 52.22435], [4.64718, 52.22121], [4.64402, 52.22065], [4.63857, 52.21849], [4.63263, 52.21618], [4.62584, 52.2153], [4.62717, 52.21815], [4.63036, 52.23067], [4.63827, 52.22642], [4.65157, 52.23561], [4.66153, 52.2427], [4.66747, 52.24685], [4.67824, 52.24087], [4.68318, 52.2415], [4.68658, 52.24383], [4.68473, 52.24483], [4.6886, 52.24752], [4.6943, 52.24446], [4.69551, 52.24322], [4.69271, 52.24272]]]]}}, {"type": "Feature", "properties": {"statcode": "WK039409", "statnaam": "Abbenes / Buitenkaag"}, "geometry": {"type": "MultiPolygon", "coordinates": [[[[4.63036, 52.23067], [4.62717, 52.21815], [4.62584, 52.2153], [4.62584, 52.2153], [4.62248, 52.21492], [4.61844, 52.21448], [4.60276, 52.21456], [4.59818, 52.21555], [4.58355, 52.21887], [4.57376, 52.21726], [4.5722, 52.217], [4.55843, 52.2188], [4.55661, 52.21927], [4.55393, 52.22221], [4.55047, 52.22675], [4.55362, 52.23093], [4.55561, 52.23202], [4.56241, 52.22863], [4.59346, 52.25038], [4.61529, 52.23873], [4.61432, 52.23667], [4.62397, 52.23151], [4.62904, 52.23133], [4.63036, 52.23067]]]]}}, {"type": "Feature", "properties": {"statcode": "WK039410", "statnaam": "Lisserbroek"}, "geometry": {"type": "MultiPolygon", "coordinates": [[[[4.58995, 52.27383], [4.58568, 52.26925], [4.5834, 52.27046], [4.57734, 52.26621], [4.59932, 52.25447], [4.59346, 52.25038], [4.56241, 52.22863], [4.55561, 52.23202], [4.55562, 52.23202], [4.56078, 52.23306], [4.56227, 52.23384], [4.56292, 52.23472], [4.56418, 52.23863], [4.56505, 52.24142], [4.56535, 52.24235], [4.56621, 52.24501], [4.56783, 52.25075], [4.56876, 52.25567], [4.56954, 52.25986], [4.56845, 52.26471], [4.56825, 52.26555], [4.56804, 52.26652], [4.56834, 52.26855], [4.57275, 52.27124], [4.57712, 52.2738], [4.57719, 52.27384], [4.58414, 52.27792], [4.58487, 52.27833], [4.58995, 52.27383]]]]}}, {"type": "Feature", "properties": {"statcode": "WK039411", "statnaam": "Beinsdorp"}, "geometry": {"type": "MultiPolygon", "coordinates": [[[[4.61543, 52.29164], [4.58995, 52.27383], [4.58487, 52.27833], [4.58821, 52.28023], [4.58887, 52.28111], [4.58954, 52.28248], [4.59134, 52.28596], [4.59374, 52.2887], [4.5956, 52.2908], [4.59636, 52.29184], [4.59648, 52.29445], [4.59824, 52.29774], [4.59983, 52.29987], [4.60233, 52.30324], [4.60441, 52.30242], [4.60219, 52.29912], [4.60258, 52.29851], [4.61543, 52.29164]]]]}}, {"type": "Feature", "properties": {"statcode": "WK039412", "statnaam": "Zwaanshoek"}, "geometry": {"type": "MultiPolygon", "coordinates": [[[[4.63459, 52.32717], [4.63908, 52.3264], [4.64141, 52.32657], [4.64805, 52.32974], [4.64806, 52.32975], [4.65344, 52.32664], [4.6453, 52.32195], [4.62278, 52.30615], [4.61982, 52.30405], [4.61869, 52.30223], [4.62056, 52.29664], [4.61942, 52.29462], [4.61543, 52.29164], [4.60258, 52.29851], [4.60219, 52.29912], [4.60441, 52.30242], [4.60233, 52.30324], [4.60474, 52.30628], [4.61026, 52.31088], [4.61153, 52.31224], [4.61168, 52.31356], [4.61153, 52.31834], [4.61138, 52.3222], [4.61139, 52.32225], [4.61166, 52.32542], [4.61347, 52.32806], [4.61656, 52.33147], [4.6201, 52.33372], [4.6201, 52.33372], [4.6278, 52.33076], [4.63459, 52.32717]]]]}}, {"type": "Feature", "properties": {"statcode": "WK039413", "statnaam": "Cruquius"}, "geometry": {"type": "MultiPolygon", "coordinates": [[[[4.659, 52.34259], [4.66316, 52.34019], [4.66368, 52.34056], [4.6686, 52.3379], [4.66474, 52.33522], [4.66976, 52.33252], [4.66576, 52.33088], [4.65933, 52.32935], [4.65456, 52.32723], [4.66011, 52.32422], [4.65917, 52.32356], [4.65908, 52.32361], [4.65344, 52.32664], [4.64806, 52.32975], [4.64805, 52.32974], [4.64141, 52.32657], [4.63908, 52.3264], [4.63459, 52.32717], [4.6278, 52.33076], [4.6201, 52.33372], [4.6201, 52.33372], [4.63058, 52.33753], [4.63965, 52.33891], [4.64763, 52.34007], [4.65166, 52.34156], [4.65641, 52.34364], [4.65716, 52.34294], [4.659, 52.34259]]]]}}, {"type": "Feature", "properties": {"statcode": "WK039415", "statnaam": "Vijfhuizen"}, "geometry": {"type": "MultiPolygon", "coordinates": [[[[4.71057, 52.3728], [4.72117, 52.36702], [4.71804, 52.36483], [4.71544, 52.36552], [4.71086, 52.36801], [4.70952, 52.36514], [4.70676, 52.33479], [4.68852, 52.34405], [4.67103, 52.33184], [4.66976, 52.33252], [4.66474, 52.33522], [4.6686, 52.3379], [4.66368, 52.34056], [4.66316, 52.34019], [4.659, 52.34259], [4.65716, 52.34294], [4.65641, 52.34364], [4.65923, 52.34487], [4.66081, 52.34554], [4.67148, 52.35015], [4.67563, 52.35288], [4.67647, 52.35618], [4.67524, 52.35947], [4.67209, 52.36816], [4.67138, 52.37037], [4.67138, 52.37038], [4.67271, 52.37422], [4.67738, 52.37709], [4.69175, 52.37987], [4.70773, 52.38266], [4.70885, 52.37557], [4.71057, 52.3728]]]]}}, {"type": "Feature", "properties": {"statcode": "WK039416", "statnaam": "Schiphol"}, "geometry": {"type": "MultiPolygon", "coordinates": [[[[4.71544, 52.36552], [4.71319, 52.34733], [4.71494, 52.34639], [4.71414, 52.3376], [4.71654, 52.33631], [4.71382, 52.3341], [4.72666, 52.32731], [4.73315, 52.32229], [4.73392, 52.32319], [4.73497, 52.33467], [4.73975, 52.33792], [4.74622, 52.33452], [4.74565, 52.32835], [4.74518, 52.3184], [4.75545, 52.31886], [4.76152, 52.32178], [4.76606, 52.32316], [4.78765, 52.32575], [4.79408, 52.32327], [4.79863, 52.32682], [4.80505, 52.32269], [4.81227, 52.31524], [4.81708, 52.31182], [4.80988, 52.30578], [4.8037, 52.30358], [4.79884, 52.30142], [4.79566, 52.29932], [4.79444, 52.29627], [4.79325, 52.2941], [4.78554, 52.29789], [4.78161, 52.29528], [4.77935, 52.28557], [4.77432, 52.28574], [4.77417, 52.29056], [4.772, 52.29173], [4.76558, 52.28727], [4.75795, 52.28367], [4.75501, 52.28298], [4.75105, 52.28338], [4.74839, 52.28294], [4.74333, 52.28567], [4.73898, 52.28372], [4.72835, 52.2893], [4.73779, 52.29585], [4.73339, 52.29777], [4.73172, 52.29912], [4.73352, 52.31876], [4.73296, 52.3202], [4.71655, 52.3289], [4.71211, 52.3282], [4.71119, 52.32544], [4.70984, 52.32513], [4.70592, 52.32562], [4.70676, 52.33479], [4.70952, 52.36514], [4.71086, 52.36801], [4.71544, 52.36552]]]]}}, {"type": "Feature", "properties": {"statcode": "WK039420", "statnaam": "Spaarndam"}, "geometry": {"type": "MultiPolygon", "coordinates": [[[[4.73921, 52.43106], [4.73857, 52.42922], [4.73667, 52.4296], [4.73294, 52.41883], [4.72982, 52.41911], [4.72824, 52.41238], [4.72572, 52.41279], [4.71993, 52.40736], [4.71879, 52.40529], [4.7192, 52.40319], [4.71497, 52.40148], [4.71101, 52.39869], [4.70584, 52.39675], [4.70169, 52.39422], [4.70036, 52.39209], [4.69773, 52.39092], [4.6922, 52.39487], [4.68935, 52.3934], [4.68631, 52.39323], [4.68399, 52.39391], [4.67947, 52.39196], [4.67831, 52.39288], [4.67499, 52.3932], [4.67346, 52.39407], [4.67563, 52.39725], [4.67857, 52.39851], [4.67869, 52.39948], [4.66866, 52.4014], [4.66882, 52.40416], [4.67438, 52.40647], [4.67196, 52.40945], [4.67551, 52.40963], [4.68113, 52.41232], [4.68248, 52.41385], [4.69149, 52.41881], [4.70054, 52.42551], [4.71065, 52.42769], [4.72198, 52.43334], [4.73921, 52.43106]]]]}}, {"type": "Feature", "properties": {"statcode": "WK039421", "statnaam": "Haarlemmerliede"}, "geometry": {"type": "MultiPolygon", "coordinates": [[[[4.70584, 52.39675], [4.70842, 52.38579], [4.68857, 52.38406], [4.68979, 52.38132], [4.69138, 52.38074], [4.69175, 52.37987], [4.67738, 52.37709], [4.686, 52.38352], [4.68597, 52.38402], [4.68692, 52.38744], [4.6826, 52.38822], [4.68144, 52.38992], [4.68119, 52.39029], [4.67772, 52.38974], [4.67454, 52.39091], [4.67346, 52.39407], [4.67499, 52.3932], [4.67831, 52.39288], [4.67947, 52.39196], [4.68399, 52.39391], [4.68631, 52.39323], [4.68935, 52.3934], [4.6922, 52.39487], [4.69773, 52.39092], [4.70036, 52.39209], [4.70169, 52.39422], [4.70584, 52.39675]]]]}}, {"type": "Feature", "properties": {"statcode": "WK039422", "statnaam": "Halfweg"}, "geometry": {"type": "MultiPolygon", "coordinates": [[[[4.73857, 52.42922], [4.72876, 52.40071], [4.75748, 52.39688], [4.75786, 52.39659], [4.7583, 52.38795], [4.75831, 52.3879], [4.75851, 52.38719], [4.75895, 52.38412], [4.75908, 52.38094], [4.75912, 52.37933], [4.75726, 52.37798], [4.75672, 52.37784], [4.75444, 52.38003], [4.74833, 52.38291], [4.73226, 52.38636], [4.72877, 52.3863], [4.72118, 52.38498], [4.70773, 52.38266], [4.69175, 52.37987], [4.69138, 52.38074], [4.68979, 52.38132], [4.68857, 52.38406], [4.70842, 52.38579], [4.70584, 52.39675], [4.71101, 52.39869], [4.71497, 52.40148], [4.7192, 52.40319], [4.71879, 52.40529], [4.71993, 52.40736], [4.72572, 52.41279], [4.72824, 52.41238], [4.72982, 52.41911], [4.73294, 52.41883], [4.73667, 52.4296], [4.73857, 52.42922]]]]}}]}