{"type": "FeatureCollection", "features": [{"type": "Feature", "properties": {"statcode": "WK039201", "statnaam": "Oude Stad"}, "geometry": {"type": "MultiPolygon", "coordinates": [[[[4.64706, 52.38086], [4.64139, 52.37632], [4.63971, 52.37707], [4.63514, 52.37593], [4.631, 52.37604], [4.6244, 52.37761], [4.62892, 52.38238], [4.62985, 52.38336], [4.63147, 52.38539], [4.63189, 52.38834], [4.63441, 52.38961], [4.63954, 52.38981], [4.64415, 52.38826], [4.64783, 52.38622], [4.64231, 52.38403], [4.64736, 52.38236], [4.64706, 52.38086]]]]}}, {"type": "Feature", "properties": {"statcode": "WK039202", "statnaam": "Haarlemmerhoutkwartier"}, "geometry": {"type": "MultiPolygon", "coordinates": [[[[4.631, 52.37604], [4.63514, 52.37593], [4.63971, 52.37707], [4.64139, 52.37632], [4.64273, 52.37406], [4.64253, 52.37366], [4.63999, 52.37144], [4.63591, 52.36963], [4.63632, 52.3675], [4.63676, 52.36455], [4.63663, 52.36148], [4.63034, 52.36065], [4.62563, 52.36213], [4.61825, 52.36147], [4.61772, 52.36153], [4.61066, 52.36271], [4.61857, 52.37124], [4.62389, 52.37706], [4.6244, 52.37761], [4.631, 52.37604]]]]}}, {"type": "Feature", "properties": {"statcode": "WK039203", "statnaam": "Zijlwegkwartier"}, "geometry": {"type": "MultiPolygon", "coordinates": [[[[4.6244, 52.37761], [4.62389, 52.37706], [4.6214, 52.37792], [4.6173, 52.37934], [4.61988, 52.38378], [4.62258, 52.38585], [4.62692, 52.38772], [4.63189, 52.38834], [4.63147, 52.38539], [4.62985, 52.38336], [4.62892, 52.38238], [4.6244, 52.37761]]]]}}, {"type": "Feature", "properties": {"statcode": "WK039204", "statnaam": "Houtvaartkwartier"}, "geometry": {"type": "MultiPolygon", "coordinates": [[[[4.61857, 52.37124], [4.61066, 52.36271], [4.60858, 52.36296], [4.60842, 52.36298], [4.60572, 52.3634], [4.60732, 52.36704], [4.61004, 52.37232], [4.61099, 52.37605], [4.61405, 52.38028], [4.61465, 52.38458], [4.61988, 52.38378], [4.6173, 52.37934], [4.6214, 52.37792], [4.62389, 52.37706], [4.61857, 52.37124]]]]}}, {"type": "Feature", "properties": {"statcode": "WK039205", "statnaam": "Duinwijk"}, "geometry": {"type": "MultiPolygon", "coordinates": [[[[4.63189, 52.38834], [4.62692, 52.38772], [4.62258, 52.38585], [4.61988, 52.38378], [4.61465, 52.38458], [4.61405, 52.38028], [4.61099, 52.37605], [4.61004, 52.37232], [4.60732, 52.36704], [4.60416, 52.36759], [4.60377, 52.36886], [4.60459, 52.37136], [4.60183, 52.37219], [4.60145, 52.37277], [4.60117, 52.37552], [4.60107, 52.3768], [4.59955, 52.37722], [4.59978, 52.37896], [4.60026, 52.38076], [4.60053, 52.38292], [4.60202, 52.38462], [4.60533, 52.38549], [4.60858, 52.38552], [4.61082, 52.38982], [4.61625, 52.38882], [4.62161, 52.38798], [4.6237, 52.39169], [4.62423, 52.39095], [4.62676, 52.38907], [4.63189, 52.38834]]]]}}, {"type": "Feature", "properties": {"statcode": "WK039206", "statnaam": "Waarder- en Veerpolder"}, "geometry": {"type": "MultiPolygon", "coordinates": [[[[4.67454, 52.39091], [4.67772, 52.38974], [4.68119, 52.39029], [4.68144, 52.38992], [4.6826, 52.38822], [4.68692, 52.38744], [4.68597, 52.38402], [4.686, 52.38352], [4.67419, 52.38267], [4.66798, 52.38226], [4.66099, 52.38175], [4.65614, 52.38146], [4.65178, 52.38121], [4.64706, 52.38086], [4.64736, 52.38236], [4.64231, 52.38403], [4.64783, 52.38622], [4.64952, 52.38761], [4.65004, 52.39014], [4.65042, 52.39141], [4.65153, 52.39522], [4.65233, 52.39767], [4.65346, 52.39972], [4.65503, 52.40173], [4.66107, 52.40433], [4.66643, 52.40814], [4.67144, 52.40997], [4.67196, 52.40945], [4.67438, 52.40647], [4.66882, 52.40416], [4.66866, 52.4014], [4.67869, 52.39948], [4.67857, 52.39851], [4.67563, 52.39725], [4.67346, 52.39407], [4.67454, 52.39091]]]]}}, {"type": "Feature", "properties": {"statcode": "WK039207", "statnaam": "Amsterdamsewijk"}, "geometry": {"type": "MultiPolygon", "coordinates": [[[[4.66043, 52.37891], [4.65804, 52.37487], [4.65376, 52.37636], [4.65177, 52.37628], [4.65074, 52.37672], [4.64932, 52.37684], [4.64139, 52.37632], [4.64706, 52.38086], [4.65178, 52.38121], [4.65614, 52.38146], [4.66099, 52.38175], [4.66043, 52.37891]]]]}}, {"type": "Feature", "properties": {"statcode": "WK039208", "statnaam": "Slachthuiswijk"}, "geometry": {"type": "MultiPolygon", "coordinates": [[[[4.65074, 52.37672], [4.65177, 52.37628], [4.65376, 52.37636], [4.65804, 52.37487], [4.65463, 52.37089], [4.65441, 52.37016], [4.64744, 52.37013], [4.6443, 52.3701], [4.6422, 52.37033], [4.63999, 52.37144], [4.64253, 52.37366], [4.64273, 52.37406], [4.64139, 52.37632], [4.64932, 52.37684], [4.65074, 52.37672]]]]}}, {"type": "Feature", "properties": {"statcode": "WK039209", "statnaam": "Parkwijk"}, "geometry": {"type": "MultiPolygon", "coordinates": [[[[4.67271, 52.37422], [4.67138, 52.37038], [4.67138, 52.37037], [4.66553, 52.37036], [4.65441, 52.37016], [4.65463, 52.37089], [4.65804, 52.37487], [4.66043, 52.37891], [4.66099, 52.38175], [4.66798, 52.38226], [4.67419, 52.38267], [4.686, 52.38352], [4.67738, 52.37709], [4.67271, 52.37422]]]]}}, {"type": "Feature", "properties": {"statcode": "WK039210", "statnaam": "Transvaalwijk"}, "geometry": {"type": "MultiPolygon", "coordinates": [[[[4.65153, 52.39522], [4.65042, 52.39141], [4.65004, 52.39014], [4.64952, 52.38761], [4.64783, 52.38622], [4.64415, 52.38826], [4.63954, 52.38981], [4.63441, 52.38961], [4.63525, 52.39286], [4.63444, 52.39304], [4.63939, 52.39222], [4.64017, 52.39311], [4.64081, 52.3942], [4.64163, 52.39631], [4.64632, 52.39564], [4.65153, 52.39522]]]]}}, {"type": "Feature", "properties": {"statcode": "WK039211", "statnaam": "Indischewijk"}, "geometry": {"type": "MultiPolygon", "coordinates": [[[[4.65233, 52.39767], [4.65153, 52.39522], [4.64632, 52.39564], [4.64163, 52.39631], [4.64333, 52.39805], [4.64431, 52.39932], [4.64517, 52.40134], [4.64801, 52.40418], [4.64828, 52.40462], [4.65067, 52.40925], [4.65095, 52.40973], [4.65128, 52.40951], [4.65393, 52.40681], [4.65632, 52.40563], [4.66107, 52.40433], [4.65503, 52.40173], [4.65346, 52.39972], [4.65233, 52.39767]]]]}}, {"type": "Feature", "properties": {"statcode": "WK039212", "statnaam": "Ter Kleefkwartier"}, "geometry": {"type": "MultiPolygon", "coordinates": [[[[4.64333, 52.39805], [4.64163, 52.39631], [4.64081, 52.3942], [4.64017, 52.39311], [4.63939, 52.39222], [4.63444, 52.39304], [4.63525, 52.39286], [4.63441, 52.38961], [4.63189, 52.38834], [4.62676, 52.38907], [4.62423, 52.39095], [4.6237, 52.39169], [4.62367, 52.39577], [4.62439, 52.3977], [4.62644, 52.39746], [4.62957, 52.40119], [4.6323, 52.40419], [4.63833, 52.40221], [4.64208, 52.40166], [4.64288, 52.40164], [4.64517, 52.40134], [4.64431, 52.39932], [4.64333, 52.39805]]]]}}, {"type": "Feature", "properties": {"statcode": "WK039213", "statnaam": "Te Zaanenkwartier"}, "geometry": {"type": "MultiPolygon", "coordinates": [[[[4.6482, 52.41189], [4.65095, 52.40973], [4.65067, 52.40925], [4.64828, 52.40462], [4.64801, 52.40418], [4.64517, 52.40134], [4.64288, 52.40164], [4.64208, 52.40166], [4.63833, 52.40221], [4.6323, 52.40419], [4.62957, 52.40119], [4.62644, 52.39746], [4.62439, 52.3977], [4.62441, 52.39774], [4.62929, 52.40712], [4.63165, 52.41167], [4.63612, 52.41083], [4.63729, 52.41212], [4.63938, 52.41451], [4.64481, 52.41333], [4.6482, 52.41189]]]]}}, {"type": "Feature", "properties": {"statcode": "WK039214", "statnaam": "Vogelenwijk"}, "geometry": {"type": "MultiPolygon", "coordinates": [[[[4.65293, 52.41565], [4.65693, 52.41397], [4.65722, 52.41448], [4.66243, 52.41191], [4.66481, 52.41366], [4.67062, 52.41062], [4.67144, 52.40997], [4.66643, 52.40814], [4.66107, 52.40433], [4.65632, 52.40563], [4.65393, 52.40681], [4.65128, 52.40951], [4.65095, 52.40973], [4.65079, 52.41294], [4.64934, 52.41653], [4.65293, 52.41565]]]]}}, {"type": "Feature", "properties": {"statcode": "WK039215", "statnaam": "Delftwijk"}, "geometry": {"type": "MultiPolygon", "coordinates": [[[[4.65079, 52.41294], [4.65095, 52.40973], [4.6482, 52.41189], [4.64481, 52.41333], [4.63938, 52.41451], [4.64249, 52.41787], [4.64502, 52.42103], [4.64572, 52.42197], [4.64761, 52.42199], [4.64823, 52.41929], [4.64934, 52.41653], [4.65079, 52.41294]]]]}}, {"type": "Feature", "properties": {"statcode": "WK039216", "statnaam": "Vondelkwartier"}, "geometry": {"type": "MultiPolygon", "coordinates": [[[[4.67212, 52.4224], [4.67167, 52.42079], [4.66842, 52.41813], [4.66481, 52.41366], [4.66243, 52.41191], [4.65722, 52.41448], [4.65693, 52.41397], [4.65293, 52.41565], [4.64934, 52.41653], [4.64823, 52.41929], [4.64761, 52.42199], [4.64572, 52.42197], [4.65077, 52.42857], [4.65315, 52.428], [4.66283, 52.42585], [4.66485, 52.4256], [4.66562, 52.42549], [4.67212, 52.4224]]]]}}, {"type": "Feature", "properties": {"statcode": "WK039217", "statnaam": "Spaarndam"}, "geometry": {"type": "MultiPolygon", "coordinates": [[[[4.67212, 52.4224], [4.67437, 52.41863], [4.6775, 52.41896], [4.68123, 52.41933], [4.68065, 52.41801], [4.6818, 52.41778], [4.68248, 52.41385], [4.68113, 52.41232], [4.67551, 52.40963], [4.67196, 52.40945], [4.67144, 52.40997], [4.67062, 52.41062], [4.66481, 52.41366], [4.66842, 52.41813], [4.67167, 52.42079], [4.67212, 52.4224]]]]}}, {"type": "Feature", "properties": {"statcode": "WK039218", "statnaam": "Europawijk"}, "geometry": {"type": "MultiPolygon", "coordinates": [[[[4.64223, 52.35488], [4.63585, 52.35404], [4.63494, 52.35596], [4.63759, 52.35947], [4.63736, 52.36026], [4.63663, 52.36148], [4.63676, 52.36455], [4.63632, 52.3675], [4.63591, 52.36963], [4.63999, 52.37144], [4.6422, 52.37033], [4.6443, 52.3701], [4.64452, 52.36894], [4.64924, 52.36688], [4.65034, 52.36456], [4.65155, 52.36175], [4.65215, 52.36027], [4.6532, 52.35644], [4.65288, 52.35553], [4.64848, 52.35507], [4.6444, 52.35494], [4.64327, 52.35493], [4.64223, 52.35488]]]]}}, {"type": "Feature", "properties": {"statcode": "WK039219", "statnaam": "Boerhaavewijk"}, "geometry": {"type": "MultiPolygon", "coordinates": [[[[4.67138, 52.37037], [4.67209, 52.36816], [4.67524, 52.35947], [4.66783, 52.36058], [4.66515, 52.36059], [4.65714, 52.36053], [4.65438, 52.36053], [4.65215, 52.36027], [4.65155, 52.36175], [4.65034, 52.36456], [4.64924, 52.36688], [4.64452, 52.36894], [4.6443, 52.3701], [4.64744, 52.37013], [4.65441, 52.37016], [4.66553, 52.37036], [4.67138, 52.37037]]]]}}, {"type": "Feature", "properties": {"statcode": "WK039220", "statnaam": "Molenwijk"}, "geometry": {"type": "MultiPolygon", "coordinates": [[[[4.64763, 52.34007], [4.63965, 52.33891], [4.63938, 52.34063], [4.64103, 52.34399], [4.64032, 52.34556], [4.64039, 52.34983], [4.6398, 52.35091], [4.6366, 52.35318], [4.63585, 52.35404], [4.64223, 52.35488], [4.64327, 52.35493], [4.6444, 52.35494], [4.64848, 52.35507], [4.65288, 52.35553], [4.6532, 52.35644], [4.65726, 52.35653], [4.65727, 52.35427], [4.66095, 52.35009], [4.65772, 52.348], [4.66081, 52.34554], [4.65923, 52.34487], [4.65641, 52.34364], [4.65166, 52.34156], [4.64763, 52.34007]]]]}}, {"type": "Feature", "properties": {"statcode": "WK039221", "statnaam": "Meerwijk"}, "geometry": {"type": "MultiPolygon", "coordinates": [[[[4.65438, 52.36053], [4.65714, 52.36053], [4.66515, 52.36059], [4.66783, 52.36058], [4.67524, 52.35947], [4.67647, 52.35618], [4.67563, 52.35288], [4.67148, 52.35015], [4.66081, 52.34554], [4.65772, 52.348], [4.66095, 52.35009], [4.65727, 52.35427], [4.65726, 52.35653], [4.6532, 52.35644], [4.65215, 52.36027], [4.65438, 52.36053]]]]}}]}