{"type": "FeatureCollection", "features": [{"type": "Feature", "properties": {"statcode": "BU03940101", "statnaam": "Hoofddorp Centrum West"}, "geometry": {"type": "MultiPolygon", "coordinates": [[[[4.69268, 52.30556], [4.68655, 52.30129], [4.68539, 52.30048], [4.6835, 52.3017], [4.68408, 52.30608], [4.68259, 52.30997], [4.68352, 52.31062], [4.69268, 52.30556]]]]}}, {"type": "Feature", "properties": {"statcode": "BU03940102", "statnaam": "Hoofddorp Centrum Zuid"}, "geometry": {"type": "MultiPolygon", "coordinates": [[[[4.70407, 52.29944], [4.69554, 52.29387], [4.68963, 52.29939], [4.68655, 52.30129], [4.69268, 52.30556], [4.70407, 52.29944]]]]}}, {"type": "Feature", "properties": {"statcode": "BU03940103", "statnaam": "Hoofddorp Graan voor Visch"}, "geometry": {"type": "MultiPolygon", "coordinates": [[[[4.68963, 52.29939], [4.69554, 52.29387], [4.69646, 52.29301], [4.69252, 52.29124], [4.68045, 52.29704], [4.68539, 52.30048], [4.68655, 52.30129], [4.68963, 52.29939]]]]}}, {"type": "Feature", "properties": {"statcode": "BU03940104", "statnaam": "Hoofddorp Centrum Oost"}, "geometry": {"type": "MultiPolygon", "coordinates": [[[[4.71414, 52.30551], [4.71417, 52.3037], [4.70989, 52.29914], [4.70936, 52.29722], [4.70756, 52.2969], [4.70407, 52.29944], [4.69268, 52.30556], [4.70232, 52.31229], [4.71414, 52.30551]]]]}}, {"type": "Feature", "properties": {"statcode": "BU03940105", "statnaam": "Hoofddorp Centrum Noord"}, "geometry": {"type": "MultiPolygon", "coordinates": [[[[4.69206, 52.31755], [4.70232, 52.31229], [4.69268, 52.30556], [4.68352, 52.31062], [4.68317, 52.31081], [4.68114, 52.31645], [4.69206, 52.31755]]]]}}, {"type": "Feature", "properties": {"statcode": "BU03940106", "statnaam": "Hoofddorp Pax West"}, "geometry": {"type": "MultiPolygon", "coordinates": [[[[4.68317, 52.31081], [4.68352, 52.31062], [4.68259, 52.30997], [4.6798, 52.30775], [4.67999, 52.30353], [4.67439, 52.30038], [4.66908, 52.3032], [4.68145, 52.31175], [4.68317, 52.31081]]]]}}, {"type": "Feature", "properties": {"statcode": "BU03940107", "statnaam": "Hoofddorp Pax Oost"}, "geometry": {"type": "MultiPolygon", "coordinates": [[[[4.68408, 52.30608], [4.6835, 52.3017], [4.68539, 52.30048], [4.68045, 52.29704], [4.67439, 52.30038], [4.67999, 52.30353], [4.6798, 52.30775], [4.68259, 52.30997], [4.68408, 52.30608]]]]}}, {"type": "Feature", "properties": {"statcode": "BU03940108", "statnaam": "Hoofddorp Bornholm West"}, "geometry": {"type": "MultiPolygon", "coordinates": [[[[4.67585, 52.31584], [4.67555, 52.31499], [4.66681, 52.30855], [4.66675, 52.3059], [4.66523, 52.30565], [4.65845, 52.30954], [4.66229, 52.31222], [4.67026, 52.31777], [4.67585, 52.31584]]]]}}, {"type": "Feature", "properties": {"statcode": "BU03940109", "statnaam": "Hoofddorp Bornholm Oost"}, "geometry": {"type": "MultiPolygon", "coordinates": [[[[4.68317, 52.31081], [4.68145, 52.31175], [4.66908, 52.3032], [4.66675, 52.3059], [4.66681, 52.30855], [4.67555, 52.31499], [4.67585, 52.31584], [4.68114, 52.31645], [4.68317, 52.31081]]]]}}, {"type": "Feature", "properties": {"statcode": "BU03940110", "statnaam": "Hoofddorp Hyde Park"}, "geometry": {"type": "MultiPolygon", "coordinates": [[[[4.70756, 52.2969], [4.70475, 52.29525], [4.69813, 52.2939], [4.69646, 52.29301], [4.69554, 52.29387], [4.70407, 52.29944], [4.70756, 52.2969]]]]}}, {"type": "Feature", "properties": {"statcode": "BU03940111", "statnaam": "Hoofddorp Overbos Noord"}, "geometry": {"type": "MultiPolygon", "coordinates": [[[[4.65917, 52.32356], [4.67026, 52.31777], [4.66229, 52.31222], [4.65199, 52.31864], [4.65908, 52.32361], [4.65917, 52.32356]]]]}}, {"type": "Feature", "properties": {"statcode": "BU03940112", "statnaam": "Hoofddorp Overbos Zuid"}, "geometry": {"type": "MultiPolygon", "coordinates": [[[[4.66229, 52.31222], [4.65845, 52.30954], [4.65513, 52.30723], [4.64885, 52.30986], [4.64695, 52.30851], [4.64458, 52.30843], [4.64191, 52.30987], [4.64299, 52.31063], [4.64163, 52.31136], [4.65199, 52.31864], [4.66229, 52.31222]]]]}}, {"type": "Feature", "properties": {"statcode": "BU03940113", "statnaam": "Hoofddorp Toolenburg West"}, "geometry": {"type": "MultiPolygon", "coordinates": [[[[4.66523, 52.30565], [4.66675, 52.3059], [4.66908, 52.3032], [4.65793, 52.29541], [4.6524, 52.29839], [4.65434, 52.29974], [4.64872, 52.30276], [4.65513, 52.30723], [4.65845, 52.30954], [4.66523, 52.30565]]]]}}, {"type": "Feature", "properties": {"statcode": "BU03940114", "statnaam": "Hoofddorp Toolenburg Oost"}, "geometry": {"type": "MultiPolygon", "coordinates": [[[[4.67439, 52.30038], [4.68045, 52.29704], [4.67515, 52.29334], [4.67123, 52.29061], [4.66521, 52.29384], [4.6627, 52.29285], [4.65793, 52.29541], [4.66908, 52.3032], [4.67439, 52.30038]]]]}}, {"type": "Feature", "properties": {"statcode": "BU03940115", "statnaam": "Hoofddorp Vrijschot Noord"}, "geometry": {"type": "MultiPolygon", "coordinates": [[[[4.68114, 52.31645], [4.67585, 52.31584], [4.67026, 52.31777], [4.67842, 52.32345], [4.68114, 52.31645]]]]}}, {"type": "Feature", "properties": {"statcode": "BU03940116", "statnaam": "Hoofddorp Floriande West"}, "geometry": {"type": "MultiPolygon", "coordinates": [[[[4.65908, 52.32361], [4.65199, 52.31864], [4.64163, 52.31136], [4.62836, 52.30206], [4.62278, 52.30615], [4.6453, 52.32195], [4.65344, 52.32664], [4.65908, 52.32361]]]]}}, {"type": "Feature", "properties": {"statcode": "BU03940117", "statnaam": "Hoofddorp Floriande Oost"}, "geometry": {"type": "MultiPolygon", "coordinates": [[[[4.64299, 52.31063], [4.64191, 52.30987], [4.64458, 52.30843], [4.64695, 52.30851], [4.64885, 52.30986], [4.65513, 52.30723], [4.64872, 52.30276], [4.64094, 52.29732], [4.63975, 52.29797], [4.63802, 52.29676], [4.63571, 52.29804], [4.62836, 52.30206], [4.64163, 52.31136], [4.64299, 52.31063]]]]}}, {"type": "Feature", "properties": {"statcode": "BU03940118", "statnaam": "Hoofddorp Toolenburg Zuid"}, "geometry": {"type": "MultiPolygon", "coordinates": [[[[4.65434, 52.29974], [4.6524, 52.29839], [4.65793, 52.29541], [4.6627, 52.29285], [4.66521, 52.29384], [4.67123, 52.29061], [4.66168, 52.28395], [4.64152, 52.29488], [4.64304, 52.29598], [4.64094, 52.29732], [4.64872, 52.30276], [4.65434, 52.29974]]]]}}, {"type": "Feature", "properties": {"statcode": "BU03940119", "statnaam": "Hoofddorp De Landman"}, "geometry": {"type": "MultiPolygon", "coordinates": [[[[4.7039, 52.2863], [4.71524, 52.28019], [4.71464, 52.27977], [4.68881, 52.26175], [4.69242, 52.25977], [4.69146, 52.2591], [4.68808, 52.25734], [4.683, 52.25769], [4.68208, 52.25962], [4.68656, 52.26276], [4.68831, 52.26202], [4.69584, 52.26731], [4.67394, 52.27952], [4.67161, 52.28019], [4.67276, 52.28142], [4.67886, 52.2836], [4.68343, 52.28651], [4.68607, 52.28744], [4.69252, 52.29124], [4.69646, 52.29301], [4.7039, 52.2863]]]]}}, {"type": "Feature", "properties": {"statcode": "BU03940122", "statnaam": "Hoofddorp Omgeving"}, "geometry": {"type": "MultiPolygon", "coordinates": [[[[4.70676, 52.33479], [4.70592, 52.32562], [4.70984, 52.32513], [4.71119, 52.32544], [4.71211, 52.3282], [4.71655, 52.3289], [4.73296, 52.3202], [4.73352, 52.31876], [4.73172, 52.29912], [4.73339, 52.29777], [4.72925, 52.29697], [4.71547, 52.29614], [4.70989, 52.29914], [4.71417, 52.3037], [4.71414, 52.30551], [4.70232, 52.31229], [4.69206, 52.31755], [4.68114, 52.31645], [4.67842, 52.32345], [4.67026, 52.31777], [4.65917, 52.32356], [4.66011, 52.32422], [4.65456, 52.32723], [4.65933, 52.32935], [4.66576, 52.33088], [4.66976, 52.33252], [4.67103, 52.33184], [4.68852, 52.34405], [4.70676, 52.33479]]]]}}, {"type": "Feature", "properties": {"statcode": "BU03940123", "statnaam": "Hoofddorp De Hoek"}, "geometry": {"type": "MultiPolygon", "coordinates": [[[[4.71547, 52.29614], [4.72925, 52.29697], [4.73339, 52.29777], [4.73779, 52.29585], [4.72835, 52.2893], [4.7259, 52.28759], [4.71022, 52.29606], [4.70936, 52.29722], [4.70989, 52.29914], [4.71547, 52.29614]]]]}}, {"type": "Feature", "properties": {"statcode": "BU03940124", "statnaam": "Hoofddorp Graan voor Visch Zuid"}, "geometry": {"type": "MultiPolygon", "coordinates": [[[[4.69252, 52.29124], [4.68607, 52.28744], [4.67515, 52.29334], [4.68045, 52.29704], [4.69252, 52.29124]]]]}}, {"type": "Feature", "properties": {"statcode": "BU03940125", "statnaam": "Hoofddorp Beukenhorst Oost"}, "geometry": {"type": "MultiPolygon", "coordinates": [[[[4.71022, 52.29606], [4.7259, 52.28759], [4.71524, 52.28019], [4.7039, 52.2863], [4.69646, 52.29301], [4.69813, 52.2939], [4.70475, 52.29525], [4.70756, 52.2969], [4.70936, 52.29722], [4.71022, 52.29606]]]]}}, {"type": "Feature", "properties": {"statcode": "BU03940126", "statnaam": "Hoofddorp De President"}, "geometry": {"type": "MultiPolygon", "coordinates": [[[[4.68607, 52.28744], [4.68343, 52.28651], [4.67886, 52.2836], [4.67276, 52.28142], [4.67161, 52.28019], [4.66724, 52.281], [4.66168, 52.28395], [4.67123, 52.29061], [4.67515, 52.29334], [4.68607, 52.28744]]]]}}, {"type": "Feature", "properties": {"statcode": "BU03940127", "statnaam": "Hoofddorp Buiten"}, "geometry": {"type": "MultiPolygon", "coordinates": [[[[4.62836, 52.30206], [4.63571, 52.29804], [4.63338, 52.2964], [4.63531, 52.29536], [4.63389, 52.29371], [4.62401, 52.29904], [4.62056, 52.29664], [4.61869, 52.30223], [4.61982, 52.30405], [4.62278, 52.30615], [4.62836, 52.30206]]]]}}, {"type": "Feature", "properties": {"statcode": "BU03940230", "statnaam": "Nieuw-Vennep Oost"}, "geometry": {"type": "MultiPolygon", "coordinates": [[[[4.6571, 52.2666], [4.64555, 52.25859], [4.63413, 52.2647], [4.63904, 52.26813], [4.64564, 52.27274], [4.6571, 52.2666]]]]}}, {"type": "Feature", "properties": {"statcode": "BU03940231", "statnaam": "Nieuw-Vennep Welgelegen"}, "geometry": {"type": "MultiPolygon", "coordinates": [[[[4.63904, 52.26813], [4.63413, 52.2647], [4.62277, 52.27079], [4.62733, 52.27399], [4.63904, 52.26813]]]]}}, {"type": "Feature", "properties": {"statcode": "BU03940232", "statnaam": "Nieuw-Vennep Welgelegen Noord"}, "geometry": {"type": "MultiPolygon", "coordinates": [[[[4.64564, 52.27274], [4.63904, 52.26813], [4.62733, 52.27399], [4.63431, 52.27888], [4.64564, 52.27274]]]]}}, {"type": "Feature", "properties": {"statcode": "BU03940233", "statnaam": "Nieuw-Vennep West"}, "geometry": {"type": "MultiPolygon", "coordinates": [[[[4.63413, 52.2647], [4.62832, 52.26065], [4.61686, 52.26664], [4.62277, 52.27079], [4.63413, 52.2647]]]]}}, {"type": "Feature", "properties": {"statcode": "BU03940234", "statnaam": "Nieuw-Vennep Zuid"}, "geometry": {"type": "MultiPolygon", "coordinates": [[[[4.64555, 52.25859], [4.64342, 52.2571], [4.64143, 52.25571], [4.63889, 52.25398], [4.6269, 52.25965], [4.62832, 52.26065], [4.63413, 52.2647], [4.64555, 52.25859]]]]}}, {"type": "Feature", "properties": {"statcode": "BU03940235", "statnaam": "Nieuw-Vennep Linquenda"}, "geometry": {"type": "MultiPolygon", "coordinates": [[[[4.62832, 52.26065], [4.6269, 52.25965], [4.62233, 52.25646], [4.61102, 52.26255], [4.61686, 52.26664], [4.62832, 52.26065]]]]}}, {"type": "Feature", "properties": {"statcode": "BU03940236", "statnaam": "Nieuw-Vennep Getsewoud Noord"}, "geometry": {"type": "MultiPolygon", "coordinates": [[[[4.63431, 52.27888], [4.62733, 52.27399], [4.62277, 52.27079], [4.6116, 52.27679], [4.62313, 52.28487], [4.63431, 52.27888]]]]}}, {"type": "Feature", "properties": {"statcode": "BU03940237", "statnaam": "Nieuw-Vennep Getsewoud Zuid"}, "geometry": {"type": "MultiPolygon", "coordinates": [[[[4.62277, 52.27079], [4.61686, 52.26664], [4.61102, 52.26255], [4.59985, 52.26856], [4.6116, 52.27679], [4.62277, 52.27079]]]]}}, {"type": "Feature", "properties": {"statcode": "BU03940239", "statnaam": "Nieuw-Vennep Wilhelminahoeve"}, "geometry": {"type": "MultiPolygon", "coordinates": [[[[4.63889, 52.25398], [4.63321, 52.25057], [4.62918, 52.25194], [4.62131, 52.25162], [4.61703, 52.25275], [4.62233, 52.25646], [4.6269, 52.25965], [4.63889, 52.25398]]]]}}, {"type": "Feature", "properties": {"statcode": "BU03940240", "statnaam": "Nieuw-Vennep Omgeving"}, "geometry": {"type": "MultiPolygon", "coordinates": [[[[4.63531, 52.29536], [4.63338, 52.2964], [4.63571, 52.29804], [4.63802, 52.29676], [4.63975, 52.29797], [4.64094, 52.29732], [4.64304, 52.29598], [4.64152, 52.29488], [4.66168, 52.28395], [4.66724, 52.281], [4.67161, 52.28019], [4.67394, 52.27952], [4.69584, 52.26731], [4.68831, 52.26202], [4.68656, 52.26276], [4.68208, 52.25962], [4.683, 52.25769], [4.66747, 52.24685], [4.66153, 52.2427], [4.65157, 52.23561], [4.63827, 52.22642], [4.63036, 52.23067], [4.62904, 52.23133], [4.62397, 52.23151], [4.61432, 52.23667], [4.61529, 52.23873], [4.59346, 52.25038], [4.59932, 52.25447], [4.57734, 52.26621], [4.5834, 52.27046], [4.58568, 52.26925], [4.58995, 52.27383], [4.61543, 52.29164], [4.61942, 52.29462], [4.62056, 52.29664], [4.62401, 52.29904], [4.63389, 52.29371], [4.63531, 52.29536]], [[4.59985, 52.26856], [4.61102, 52.26255], [4.62233, 52.25646], [4.61703, 52.25275], [4.62131, 52.25162], [4.62918, 52.25194], [4.63321, 52.25057], [4.63889, 52.25398], [4.64143, 52.25571], [4.65258, 52.24969], [4.65612, 52.25215], [4.65675, 52.25261], [4.64555, 52.25859], [4.6571, 52.2666], [4.64564, 52.27274], [4.63431, 52.27888], [4.62313, 52.28487], [4.6116, 52.27679], [4.59985, 52.26856]]]]}}, {"type": "Feature", "properties": {"statcode": "BU03940241", "statnaam": "Nieuw-Vennep 't Kabel"}, "geometry": {"type": "MultiPolygon", "coordinates": [[[[4.65675, 52.25261], [4.65612, 52.25215], [4.65258, 52.24969], [4.64143, 52.25571], [4.64342, 52.2571], [4.64555, 52.25859], [4.65675, 52.25261]]]]}}, {"type": "Feature", "properties": {"statcode": "BU03940343", "statnaam": "Zwanenburg West"}, "geometry": {"type": "MultiPolygon", "coordinates": [[[[4.73, 52.3856], [4.73882, 52.37927], [4.73724, 52.37828], [4.73417, 52.37616], [4.7306, 52.37807], [4.73219, 52.37918], [4.72647, 52.38225], [4.72576, 52.38176], [4.72149, 52.38463], [4.73, 52.3856]]]]}}, {"type": "Feature", "properties": {"statcode": "BU03940344", "statnaam": "Zwanenburg Zuidwest"}, "geometry": {"type": "MultiPolygon", "coordinates": [[[[4.74394, 52.38072], [4.74287, 52.37972], [4.74666, 52.37792], [4.7463, 52.37767], [4.74292, 52.37523], [4.73724, 52.37828], [4.73882, 52.37927], [4.74253, 52.38185], [4.74394, 52.38072]]]]}}, {"type": "Feature", "properties": {"statcode": "BU03940345", "statnaam": "Zwanenburg Zuidoost"}, "geometry": {"type": "MultiPolygon", "coordinates": [[[[4.752, 52.37521], [4.74664, 52.37292], [4.74292, 52.37523], [4.7463, 52.37767], [4.752, 52.37521]]]]}}, {"type": "Feature", "properties": {"statcode": "BU03940346", "statnaam": "Zwanenburg Oost"}, "geometry": {"type": "MultiPolygon", "coordinates": [[[[4.75711, 52.37507], [4.75756, 52.3719], [4.75712, 52.36997], [4.75631, 52.37013], [4.75535, 52.36921], [4.74961, 52.37228], [4.74719, 52.37058], [4.745, 52.37178], [4.74664, 52.37292], [4.752, 52.37521], [4.75546, 52.37758], [4.75711, 52.37507]]]]}}, {"type": "Feature", "properties": {"statcode": "BU03940347", "statnaam": "Zwanenburg Noordoost"}, "geometry": {"type": "MultiPolygon", "coordinates": [[[[4.75198, 52.38039], [4.75546, 52.37758], [4.752, 52.37521], [4.7463, 52.37767], [4.74666, 52.37792], [4.75035, 52.3809], [4.75198, 52.38039]]]]}}, {"type": "Feature", "properties": {"statcode": "BU03940348", "statnaam": "Zwanenburg Noordwest"}, "geometry": {"type": "MultiPolygon", "coordinates": [[[[4.74512, 52.38313], [4.75035, 52.3809], [4.74666, 52.37792], [4.74287, 52.37972], [4.74394, 52.38072], [4.74253, 52.38185], [4.74512, 52.38313]]]]}}, {"type": "Feature", "properties": {"statcode": "BU03940349", "statnaam": "Zwanenburg Dijk"}, "geometry": {"type": "MultiPolygon", "coordinates": [[[[4.73226, 52.38636], [4.74833, 52.38291], [4.75444, 52.38003], [4.75672, 52.37784], [4.75838, 52.37402], [4.75847, 52.37109], [4.75784, 52.36872], [4.75486, 52.36742], [4.75535, 52.36921], [4.75631, 52.37013], [4.75712, 52.36997], [4.75756, 52.3719], [4.75711, 52.37507], [4.75546, 52.37758], [4.75198, 52.38039], [4.75035, 52.3809], [4.74512, 52.38313], [4.74253, 52.38185], [4.73882, 52.37927], [4.73, 52.3856], [4.72149, 52.38463], [4.72118, 52.38498], [4.72877, 52.3863], [4.73226, 52.38636]]]]}}, {"type": "Feature", "properties": {"statcode": "BU03940350", "statnaam": "Zwanenburg Omgeving"}, "geometry": {"type": "MultiPolygon", "coordinates": [[[[4.72149, 52.38463], [4.72576, 52.38176], [4.72647, 52.38225], [4.73219, 52.37918], [4.7306, 52.37807], [4.73417, 52.37616], [4.73724, 52.37828], [4.74292, 52.37523], [4.74664, 52.37292], [4.745, 52.37178], [4.74719, 52.37058], [4.74961, 52.37228], [4.75535, 52.36921], [4.75486, 52.36742], [4.74647, 52.36286], [4.74001, 52.35689], [4.72117, 52.36702], [4.71057, 52.3728], [4.70885, 52.37557], [4.70773, 52.38266], [4.72118, 52.38498], [4.72149, 52.38463]]]]}}, {"type": "Feature", "properties": {"statcode": "BU03940429", "statnaam": "Lijnden Omgeving"}, "geometry": {"type": "MultiPolygon", "coordinates": [[[[4.75588, 52.36181], [4.75433, 52.36105], [4.7538, 52.3592], [4.74832, 52.3585], [4.74522, 52.35639], [4.754, 52.35222], [4.75381, 52.35054], [4.75683, 52.34846], [4.76109, 52.35142], [4.76237, 52.35148], [4.76581, 52.35091], [4.77122, 52.34885], [4.77037, 52.34807], [4.7673, 52.34613], [4.76332, 52.34512], [4.761, 52.34121], [4.7595, 52.34201], [4.75793, 52.34091], [4.75772, 52.33677], [4.74565, 52.32835], [4.74622, 52.33452], [4.73975, 52.33792], [4.73497, 52.33467], [4.73392, 52.32319], [4.73315, 52.32229], [4.72666, 52.32731], [4.71382, 52.3341], [4.71654, 52.33631], [4.73614, 52.34995], [4.74001, 52.35689], [4.74647, 52.36286], [4.75486, 52.36742], [4.75784, 52.36872], [4.75588, 52.36181]]]]}}, {"type": "Feature", "properties": {"statcode": "BU03940465", "statnaam": "Lijnden"}, "geometry": {"type": "MultiPolygon", "coordinates": [[[[4.75588, 52.36181], [4.75484, 52.35791], [4.75568, 52.35615], [4.76739, 52.35127], [4.7733, 52.34892], [4.77274, 52.3484], [4.77186, 52.34731], [4.77037, 52.34807], [4.77122, 52.34885], [4.76581, 52.35091], [4.76237, 52.35148], [4.76109, 52.35142], [4.75683, 52.34846], [4.75381, 52.35054], [4.754, 52.35222], [4.74522, 52.35639], [4.74832, 52.3585], [4.7538, 52.3592], [4.75433, 52.36105], [4.75588, 52.36181]]]]}}, {"type": "Feature", "properties": {"statcode": "BU03940466", "statnaam": "Boesingheliede"}, "geometry": {"type": "MultiPolygon", "coordinates": [[[[4.74001, 52.35689], [4.73614, 52.34995], [4.71654, 52.33631], [4.71414, 52.3376], [4.71494, 52.34639], [4.71319, 52.34733], [4.71544, 52.36552], [4.71804, 52.36483], [4.72117, 52.36702], [4.74001, 52.35689]]]]}}, {"type": "Feature", "properties": {"statcode": "BU03940551", "statnaam": "Badhoevedorp Omgeving"}, "geometry": {"type": "MultiPolygon", "coordinates": [[[[4.761, 52.34121], [4.77386, 52.33428], [4.77834, 52.3319], [4.78185, 52.32998], [4.78761, 52.32659], [4.78765, 52.32575], [4.76606, 52.32316], [4.76152, 52.32178], [4.75545, 52.31886], [4.74518, 52.3184], [4.74565, 52.32835], [4.75772, 52.33677], [4.75793, 52.34091], [4.7595, 52.34201], [4.761, 52.34121]]]]}}, {"type": "Feature", "properties": {"statcode": "BU03940552", "statnaam": "Badhoevedorp Noordwest"}, "geometry": {"type": "MultiPolygon", "coordinates": [[[[4.77274, 52.3484], [4.78642, 52.34302], [4.78214, 52.34003], [4.77549, 52.3433], [4.77027, 52.34592], [4.77186, 52.34731], [4.77274, 52.3484]]]]}}, {"type": "Feature", "properties": {"statcode": "BU03940553", "statnaam": "Badhoevedorp West"}, "geometry": {"type": "MultiPolygon", "coordinates": [[[[4.78214, 52.34003], [4.77849, 52.33749], [4.7742, 52.33959], [4.77437, 52.34236], [4.77549, 52.3433], [4.78214, 52.34003]]]]}}, {"type": "Feature", "properties": {"statcode": "BU03940554", "statnaam": "Badhoevedorp Bouwlust"}, "geometry": {"type": "MultiPolygon", "coordinates": [[[[4.77037, 52.34807], [4.77186, 52.34731], [4.77027, 52.34592], [4.77549, 52.3433], [4.77437, 52.34236], [4.7742, 52.33959], [4.77849, 52.33749], [4.77386, 52.33428], [4.761, 52.34121], [4.76332, 52.34512], [4.7673, 52.34613], [4.77037, 52.34807]]]]}}, {"type": "Feature", "properties": {"statcode": "BU03940556", "statnaam": "Badhoevedorp Zuid"}, "geometry": {"type": "MultiPolygon", "coordinates": [[[[4.78281, 52.33521], [4.77834, 52.3319], [4.77386, 52.33428], [4.77849, 52.33749], [4.78281, 52.33521]]]]}}, {"type": "Feature", "properties": {"statcode": "BU03940557", "statnaam": "Badhoevedorp Centrum"}, "geometry": {"type": "MultiPolygon", "coordinates": [[[[4.79055, 52.34133], [4.79191, 52.34004], [4.78788, 52.33872], [4.78281, 52.33521], [4.77849, 52.33749], [4.78214, 52.34003], [4.78642, 52.34302], [4.79055, 52.34133]]]]}}, {"type": "Feature", "properties": {"statcode": "BU03940558", "statnaam": "Badhoevedorp Noordoost"}, "geometry": {"type": "MultiPolygon", "coordinates": [[[[4.79747, 52.33468], [4.79743, 52.33457], [4.79385, 52.33311], [4.79099, 52.33596], [4.78788, 52.33872], [4.79191, 52.34004], [4.79747, 52.33468]]]]}}, {"type": "Feature", "properties": {"statcode": "BU03940559", "statnaam": "Badhoevedorp Antoniushoeve"}, "geometry": {"type": "MultiPolygon", "coordinates": [[[[4.79385, 52.33311], [4.79743, 52.33457], [4.80225, 52.33256], [4.79509, 52.32869], [4.78789, 52.33253], [4.78714, 52.33361], [4.78632, 52.33545], [4.79099, 52.33596], [4.79385, 52.33311]]]]}}, {"type": "Feature", "properties": {"statcode": "BU03940560", "statnaam": "Badhoevedorp Oost"}, "geometry": {"type": "MultiPolygon", "coordinates": [[[[4.79099, 52.33596], [4.78632, 52.33545], [4.78714, 52.33361], [4.78185, 52.32998], [4.77834, 52.3319], [4.78281, 52.33521], [4.78788, 52.33872], [4.79099, 52.33596]]]]}}, {"type": "Feature", "properties": {"statcode": "BU03940561", "statnaam": "Badhoevedorp Schuilhoeve"}, "geometry": {"type": "MultiPolygon", "coordinates": [[[[4.78789, 52.33253], [4.79509, 52.32869], [4.79863, 52.32682], [4.79408, 52.32327], [4.78765, 52.32575], [4.78761, 52.32659], [4.78185, 52.32998], [4.78714, 52.33361], [4.78789, 52.33253]]]]}}, {"type": "Feature", "properties": {"statcode": "BU03940562", "statnaam": "Badhoevedorp Dijk"}, "geometry": {"type": "MultiPolygon", "coordinates": [[[[4.7808, 52.34585], [4.7911, 52.3415], [4.79733, 52.3356], [4.79822, 52.33504], [4.79747, 52.33468], [4.79191, 52.34004], [4.79055, 52.34133], [4.78642, 52.34302], [4.77274, 52.3484], [4.7733, 52.34892], [4.7808, 52.34585]]]]}}, {"type": "Feature", "properties": {"statcode": "BU03940564", "statnaam": "Badhoevedorp Nieuwe Meer"}, "geometry": {"type": "MultiPolygon", "coordinates": [[[[4.7988, 52.3348], [4.80305, 52.33303], [4.8164, 52.32741], [4.81712, 52.32693], [4.81875, 52.32556], [4.81906, 52.32332], [4.81612, 52.31349], [4.81715, 52.31197], [4.81708, 52.31182], [4.81227, 52.31524], [4.80505, 52.32269], [4.79863, 52.32682], [4.79509, 52.32869], [4.80225, 52.33256], [4.79743, 52.33457], [4.79747, 52.33468], [4.79822, 52.33504], [4.7988, 52.3348]]]]}}, {"type": "Feature", "properties": {"statcode": "BU03940674", "statnaam": "Schiphol-Rijk"}, "geometry": {"type": "MultiPolygon", "coordinates": [[[[4.77417, 52.29056], [4.77432, 52.28574], [4.77308, 52.28451], [4.77456, 52.282], [4.77011, 52.27998], [4.76805, 52.27977], [4.7648, 52.27795], [4.75956, 52.27815], [4.75648, 52.27759], [4.75454, 52.27637], [4.75656, 52.27528], [4.75468, 52.27476], [4.75071, 52.27448], [4.7486, 52.27558], [4.74949, 52.2762], [4.74811, 52.27694], [4.747, 52.27613], [4.74214, 52.27878], [4.74839, 52.28294], [4.75105, 52.28338], [4.75501, 52.28298], [4.75795, 52.28367], [4.76558, 52.28727], [4.772, 52.29173], [4.77417, 52.29056]]]]}}, {"type": "Feature", "properties": {"statcode": "BU03940675", "statnaam": "Oude Meer"}, "geometry": {"type": "MultiPolygon", "coordinates": [[[[4.79325, 52.2941], [4.78834, 52.28853], [4.77991, 52.28313], [4.77102, 52.27937], [4.77011, 52.27998], [4.77456, 52.282], [4.77308, 52.28451], [4.77432, 52.28574], [4.77935, 52.28557], [4.78161, 52.29528], [4.78554, 52.29789], [4.79325, 52.2941]]]]}}, {"type": "Feature", "properties": {"statcode": "BU03940676", "statnaam": "Aalsmeerderbrug"}, "geometry": {"type": "MultiPolygon", "coordinates": [[[[4.77102, 52.27937], [4.76511, 52.27678], [4.75688, 52.2744], [4.75132, 52.27369], [4.7467, 52.27225], [4.74562, 52.27164], [4.74377, 52.26984], [4.73923, 52.26761], [4.73457, 52.26655], [4.7339, 52.26715], [4.73256, 52.27018], [4.73523, 52.27171], [4.73912, 52.27071], [4.74194, 52.27159], [4.74729, 52.27471], [4.74813, 52.27552], [4.747, 52.27613], [4.74811, 52.27694], [4.74949, 52.2762], [4.7486, 52.27558], [4.75071, 52.27448], [4.75468, 52.27476], [4.75656, 52.27528], [4.75454, 52.27637], [4.75648, 52.27759], [4.75956, 52.27815], [4.7648, 52.27795], [4.76805, 52.27977], [4.77011, 52.27998], [4.77102, 52.27937]]]]}}, {"type": "Feature", "properties": {"statcode": "BU03940677", "statnaam": "Rozenburg Noord"}, "geometry": {"type": "MultiPolygon", "coordinates": [[[[4.73898, 52.28372], [4.74333, 52.28567], [4.74839, 52.28294], [4.74214, 52.27878], [4.7259, 52.28759], [4.72835, 52.2893], [4.73898, 52.28372]]]]}}, {"type": "Feature", "properties": {"statcode": "BU03940678", "statnaam": "Rozenburg Omgeving"}, "geometry": {"type": "MultiPolygon", "coordinates": [[[[4.74214, 52.27878], [4.747, 52.27613], [4.74813, 52.27552], [4.74729, 52.27471], [4.74194, 52.27159], [4.73912, 52.27071], [4.73523, 52.27171], [4.73256, 52.27018], [4.71464, 52.27977], [4.71524, 52.28019], [4.7259, 52.28759], [4.74214, 52.27878]]]]}}, {"type": "Feature", "properties": {"statcode": "BU03940779", "statnaam": "Rijsenhout Dorp"}, "geometry": {"type": "MultiPolygon", "coordinates": [[[[4.72039, 52.2611], [4.7222, 52.2612], [4.71562, 52.25743], [4.70969, 52.26075], [4.70982, 52.26233], [4.71255, 52.26422], [4.72039, 52.2611]]]]}}, {"type": "Feature", "properties": {"statcode": "BU03940780", "statnaam": "Rijsenhout Zuid"}, "geometry": {"type": "MultiPolygon", "coordinates": [[[[4.71028, 52.26414], [4.70862, 52.26299], [4.70982, 52.26233], [4.70969, 52.26075], [4.71562, 52.25743], [4.71193, 52.25728], [4.70957, 52.25856], [4.70266, 52.25283], [4.69992, 52.25542], [4.70803, 52.26109], [4.7034, 52.2636], [4.70367, 52.26484], [4.70599, 52.26647], [4.71028, 52.26414]]]]}}, {"type": "Feature", "properties": {"statcode": "BU03940781", "statnaam": "Rijsenhout Dijk"}, "geometry": {"type": "MultiPolygon", "coordinates": [[[[4.73457, 52.26655], [4.7298, 52.26516], [4.72588, 52.26334], [4.72079, 52.25878], [4.71322, 52.2554], [4.70527, 52.24676], [4.70187, 52.24447], [4.69551, 52.24322], [4.6943, 52.24446], [4.69623, 52.24579], [4.69863, 52.2445], [4.70046, 52.24478], [4.70413, 52.24718], [4.70906, 52.25276], [4.70793, 52.25459], [4.71193, 52.25728], [4.71562, 52.25743], [4.7222, 52.2612], [4.72467, 52.26385], [4.72972, 52.26609], [4.7339, 52.26715], [4.73457, 52.26655]]]]}}, {"type": "Feature", "properties": {"statcode": "BU03940782", "statnaam": "Rijsenhout Omgeving"}, "geometry": {"type": "MultiPolygon", "coordinates": [[[[4.73256, 52.27018], [4.7339, 52.26715], [4.72972, 52.26609], [4.72467, 52.26385], [4.7222, 52.2612], [4.72039, 52.2611], [4.71255, 52.26422], [4.70982, 52.26233], [4.70862, 52.26299], [4.71028, 52.26414], [4.70599, 52.26647], [4.70367, 52.26484], [4.7034, 52.2636], [4.70803, 52.26109], [4.69992, 52.25542], [4.70266, 52.25283], [4.70957, 52.25856], [4.71193, 52.25728], [4.70793, 52.25459], [4.70906, 52.25276], [4.70413, 52.24718], [4.70046, 52.24478], [4.69863, 52.2445], [4.69623, 52.24579], [4.6943, 52.24446], [4.6886, 52.24752], [4.68473, 52.24483], [4.68658, 52.24383], [4.68318, 52.2415], [4.67824, 52.24087], [4.66747, 52.24685], [4.683, 52.25769], [4.68808, 52.25734], [4.69146, 52.2591], [4.69242, 52.25977], [4.68881, 52.26175], [4.71464, 52.27977], [4.73256, 52.27018]]]]}}, {"type": "Feature", "properties": {"statcode": "BU03940883", "statnaam": "Burgerveen"}, "geometry": {"type": "MultiPolygon", "coordinates": [[[[4.6943, 52.24446], [4.69551, 52.24322], [4.69271, 52.24272], [4.68125, 52.23914], [4.67707, 52.23439], [4.66153, 52.2427], [4.66747, 52.24685], [4.67824, 52.24087], [4.68318, 52.2415], [4.68658, 52.24383], [4.68473, 52.24483], [4.6886, 52.24752], [4.6943, 52.24446]]]]}}, {"type": "Feature", "properties": {"statcode": "BU03940884", "statnaam": "Leimuiderbrug"}, "geometry": {"type": "MultiPolygon", "coordinates": [[[[4.67707, 52.23439], [4.67035, 52.23076], [4.66835, 52.22958], [4.66585, 52.228], [4.65157, 52.23561], [4.66153, 52.2427], [4.67707, 52.23439]]]]}}, {"type": "Feature", "properties": {"statcode": "BU03940885", "statnaam": "Weteringbrug"}, "geometry": {"type": "MultiPolygon", "coordinates": [[[[4.66585, 52.228], [4.65847, 52.2261], [4.65385, 52.22435], [4.64718, 52.22121], [4.64402, 52.22065], [4.63857, 52.21849], [4.63263, 52.21618], [4.62584, 52.2153], [4.62717, 52.21815], [4.63036, 52.23067], [4.63827, 52.22642], [4.65157, 52.23561], [4.66585, 52.228]]]]}}, {"type": "Feature", "properties": {"statcode": "BU03940986", "statnaam": "Abbenes"}, "geometry": {"type": "MultiPolygon", "coordinates": [[[[4.58829, 52.23853], [4.59016, 52.23821], [4.59462, 52.23525], [4.59202, 52.22976], [4.58797, 52.23192], [4.5877, 52.23348], [4.58909, 52.23456], [4.58563, 52.23657], [4.58319, 52.23656], [4.58317, 52.23871], [4.58829, 52.23853]]]]}}, {"type": "Feature", "properties": {"statcode": "BU03940987", "statnaam": "Abbenes Omgeving"}, "geometry": {"type": "MultiPolygon", "coordinates": [[[[4.61432, 52.23667], [4.62397, 52.23151], [4.62904, 52.23133], [4.63036, 52.23067], [4.62717, 52.21815], [4.62515, 52.21655], [4.6211, 52.21677], [4.61606, 52.2153], [4.60258, 52.21543], [4.58276, 52.22015], [4.57587, 52.21849], [4.57198, 52.22059], [4.57009, 52.21977], [4.56, 52.22529], [4.56029, 52.22714], [4.56241, 52.22863], [4.59346, 52.25038], [4.61529, 52.23873], [4.61432, 52.23667]], [[4.58319, 52.23656], [4.58563, 52.23657], [4.58909, 52.23456], [4.5877, 52.23348], [4.58797, 52.23192], [4.59202, 52.22976], [4.59462, 52.23525], [4.59016, 52.23821], [4.58829, 52.23853], [4.58317, 52.23871], [4.58319, 52.23656]]]]}}, {"type": "Feature", "properties": {"statcode": "BU03940988", "statnaam": "Buitenkaag"}, "geometry": {"type": "MultiPolygon", "coordinates": [[[[4.57376, 52.21726], [4.5722, 52.217], [4.55843, 52.2188], [4.55661, 52.21927], [4.55393, 52.22221], [4.55047, 52.22675], [4.55362, 52.23093], [4.55561, 52.23202], [4.56241, 52.22863], [4.56029, 52.22714], [4.56, 52.22529], [4.57009, 52.21977], [4.57376, 52.21726]]]]}}, {"type": "Feature", "properties": {"statcode": "BU03940989", "statnaam": "Abbenes Dijk"}, "geometry": {"type": "MultiPolygon", "coordinates": [[[[4.57198, 52.22059], [4.57587, 52.21849], [4.58276, 52.22015], [4.60258, 52.21543], [4.61606, 52.2153], [4.6211, 52.21677], [4.62515, 52.21655], [4.62717, 52.21815], [4.62584, 52.2153], [4.62584, 52.2153], [4.62248, 52.21492], [4.61844, 52.21448], [4.60276, 52.21456], [4.59818, 52.21555], [4.58355, 52.21887], [4.57376, 52.21726], [4.57009, 52.21977], [4.57198, 52.22059]]]]}}, {"type": "Feature", "properties": {"statcode": "BU03941090", "statnaam": "Lisserbroek"}, "geometry": {"type": "MultiPolygon", "coordinates": [[[[4.56505, 52.24142], [4.56535, 52.24235], [4.56621, 52.24501], [4.56783, 52.25075], [4.56876, 52.25567], [4.56954, 52.25986], [4.56845, 52.26471], [4.56825, 52.26555], [4.57108, 52.26524], [4.57317, 52.26119], [4.5861, 52.2543], [4.58116, 52.24596], [4.57723, 52.24441], [4.57072, 52.24418], [4.56505, 52.24142]]]]}}, {"type": "Feature", "properties": {"statcode": "BU03941091", "statnaam": "Lisserbroek Omgeving"}, "geometry": {"type": "MultiPolygon", "coordinates": [[[[4.58995, 52.27383], [4.58568, 52.26925], [4.5834, 52.27046], [4.57734, 52.26621], [4.59932, 52.25447], [4.59346, 52.25038], [4.56241, 52.22863], [4.55561, 52.23202], [4.55562, 52.23202], [4.56078, 52.23306], [4.56227, 52.23384], [4.56292, 52.23472], [4.56418, 52.23863], [4.56505, 52.24142], [4.57072, 52.24418], [4.57723, 52.24441], [4.58116, 52.24596], [4.5861, 52.2543], [4.57317, 52.26119], [4.57108, 52.26524], [4.56825, 52.26555], [4.56804, 52.26652], [4.56834, 52.26855], [4.57275, 52.27124], [4.57712, 52.2738], [4.57719, 52.27384], [4.58414, 52.27792], [4.58487, 52.27833], [4.58995, 52.27383]]]]}}, {"type": "Feature", "properties": {"statcode": "BU03941192", "statnaam": "Beinsdorp Omgeving"}, "geometry": {"type": "MultiPolygon", "coordinates": [[[[4.61543, 52.29164], [4.58995, 52.27383], [4.58487, 52.27833], [4.58821, 52.28023], [4.58887, 52.28111], [4.58954, 52.28248], [4.59059, 52.28181], [4.59258, 52.28485], [4.59422, 52.28528], [4.59766, 52.28345], [4.60036, 52.28294], [4.5956, 52.2908], [4.5956, 52.2908], [4.59636, 52.29184], [4.59648, 52.29445], [4.59824, 52.29774], [4.59983, 52.29987], [4.60233, 52.30324], [4.60441, 52.30242], [4.60219, 52.29912], [4.60258, 52.29851], [4.61543, 52.29164]]]]}}, {"type": "Feature", "properties": {"statcode": "BU03941193", "statnaam": "Beinsdorp"}, "geometry": {"type": "MultiPolygon", "coordinates": [[[[4.5956, 52.2908], [4.60036, 52.28294], [4.59766, 52.28345], [4.59422, 52.28528], [4.59258, 52.28485], [4.59059, 52.28181], [4.58954, 52.28248], [4.59134, 52.28596], [4.59374, 52.2887], [4.5956, 52.2908], [4.5956, 52.2908]]]]}}, {"type": "Feature", "properties": {"statcode": "BU03941294", "statnaam": "Zwaanshoek"}, "geometry": {"type": "MultiPolygon", "coordinates": [[[[4.62461, 52.31337], [4.61666, 52.30781], [4.61026, 52.31088], [4.61153, 52.31224], [4.61168, 52.31356], [4.61153, 52.31834], [4.61138, 52.3222], [4.61139, 52.32225], [4.61522, 52.32071], [4.61376, 52.31922], [4.62461, 52.31337]]]]}}, {"type": "Feature", "properties": {"statcode": "BU03941295", "statnaam": "Zwaanshoek Omgeving"}, "geometry": {"type": "MultiPolygon", "coordinates": [[[[4.63459, 52.32717], [4.63908, 52.3264], [4.64141, 52.32657], [4.64805, 52.32974], [4.64806, 52.32975], [4.65344, 52.32664], [4.6453, 52.32195], [4.62278, 52.30615], [4.61982, 52.30405], [4.61869, 52.30223], [4.62056, 52.29664], [4.61942, 52.29462], [4.61543, 52.29164], [4.60258, 52.29851], [4.60219, 52.29912], [4.60441, 52.30242], [4.60233, 52.30324], [4.60474, 52.30628], [4.61026, 52.31088], [4.61666, 52.30781], [4.62461, 52.31337], [4.61376, 52.31922], [4.61522, 52.32071], [4.61139, 52.32225], [4.61166, 52.32542], [4.61347, 52.32806], [4.61656, 52.33147], [4.6201, 52.33372], [4.6201, 52.33372], [4.6278, 52.33076], [4.63459, 52.32717]]]]}}, {"type": "Feature", "properties": {"statcode": "BU03941397", "statnaam": "Cruquius"}, "geometry": {"type": "MultiPolygon", "coordinates": [[[[4.65716, 52.34294], [4.65491, 52.34196], [4.65305, 52.34015], [4.64884, 52.33901], [4.63726, 52.33722], [4.6392, 52.33471], [4.64805, 52.32974], [4.64141, 52.32657], [4.63908, 52.3264], [4.63459, 52.32717], [4.6278, 52.33076], [4.6201, 52.33372], [4.6201, 52.33372], [4.63058, 52.33753], [4.63965, 52.33891], [4.64763, 52.34007], [4.65166, 52.34156], [4.65641, 52.34364], [4.65716, 52.34294]]]]}}, {"type": "Feature", "properties": {"statcode": "BU03941398", "statnaam": "Cruquius Omgeving"}, "geometry": {"type": "MultiPolygon", "coordinates": [[[[4.659, 52.34259], [4.66316, 52.34019], [4.66368, 52.34056], [4.6686, 52.3379], [4.66474, 52.33522], [4.66976, 52.33252], [4.66576, 52.33088], [4.65933, 52.32935], [4.65456, 52.32723], [4.66011, 52.32422], [4.65917, 52.32356], [4.65908, 52.32361], [4.65344, 52.32664], [4.64806, 52.32975], [4.6559, 52.33522], [4.64884, 52.33901], [4.65305, 52.34015], [4.65491, 52.34196], [4.65716, 52.34294], [4.659, 52.34259]]]]}}, {"type": "Feature", "properties": {"statcode": "BU03941399", "statnaam": "Cruquius Cruquiushoeve"}, "geometry": {"type": "MultiPolygon", "coordinates": [[[[4.64884, 52.33901], [4.6559, 52.33522], [4.64806, 52.32975], [4.64805, 52.32974], [4.6392, 52.33471], [4.63726, 52.33722], [4.64884, 52.33901]]]]}}, {"type": "Feature", "properties": {"statcode": "BU03941567", "statnaam": "Vijfhuizen"}, "geometry": {"type": "MultiPolygon", "coordinates": [[[[4.68315, 52.35416], [4.68864, 52.35123], [4.68264, 52.34701], [4.67725, 52.35012], [4.67372, 52.34765], [4.67229, 52.34913], [4.67105, 52.3494], [4.66816, 52.34772], [4.65967, 52.34449], [4.65923, 52.34487], [4.66081, 52.34554], [4.67148, 52.35015], [4.67563, 52.35288], [4.67647, 52.35618], [4.68315, 52.35416]]]]}}, {"type": "Feature", "properties": {"statcode": "BU03941569", "statnaam": "Vijfhuizen Stellinghof"}, "geometry": {"type": "MultiPolygon", "coordinates": [[[[4.68264, 52.34701], [4.67296, 52.34054], [4.6714, 52.34603], [4.66995, 52.34501], [4.66882, 52.34563], [4.66816, 52.34772], [4.67105, 52.3494], [4.67229, 52.34913], [4.67372, 52.34765], [4.67725, 52.35012], [4.68264, 52.34701]]]]}}, {"type": "Feature", "properties": {"statcode": "BU03941570", "statnaam": "Vijfhuizen Omgeving"}, "geometry": {"type": "MultiPolygon", "coordinates": [[[[4.70885, 52.37557], [4.71057, 52.3728], [4.72117, 52.36702], [4.71804, 52.36483], [4.71544, 52.36552], [4.71086, 52.36801], [4.70952, 52.36514], [4.70676, 52.33479], [4.68852, 52.34405], [4.67103, 52.33184], [4.66976, 52.33252], [4.66474, 52.33522], [4.6686, 52.3379], [4.66368, 52.34056], [4.66316, 52.34019], [4.659, 52.34259], [4.65716, 52.34294], [4.65641, 52.34364], [4.65923, 52.34487], [4.65967, 52.34449], [4.66816, 52.34772], [4.66882, 52.34563], [4.66995, 52.34501], [4.6714, 52.34603], [4.67296, 52.34054], [4.68264, 52.34701], [4.68864, 52.35123], [4.68315, 52.35416], [4.67647, 52.35618], [4.67524, 52.35947], [4.67209, 52.36816], [4.67138, 52.37037], [4.67138, 52.37038], [4.68733, 52.37096], [4.6953, 52.37656], [4.69358, 52.37748], [4.69325, 52.37929], [4.69657, 52.37987], [4.70065, 52.37999], [4.70885, 52.37557]]]]}}, {"type": "Feature", "properties": {"statcode": "BU03941571", "statnaam": "Vijfhuizen Nieuwebrug"}, "geometry": {"type": "MultiPolygon", "coordinates": [[[[4.70885, 52.37557], [4.70065, 52.37999], [4.69657, 52.37987], [4.69325, 52.37929], [4.69358, 52.37748], [4.6953, 52.37656], [4.68733, 52.37096], [4.67138, 52.37038], [4.67271, 52.37422], [4.67738, 52.37709], [4.69175, 52.37987], [4.70773, 52.38266], [4.70885, 52.37557]]]]}}, {"type": "Feature", "properties": {"statcode": "BU03941663", "statnaam": "Schiphol"}, "geometry": {"type": "MultiPolygon", "coordinates": [[[[4.71544, 52.36552], [4.71319, 52.34733], [4.71494, 52.34639], [4.71414, 52.3376], [4.71654, 52.33631], [4.71382, 52.3341], [4.72666, 52.32731], [4.73315, 52.32229], [4.73392, 52.32319], [4.73497, 52.33467], [4.73975, 52.33792], [4.74622, 52.33452], [4.74565, 52.32835], [4.74518, 52.3184], [4.75545, 52.31886], [4.76152, 52.32178], [4.76606, 52.32316], [4.78765, 52.32575], [4.79408, 52.32327], [4.79863, 52.32682], [4.80505, 52.32269], [4.81227, 52.31524], [4.81708, 52.31182], [4.80988, 52.30578], [4.8037, 52.30358], [4.79884, 52.30142], [4.79566, 52.29932], [4.79444, 52.29627], [4.79325, 52.2941], [4.78554, 52.29789], [4.78161, 52.29528], [4.77935, 52.28557], [4.77432, 52.28574], [4.77417, 52.29056], [4.772, 52.29173], [4.76558, 52.28727], [4.75795, 52.28367], [4.75501, 52.28298], [4.75105, 52.28338], [4.74839, 52.28294], [4.74333, 52.28567], [4.73898, 52.28372], [4.72835, 52.2893], [4.73779, 52.29585], [4.73339, 52.29777], [4.73172, 52.29912], [4.73352, 52.31876], [4.73296, 52.3202], [4.71655, 52.3289], [4.71211, 52.3282], [4.71119, 52.32544], [4.70984, 52.32513], [4.70592, 52.32562], [4.70676, 52.33479], [4.70952, 52.36514], [4.71086, 52.36801], [4.71544, 52.36552]]]]}}, {"type": "Feature", "properties": {"statcode": "BU03942038", "statnaam": "Spaarndam"}, "geometry": {"type": "MultiPolygon", "coordinates": [[[[4.69537, 52.41474], [4.69541, 52.41322], [4.68883, 52.41071], [4.68518, 52.41067], [4.68294, 52.4099], [4.68128, 52.40725], [4.67871, 52.40737], [4.67551, 52.40963], [4.68113, 52.41232], [4.68248, 52.41385], [4.69149, 52.41881], [4.69537, 52.41474]]]]}}, {"type": "Feature", "properties": {"statcode": "BU03942042", "statnaam": "Spaarndam Omgeving"}, "geometry": {"type": "MultiPolygon", "coordinates": [[[[4.73921, 52.43106], [4.73857, 52.42922], [4.73667, 52.4296], [4.73294, 52.41883], [4.72982, 52.41911], [4.72824, 52.41238], [4.72572, 52.41279], [4.71993, 52.40736], [4.71879, 52.40529], [4.7192, 52.40319], [4.71497, 52.40148], [4.71101, 52.39869], [4.70584, 52.39675], [4.70169, 52.39422], [4.70036, 52.39209], [4.69773, 52.39092], [4.6922, 52.39487], [4.69429, 52.39723], [4.69763, 52.39934], [4.69938, 52.40274], [4.70081, 52.40309], [4.70118, 52.40632], [4.69784, 52.4076], [4.69202, 52.40514], [4.68745, 52.401], [4.68977, 52.39771], [4.68631, 52.39323], [4.68399, 52.39391], [4.67947, 52.39196], [4.67831, 52.39288], [4.67499, 52.3932], [4.67346, 52.39407], [4.67563, 52.39725], [4.67857, 52.39851], [4.67869, 52.39948], [4.66866, 52.4014], [4.66882, 52.40416], [4.67438, 52.40647], [4.67196, 52.40945], [4.67551, 52.40963], [4.67871, 52.40737], [4.68128, 52.40725], [4.68294, 52.4099], [4.68518, 52.41067], [4.68883, 52.41071], [4.69541, 52.41322], [4.69537, 52.41474], [4.69149, 52.41881], [4.70054, 52.42551], [4.71065, 52.42769], [4.72198, 52.43334], [4.73921, 52.43106]]]]}}, {"type": "Feature", "properties": {"statcode": "BU03942096", "statnaam": "Spaarnwoude"}, "geometry": {"type": "MultiPolygon", "coordinates": [[[[4.70118, 52.40632], [4.70081, 52.40309], [4.69938, 52.40274], [4.69763, 52.39934], [4.69429, 52.39723], [4.6922, 52.39487], [4.68935, 52.3934], [4.68631, 52.39323], [4.68977, 52.39771], [4.68745, 52.401], [4.69202, 52.40514], [4.69784, 52.4076], [4.70118, 52.40632]]]]}}, {"type": "Feature", "properties": {"statcode": "BU03942120", "statnaam": "Haarlemmerliede"}, "geometry": {"type": "MultiPolygon", "coordinates": [[[[4.68978, 52.38963], [4.69074, 52.38835], [4.6897, 52.38437], [4.68597, 52.38402], [4.68692, 52.38744], [4.6826, 52.38822], [4.68144, 52.38992], [4.68978, 52.38963]]]]}}, {"type": "Feature", "properties": {"statcode": "BU03942121", "statnaam": "Penningsveer"}, "geometry": {"type": "MultiPolygon", "coordinates": [[[[4.67499, 52.3932], [4.67831, 52.39288], [4.67947, 52.39196], [4.68119, 52.39029], [4.67772, 52.38974], [4.67454, 52.39091], [4.67346, 52.39407], [4.67499, 52.3932]]]]}}, {"type": "Feature", "properties": {"statcode": "BU03942128", "statnaam": "Haarlemmerliede Omgeving"}, "geometry": {"type": "MultiPolygon", "coordinates": [[[[4.70842, 52.38579], [4.68857, 52.38406], [4.68979, 52.38132], [4.69138, 52.38074], [4.69175, 52.37987], [4.67738, 52.37709], [4.686, 52.38352], [4.68597, 52.38402], [4.6897, 52.38437], [4.69074, 52.38835], [4.68978, 52.38963], [4.68144, 52.38992], [4.68119, 52.39029], [4.67947, 52.39196], [4.68399, 52.39391], [4.68631, 52.39323], [4.68935, 52.3934], [4.6922, 52.39487], [4.69773, 52.39092], [4.70036, 52.39209], [4.70169, 52.39422], [4.70584, 52.39675], [4.70842, 52.38579]]]]}}, {"type": "Feature", "properties": {"statcode": "BU03942272", "statnaam": "Halfweg"}, "geometry": {"type": "MultiPolygon", "coordinates": [[[[4.75831, 52.3879], [4.75851, 52.38719], [4.75895, 52.38412], [4.75908, 52.38094], [4.75912, 52.37933], [4.75726, 52.37798], [4.75672, 52.37784], [4.75444, 52.38003], [4.74833, 52.38291], [4.74938, 52.38463], [4.74817, 52.3853], [4.74038, 52.3858], [4.74076, 52.38811], [4.74271, 52.38821], [4.7429, 52.38759], [4.7471, 52.38658], [4.75029, 52.38668], [4.75231, 52.38871], [4.75831, 52.3879]]]]}}, {"type": "Feature", "properties": {"statcode": "BU03942273", "statnaam": "Halfweg Omgeving"}, "geometry": {"type": "MultiPolygon", "coordinates": [[[[4.73857, 52.42922], [4.72876, 52.40071], [4.75748, 52.39688], [4.75786, 52.39659], [4.7583, 52.38795], [4.75831, 52.3879], [4.75231, 52.38871], [4.75029, 52.38668], [4.7471, 52.38658], [4.7429, 52.38759], [4.74271, 52.38821], [4.74076, 52.38811], [4.74038, 52.3858], [4.74817, 52.3853], [4.74938, 52.38463], [4.74833, 52.38291], [4.73226, 52.38636], [4.72877, 52.3863], [4.72118, 52.38498], [4.70773, 52.38266], [4.69175, 52.37987], [4.69138, 52.38074], [4.68979, 52.38132], [4.68857, 52.38406], [4.70842, 52.38579], [4.70584, 52.39675], [4.71101, 52.39869], [4.71497, 52.40148], [4.7192, 52.40319], [4.71879, 52.40529], [4.71993, 52.40736], [4.72572, 52.41279], [4.72824, 52.41238], [4.72982, 52.41911], [4.73294, 52.41883], [4.73667, 52.4296], [4.73857, 52.42922]]]]}}]}