{"type": "FeatureCollection", "features": [{"type": "Feature", "properties": {"statcode": "BU04791111", "statnaam": "Vijfhoekpark"}, "geometry": {"type": "MultiPolygon", "coordinates": [[[[4.86176, 52.42968], [4.84207, 52.4253], [4.83866, 52.42691], [4.83727, 52.42873], [4.84261, 52.42978], [4.84656, 52.43109], [4.84915, 52.4313], [4.86, 52.43229], [4.86176, 52.42968]]]]}}, {"type": "Feature", "properties": {"statcode": "BU04791112", "statnaam": "Achtersluispolder"}, "geometry": {"type": "MultiPolygon", "coordinates": [[[[4.86268, 52.42994], [4.8628, 52.42962], [4.8627, 52.4296], [4.86221, 52.42856], [4.85795, 52.42472], [4.85783, 52.42398], [4.85986, 52.42047], [4.85608, 52.41666], [4.84264, 52.4188], [4.83435, 52.42775], [4.83727, 52.42873], [4.83866, 52.42691], [4.84207, 52.4253], [4.86176, 52.42968], [4.86202, 52.42977], [4.86206, 52.42985], [4.86234, 52.4299], [4.86236, 52.42985], [4.86242, 52.42982], [4.86259, 52.42979], [4.86262, 52.42979], [4.86264, 52.42984], [4.86268, 52.42994]]]]}}, {"type": "Feature", "properties": {"statcode": "BU04791121", "statnaam": "Bomenbuurt Oost"}, "geometry": {"type": "MultiPolygon", "coordinates": [[[[4.84656, 52.43109], [4.84261, 52.42978], [4.83739, 52.43616], [4.84106, 52.43797], [4.84656, 52.43109]]]]}}, {"type": "Feature", "properties": {"statcode": "BU04791122", "statnaam": "Bomenbuurt"}, "geometry": {"type": "MultiPolygon", "coordinates": [[[[4.84261, 52.42978], [4.83727, 52.42873], [4.83435, 52.42775], [4.83205, 52.43086], [4.83406, 52.43302], [4.83739, 52.43616], [4.84261, 52.42978]]]]}}, {"type": "Feature", "properties": {"statcode": "BU04791131", "statnaam": "Burgemeestersbuurt"}, "geometry": {"type": "MultiPolygon", "coordinates": [[[[4.8385, 52.43988], [4.84106, 52.43797], [4.83739, 52.43616], [4.83406, 52.43302], [4.83118, 52.4371], [4.8343, 52.4405], [4.83266, 52.44174], [4.83508, 52.4428], [4.8385, 52.43988]]]]}}, {"type": "Feature", "properties": {"statcode": "BU04791132", "statnaam": "Prins Hendrikbuurt"}, "geometry": {"type": "MultiPolygon", "coordinates": [[[[4.83266, 52.44174], [4.8343, 52.4405], [4.83118, 52.4371], [4.83406, 52.43302], [4.83205, 52.43086], [4.82688, 52.43786], [4.82469, 52.44018], [4.83081, 52.44257], [4.83266, 52.44174]]]]}}, {"type": "Feature", "properties": {"statcode": "BU04791211", "statnaam": "Vennenbuurt"}, "geometry": {"type": "MultiPolygon", "coordinates": [[[[4.84538, 52.43715], [4.84915, 52.4313], [4.84656, 52.43109], [4.84106, 52.43797], [4.8385, 52.43988], [4.84239, 52.44122], [4.84538, 52.43715]]]]}}, {"type": "Feature", "properties": {"statcode": "BU04791212", "statnaam": "Poelenburg Noord"}, "geometry": {"type": "MultiPolygon", "coordinates": [[[[4.85398, 52.44158], [4.8558, 52.43825], [4.84538, 52.43715], [4.84239, 52.44122], [4.85039, 52.44228], [4.85293, 52.44296], [4.85398, 52.44158]]]]}}, {"type": "Feature", "properties": {"statcode": "BU04791213", "statnaam": "Poelenburg Zuid"}, "geometry": {"type": "MultiPolygon", "coordinates": [[[[4.85709, 52.43647], [4.85757, 52.43586], [4.85812, 52.43506], [4.86, 52.43229], [4.84915, 52.4313], [4.84538, 52.43715], [4.8558, 52.43825], [4.85709, 52.43647]]]]}}, {"type": "Feature", "properties": {"statcode": "BU04791311", "statnaam": "Peldersveld West"}, "geometry": {"type": "MultiPolygon", "coordinates": [[[[4.84337, 52.44951], [4.84668, 52.44531], [4.85005, 52.44342], [4.85039, 52.44228], [4.84239, 52.44122], [4.84005, 52.44552], [4.8393, 52.4513], [4.84088, 52.45149], [4.84337, 52.44951]]]]}}, {"type": "Feature", "properties": {"statcode": "BU04791312", "statnaam": "Peldersveld Oost"}, "geometry": {"type": "MultiPolygon", "coordinates": [[[[4.84409, 52.45276], [4.84295, 52.45226], [4.85293, 52.44296], [4.85039, 52.44228], [4.85005, 52.44342], [4.84668, 52.44531], [4.84337, 52.44951], [4.84088, 52.45149], [4.8393, 52.4513], [4.83876, 52.45439], [4.84409, 52.45276]]]]}}, {"type": "Feature", "properties": {"statcode": "BU04791321", "statnaam": "Hoornseveld"}, "geometry": {"type": "MultiPolygon", "coordinates": [[[[4.83232, 52.45518], [4.83876, 52.45439], [4.8393, 52.4513], [4.84005, 52.44552], [4.83396, 52.44444], [4.82884, 52.4549], [4.83232, 52.45518]]]]}}, {"type": "Feature", "properties": {"statcode": "BU04791322", "statnaam": "Kleurenbuurt"}, "geometry": {"type": "MultiPolygon", "coordinates": [[[[4.84239, 52.44122], [4.8385, 52.43988], [4.83508, 52.4428], [4.83396, 52.44444], [4.84005, 52.44552], [4.84239, 52.44122]]]]}}, {"type": "Feature", "properties": {"statcode": "BU04791411", "statnaam": "Rosmolenbuurt Oost"}, "geometry": {"type": "MultiPolygon", "coordinates": [[[[4.83396, 52.44444], [4.83508, 52.4428], [4.83266, 52.44174], [4.83081, 52.44257], [4.82809, 52.44566], [4.82671, 52.45067], [4.8225, 52.45364], [4.82884, 52.4549], [4.83396, 52.44444]]]]}}, {"type": "Feature", "properties": {"statcode": "BU04791412", "statnaam": "Rosmolenbuurt West"}, "geometry": {"type": "MultiPolygon", "coordinates": [[[[4.82671, 52.45067], [4.82809, 52.44566], [4.83081, 52.44257], [4.82469, 52.44018], [4.82443, 52.44057], [4.8208, 52.44627], [4.82115, 52.44933], [4.81927, 52.4518], [4.8225, 52.45364], [4.82671, 52.45067]]]]}}, {"type": "Feature", "properties": {"statcode": "BU04791511", "statnaam": "Oostzijderveld"}, "geometry": {"type": "MultiPolygon", "coordinates": [[[[4.84443, 52.45292], [4.84409, 52.45276], [4.83876, 52.45439], [4.83232, 52.45518], [4.82884, 52.4549], [4.8225, 52.45364], [4.81843, 52.45675], [4.82651, 52.45677], [4.83726, 52.45819], [4.84443, 52.45292]]]]}}, {"type": "Feature", "properties": {"statcode": "BU04791512", "statnaam": "Kogerveld"}, "geometry": {"type": "MultiPolygon", "coordinates": [[[[4.83036, 52.46077], [4.83726, 52.45819], [4.82651, 52.45677], [4.81843, 52.45675], [4.81809, 52.4621], [4.83036, 52.46077]]]]}}, {"type": "Feature", "properties": {"statcode": "BU04791521", "statnaam": "Boerejonkerbuurt"}, "geometry": {"type": "MultiPolygon", "coordinates": [[[[4.81809, 52.4621], [4.81843, 52.45675], [4.8126, 52.45492], [4.81214, 52.45575], [4.81274, 52.46287], [4.81809, 52.4621]]]]}}, {"type": "Feature", "properties": {"statcode": "BU04791522", "statnaam": "Hofwijk"}, "geometry": {"type": "MultiPolygon", "coordinates": [[[[4.8225, 52.45364], [4.81927, 52.4518], [4.8126, 52.45492], [4.81843, 52.45675], [4.8225, 52.45364]]]]}}, {"type": "Feature", "properties": {"statcode": "BU04791611", "statnaam": "Kalf Noord"}, "geometry": {"type": "MultiPolygon", "coordinates": [[[[4.84268, 52.47197], [4.84145, 52.47101], [4.831, 52.46836], [4.82152, 52.46479], [4.81809, 52.4621], [4.81274, 52.46287], [4.81801, 52.46648], [4.81531, 52.46855], [4.82221, 52.47], [4.84237, 52.47213], [4.84268, 52.47197]]]]}}, {"type": "Feature", "properties": {"statcode": "BU04791612", "statnaam": "Kalf"}, "geometry": {"type": "MultiPolygon", "coordinates": [[[[4.84648, 52.47072], [4.8525, 52.47037], [4.84857, 52.45957], [4.84492, 52.45648], [4.84443, 52.45292], [4.83726, 52.45819], [4.83036, 52.46077], [4.81809, 52.4621], [4.82152, 52.46479], [4.831, 52.46836], [4.84145, 52.47101], [4.84268, 52.47197], [4.84648, 52.47072]]]]}}, {"type": "Feature", "properties": {"statcode": "BU04791620", "statnaam": "Zaanse Schans"}, "geometry": {"type": "MultiPolygon", "coordinates": [[[[4.81684, 52.48256], [4.82755, 52.4809], [4.83692, 52.47988], [4.83755, 52.47709], [4.84154, 52.47302], [4.84213, 52.47233], [4.84237, 52.47213], [4.82221, 52.47], [4.81531, 52.46855], [4.81375, 52.47078], [4.81484, 52.47299], [4.81429, 52.4763], [4.81104, 52.47833], [4.81085, 52.47999], [4.81195, 52.48182], [4.81236, 52.48397], [4.81387, 52.48347], [4.814, 52.48353], [4.81461, 52.48322], [4.81515, 52.48304], [4.81684, 52.48256]]]]}}, {"type": "Feature", "properties": {"statcode": "BU04792111", "statnaam": "Havenbuurt"}, "geometry": {"type": "MultiPolygon", "coordinates": [[[[4.83083, 52.43055], [4.83205, 52.43086], [4.83435, 52.42775], [4.82748, 52.42653], [4.82471, 52.4305], [4.82238, 52.43204], [4.8234, 52.43292], [4.83083, 52.43055]]]]}}, {"type": "Feature", "properties": {"statcode": "BU04792112", "statnaam": "Hembrugterrein"}, "geometry": {"type": "MultiPolygon", "coordinates": [[[[4.84264, 52.4188], [4.82772, 52.42078], [4.82661, 52.42092], [4.82748, 52.42653], [4.83435, 52.42775], [4.84264, 52.4188]]]]}}, {"type": "Feature", "properties": {"statcode": "BU04792121", "statnaam": "Zuiderhout Noord"}, "geometry": {"type": "MultiPolygon", "coordinates": [[[[4.81872, 52.43402], [4.82238, 52.43204], [4.82471, 52.4305], [4.82748, 52.42653], [4.81461, 52.42746], [4.81559, 52.43016], [4.81544, 52.43395], [4.81872, 52.43402]]]]}}, {"type": "Feature", "properties": {"statcode": "BU04792122", "statnaam": "Zuiderhout"}, "geometry": {"type": "MultiPolygon", "coordinates": [[[[4.82748, 52.42653], [4.82661, 52.42092], [4.80994, 52.42302], [4.81307, 52.42691], [4.81461, 52.42746], [4.82748, 52.42653]]]]}}, {"type": "Feature", "properties": {"statcode": "BU04792130", "statnaam": "Het Eiland"}, "geometry": {"type": "MultiPolygon", "coordinates": [[[[4.83205, 52.43086], [4.83083, 52.43055], [4.8234, 52.43292], [4.82227, 52.4343], [4.82253, 52.43538], [4.82688, 52.43786], [4.83205, 52.43086]]]]}}, {"type": "Feature", "properties": {"statcode": "BU04792140", "statnaam": "Russische buurt"}, "geometry": {"type": "MultiPolygon", "coordinates": [[[[4.82469, 52.44018], [4.82688, 52.43786], [4.82253, 52.43538], [4.82227, 52.4343], [4.8234, 52.43292], [4.82238, 52.43204], [4.81872, 52.43402], [4.81544, 52.43395], [4.81475, 52.43602], [4.81411, 52.43783], [4.81601, 52.43932], [4.82443, 52.44057], [4.82469, 52.44018]]]]}}, {"type": "Feature", "properties": {"statcode": "BU04792210", "statnaam": "Oud West"}, "geometry": {"type": "MultiPolygon", "coordinates": [[[[4.82115, 52.44933], [4.8208, 52.44627], [4.82443, 52.44057], [4.81601, 52.43932], [4.8115, 52.44986], [4.81728, 52.45071], [4.81927, 52.4518], [4.82115, 52.44933]]]]}}, {"type": "Feature", "properties": {"statcode": "BU04792220", "statnaam": "Spoorbuurt"}, "geometry": {"type": "MultiPolygon", "coordinates": [[[[4.81601, 52.43932], [4.81411, 52.43783], [4.80769, 52.44822], [4.80718, 52.44918], [4.8115, 52.44986], [4.81601, 52.43932]]]]}}, {"type": "Feature", "properties": {"statcode": "BU04792230", "statnaam": "Schilders- en Waddenbuurt"}, "geometry": {"type": "MultiPolygon", "coordinates": [[[[4.8126, 52.45492], [4.81927, 52.4518], [4.81728, 52.45071], [4.8115, 52.44986], [4.80718, 52.44918], [4.80582, 52.45523], [4.81214, 52.45575], [4.8126, 52.45492]]]]}}, {"type": "Feature", "properties": {"statcode": "BU04792311", "statnaam": "Westerspoor"}, "geometry": {"type": "MultiPolygon", "coordinates": [[[[4.81559, 52.43016], [4.81461, 52.42746], [4.81307, 52.42691], [4.80994, 52.42302], [4.78348, 52.42641], [4.7842, 52.4286], [4.78684, 52.42942], [4.79731, 52.42825], [4.80163, 52.42847], [4.80254, 52.431], [4.80619, 52.432], [4.81323, 52.43267], [4.81359, 52.43378], [4.81544, 52.43395], [4.81559, 52.43016]]]]}}, {"type": "Feature", "properties": {"statcode": "BU04792312", "statnaam": "Westzanerdijk"}, "geometry": {"type": "MultiPolygon", "coordinates": [[[[4.81475, 52.43602], [4.81544, 52.43395], [4.81359, 52.43378], [4.81323, 52.43267], [4.80619, 52.432], [4.80254, 52.431], [4.80163, 52.42847], [4.79731, 52.42825], [4.78684, 52.42942], [4.7842, 52.4286], [4.78358, 52.43057], [4.78454, 52.43129], [4.79296, 52.43229], [4.79386, 52.43162], [4.80174, 52.43242], [4.80612, 52.43445], [4.81475, 52.43602]]]]}}, {"type": "Feature", "properties": {"statcode": "BU04792313", "statnaam": "Westzijderveld Zuid"}, "geometry": {"type": "MultiPolygon", "coordinates": [[[[4.80612, 52.43445], [4.80174, 52.43242], [4.79386, 52.43162], [4.79296, 52.43229], [4.79224, 52.43639], [4.80246, 52.43779], [4.80276, 52.43784], [4.80612, 52.43445]]]]}}, {"type": "Feature", "properties": {"statcode": "BU04792314", "statnaam": "Zaans Hout"}, "geometry": {"type": "MultiPolygon", "coordinates": [[[[4.81411, 52.43783], [4.81475, 52.43602], [4.80612, 52.43445], [4.80276, 52.43784], [4.80933, 52.43982], [4.80719, 52.44815], [4.80769, 52.44822], [4.81411, 52.43783]]]]}}, {"type": "Feature", "properties": {"statcode": "BU04792321", "statnaam": "Westzijderveld Midden"}, "geometry": {"type": "MultiPolygon", "coordinates": [[[[4.79236, 52.45278], [4.79415, 52.45298], [4.79747, 52.4466], [4.80246, 52.43779], [4.79224, 52.43639], [4.78917, 52.4444], [4.7859, 52.45295], [4.79185, 52.45367], [4.79236, 52.45278]]]]}}, {"type": "Feature", "properties": {"statcode": "BU04792322", "statnaam": "Westerwatering Noord"}, "geometry": {"type": "MultiPolygon", "coordinates": [[[[4.80718, 52.44918], [4.80769, 52.44822], [4.80719, 52.44815], [4.79747, 52.4466], [4.79415, 52.45298], [4.79236, 52.45278], [4.79185, 52.45367], [4.79811, 52.45437], [4.80582, 52.45523], [4.80718, 52.44918]]]]}}, {"type": "Feature", "properties": {"statcode": "BU04792323", "statnaam": "Westerwatering Zuid"}, "geometry": {"type": "MultiPolygon", "coordinates": [[[[4.80933, 52.43982], [4.80276, 52.43784], [4.80246, 52.43779], [4.79747, 52.4466], [4.80719, 52.44815], [4.80933, 52.43982]]]]}}, {"type": "Feature", "properties": {"statcode": "BU04793110", "statnaam": "Oud Koog"}, "geometry": {"type": "MultiPolygon", "coordinates": [[[[4.81531, 52.46855], [4.81801, 52.46648], [4.81274, 52.46287], [4.81214, 52.45575], [4.80582, 52.45523], [4.80519, 52.46983], [4.81375, 52.47078], [4.81531, 52.46855]]]]}}, {"type": "Feature", "properties": {"statcode": "BU04793211", "statnaam": "Westzijderveld Noord"}, "geometry": {"type": "MultiPolygon", "coordinates": [[[[4.79629, 52.46219], [4.79085, 52.46304], [4.78873, 52.46271], [4.7892, 52.4594], [4.79185, 52.45367], [4.7859, 52.45295], [4.78241, 52.46324], [4.78809, 52.46401], [4.78735, 52.46713], [4.79473, 52.468], [4.79755, 52.46877], [4.79629, 52.46219]]]]}}, {"type": "Feature", "properties": {"statcode": "BU04793212", "statnaam": "Westerkoog Midden"}, "geometry": {"type": "MultiPolygon", "coordinates": [[[[4.79629, 52.46219], [4.79813, 52.45962], [4.79811, 52.45437], [4.79185, 52.45367], [4.7892, 52.4594], [4.78873, 52.46271], [4.79085, 52.46304], [4.79629, 52.46219]]]]}}, {"type": "Feature", "properties": {"statcode": "BU04793213", "statnaam": "Westerkoog Oost"}, "geometry": {"type": "MultiPolygon", "coordinates": [[[[4.80582, 52.45523], [4.79811, 52.45437], [4.79813, 52.45962], [4.79629, 52.46219], [4.79755, 52.46877], [4.80519, 52.46983], [4.80582, 52.45523]]]]}}, {"type": "Feature", "properties": {"statcode": "BU04794110", "statnaam": "Oud Zaandijk"}, "geometry": {"type": "MultiPolygon", "coordinates": [[[[4.81085, 52.47999], [4.81104, 52.47833], [4.81429, 52.4763], [4.81484, 52.47299], [4.81375, 52.47078], [4.80519, 52.46983], [4.80475, 52.47571], [4.80455, 52.47948], [4.80446, 52.48028], [4.81195, 52.48182], [4.81085, 52.47999]]]]}}, {"type": "Feature", "properties": {"statcode": "BU04794211", "statnaam": "Rooswijk"}, "geometry": {"type": "MultiPolygon", "coordinates": [[[[4.80519, 52.46983], [4.79755, 52.46877], [4.79473, 52.468], [4.79451, 52.46923], [4.79697, 52.46963], [4.79634, 52.47124], [4.79053, 52.47267], [4.80475, 52.47571], [4.80519, 52.46983]]]]}}, {"type": "Feature", "properties": {"statcode": "BU04794212", "statnaam": "Rooswijk Noord"}, "geometry": {"type": "MultiPolygon", "coordinates": [[[[4.80475, 52.47571], [4.79053, 52.47267], [4.78925, 52.47244], [4.78878, 52.47336], [4.7901, 52.47617], [4.80455, 52.47948], [4.80475, 52.47571]]]]}}, {"type": "Feature", "properties": {"statcode": "BU04794213", "statnaam": "Guisveld Zuid"}, "geometry": {"type": "MultiPolygon", "coordinates": [[[[4.80455, 52.47948], [4.7901, 52.47617], [4.78878, 52.47336], [4.78925, 52.47244], [4.79053, 52.47267], [4.79634, 52.47124], [4.79697, 52.46963], [4.79451, 52.46923], [4.79473, 52.468], [4.78735, 52.46713], [4.78629, 52.47007], [4.78357, 52.47562], [4.80446, 52.48028], [4.80455, 52.47948]]]]}}, {"type": "Feature", "properties": {"statcode": "BU04795110", "statnaam": "Wormerveer Zuid"}, "geometry": {"type": "MultiPolygon", "coordinates": [[[[4.81157, 52.48575], [4.81236, 52.48397], [4.81195, 52.48182], [4.80446, 52.48028], [4.80316, 52.48332], [4.80074, 52.48583], [4.79664, 52.48808], [4.79309, 52.48916], [4.79364, 52.49088], [4.79884, 52.49111], [4.81157, 52.48575]]]]}}, {"type": "Feature", "properties": {"statcode": "BU04795120", "statnaam": "Guisveld"}, "geometry": {"type": "MultiPolygon", "coordinates": [[[[4.7746, 52.49303], [4.79309, 52.48916], [4.79664, 52.48808], [4.80074, 52.48583], [4.80316, 52.48332], [4.80446, 52.48028], [4.78357, 52.47562], [4.7825, 52.47833], [4.785, 52.47893], [4.78383, 52.484], [4.78223, 52.48639], [4.78126, 52.48714], [4.771, 52.48555], [4.77108, 52.48592], [4.77263, 52.49323], [4.7746, 52.49303]]]]}}, {"type": "Feature", "properties": {"statcode": "BU04795131", "statnaam": "Wormerveer Centrum"}, "geometry": {"type": "MultiPolygon", "coordinates": [[[[4.78765, 52.49527], [4.79335, 52.49395], [4.79159, 52.49214], [4.79236, 52.49113], [4.79364, 52.49088], [4.79309, 52.48916], [4.7746, 52.49303], [4.77712, 52.49735], [4.78765, 52.49527]]]]}}, {"type": "Feature", "properties": {"statcode": "BU04795132", "statnaam": "Wormerveer Noord"}, "geometry": {"type": "MultiPolygon", "coordinates": [[[[4.79462, 52.50041], [4.79508, 52.49622], [4.79335, 52.49395], [4.78765, 52.49527], [4.78948, 52.49876], [4.78312, 52.50005], [4.78379, 52.50285], [4.79462, 52.50041]]]]}}, {"type": "Feature", "properties": {"statcode": "BU04795133", "statnaam": "Wormerveer West"}, "geometry": {"type": "MultiPolygon", "coordinates": [[[[4.78379, 52.50285], [4.78312, 52.50005], [4.78948, 52.49876], [4.78765, 52.49527], [4.77712, 52.49735], [4.77838, 52.50431], [4.78379, 52.50285]]]]}}, {"type": "Feature", "properties": {"statcode": "BU04795140", "statnaam": "Karnemelksepolder"}, "geometry": {"type": "MultiPolygon", "coordinates": [[[[4.78876, 52.51111], [4.78975, 52.50943], [4.79334, 52.507], [4.794, 52.50329], [4.79462, 52.50041], [4.78379, 52.50285], [4.77838, 52.50431], [4.78146, 52.51173], [4.78876, 52.51111]]]]}}, {"type": "Feature", "properties": {"statcode": "BU04795150", "statnaam": "Westknollendam"}, "geometry": {"type": "MultiPolygon", "coordinates": [[[[4.78497, 52.51942], [4.78497, 52.51942], [4.78986, 52.51924], [4.78876, 52.51111], [4.78146, 52.51173], [4.78471, 52.51944], [4.78497, 52.51942]]]]}}, {"type": "Feature", "properties": {"statcode": "BU04795160", "statnaam": "Industriebuurt"}, "geometry": {"type": "MultiPolygon", "coordinates": [[[[4.78248, 52.51958], [4.78471, 52.51944], [4.78146, 52.51173], [4.77838, 52.50431], [4.77712, 52.49735], [4.7746, 52.49303], [4.77263, 52.49323], [4.77391, 52.49779], [4.77674, 52.50518], [4.77628, 52.51351], [4.77528, 52.51942], [4.78248, 52.51958]]]]}}, {"type": "Feature", "properties": {"statcode": "BU04796110", "statnaam": "Zuiderhoofdbuurt"}, "geometry": {"type": "MultiPolygon", "coordinates": [[[[4.77391, 52.49779], [4.77263, 52.49323], [4.7652, 52.49396], [4.76122, 52.49439], [4.76526, 52.49988], [4.77391, 52.49779]]]]}}, {"type": "Feature", "properties": {"statcode": "BU04796120", "statnaam": "Noorderhoofdbuurt"}, "geometry": {"type": "MultiPolygon", "coordinates": [[[[4.77674, 52.50518], [4.77391, 52.49779], [4.76526, 52.49988], [4.76595, 52.50078], [4.76864, 52.50491], [4.76848, 52.50684], [4.77674, 52.50518]]]]}}, {"type": "Feature", "properties": {"statcode": "BU04796130", "statnaam": "Snuiverbuurt"}, "geometry": {"type": "MultiPolygon", "coordinates": [[[[4.76595, 52.50078], [4.76526, 52.49988], [4.76122, 52.49439], [4.75847, 52.49461], [4.75462, 52.49504], [4.75527, 52.49818], [4.75823, 52.50277], [4.76595, 52.50078]]]]}}, {"type": "Feature", "properties": {"statcode": "BU04796140", "statnaam": "Rosariumbuurt"}, "geometry": {"type": "MultiPolygon", "coordinates": [[[[4.76848, 52.50684], [4.76864, 52.50491], [4.76595, 52.50078], [4.75823, 52.50277], [4.76444, 52.50794], [4.76848, 52.50684]]]]}}, {"type": "Feature", "properties": {"statcode": "BU04796210", "statnaam": "Zuiderham"}, "geometry": {"type": "MultiPolygon", "coordinates": [[[[4.75823, 52.50277], [4.75527, 52.49818], [4.75462, 52.49504], [4.75223, 52.49559], [4.74179, 52.5007], [4.73989, 52.50171], [4.74637, 52.5061], [4.75823, 52.50277]]]]}}, {"type": "Feature", "properties": {"statcode": "BU04796220", "statnaam": "Noorderham"}, "geometry": {"type": "MultiPolygon", "coordinates": [[[[4.75702, 52.51026], [4.76444, 52.50794], [4.75823, 52.50277], [4.74637, 52.5061], [4.74841, 52.50766], [4.75067, 52.50829], [4.75277, 52.51059], [4.75225, 52.51108], [4.75702, 52.51026]]]]}}, {"type": "Feature", "properties": {"statcode": "BU04796230", "statnaam": "Krommeniedijk"}, "geometry": {"type": "MultiPolygon", "coordinates": [[[[4.76123, 52.51855], [4.76362, 52.51971], [4.76703, 52.51887], [4.7672, 52.51975], [4.77528, 52.51942], [4.77628, 52.51351], [4.77067, 52.51344], [4.77003, 52.50824], [4.76848, 52.50684], [4.76444, 52.50794], [4.75702, 52.51026], [4.75225, 52.51108], [4.74846, 52.51498], [4.74825, 52.51532], [4.74814, 52.51706], [4.74828, 52.51747], [4.74973, 52.52008], [4.75243, 52.52123], [4.76123, 52.51855]]]]}}, {"type": "Feature", "properties": {"statcode": "BU04796240", "statnaam": "Willis"}, "geometry": {"type": "MultiPolygon", "coordinates": [[[[4.77674, 52.50518], [4.76848, 52.50684], [4.77003, 52.50824], [4.77067, 52.51344], [4.77628, 52.51351], [4.77674, 52.50518]]]]}}, {"type": "Feature", "properties": {"statcode": "BU04797110", "statnaam": "De Zuid"}, "geometry": {"type": "MultiPolygon", "coordinates": [[[[4.76338, 52.46119], [4.75739, 52.45068], [4.75381, 52.44002], [4.75008, 52.42964], [4.73921, 52.43106], [4.72198, 52.43334], [4.71097, 52.43619], [4.69081, 52.44688], [4.67485, 52.45552], [4.683, 52.46113], [4.68459, 52.46223], [4.68459, 52.46223], [4.68774, 52.45973], [4.68852, 52.4575], [4.69035, 52.45626], [4.70232, 52.4552], [4.70642, 52.4571], [4.70478, 52.45816], [4.70443, 52.45954], [4.71346, 52.46397], [4.72825, 52.46064], [4.73353, 52.45471], [4.74033, 52.45893], [4.75351, 52.47148], [4.76507, 52.4646], [4.76338, 52.46119]]]]}}, {"type": "Feature", "properties": {"statcode": "BU04797120", "statnaam": "Centrum"}, "geometry": {"type": "MultiPolygon", "coordinates": [[[[4.75351, 52.47148], [4.74033, 52.45893], [4.73353, 52.45471], [4.72825, 52.46064], [4.72811, 52.46438], [4.72614, 52.46873], [4.72623, 52.47312], [4.72934, 52.47387], [4.74109, 52.47908], [4.75351, 52.47148]]]]}}, {"type": "Feature", "properties": {"statcode": "BU04797130", "statnaam": "Westerpolder"}, "geometry": {"type": "MultiPolygon", "coordinates": [[[[4.72811, 52.46438], [4.72825, 52.46064], [4.71346, 52.46397], [4.70443, 52.45954], [4.70478, 52.45816], [4.70642, 52.4571], [4.70232, 52.4552], [4.69035, 52.45626], [4.68852, 52.4575], [4.68774, 52.45973], [4.68459, 52.46223], [4.68459, 52.46223], [4.68507, 52.46256], [4.68427, 52.46352], [4.68515, 52.46366], [4.69008, 52.46562], [4.69461, 52.46808], [4.69782, 52.47103], [4.69728, 52.47201], [4.69928, 52.47453], [4.69873, 52.47714], [4.70073, 52.48024], [4.70547, 52.48186], [4.70616, 52.48284], [4.70591, 52.48444], [4.70797, 52.48633], [4.70844, 52.48863], [4.71464, 52.4932], [4.72037, 52.49495], [4.72075, 52.49505], [4.73345, 52.48401], [4.74109, 52.47908], [4.72934, 52.47387], [4.72623, 52.47312], [4.72614, 52.46873], [4.72811, 52.46438]]]]}}, {"type": "Feature", "properties": {"statcode": "BU04797211", "statnaam": "Noorderveen"}, "geometry": {"type": "MultiPolygon", "coordinates": [[[[4.77108, 52.48592], [4.771, 52.48555], [4.76936, 52.47491], [4.76507, 52.4646], [4.75351, 52.47148], [4.74109, 52.47908], [4.74695, 52.48282], [4.74852, 52.4842], [4.7526, 52.48292], [4.75183, 52.48189], [4.75988, 52.47782], [4.76843, 52.48612], [4.77108, 52.48592]]]]}}, {"type": "Feature", "properties": {"statcode": "BU04797212", "statnaam": "Waterrijk West"}, "geometry": {"type": "MultiPolygon", "coordinates": [[[[4.76068, 52.48928], [4.75873, 52.4881], [4.75389, 52.48253], [4.7526, 52.48292], [4.74852, 52.4842], [4.75097, 52.48625], [4.75715, 52.49131], [4.76068, 52.48928]]]]}}, {"type": "Feature", "properties": {"statcode": "BU04797213", "statnaam": "Waterrijk"}, "geometry": {"type": "MultiPolygon", "coordinates": [[[[4.76289, 52.48956], [4.76843, 52.48612], [4.75988, 52.47782], [4.75183, 52.48189], [4.7526, 52.48292], [4.75389, 52.48253], [4.75873, 52.4881], [4.76068, 52.48928], [4.76289, 52.48956]]]]}}, {"type": "Feature", "properties": {"statcode": "BU04797221", "statnaam": "Langeheit Oost"}, "geometry": {"type": "MultiPolygon", "coordinates": [[[[4.77263, 52.49323], [4.77108, 52.48592], [4.76843, 52.48612], [4.76289, 52.48956], [4.7652, 52.49396], [4.77263, 52.49323]]]]}}, {"type": "Feature", "properties": {"statcode": "BU04797222", "statnaam": "Langeheit West"}, "geometry": {"type": "MultiPolygon", "coordinates": [[[[4.76122, 52.49439], [4.7652, 52.49396], [4.76289, 52.48956], [4.76068, 52.48928], [4.75715, 52.49131], [4.75642, 52.49297], [4.75847, 52.49461], [4.76122, 52.49439]]]]}}, {"type": "Feature", "properties": {"statcode": "BU04797231", "statnaam": "De Omzoom"}, "geometry": {"type": "MultiPolygon", "coordinates": [[[[4.74179, 52.5007], [4.73929, 52.49951], [4.73936, 52.49091], [4.73747, 52.49022], [4.74033, 52.48693], [4.74695, 52.48282], [4.74109, 52.47908], [4.73345, 52.48401], [4.72075, 52.49505], [4.73158, 52.49633], [4.73989, 52.50171], [4.74179, 52.5007]]]]}}, {"type": "Feature", "properties": {"statcode": "BU04797232", "statnaam": "Kreekrijk"}, "geometry": {"type": "MultiPolygon", "coordinates": [[[[4.75223, 52.49559], [4.74486, 52.49288], [4.73936, 52.49091], [4.73929, 52.49951], [4.74179, 52.5007], [4.75223, 52.49559]]]]}}, {"type": "Feature", "properties": {"statcode": "BU04797233", "statnaam": "Parkrijk Zuid"}, "geometry": {"type": "MultiPolygon", "coordinates": [[[[4.75097, 52.48625], [4.74852, 52.4842], [4.74695, 52.48282], [4.74033, 52.48693], [4.73747, 52.49022], [4.73936, 52.49091], [4.74486, 52.49288], [4.75097, 52.48625]]]]}}, {"type": "Feature", "properties": {"statcode": "BU04797234", "statnaam": "Parkrijk Noord"}, "geometry": {"type": "MultiPolygon", "coordinates": [[[[4.75462, 52.49504], [4.75847, 52.49461], [4.75642, 52.49297], [4.75715, 52.49131], [4.75097, 52.48625], [4.74486, 52.49288], [4.75223, 52.49559], [4.75462, 52.49504]]]]}}, {"type": "Feature", "properties": {"statcode": "BU04798110", "statnaam": "Westzanerpolder"}, "geometry": {"type": "MultiPolygon", "coordinates": [[[[4.75827, 52.43988], [4.765, 52.43811], [4.76856, 52.43598], [4.77012, 52.43551], [4.77612, 52.43581], [4.77911, 52.43328], [4.78019, 52.43104], [4.78358, 52.43057], [4.7842, 52.4286], [4.78348, 52.42641], [4.76754, 52.4285], [4.76476, 52.42778], [4.7532, 52.42924], [4.75008, 52.42964], [4.75381, 52.44002], [4.75827, 52.43988]]]]}}, {"type": "Feature", "properties": {"statcode": "BU04798120", "statnaam": "Westzaan Zuid"}, "geometry": {"type": "MultiPolygon", "coordinates": [[[[4.79224, 52.43639], [4.79296, 52.43229], [4.78454, 52.43129], [4.78358, 52.43057], [4.78019, 52.43104], [4.77911, 52.43328], [4.77612, 52.43581], [4.77012, 52.43551], [4.76856, 52.43598], [4.76612, 52.44148], [4.78917, 52.4444], [4.79224, 52.43639]]]]}}, {"type": "Feature", "properties": {"statcode": "BU04798130", "statnaam": "J.J. Allanbuurt"}, "geometry": {"type": "MultiPolygon", "coordinates": [[[[4.7859, 52.45295], [4.78917, 52.4444], [4.76612, 52.44148], [4.76856, 52.43598], [4.765, 52.43811], [4.75827, 52.43988], [4.75381, 52.44002], [4.75739, 52.45068], [4.76338, 52.46119], [4.76315, 52.46072], [4.7687, 52.46125], [4.78241, 52.46324], [4.7859, 52.45295]]]]}}, {"type": "Feature", "properties": {"statcode": "BU04798140", "statnaam": "Westzaan Noord"}, "geometry": {"type": "MultiPolygon", "coordinates": [[[[4.78629, 52.47007], [4.78735, 52.46713], [4.78809, 52.46401], [4.78241, 52.46324], [4.7687, 52.46125], [4.76315, 52.46072], [4.76338, 52.46119], [4.76507, 52.4646], [4.76936, 52.47491], [4.78629, 52.47007]]]]}}, {"type": "Feature", "properties": {"statcode": "BU04798150", "statnaam": "Middel"}, "geometry": {"type": "MultiPolygon", "coordinates": [[[[4.78223, 52.48639], [4.78383, 52.484], [4.785, 52.47893], [4.7825, 52.47833], [4.78357, 52.47562], [4.78629, 52.47007], [4.76936, 52.47491], [4.771, 52.48555], [4.78126, 52.48714], [4.78223, 52.48639]]]]}}]}