{"type": "FeatureCollection", "features": [{"type": "Feature", "properties": {"statcode": "WK047911", "statnaam": "Zaandam Zuid"}, "geometry": {"type": "MultiPolygon", "coordinates": [[[[4.83508, 52.4428], [4.8385, 52.43988], [4.84106, 52.43797], [4.84656, 52.43109], [4.84915, 52.4313], [4.86, 52.43229], [4.86176, 52.42968], [4.86202, 52.42977], [4.86206, 52.42985], [4.86234, 52.4299], [4.86236, 52.42985], [4.86242, 52.42982], [4.86259, 52.42979], [4.86262, 52.42979], [4.86264, 52.42984], [4.86268, 52.42994], [4.8628, 52.42962], [4.8627, 52.4296], [4.86221, 52.42856], [4.85795, 52.42472], [4.85783, 52.42398], [4.85986, 52.42047], [4.85608, 52.41666], [4.84264, 52.4188], [4.83435, 52.42775], [4.83205, 52.43086], [4.82688, 52.43786], [4.82469, 52.44018], [4.83081, 52.44257], [4.83266, 52.44174], [4.83508, 52.4428]]]]}}, {"type": "Feature", "properties": {"statcode": "WK047912", "statnaam": "Poelenburg"}, "geometry": {"type": "MultiPolygon", "coordinates": [[[[4.84915, 52.4313], [4.84656, 52.43109], [4.84106, 52.43797], [4.8385, 52.43988], [4.84239, 52.44122], [4.85039, 52.44228], [4.85293, 52.44296], [4.85398, 52.44158], [4.8558, 52.43825], [4.85709, 52.43647], [4.85757, 52.43586], [4.85812, 52.43506], [4.86, 52.43229], [4.84915, 52.4313]]]]}}, {"type": "Feature", "properties": {"statcode": "WK047913", "statnaam": "Pelders- en Hoornseveld"}, "geometry": {"type": "MultiPolygon", "coordinates": [[[[4.84239, 52.44122], [4.8385, 52.43988], [4.83508, 52.4428], [4.83396, 52.44444], [4.82884, 52.4549], [4.83232, 52.45518], [4.83876, 52.45439], [4.84409, 52.45276], [4.84295, 52.45226], [4.85293, 52.44296], [4.85039, 52.44228], [4.84239, 52.44122]]]]}}, {"type": "Feature", "properties": {"statcode": "WK047914", "statnaam": "Rosmolenwijk"}, "geometry": {"type": "MultiPolygon", "coordinates": [[[[4.83508, 52.4428], [4.83266, 52.44174], [4.83081, 52.44257], [4.82469, 52.44018], [4.82443, 52.44057], [4.8208, 52.44627], [4.82115, 52.44933], [4.81927, 52.4518], [4.8225, 52.45364], [4.82884, 52.4549], [4.83396, 52.44444], [4.83508, 52.4428]]]]}}, {"type": "Feature", "properties": {"statcode": "WK047915", "statnaam": "Kogerveldwijk"}, "geometry": {"type": "MultiPolygon", "coordinates": [[[[4.83726, 52.45819], [4.84443, 52.45292], [4.84409, 52.45276], [4.83876, 52.45439], [4.83232, 52.45518], [4.82884, 52.4549], [4.8225, 52.45364], [4.81927, 52.4518], [4.8126, 52.45492], [4.81214, 52.45575], [4.81274, 52.46287], [4.81809, 52.4621], [4.83036, 52.46077], [4.83726, 52.45819]]]]}}, {"type": "Feature", "properties": {"statcode": "WK047916", "statnaam": "Zaandam Noord"}, "geometry": {"type": "MultiPolygon", "coordinates": [[[[4.81236, 52.48397], [4.81387, 52.48347], [4.814, 52.48353], [4.81461, 52.48322], [4.81515, 52.48304], [4.81684, 52.48256], [4.82755, 52.4809], [4.83692, 52.47988], [4.83755, 52.47709], [4.84154, 52.47302], [4.84213, 52.47233], [4.84237, 52.47213], [4.84268, 52.47197], [4.84648, 52.47072], [4.8525, 52.47037], [4.84857, 52.45957], [4.84492, 52.45648], [4.84443, 52.45292], [4.83726, 52.45819], [4.83036, 52.46077], [4.81809, 52.4621], [4.81274, 52.46287], [4.81801, 52.46648], [4.81531, 52.46855], [4.81375, 52.47078], [4.81484, 52.47299], [4.81429, 52.4763], [4.81104, 52.47833], [4.81085, 52.47999], [4.81195, 52.48182], [4.81236, 52.48397]]]]}}, {"type": "Feature", "properties": {"statcode": "WK047921", "statnaam": "Oude Haven"}, "geometry": {"type": "MultiPolygon", "coordinates": [[[[4.83435, 52.42775], [4.84264, 52.4188], [4.82772, 52.42078], [4.82661, 52.42092], [4.80994, 52.42302], [4.81307, 52.42691], [4.81461, 52.42746], [4.81559, 52.43016], [4.81544, 52.43395], [4.81475, 52.43602], [4.81411, 52.43783], [4.81601, 52.43932], [4.82443, 52.44057], [4.82469, 52.44018], [4.82688, 52.43786], [4.83205, 52.43086], [4.83435, 52.42775]]]]}}, {"type": "Feature", "properties": {"statcode": "WK047922", "statnaam": "Zaandam West"}, "geometry": {"type": "MultiPolygon", "coordinates": [[[[4.81601, 52.43932], [4.81411, 52.43783], [4.80769, 52.44822], [4.80718, 52.44918], [4.80582, 52.45523], [4.81214, 52.45575], [4.8126, 52.45492], [4.81927, 52.4518], [4.82115, 52.44933], [4.8208, 52.44627], [4.82443, 52.44057], [4.81601, 52.43932]]]]}}, {"type": "Feature", "properties": {"statcode": "WK047923", "statnaam": "Nieuw West"}, "geometry": {"type": "MultiPolygon", "coordinates": [[[[4.81307, 52.42691], [4.80994, 52.42302], [4.78348, 52.42641], [4.7842, 52.4286], [4.78358, 52.43057], [4.78454, 52.43129], [4.79296, 52.43229], [4.79224, 52.43639], [4.78917, 52.4444], [4.7859, 52.45295], [4.79185, 52.45367], [4.79811, 52.45437], [4.80582, 52.45523], [4.80718, 52.44918], [4.80769, 52.44822], [4.81411, 52.43783], [4.81475, 52.43602], [4.81544, 52.43395], [4.81559, 52.43016], [4.81461, 52.42746], [4.81307, 52.42691]]]]}}, {"type": "Feature", "properties": {"statcode": "WK047931", "statnaam": "Oud Koog a/d Zaan"}, "geometry": {"type": "MultiPolygon", "coordinates": [[[[4.81531, 52.46855], [4.81801, 52.46648], [4.81274, 52.46287], [4.81214, 52.45575], [4.80582, 52.45523], [4.80519, 52.46983], [4.81375, 52.47078], [4.81531, 52.46855]]]]}}, {"type": "Feature", "properties": {"statcode": "WK047932", "statnaam": "Westerkoog"}, "geometry": {"type": "MultiPolygon", "coordinates": [[[[4.79185, 52.45367], [4.7859, 52.45295], [4.78241, 52.46324], [4.78809, 52.46401], [4.78735, 52.46713], [4.79473, 52.468], [4.79755, 52.46877], [4.80519, 52.46983], [4.80582, 52.45523], [4.79811, 52.45437], [4.79185, 52.45367]]]]}}, {"type": "Feature", "properties": {"statcode": "WK047941", "statnaam": "Oud Zaandijk"}, "geometry": {"type": "MultiPolygon", "coordinates": [[[[4.81085, 52.47999], [4.81104, 52.47833], [4.81429, 52.4763], [4.81484, 52.47299], [4.81375, 52.47078], [4.80519, 52.46983], [4.80475, 52.47571], [4.80455, 52.47948], [4.80446, 52.48028], [4.81195, 52.48182], [4.81085, 52.47999]]]]}}, {"type": "Feature", "properties": {"statcode": "WK047942", "statnaam": "Rooswijk"}, "geometry": {"type": "MultiPolygon", "coordinates": [[[[4.79473, 52.468], [4.78735, 52.46713], [4.78629, 52.47007], [4.78357, 52.47562], [4.80446, 52.48028], [4.80455, 52.47948], [4.80475, 52.47571], [4.80519, 52.46983], [4.79755, 52.46877], [4.79473, 52.468]]]]}}, {"type": "Feature", "properties": {"statcode": "WK047951", "statnaam": "Wormerveer"}, "geometry": {"type": "MultiPolygon", "coordinates": [[[[4.79236, 52.49113], [4.79364, 52.49088], [4.79884, 52.49111], [4.81157, 52.48575], [4.81236, 52.48397], [4.81195, 52.48182], [4.80446, 52.48028], [4.78357, 52.47562], [4.7825, 52.47833], [4.785, 52.47893], [4.78383, 52.484], [4.78223, 52.48639], [4.78126, 52.48714], [4.771, 52.48555], [4.77108, 52.48592], [4.77263, 52.49323], [4.77391, 52.49779], [4.77674, 52.50518], [4.77628, 52.51351], [4.77528, 52.51942], [4.78248, 52.51958], [4.78471, 52.51944], [4.78497, 52.51942], [4.78497, 52.51942], [4.78986, 52.51924], [4.78876, 52.51111], [4.78975, 52.50943], [4.79334, 52.507], [4.794, 52.50329], [4.79462, 52.50041], [4.79508, 52.49622], [4.79335, 52.49395], [4.79159, 52.49214], [4.79236, 52.49113]]]]}}, {"type": "Feature", "properties": {"statcode": "WK047961", "statnaam": "Krommenie Oost"}, "geometry": {"type": "MultiPolygon", "coordinates": [[[[4.77391, 52.49779], [4.77263, 52.49323], [4.7652, 52.49396], [4.76122, 52.49439], [4.75847, 52.49461], [4.75462, 52.49504], [4.75527, 52.49818], [4.75823, 52.50277], [4.76444, 52.50794], [4.76848, 52.50684], [4.77674, 52.50518], [4.77391, 52.49779]]]]}}, {"type": "Feature", "properties": {"statcode": "WK047962", "statnaam": "Krommenie West"}, "geometry": {"type": "MultiPolygon", "coordinates": [[[[4.75243, 52.52123], [4.76123, 52.51855], [4.76362, 52.51971], [4.76703, 52.51887], [4.7672, 52.51975], [4.77528, 52.51942], [4.77628, 52.51351], [4.77674, 52.50518], [4.76848, 52.50684], [4.76444, 52.50794], [4.75823, 52.50277], [4.75527, 52.49818], [4.75462, 52.49504], [4.75223, 52.49559], [4.74179, 52.5007], [4.73989, 52.50171], [4.74637, 52.5061], [4.74841, 52.50766], [4.75067, 52.50829], [4.75277, 52.51059], [4.75225, 52.51108], [4.74846, 52.51498], [4.74825, 52.51532], [4.74814, 52.51706], [4.74828, 52.51747], [4.74973, 52.52008], [4.75243, 52.52123]]]]}}, {"type": "Feature", "properties": {"statcode": "WK047971", "statnaam": "Assendelft-Zuid"}, "geometry": {"type": "MultiPolygon", "coordinates": [[[[4.75381, 52.44002], [4.75008, 52.42964], [4.73921, 52.43106], [4.72198, 52.43334], [4.71097, 52.43619], [4.69081, 52.44688], [4.67485, 52.45552], [4.683, 52.46113], [4.68459, 52.46223], [4.68507, 52.46256], [4.68427, 52.46352], [4.68515, 52.46366], [4.69008, 52.46562], [4.69461, 52.46808], [4.69782, 52.47103], [4.69728, 52.47201], [4.69928, 52.47453], [4.69873, 52.47714], [4.70073, 52.48024], [4.70547, 52.48186], [4.70616, 52.48284], [4.70591, 52.48444], [4.70797, 52.48633], [4.70844, 52.48863], [4.71464, 52.4932], [4.72037, 52.49495], [4.72075, 52.49505], [4.73345, 52.48401], [4.74109, 52.47908], [4.75351, 52.47148], [4.76507, 52.4646], [4.76338, 52.46119], [4.75739, 52.45068], [4.75381, 52.44002]]]]}}, {"type": "Feature", "properties": {"statcode": "WK047972", "statnaam": "Assendelft-Noord"}, "geometry": {"type": "MultiPolygon", "coordinates": [[[[4.76936, 52.47491], [4.76507, 52.4646], [4.75351, 52.47148], [4.74109, 52.47908], [4.73345, 52.48401], [4.72075, 52.49505], [4.73158, 52.49633], [4.73989, 52.50171], [4.74179, 52.5007], [4.75223, 52.49559], [4.75462, 52.49504], [4.75847, 52.49461], [4.76122, 52.49439], [4.7652, 52.49396], [4.77263, 52.49323], [4.77108, 52.48592], [4.771, 52.48555], [4.76936, 52.47491]]]]}}, {"type": "Feature", "properties": {"statcode": "WK047981", "statnaam": "Westzaan"}, "geometry": {"type": "MultiPolygon", "coordinates": [[[[4.7842, 52.4286], [4.78348, 52.42641], [4.76754, 52.4285], [4.76476, 52.42778], [4.7532, 52.42924], [4.75008, 52.42964], [4.75381, 52.44002], [4.75739, 52.45068], [4.76338, 52.46119], [4.76507, 52.4646], [4.76936, 52.47491], [4.771, 52.48555], [4.78126, 52.48714], [4.78223, 52.48639], [4.78383, 52.484], [4.785, 52.47893], [4.7825, 52.47833], [4.78357, 52.47562], [4.78629, 52.47007], [4.78735, 52.46713], [4.78809, 52.46401], [4.78241, 52.46324], [4.7859, 52.45295], [4.78917, 52.4444], [4.79224, 52.43639], [4.79296, 52.43229], [4.78454, 52.43129], [4.78358, 52.43057], [4.7842, 52.4286]]]]}}]}