{"type": "FeatureCollection", "features": [{"type": "Feature", "properties": {"statcode": "BU04840101", "statnaam": "Gnephoek"}, "geometry": {"type": "MultiPolygon", "coordinates": [[[[4.64258, 52.1584], [4.64412, 52.15368], [4.64669, 52.14559], [4.64736, 52.1421], [4.63046, 52.13918], [4.62869, 52.13862], [4.62229, 52.14168], [4.61944, 52.14233], [4.61849, 52.14866], [4.62024, 52.15722], [4.61903, 52.15871], [4.63985, 52.16161], [4.64148, 52.16182], [4.64258, 52.1584]]]]}}, {"type": "Feature", "properties": {"statcode": "BU04840102", "statnaam": "Woubrugseweg"}, "geometry": {"type": "MultiPolygon", "coordinates": [[[[4.66359, 52.15653], [4.64811, 52.15817], [4.64258, 52.1584], [4.64148, 52.16182], [4.64552, 52.16201], [4.66534, 52.16243], [4.66359, 52.15653]]]]}}, {"type": "Feature", "properties": {"statcode": "BU04840103", "statnaam": "Heuvelweg"}, "geometry": {"type": "MultiPolygon", "coordinates": [[[[4.66359, 52.15653], [4.66346, 52.15603], [4.66331, 52.15544], [4.66081, 52.15564], [4.66056, 52.15507], [4.65503, 52.15601], [4.65068, 52.15645], [4.64811, 52.15817], [4.66359, 52.15653]]]]}}, {"type": "Feature", "properties": {"statcode": "BU04840104", "statnaam": "Weteringpark"}, "geometry": {"type": "MultiPolygon", "coordinates": [[[[4.64811, 52.15817], [4.65068, 52.15645], [4.64947, 52.15253], [4.64412, 52.15368], [4.64258, 52.1584], [4.64811, 52.15817]]]]}}, {"type": "Feature", "properties": {"statcode": "BU04840105", "statnaam": "Ambachtenbuurt-West"}, "geometry": {"type": "MultiPolygon", "coordinates": [[[[4.65503, 52.15601], [4.65252, 52.15156], [4.65132, 52.15183], [4.64947, 52.15253], [4.65068, 52.15645], [4.65503, 52.15601]]]]}}, {"type": "Feature", "properties": {"statcode": "BU04840106", "statnaam": "Ambachtenbuurt-Oost"}, "geometry": {"type": "MultiPolygon", "coordinates": [[[[4.66056, 52.15507], [4.6589, 52.15007], [4.65252, 52.15156], [4.65503, 52.15601], [4.66056, 52.15507]]]]}}, {"type": "Feature", "properties": {"statcode": "BU04840107", "statnaam": "Bedrijventerrein Heimanswetering"}, "geometry": {"type": "MultiPolygon", "coordinates": [[[[4.64947, 52.15253], [4.65132, 52.15183], [4.65076, 52.14541], [4.64669, 52.14559], [4.64412, 52.15368], [4.64947, 52.15253]]]]}}, {"type": "Feature", "properties": {"statcode": "BU04840108", "statnaam": "Stromenbuurt"}, "geometry": {"type": "MultiPolygon", "coordinates": [[[[4.65252, 52.15156], [4.6589, 52.15007], [4.65822, 52.14593], [4.65076, 52.14541], [4.65132, 52.15183], [4.65252, 52.15156]]]]}}, {"type": "Feature", "properties": {"statcode": "BU04840109", "statnaam": "Nuovaweg"}, "geometry": {"type": "MultiPolygon", "coordinates": [[[[4.65076, 52.14541], [4.65091, 52.14254], [4.64883, 52.14234], [4.64736, 52.1421], [4.64669, 52.14559], [4.65076, 52.14541]]]]}}, {"type": "Feature", "properties": {"statcode": "BU04840110", "statnaam": "Groenoord"}, "geometry": {"type": "MultiPolygon", "coordinates": [[[[4.65742, 52.14276], [4.65718, 52.14189], [4.65091, 52.14254], [4.65076, 52.14541], [4.65822, 52.14593], [4.65742, 52.14276]]]]}}, {"type": "Feature", "properties": {"statcode": "BU04840111", "statnaam": "De Heul"}, "geometry": {"type": "MultiPolygon", "coordinates": [[[[4.66244, 52.14249], [4.666, 52.14004], [4.66246, 52.13952], [4.6605, 52.14112], [4.65718, 52.14189], [4.65742, 52.14276], [4.66244, 52.14249]]]]}}, {"type": "Feature", "properties": {"statcode": "BU04840201", "statnaam": "Ridderbuurt"}, "geometry": {"type": "MultiPolygon", "coordinates": [[[[4.69974, 52.15707], [4.69589, 52.15177], [4.69129, 52.14993], [4.68294, 52.15273], [4.67386, 52.15447], [4.66552, 52.15572], [4.66346, 52.15603], [4.66359, 52.15653], [4.66534, 52.16243], [4.67984, 52.16275], [4.68121, 52.1675], [4.69823, 52.15836], [4.69974, 52.15707]]]]}}, {"type": "Feature", "properties": {"statcode": "BU04840202", "statnaam": "Herenweg"}, "geometry": {"type": "MultiPolygon", "coordinates": [[[[4.66552, 52.15572], [4.6649, 52.15346], [4.66348, 52.15361], [4.66311, 52.15223], [4.66232, 52.14929], [4.6589, 52.15007], [4.66056, 52.15507], [4.66081, 52.15564], [4.66331, 52.15544], [4.66346, 52.15603], [4.66552, 52.15572]]]]}}, {"type": "Feature", "properties": {"statcode": "BU04840203", "statnaam": "Horstenbuurt-Noord"}, "geometry": {"type": "MultiPolygon", "coordinates": [[[[4.67386, 52.15447], [4.67194, 52.15165], [4.67143, 52.1509], [4.66311, 52.15223], [4.66348, 52.15361], [4.6649, 52.15346], [4.66552, 52.15572], [4.67386, 52.15447]]]]}}, {"type": "Feature", "properties": {"statcode": "BU04840204", "statnaam": "Horstenbuurt-Zuid"}, "geometry": {"type": "MultiPolygon", "coordinates": [[[[4.67143, 52.1509], [4.66936, 52.14794], [4.66477, 52.14881], [4.66232, 52.14929], [4.66311, 52.15223], [4.67143, 52.1509]]]]}}, {"type": "Feature", "properties": {"statcode": "BU04840205", "statnaam": "Burgtenbuurt"}, "geometry": {"type": "MultiPolygon", "coordinates": [[[[4.67701, 52.14977], [4.67761, 52.14674], [4.66936, 52.14794], [4.67143, 52.1509], [4.67194, 52.15165], [4.67701, 52.14977]]]]}}, {"type": "Feature", "properties": {"statcode": "BU04840206", "statnaam": "Preludeweg"}, "geometry": {"type": "MultiPolygon", "coordinates": [[[[4.66232, 52.14929], [4.66477, 52.14881], [4.66394, 52.14717], [4.66318, 52.14532], [4.65822, 52.14593], [4.6589, 52.15007], [4.66232, 52.14929]]]]}}, {"type": "Feature", "properties": {"statcode": "BU04840207", "statnaam": "Componistenbuurt-Noord"}, "geometry": {"type": "MultiPolygon", "coordinates": [[[[4.66936, 52.14794], [4.67761, 52.14674], [4.67731, 52.14517], [4.66394, 52.14717], [4.66477, 52.14881], [4.66936, 52.14794]]]]}}, {"type": "Feature", "properties": {"statcode": "BU04840208", "statnaam": "Componistenbuurt-Zuid"}, "geometry": {"type": "MultiPolygon", "coordinates": [[[[4.67731, 52.14517], [4.67603, 52.14326], [4.66318, 52.14532], [4.66394, 52.14717], [4.67731, 52.14517]]]]}}, {"type": "Feature", "properties": {"statcode": "BU04840209", "statnaam": "Rijnoord"}, "geometry": {"type": "MultiPolygon", "coordinates": [[[[4.66318, 52.14532], [4.66226, 52.14336], [4.66244, 52.14249], [4.65742, 52.14276], [4.65822, 52.14593], [4.66318, 52.14532]]]]}}, {"type": "Feature", "properties": {"statcode": "BU04840210", "statnaam": "Planetenbuurt-Noord"}, "geometry": {"type": "MultiPolygon", "coordinates": [[[[4.67603, 52.14326], [4.67433, 52.14111], [4.66226, 52.14336], [4.66318, 52.14532], [4.67603, 52.14326]]]]}}, {"type": "Feature", "properties": {"statcode": "BU04840211", "statnaam": "Planetenbuurt-Zuid"}, "geometry": {"type": "MultiPolygon", "coordinates": [[[[4.67433, 52.14111], [4.67363, 52.13945], [4.67342, 52.13948], [4.666, 52.14004], [4.66244, 52.14249], [4.66226, 52.14336], [4.67433, 52.14111]]]]}}, {"type": "Feature", "properties": {"statcode": "BU04840301", "statnaam": "Steinenbuurt"}, "geometry": {"type": "MultiPolygon", "coordinates": [[[[4.68294, 52.15273], [4.68245, 52.15197], [4.6802, 52.15163], [4.67701, 52.14977], [4.67194, 52.15165], [4.67386, 52.15447], [4.68294, 52.15273]]]]}}, {"type": "Feature", "properties": {"statcode": "BU04840302", "statnaam": "Paddestoelenbuurt"}, "geometry": {"type": "MultiPolygon", "coordinates": [[[[4.69129, 52.14993], [4.68988, 52.14965], [4.68227, 52.14755], [4.67761, 52.14674], [4.67701, 52.14977], [4.6802, 52.15163], [4.68245, 52.15197], [4.68294, 52.15273], [4.69129, 52.14993]]]]}}, {"type": "Feature", "properties": {"statcode": "BU04840303", "statnaam": "Ericapark"}, "geometry": {"type": "MultiPolygon", "coordinates": [[[[4.6823, 52.14725], [4.68247, 52.14323], [4.67603, 52.14326], [4.67731, 52.14517], [4.67761, 52.14674], [4.68227, 52.14755], [4.6823, 52.14725]]]]}}, {"type": "Feature", "properties": {"statcode": "BU04840304", "statnaam": "Weidebloemenbuurt-Noord"}, "geometry": {"type": "MultiPolygon", "coordinates": [[[[4.68938, 52.14539], [4.68778, 52.14531], [4.68769, 52.14734], [4.6823, 52.14725], [4.68227, 52.14755], [4.68988, 52.14965], [4.68938, 52.14539]]]]}}, {"type": "Feature", "properties": {"statcode": "BU04840305", "statnaam": "Weidebloemenbuurt-Zuid"}, "geometry": {"type": "MultiPolygon", "coordinates": [[[[4.68938, 52.14539], [4.68963, 52.14313], [4.68687, 52.14205], [4.68512, 52.14309], [4.68247, 52.14323], [4.6823, 52.14725], [4.68769, 52.14734], [4.68778, 52.14531], [4.68938, 52.14539]]]]}}, {"type": "Feature", "properties": {"statcode": "BU04840306", "statnaam": "Edelstenenbuurt"}, "geometry": {"type": "MultiPolygon", "coordinates": [[[[4.68247, 52.14323], [4.68292, 52.14166], [4.68003, 52.13826], [4.67363, 52.13945], [4.67433, 52.14111], [4.67603, 52.14326], [4.68247, 52.14323]]]]}}, {"type": "Feature", "properties": {"statcode": "BU04840307", "statnaam": "Kromme Aar"}, "geometry": {"type": "MultiPolygon", "coordinates": [[[[4.70518, 52.15003], [4.70416, 52.1481], [4.70403, 52.14464], [4.69235, 52.13631], [4.68895, 52.13363], [4.68003, 52.13826], [4.68292, 52.14166], [4.68247, 52.14323], [4.68512, 52.14309], [4.68687, 52.14205], [4.68963, 52.14313], [4.68938, 52.14539], [4.68988, 52.14965], [4.69129, 52.14993], [4.69589, 52.15177], [4.69974, 52.15707], [4.70567, 52.15216], [4.70537, 52.15201], [4.7055, 52.15184], [4.70592, 52.15169], [4.70518, 52.15003]]]]}}, {"type": "Feature", "properties": {"statcode": "BU04840401", "statnaam": "Bedrijventerrein Rijnhaven-West"}, "geometry": {"type": "MultiPolygon", "coordinates": [[[[4.63669, 52.12981], [4.62863, 52.12887], [4.62681, 52.13152], [4.62425, 52.13162], [4.625, 52.13013], [4.62401, 52.12994], [4.62208, 52.13308], [4.62535, 52.1365], [4.62869, 52.13862], [4.63046, 52.13918], [4.63669, 52.12981]]]]}}, {"type": "Feature", "properties": {"statcode": "BU04840402", "statnaam": "Bedrijventerrein Rijnhaven-Oost"}, "geometry": {"type": "MultiPolygon", "coordinates": [[[[4.65159, 52.13447], [4.6512, 52.13392], [4.64399, 52.13394], [4.64501, 52.13037], [4.63669, 52.12981], [4.63046, 52.13918], [4.64736, 52.1421], [4.64883, 52.14234], [4.65153, 52.13905], [4.65159, 52.13447]]]]}}, {"type": "Feature", "properties": {"statcode": "BU04840403", "statnaam": "Zeeheldenbuurt"}, "geometry": {"type": "MultiPolygon", "coordinates": [[[[4.65718, 52.14189], [4.65648, 52.13448], [4.65159, 52.13447], [4.65153, 52.13905], [4.64883, 52.14234], [4.65091, 52.14254], [4.65718, 52.14189]]]]}}, {"type": "Feature", "properties": {"statcode": "BU04840404", "statnaam": "Bomenbuurt"}, "geometry": {"type": "MultiPolygon", "coordinates": [[[[4.6512, 52.13392], [4.65041, 52.12933], [4.64501, 52.13037], [4.64399, 52.13394], [4.6512, 52.13392]]]]}}, {"type": "Feature", "properties": {"statcode": "BU04840405", "statnaam": "Bospark"}, "geometry": {"type": "MultiPolygon", "coordinates": [[[[4.65648, 52.13448], [4.65782, 52.12901], [4.65344, 52.12796], [4.65141, 52.12896], [4.65041, 52.12933], [4.6512, 52.13392], [4.65159, 52.13447], [4.65648, 52.13448]]]]}}, {"type": "Feature", "properties": {"statcode": "BU04840501", "statnaam": "Emmalaan"}, "geometry": {"type": "MultiPolygon", "coordinates": [[[[4.66246, 52.13952], [4.66307, 52.13483], [4.65648, 52.13448], [4.65718, 52.14189], [4.6605, 52.14112], [4.66246, 52.13952]]]]}}, {"type": "Feature", "properties": {"statcode": "BU04840502", "statnaam": "Burgemeester Visserpark"}, "geometry": {"type": "MultiPolygon", "coordinates": [[[[4.6629, 52.13046], [4.66268, 52.1288], [4.65782, 52.12901], [4.65648, 52.13448], [4.66307, 52.13483], [4.6629, 52.13046]]]]}}, {"type": "Feature", "properties": {"statcode": "BU04840503", "statnaam": "Paradijslaan"}, "geometry": {"type": "MultiPolygon", "coordinates": [[[[4.66268, 52.1288], [4.66284, 52.12557], [4.65717, 52.12484], [4.65344, 52.12796], [4.65782, 52.12901], [4.66268, 52.1288]]]]}}, {"type": "Feature", "properties": {"statcode": "BU04840504", "statnaam": "Hazeveld"}, "geometry": {"type": "MultiPolygon", "coordinates": [[[[4.66546, 52.12175], [4.66206, 52.12005], [4.66182, 52.12029], [4.65717, 52.12484], [4.66284, 52.12557], [4.66376, 52.12323], [4.66546, 52.12175]]]]}}, {"type": "Feature", "properties": {"statcode": "BU04840505", "statnaam": "Gouwsluis"}, "geometry": {"type": "MultiPolygon", "coordinates": [[[[4.67431, 52.11915], [4.67376, 52.11749], [4.66881, 52.11798], [4.66529, 52.11721], [4.66528, 52.11721], [4.66206, 52.12005], [4.66546, 52.12175], [4.67431, 52.11915]]]]}}, {"type": "Feature", "properties": {"statcode": "BU04840506", "statnaam": "Bedrijventerrein De Schans I"}, "geometry": {"type": "MultiPolygon", "coordinates": [[[[4.67376, 52.11749], [4.67239, 52.11452], [4.66529, 52.11721], [4.66881, 52.11798], [4.67376, 52.11749]]]]}}, {"type": "Feature", "properties": {"statcode": "BU04840601", "statnaam": "Nieuwe Sloot"}, "geometry": {"type": "MultiPolygon", "coordinates": [[[[4.67342, 52.13948], [4.67209, 52.13714], [4.66914, 52.13576], [4.66307, 52.13483], [4.66246, 52.13952], [4.666, 52.14004], [4.67342, 52.13948]]]]}}, {"type": "Feature", "properties": {"statcode": "BU04840602", "statnaam": "Lijsterlaan"}, "geometry": {"type": "MultiPolygon", "coordinates": [[[[4.67207, 52.13122], [4.6629, 52.13046], [4.66307, 52.13483], [4.66914, 52.13576], [4.67207, 52.13122]]]]}}, {"type": "Feature", "properties": {"statcode": "BU04840603", "statnaam": "Van Boetzelaerstraat"}, "geometry": {"type": "MultiPolygon", "coordinates": [[[[4.67307, 52.12671], [4.6662, 52.12555], [4.66284, 52.12557], [4.66268, 52.1288], [4.6629, 52.13046], [4.67207, 52.13122], [4.67307, 52.12671]]]]}}, {"type": "Feature", "properties": {"statcode": "BU04840604", "statnaam": "Beerendrecht"}, "geometry": {"type": "MultiPolygon", "coordinates": [[[[4.67575, 52.12057], [4.67431, 52.11915], [4.66546, 52.12175], [4.66376, 52.12323], [4.66284, 52.12557], [4.6662, 52.12555], [4.67307, 52.12671], [4.67439, 52.12132], [4.67575, 52.12057]]]]}}, {"type": "Feature", "properties": {"statcode": "BU04840605", "statnaam": "De Bijlen"}, "geometry": {"type": "MultiPolygon", "coordinates": [[[[4.67363, 52.13945], [4.68003, 52.13826], [4.68895, 52.13363], [4.67575, 52.12057], [4.67439, 52.12132], [4.67307, 52.12671], [4.67207, 52.13122], [4.66914, 52.13576], [4.67209, 52.13714], [4.67342, 52.13948], [4.67363, 52.13945]]]]}}, {"type": "Feature", "properties": {"statcode": "BU04840701", "statnaam": "Steekterbuurt"}, "geometry": {"type": "MultiPolygon", "coordinates": [[[[4.72304, 52.1097], [4.72072, 52.108], [4.71196, 52.11039], [4.71, 52.11007], [4.70662, 52.10659], [4.67239, 52.11452], [4.67376, 52.11749], [4.67431, 52.11915], [4.67575, 52.12057], [4.68342, 52.11937], [4.69073, 52.11941], [4.69806, 52.11721], [4.70946, 52.11536], [4.71155, 52.11675], [4.71071, 52.11434], [4.72258, 52.10985], [4.72382, 52.11065], [4.72304, 52.1097]]]]}}, {"type": "Feature", "properties": {"statcode": "BU04840702", "statnaam": "Hoogendoornlaan"}, "geometry": {"type": "MultiPolygon", "coordinates": [[[[4.67055, 52.11146], [4.67239, 52.11452], [4.70662, 52.10659], [4.71293, 52.10514], [4.71253, 52.1045], [4.7159, 52.10268], [4.71954, 52.10211], [4.72025, 52.1026], [4.72452, 52.0996], [4.72444, 52.09958], [4.70473, 52.09524], [4.70507, 52.09464], [4.6638, 52.09955], [4.67055, 52.11146]]]]}}, {"type": "Feature", "properties": {"statcode": "BU04840801", "statnaam": "Bedrijventerrein Molenwetering"}, "geometry": {"type": "MultiPolygon", "coordinates": [[[[4.63669, 52.12981], [4.64501, 52.13037], [4.65041, 52.12933], [4.65141, 52.12896], [4.64722, 52.12703], [4.63969, 52.12359], [4.63353, 52.12115], [4.631, 52.12023], [4.62812, 52.12215], [4.62401, 52.12994], [4.625, 52.13013], [4.62425, 52.13162], [4.62681, 52.13152], [4.62863, 52.12887], [4.63669, 52.12981]]]]}}, {"type": "Feature", "properties": {"statcode": "BU04840802", "statnaam": "Europaplein"}, "geometry": {"type": "MultiPolygon", "coordinates": [[[[4.65344, 52.12796], [4.65717, 52.12484], [4.65325, 52.12343], [4.65134, 52.12344], [4.65014, 52.1238], [4.64722, 52.12703], [4.65141, 52.12896], [4.65344, 52.12796]]]]}}, {"type": "Feature", "properties": {"statcode": "BU04840803", "statnaam": "Evenaar-West"}, "geometry": {"type": "MultiPolygon", "coordinates": [[[[4.65014, 52.1238], [4.64421, 52.12027], [4.63969, 52.12359], [4.64722, 52.12703], [4.65014, 52.1238]]]]}}, {"type": "Feature", "properties": {"statcode": "BU04840804", "statnaam": "De Oude Wereld-West"}, "geometry": {"type": "MultiPolygon", "coordinates": [[[[4.65134, 52.12344], [4.64875, 52.11769], [4.64565, 52.11846], [4.64309, 52.1195], [4.64421, 52.12027], [4.65014, 52.1238], [4.65134, 52.12344]]]]}}, {"type": "Feature", "properties": {"statcode": "BU04840805", "statnaam": "De Oude Wereld-Oost"}, "geometry": {"type": "MultiPolygon", "coordinates": [[[[4.65325, 52.12343], [4.65528, 52.11848], [4.65399, 52.11735], [4.64875, 52.11769], [4.65134, 52.12344], [4.65325, 52.12343]]]]}}, {"type": "Feature", "properties": {"statcode": "BU04840806", "statnaam": "Evenaar-Oost"}, "geometry": {"type": "MultiPolygon", "coordinates": [[[[4.66182, 52.12029], [4.65806, 52.11899], [4.65528, 52.11848], [4.65325, 52.12343], [4.65717, 52.12484], [4.66182, 52.12029]]]]}}, {"type": "Feature", "properties": {"statcode": "BU04840807", "statnaam": "Zefierzijde"}, "geometry": {"type": "MultiPolygon", "coordinates": [[[[4.64421, 52.12027], [4.64309, 52.1195], [4.63926, 52.11692], [4.63353, 52.12115], [4.63969, 52.12359], [4.64421, 52.12027]]]]}}, {"type": "Feature", "properties": {"statcode": "BU04840808", "statnaam": "Vroonhoevebuurt"}, "geometry": {"type": "MultiPolygon", "coordinates": [[[[4.64565, 52.11846], [4.64143, 52.11545], [4.63926, 52.11692], [4.64309, 52.1195], [4.64565, 52.11846]]]]}}, {"type": "Feature", "properties": {"statcode": "BU04840809", "statnaam": "Archeon"}, "geometry": {"type": "MultiPolygon", "coordinates": [[[[4.64875, 52.11769], [4.65399, 52.11735], [4.65384, 52.11388], [4.65579, 52.11385], [4.65925, 52.11249], [4.6584, 52.11024], [4.65256, 52.10989], [4.64809, 52.1103], [4.64276, 52.1116], [4.63862, 52.11345], [4.64143, 52.11545], [4.64565, 52.11846], [4.64875, 52.11769]]]]}}, {"type": "Feature", "properties": {"statcode": "BU04840810", "statnaam": "Polderpeil-West"}, "geometry": {"type": "MultiPolygon", "coordinates": [[[[4.66197, 52.11483], [4.65925, 52.11249], [4.65579, 52.11385], [4.65384, 52.11388], [4.65399, 52.11735], [4.65528, 52.11848], [4.65806, 52.11899], [4.66197, 52.11483]]]]}}, {"type": "Feature", "properties": {"statcode": "BU04840811", "statnaam": "Polderpeil-Oost"}, "geometry": {"type": "MultiPolygon", "coordinates": [[[[4.66206, 52.12005], [4.66528, 52.11721], [4.66197, 52.11483], [4.65806, 52.11899], [4.66182, 52.12029], [4.66206, 52.12005]]]]}}, {"type": "Feature", "properties": {"statcode": "BU04840812", "statnaam": "Bedrijventerrein De Schans II"}, "geometry": {"type": "MultiPolygon", "coordinates": [[[[4.67239, 52.11452], [4.67055, 52.11146], [4.6584, 52.11024], [4.65925, 52.11249], [4.66197, 52.11483], [4.66528, 52.11721], [4.66529, 52.11721], [4.67239, 52.11452]]]]}}, {"type": "Feature", "properties": {"statcode": "BU04840813", "statnaam": "Wagenburg"}, "geometry": {"type": "MultiPolygon", "coordinates": [[[[4.63926, 52.11692], [4.64143, 52.11545], [4.63862, 52.11345], [4.631, 52.12023], [4.63353, 52.12115], [4.63926, 52.11692]]]]}}, {"type": "Feature", "properties": {"statcode": "BU04840901", "statnaam": "Rietveldsepad"}, "geometry": {"type": "MultiPolygon", "coordinates": [[[[4.631, 52.12023], [4.63862, 52.11345], [4.64276, 52.1116], [4.64809, 52.1103], [4.65256, 52.10989], [4.6584, 52.11024], [4.67055, 52.11146], [4.6638, 52.09955], [4.66352, 52.09832], [4.65409, 52.09901], [4.64113, 52.09748], [4.6304, 52.11801], [4.62812, 52.12215], [4.631, 52.12023]]]]}}, {"type": "Feature", "properties": {"statcode": "BU04843101", "statnaam": "Noordpolder"}, "geometry": {"type": "MultiPolygon", "coordinates": [[[[4.54191, 52.11866], [4.54888, 52.11663], [4.55333, 52.11272], [4.55439, 52.11042], [4.55348, 52.10834], [4.5502, 52.10536], [4.55095, 52.09528], [4.55165, 52.07831], [4.55166, 52.07803], [4.5468, 52.07831], [4.54244, 52.0776], [4.53602, 52.07691], [4.53032, 52.07997], [4.5301, 52.08008], [4.53055, 52.08051], [4.53457, 52.0835], [4.53713, 52.08395], [4.5365, 52.10196], [4.53532, 52.12043], [4.54191, 52.11866]]]]}}, {"type": "Feature", "properties": {"statcode": "BU04843102", "statnaam": "Benthuizen Dorp-West"}, "geometry": {"type": "MultiPolygon", "coordinates": [[[[4.54356, 52.07364], [4.53798, 52.07357], [4.53517, 52.07446], [4.5339, 52.07522], [4.53404, 52.07539], [4.53418, 52.07556], [4.53602, 52.07691], [4.54244, 52.0776], [4.54356, 52.07364]]]]}}, {"type": "Feature", "properties": {"statcode": "BU04843103", "statnaam": "Benthuizen Dorp-Oost"}, "geometry": {"type": "MultiPolygon", "coordinates": [[[[4.55166, 52.07803], [4.55193, 52.07375], [4.54356, 52.07364], [4.54244, 52.0776], [4.5468, 52.07831], [4.55166, 52.07803]]]]}}, {"type": "Feature", "properties": {"statcode": "BU04843104", "statnaam": "Bentwoud"}, "geometry": {"type": "MultiPolygon", "coordinates": [[[[4.57957, 52.07791], [4.58798, 52.07765], [4.60702, 52.07705], [4.60743, 52.06553], [4.56592, 52.05923], [4.56504, 52.05857], [4.55781, 52.06174], [4.55718, 52.06124], [4.55586, 52.06186], [4.55277, 52.06331], [4.55321, 52.06383], [4.54677, 52.06699], [4.54273, 52.06889], [4.53949, 52.07031], [4.53534, 52.07229], [4.53369, 52.07305], [4.53517, 52.07446], [4.53798, 52.07357], [4.54356, 52.07364], [4.55193, 52.07375], [4.55166, 52.07803], [4.55165, 52.07831], [4.558, 52.07858], [4.57957, 52.07791]]]]}}, {"type": "Feature", "properties": {"statcode": "BU04844501", "statnaam": "Noordeinde"}, "geometry": {"type": "MultiPolygon", "coordinates": [[[[4.72844, 52.14383], [4.71893, 52.13697], [4.71991, 52.13584], [4.70811, 52.13239], [4.69423, 52.13544], [4.69235, 52.13631], [4.70403, 52.14464], [4.705, 52.14476], [4.72393, 52.15608], [4.72737, 52.15152], [4.72844, 52.14383]]]]}}, {"type": "Feature", "properties": {"statcode": "BU04844502", "statnaam": "Hoge Dijk"}, "geometry": {"type": "MultiPolygon", "coordinates": [[[[4.76008, 52.13102], [4.75885, 52.12866], [4.75871, 52.12854], [4.73436, 52.1364], [4.73156, 52.13864], [4.72844, 52.14383], [4.72737, 52.15152], [4.72393, 52.15608], [4.72419, 52.15622], [4.72427, 52.1561], [4.72464, 52.15615], [4.72607, 52.15641], [4.72622, 52.158], [4.72681, 52.159], [4.72957, 52.15967], [4.74184, 52.16267], [4.75902, 52.13514], [4.76008, 52.13102]]]]}}, {"type": "Feature", "properties": {"statcode": "BU04844503", "statnaam": "Aarlanderveen Dorp"}, "geometry": {"type": "MultiPolygon", "coordinates": [[[[4.73156, 52.13864], [4.7244, 52.13368], [4.71991, 52.13584], [4.71893, 52.13697], [4.72844, 52.14383], [4.73156, 52.13864]]]]}}, {"type": "Feature", "properties": {"statcode": "BU04844504", "statnaam": "Zuideinde"}, "geometry": {"type": "MultiPolygon", "coordinates": [[[[4.73436, 52.1364], [4.75871, 52.12854], [4.75664, 52.12379], [4.75324, 52.11944], [4.74074, 52.10809], [4.73789, 52.10909], [4.73105, 52.10841], [4.72304, 52.1097], [4.72382, 52.11065], [4.72258, 52.10985], [4.71071, 52.11434], [4.71155, 52.11675], [4.70946, 52.11536], [4.69806, 52.11721], [4.69073, 52.11941], [4.68342, 52.11937], [4.67575, 52.12057], [4.68895, 52.13363], [4.69235, 52.13631], [4.69423, 52.13544], [4.70811, 52.13239], [4.71991, 52.13584], [4.7244, 52.13368], [4.73156, 52.13864], [4.73436, 52.1364]]]]}}, {"type": "Feature", "properties": {"statcode": "BU04847001", "statnaam": "Nesse"}, "geometry": {"type": "MultiPolygon", "coordinates": [[[[4.66352, 52.09832], [4.66298, 52.09239], [4.66215, 52.08595], [4.64705, 52.0864], [4.64113, 52.09748], [4.65409, 52.09901], [4.66352, 52.09832]]]]}}, {"type": "Feature", "properties": {"statcode": "BU04847002", "statnaam": "Rijneveld-Noord"}, "geometry": {"type": "MultiPolygon", "coordinates": [[[[4.70507, 52.09464], [4.707, 52.0933], [4.70256, 52.08812], [4.69558, 52.09095], [4.68661, 52.09243], [4.68416, 52.09267], [4.68351, 52.09118], [4.66298, 52.09239], [4.66352, 52.09832], [4.6638, 52.09955], [4.70507, 52.09464]]]]}}, {"type": "Feature", "properties": {"statcode": "BU04847003", "statnaam": "Rijneveld-Zuid"}, "geometry": {"type": "MultiPolygon", "coordinates": [[[[4.70256, 52.08812], [4.70024, 52.08528], [4.69935, 52.08243], [4.69013, 52.08426], [4.68929, 52.08493], [4.68205, 52.0852], [4.66215, 52.08595], [4.66298, 52.09239], [4.68351, 52.09118], [4.68416, 52.09267], [4.68661, 52.09243], [4.69558, 52.09095], [4.70256, 52.08812]]]]}}, {"type": "Feature", "properties": {"statcode": "BU04847004", "statnaam": "Laag Boskoop"}, "geometry": {"type": "MultiPolygon", "coordinates": [[[[4.64705, 52.0864], [4.66215, 52.08595], [4.66167, 52.08164], [4.6474, 52.08231], [4.64628, 52.07525], [4.63158, 52.0763], [4.63179, 52.078], [4.63296, 52.07796], [4.63376, 52.08259], [4.63211, 52.08704], [4.64705, 52.0864]]]]}}, {"type": "Feature", "properties": {"statcode": "BU04847005", "statnaam": "Draaistok"}, "geometry": {"type": "MultiPolygon", "coordinates": [[[[4.66167, 52.08164], [4.66024, 52.07425], [4.64628, 52.07525], [4.6474, 52.08231], [4.66167, 52.08164]]]]}}, {"type": "Feature", "properties": {"statcode": "BU04847006", "statnaam": "Biezen-West"}, "geometry": {"type": "MultiPolygon", "coordinates": [[[[4.68205, 52.0852], [4.68131, 52.08483], [4.67788, 52.07378], [4.66024, 52.07425], [4.66167, 52.08164], [4.66215, 52.08595], [4.68205, 52.0852]]]]}}, {"type": "Feature", "properties": {"statcode": "BU04847007", "statnaam": "Biezen-Oost"}, "geometry": {"type": "MultiPolygon", "coordinates": [[[[4.69013, 52.08426], [4.68639, 52.07267], [4.67788, 52.07378], [4.68131, 52.08483], [4.68205, 52.0852], [4.68929, 52.08493], [4.69013, 52.08426]]]]}}, {"type": "Feature", "properties": {"statcode": "BU04847008", "statnaam": "Zonnedauw"}, "geometry": {"type": "MultiPolygon", "coordinates": [[[[4.63158, 52.0763], [4.64628, 52.07525], [4.64579, 52.07204], [4.64114, 52.07255], [4.63877, 52.0736], [4.63688, 52.07353], [4.62531, 52.07445], [4.62532, 52.07644], [4.63158, 52.0763]]]]}}, {"type": "Feature", "properties": {"statcode": "BU04847009", "statnaam": "Snijdelwijk"}, "geometry": {"type": "MultiPolygon", "coordinates": [[[[4.64579, 52.07204], [4.64577, 52.07082], [4.6459, 52.06979], [4.6464, 52.0669], [4.63762, 52.06801], [4.63688, 52.07353], [4.63877, 52.0736], [4.64114, 52.07255], [4.64579, 52.07204]]]]}}, {"type": "Feature", "properties": {"statcode": "BU04847010", "statnaam": "Vogelbuurt"}, "geometry": {"type": "MultiPolygon", "coordinates": [[[[4.6464, 52.0669], [4.64686, 52.06428], [4.63822, 52.06482], [4.63762, 52.06801], [4.6464, 52.0669]]]]}}, {"type": "Feature", "properties": {"statcode": "BU04847011", "statnaam": "Voorofschebuurt"}, "geometry": {"type": "MultiPolygon", "coordinates": [[[[4.66024, 52.07425], [4.66045, 52.07277], [4.65589, 52.07292], [4.65261, 52.07027], [4.64577, 52.07082], [4.64579, 52.07204], [4.64628, 52.07525], [4.66024, 52.07425]]]]}}, {"type": "Feature", "properties": {"statcode": "BU04847012", "statnaam": "Appelbuurt"}, "geometry": {"type": "MultiPolygon", "coordinates": [[[[4.66045, 52.07277], [4.65925, 52.06876], [4.6459, 52.06979], [4.64577, 52.07082], [4.65261, 52.07027], [4.65589, 52.07292], [4.66045, 52.07277]]]]}}, {"type": "Feature", "properties": {"statcode": "BU04847013", "statnaam": "Botanicusbuurt"}, "geometry": {"type": "MultiPolygon", "coordinates": [[[[4.65925, 52.06876], [4.65853, 52.06612], [4.65915, 52.06402], [4.65915, 52.06401], [4.6469, 52.06428], [4.64686, 52.06428], [4.6464, 52.0669], [4.6459, 52.06979], [4.65925, 52.06876]]]]}}, {"type": "Feature", "properties": {"statcode": "BU04847014", "statnaam": "Zuidwijk"}, "geometry": {"type": "MultiPolygon", "coordinates": [[[[4.68535, 52.06938], [4.68312, 52.06261], [4.68197, 52.0591], [4.6793, 52.05922], [4.679, 52.0602], [4.67725, 52.06552], [4.66566, 52.06572], [4.66591, 52.06395], [4.65997, 52.0641], [4.65915, 52.06402], [4.65853, 52.06612], [4.65925, 52.06876], [4.66045, 52.07277], [4.66024, 52.07425], [4.67788, 52.07378], [4.68639, 52.07267], [4.68535, 52.06938]]]]}}, {"type": "Feature", "properties": {"statcode": "BU04847015", "statnaam": "Spoelwijk"}, "geometry": {"type": "MultiPolygon", "coordinates": [[[[4.7131, 52.08434], [4.71551, 52.08119], [4.71303, 52.07693], [4.7049, 52.07684], [4.69683, 52.07401], [4.69441, 52.06777], [4.68626, 52.06953], [4.68615, 52.06921], [4.68535, 52.06938], [4.68639, 52.07267], [4.69013, 52.08426], [4.69935, 52.08243], [4.70024, 52.08528], [4.70256, 52.08812], [4.707, 52.0933], [4.70876, 52.09364], [4.7131, 52.08434]]]]}}, {"type": "Feature", "properties": {"statcode": "BU04847101", "statnaam": "Zwammerdam Dorp"}, "geometry": {"type": "MultiPolygon", "coordinates": [[[[4.72072, 52.108], [4.72304, 52.1097], [4.73105, 52.10841], [4.73789, 52.10909], [4.74074, 52.10809], [4.73886, 52.10651], [4.74022, 52.10465], [4.73452, 52.10262], [4.73481, 52.10188], [4.73307, 52.10148], [4.72473, 52.1059], [4.72072, 52.108]]]]}}, {"type": "Feature", "properties": {"statcode": "BU04847102", "statnaam": "Hooge Burch"}, "geometry": {"type": "MultiPolygon", "coordinates": [[[[4.72072, 52.108], [4.72473, 52.1059], [4.71752, 52.10382], [4.71293, 52.10514], [4.70662, 52.10659], [4.71, 52.11007], [4.71196, 52.11039], [4.72072, 52.108]]]]}}, {"type": "Feature", "properties": {"statcode": "BU04847103", "statnaam": "De Burcht"}, "geometry": {"type": "MultiPolygon", "coordinates": [[[[4.73307, 52.10148], [4.72452, 52.0996], [4.72025, 52.1026], [4.71954, 52.10211], [4.7159, 52.10268], [4.71253, 52.1045], [4.71293, 52.10514], [4.71752, 52.10382], [4.72473, 52.1059], [4.73307, 52.10148]]]]}}, {"type": "Feature", "properties": {"statcode": "BU04849101", "statnaam": "Buitengebied Hazerswoude-Dorp"}, "geometry": {"type": "MultiPolygon", "coordinates": [[[[4.55985, 52.12535], [4.57567, 52.12364], [4.58387, 52.12382], [4.58427, 52.12201], [4.58975, 52.12271], [4.59599, 52.12351], [4.60448, 52.12459], [4.60166, 52.11246], [4.59875, 52.09729], [4.60005, 52.09543], [4.59595, 52.09634], [4.59106, 52.0966], [4.58234, 52.09679], [4.57122, 52.09697], [4.5575, 52.09498], [4.55095, 52.09528], [4.5502, 52.10536], [4.55348, 52.10834], [4.55439, 52.11042], [4.55333, 52.11272], [4.54888, 52.11663], [4.54191, 52.11866], [4.54295, 52.12124], [4.54064, 52.12156], [4.54516, 52.12917], [4.55985, 52.12535]]]]}}, {"type": "Feature", "properties": {"statcode": "BU04849102", "statnaam": "Rietveldse polder"}, "geometry": {"type": "MultiPolygon", "coordinates": [[[[4.64113, 52.09748], [4.64705, 52.0864], [4.63211, 52.08704], [4.63095, 52.08605], [4.61768, 52.0899], [4.60759, 52.09358], [4.60005, 52.09543], [4.59875, 52.09729], [4.60166, 52.11246], [4.60793, 52.11276], [4.6113, 52.11372], [4.613, 52.11546], [4.6304, 52.11801], [4.64113, 52.09748]]]]}}, {"type": "Feature", "properties": {"statcode": "BU04849103", "statnaam": "Hazerswoude-Dorp-West"}, "geometry": {"type": "MultiPolygon", "coordinates": [[[[4.58234, 52.09679], [4.57957, 52.07791], [4.558, 52.07858], [4.55165, 52.07831], [4.55095, 52.09528], [4.5575, 52.09498], [4.57122, 52.09697], [4.58234, 52.09679]]]]}}, {"type": "Feature", "properties": {"statcode": "BU04849104", "statnaam": "Hazerswoude-Dorp-Oost"}, "geometry": {"type": "MultiPolygon", "coordinates": [[[[4.59106, 52.0966], [4.58798, 52.07765], [4.57957, 52.07791], [4.58234, 52.09679], [4.59106, 52.0966]]]]}}, {"type": "Feature", "properties": {"statcode": "BU04849105", "statnaam": "Voorweg"}, "geometry": {"type": "MultiPolygon", "coordinates": [[[[4.60005, 52.09543], [4.60759, 52.09358], [4.61768, 52.0899], [4.63095, 52.08605], [4.63211, 52.08704], [4.63376, 52.08259], [4.63296, 52.07796], [4.63179, 52.078], [4.63158, 52.0763], [4.62532, 52.07644], [4.60702, 52.07705], [4.58798, 52.07765], [4.59106, 52.0966], [4.59595, 52.09634], [4.60005, 52.09543]]]]}}, {"type": "Feature", "properties": {"statcode": "BU04849401", "statnaam": "Rijndijk"}, "geometry": {"type": "MultiPolygon", "coordinates": [[[[4.56022, 52.13193], [4.56493, 52.12992], [4.57159, 52.12869], [4.57805, 52.12811], [4.5827, 52.12846], [4.58387, 52.12382], [4.57567, 52.12364], [4.55985, 52.12535], [4.54516, 52.12917], [4.54519, 52.1292], [4.54762, 52.13231], [4.54606, 52.13336], [4.54631, 52.13402], [4.5503, 52.13676], [4.54914, 52.13759], [4.55073, 52.13838], [4.56022, 52.13193]]]]}}, {"type": "Feature", "properties": {"statcode": "BU04849402", "statnaam": "Rhynenburch"}, "geometry": {"type": "MultiPolygon", "coordinates": [[[[4.58975, 52.12271], [4.58427, 52.12201], [4.58387, 52.12382], [4.5827, 52.12846], [4.58783, 52.13007], [4.58974, 52.12895], [4.58966, 52.12661], [4.5888, 52.12576], [4.58975, 52.12271]]]]}}, {"type": "Feature", "properties": {"statcode": "BU04849403", "statnaam": "Zonneveld"}, "geometry": {"type": "MultiPolygon", "coordinates": [[[[4.59599, 52.12351], [4.58975, 52.12271], [4.5888, 52.12576], [4.58966, 52.12661], [4.58974, 52.12895], [4.58783, 52.13007], [4.59157, 52.13161], [4.59565, 52.13187], [4.59489, 52.13108], [4.59599, 52.12351]]]]}}, {"type": "Feature", "properties": {"statcode": "BU04849404", "statnaam": "Buitengebied Hazerswoude-Rijndijk"}, "geometry": {"type": "MultiPolygon", "coordinates": [[[[4.62401, 52.12994], [4.62812, 52.12215], [4.6304, 52.11801], [4.613, 52.11546], [4.6113, 52.11372], [4.60793, 52.11276], [4.60166, 52.11246], [4.60448, 52.12459], [4.59599, 52.12351], [4.59489, 52.13108], [4.59565, 52.13187], [4.60996, 52.12951], [4.61366, 52.12966], [4.61775, 52.13062], [4.62208, 52.13308], [4.62401, 52.12994]]]]}}, {"type": "Feature", "properties": {"statcode": "BU04849601", "statnaam": "Buitengebied Koudekerk aan den Rijn"}, "geometry": {"type": "MultiPolygon", "coordinates": [[[[4.62024, 52.15722], [4.61849, 52.14866], [4.61944, 52.14233], [4.60979, 52.14032], [4.59508, 52.13457], [4.59564, 52.13316], [4.59565, 52.13187], [4.59157, 52.13161], [4.58783, 52.13007], [4.5827, 52.12846], [4.57805, 52.12811], [4.57159, 52.12869], [4.56493, 52.12992], [4.56022, 52.13193], [4.56138, 52.13223], [4.5661, 52.13526], [4.57049, 52.14342], [4.57148, 52.15311], [4.57274, 52.15225], [4.60592, 52.15694], [4.61059, 52.15757], [4.61903, 52.15871], [4.62024, 52.15722]]]]}}, {"type": "Feature", "properties": {"statcode": "BU04849602", "statnaam": "Koudekerk aan den Rijn-Noord"}, "geometry": {"type": "MultiPolygon", "coordinates": [[[[4.60819, 52.13375], [4.60797, 52.13445], [4.6018, 52.13329], [4.59564, 52.13316], [4.59508, 52.13457], [4.60979, 52.14032], [4.61145, 52.13412], [4.60819, 52.13375]]]]}}, {"type": "Feature", "properties": {"statcode": "BU04849603", "statnaam": "Koudekerk aan den Rijn-Zuid"}, "geometry": {"type": "MultiPolygon", "coordinates": [[[[4.60819, 52.13375], [4.60996, 52.12951], [4.59565, 52.13187], [4.59564, 52.13316], [4.6018, 52.13329], [4.60797, 52.13445], [4.60819, 52.13375]]]]}}, {"type": "Feature", "properties": {"statcode": "BU04849604", "statnaam": "Bedrijventerrein Hoogewaard"}, "geometry": {"type": "MultiPolygon", "coordinates": [[[[4.62869, 52.13862], [4.62535, 52.1365], [4.62208, 52.13308], [4.61775, 52.13062], [4.61366, 52.12966], [4.60996, 52.12951], [4.60819, 52.13375], [4.61145, 52.13412], [4.60979, 52.14032], [4.61944, 52.14233], [4.62229, 52.14168], [4.62869, 52.13862]]]]}}]}