{"type": "FeatureCollection", "features": [{"type": "Feature", "properties": {"statcode": "BU05180170", "statnaam": "Oostduinen"}, "geometry": {"type": "MultiPolygon", "coordinates": [[[[4.32884, 52.10929], [4.32252, 52.10768], [4.31868, 52.10691], [4.31472, 52.10703], [4.30398, 52.11084], [4.29403, 52.11386], [4.28666, 52.11924], [4.30264, 52.12852], [4.32884, 52.10929]]]]}}, {"type": "Feature", "properties": {"statcode": "BU05180271", "statnaam": "Belgisch Park"}, "geometry": {"type": "MultiPolygon", "coordinates": [[[[4.28666, 52.11924], [4.29403, 52.11386], [4.30398, 52.11084], [4.30192, 52.10626], [4.29934, 52.10799], [4.29171, 52.10745], [4.29008, 52.10836], [4.28401, 52.11169], [4.28262, 52.11254], [4.28313, 52.11336], [4.28009, 52.11542], [4.28166, 52.11623], [4.27992, 52.11719], [4.27989, 52.11673], [4.27935, 52.1167], [4.27915, 52.11682], [4.27914, 52.11723], [4.27986, 52.11733], [4.27965, 52.11787], [4.28002, 52.11792], [4.28017, 52.11781], [4.28003, 52.11733], [4.28045, 52.11711], [4.28091, 52.11716], [4.28081, 52.11749], [4.28105, 52.11751], [4.28119, 52.11715], [4.28055, 52.11704], [4.28184, 52.11632], [4.28666, 52.11924]]]]}}, {"type": "Feature", "properties": {"statcode": "BU05180373", "statnaam": "Westbroekpark"}, "geometry": {"type": "MultiPolygon", "coordinates": [[[[4.29171, 52.10745], [4.30086, 52.10205], [4.30118, 52.10026], [4.3, 52.09899], [4.28611, 52.10404], [4.28567, 52.10422], [4.29008, 52.10836], [4.29171, 52.10745]]]]}}, {"type": "Feature", "properties": {"statcode": "BU05180374", "statnaam": "Duttendel"}, "geometry": {"type": "MultiPolygon", "coordinates": [[[[4.32252, 52.10768], [4.32168, 52.10645], [4.31672, 52.10428], [4.31135, 52.1017], [4.30881, 52.0983], [4.30625, 52.09663], [4.29996, 52.09864], [4.3, 52.09899], [4.30118, 52.10026], [4.30086, 52.10205], [4.29171, 52.10745], [4.29934, 52.10799], [4.30192, 52.10626], [4.30398, 52.11084], [4.31472, 52.10703], [4.31868, 52.10691], [4.32252, 52.10768]]]]}}, {"type": "Feature", "properties": {"statcode": "BU05180448", "statnaam": "Nassaubuurt"}, "geometry": {"type": "MultiPolygon", "coordinates": [[[[4.32237, 52.08897], [4.31518, 52.08606], [4.31209, 52.08985], [4.31204, 52.08992], [4.31943, 52.09247], [4.32237, 52.08897]]]]}}, {"type": "Feature", "properties": {"statcode": "BU05180475", "statnaam": "Uilennest"}, "geometry": {"type": "MultiPolygon", "coordinates": [[[[4.34232, 52.09748], [4.32989, 52.09232], [4.32692, 52.09548], [4.32739, 52.09566], [4.33725, 52.09877], [4.33857, 52.09744], [4.34136, 52.09834], [4.34232, 52.09748]]]]}}, {"type": "Feature", "properties": {"statcode": "BU05180476", "statnaam": "Duinzigt"}, "geometry": {"type": "MultiPolygon", "coordinates": [[[[4.32894, 52.10921], [4.329, 52.10917], [4.33306, 52.10573], [4.33043, 52.10426], [4.33226, 52.10304], [4.32329, 52.09921], [4.3227, 52.09912], [4.31672, 52.10428], [4.32168, 52.10645], [4.32252, 52.10768], [4.32884, 52.10929], [4.32894, 52.10921]]]]}}, {"type": "Feature", "properties": {"statcode": "BU05180477", "statnaam": "Waalsdorp"}, "geometry": {"type": "MultiPolygon", "coordinates": [[[[4.3227, 52.09912], [4.30911, 52.09347], [4.30625, 52.09663], [4.30881, 52.0983], [4.31135, 52.1017], [4.31672, 52.10428], [4.3227, 52.09912]]]]}}, {"type": "Feature", "properties": {"statcode": "BU05180478", "statnaam": "Arendsdorp"}, "geometry": {"type": "MultiPolygon", "coordinates": [[[[4.32739, 52.09566], [4.32692, 52.09548], [4.31943, 52.09247], [4.31204, 52.08992], [4.30911, 52.09347], [4.3227, 52.09912], [4.32329, 52.09921], [4.32739, 52.09566]]]]}}, {"type": "Feature", "properties": {"statcode": "BU05180479", "statnaam": "Van Hoytemastraat e.o."}, "geometry": {"type": "MultiPolygon", "coordinates": [[[[4.32989, 52.09232], [4.32237, 52.08897], [4.31943, 52.09247], [4.32692, 52.09548], [4.32989, 52.09232]]]]}}, {"type": "Feature", "properties": {"statcode": "BU05180546", "statnaam": "Archipelbuurt"}, "geometry": {"type": "MultiPolygon", "coordinates": [[[[4.30625, 52.09663], [4.30911, 52.09347], [4.31204, 52.08992], [4.31209, 52.08985], [4.30411, 52.08823], [4.30042, 52.08688], [4.29552, 52.08828], [4.29374, 52.0897], [4.29542, 52.09195], [4.30038, 52.09431], [4.29996, 52.09864], [4.30625, 52.09663]]]]}}, {"type": "Feature", "properties": {"statcode": "BU05180605", "statnaam": "Van Stolkpark en Scheveningse Bosjes"}, "geometry": {"type": "MultiPolygon", "coordinates": [[[[4.3, 52.09899], [4.29996, 52.09864], [4.30038, 52.09431], [4.29542, 52.09195], [4.29374, 52.0897], [4.286, 52.09595], [4.28106, 52.09996], [4.28611, 52.10404], [4.3, 52.09899]]]]}}, {"type": "Feature", "properties": {"statcode": "BU05180701", "statnaam": "Oud Scheveningen"}, "geometry": {"type": "MultiPolygon", "coordinates": [[[[4.26523, 52.10548], [4.26913, 52.10791], [4.27083, 52.10687], [4.27152, 52.10733], [4.27528, 52.10475], [4.27823, 52.10228], [4.27622, 52.10169], [4.27447, 52.10169], [4.27212, 52.10206], [4.26523, 52.10548]]]]}}, {"type": "Feature", "properties": {"statcode": "BU05180702", "statnaam": "Vissershaven"}, "geometry": {"type": "MultiPolygon", "coordinates": [[[[4.27447, 52.10169], [4.26809, 52.09415], [4.26475, 52.09163], [4.26433, 52.09142], [4.25811, 52.09659], [4.25523, 52.09807], [4.25607, 52.09978], [4.25383, 52.10121], [4.25246, 52.10395], [4.25422, 52.10142], [4.25794, 52.09891], [4.2599, 52.099], [4.26054, 52.09867], [4.26071, 52.09828], [4.25902, 52.09784], [4.25939, 52.09701], [4.26104, 52.09729], [4.26375, 52.09689], [4.26465, 52.09749], [4.26358, 52.09827], [4.26417, 52.09863], [4.26691, 52.09735], [4.26318, 52.09484], [4.26419, 52.09425], [4.27173, 52.09957], [4.27078, 52.10005], [4.2672, 52.09749], [4.26545, 52.09841], [4.26541, 52.09874], [4.26873, 52.10111], [4.26721, 52.1019], [4.26317, 52.09906], [4.26124, 52.09921], [4.26066, 52.09957], [4.26103, 52.10059], [4.25881, 52.10146], [4.25775, 52.10345], [4.25592, 52.10386], [4.25618, 52.10419], [4.25818, 52.10365], [4.25894, 52.10228], [4.26145, 52.10294], [4.26523, 52.10548], [4.27212, 52.10206], [4.27447, 52.10169]]]]}}, {"type": "Feature", "properties": {"statcode": "BU05180703", "statnaam": "Scheveningen Badplaats"}, "geometry": {"type": "MultiPolygon", "coordinates": [[[[4.28401, 52.11169], [4.28451, 52.11025], [4.28337, 52.10856], [4.27987, 52.1064], [4.27528, 52.10475], [4.27152, 52.10733], [4.27083, 52.10687], [4.26913, 52.10791], [4.28009, 52.11542], [4.28313, 52.11336], [4.28262, 52.11254], [4.28401, 52.11169]]]]}}, {"type": "Feature", "properties": {"statcode": "BU05180704", "statnaam": "Visserijbuurt"}, "geometry": {"type": "MultiPolygon", "coordinates": [[[[4.28567, 52.10422], [4.28611, 52.10404], [4.28106, 52.09996], [4.27823, 52.10228], [4.27528, 52.10475], [4.27987, 52.1064], [4.28567, 52.10422]]]]}}, {"type": "Feature", "properties": {"statcode": "BU05180772", "statnaam": "Rijslag"}, "geometry": {"type": "MultiPolygon", "coordinates": [[[[4.29008, 52.10836], [4.28567, 52.10422], [4.27987, 52.1064], [4.28337, 52.10856], [4.28451, 52.11025], [4.28401, 52.11169], [4.29008, 52.10836]]]]}}, {"type": "Feature", "properties": {"statcode": "BU05180800", "statnaam": "Duindorp"}, "geometry": {"type": "MultiPolygon", "coordinates": [[[[4.26433, 52.09142], [4.25632, 52.08652], [4.24361, 52.08826], [4.25523, 52.09807], [4.25811, 52.09659], [4.26433, 52.09142]]]]}}, {"type": "Feature", "properties": {"statcode": "BU05180907", "statnaam": "Statenkwartier"}, "geometry": {"type": "MultiPolygon", "coordinates": [[[[4.28106, 52.09996], [4.286, 52.09595], [4.28105, 52.09358], [4.27827, 52.09072], [4.27948, 52.08852], [4.2732, 52.08578], [4.27084, 52.09085], [4.27027, 52.09508], [4.2708, 52.0962], [4.27633, 52.0999], [4.27622, 52.10169], [4.27823, 52.10228], [4.28106, 52.09996]]]]}}, {"type": "Feature", "properties": {"statcode": "BU05180908", "statnaam": "Geuzenkwartier"}, "geometry": {"type": "MultiPolygon", "coordinates": [[[[4.27622, 52.10169], [4.27633, 52.0999], [4.2708, 52.0962], [4.27027, 52.09508], [4.27084, 52.09085], [4.2732, 52.08578], [4.27303, 52.0852], [4.27267, 52.08552], [4.26475, 52.09163], [4.26809, 52.09415], [4.27447, 52.10169], [4.27622, 52.10169]]]]}}, {"type": "Feature", "properties": {"statcode": "BU05181041", "statnaam": "Zorgvliet"}, "geometry": {"type": "MultiPolygon", "coordinates": [[[[4.29374, 52.0897], [4.29552, 52.08828], [4.29247, 52.08693], [4.29263, 52.0851], [4.28651, 52.08543], [4.28263, 52.08504], [4.27948, 52.08852], [4.27827, 52.09072], [4.28105, 52.09358], [4.286, 52.09595], [4.29374, 52.0897]]]]}}, {"type": "Feature", "properties": {"statcode": "BU05181142", "statnaam": "Stadhoudersplantsoen"}, "geometry": {"type": "MultiPolygon", "coordinates": [[[[4.28263, 52.08504], [4.27656, 52.08212], [4.27303, 52.0852], [4.2732, 52.08578], [4.27948, 52.08852], [4.28263, 52.08504]]]]}}, {"type": "Feature", "properties": {"statcode": "BU05181143", "statnaam": "Sweelinckplein e.o."}, "geometry": {"type": "MultiPolygon", "coordinates": [[[[4.29263, 52.0851], [4.29334, 52.08461], [4.28762, 52.08181], [4.2769, 52.07876], [4.27656, 52.08212], [4.28263, 52.08504], [4.28651, 52.08543], [4.29263, 52.0851]]]]}}, {"type": "Feature", "properties": {"statcode": "BU05181250", "statnaam": "Bloemenbuurt-West"}, "geometry": {"type": "MultiPolygon", "coordinates": [[[[4.25931, 52.07256], [4.25053, 52.0692], [4.24908, 52.07069], [4.2522, 52.07279], [4.25264, 52.07382], [4.25059, 52.07645], [4.25365, 52.07771], [4.25762, 52.07304], [4.25931, 52.07256]]]]}}, {"type": "Feature", "properties": {"statcode": "BU05181251", "statnaam": "Bloemenbuurt-Oost"}, "geometry": {"type": "MultiPolygon", "coordinates": [[[[4.26815, 52.07566], [4.26183, 52.07348], [4.25931, 52.07256], [4.25762, 52.07304], [4.25365, 52.07771], [4.2653, 52.08248], [4.26736, 52.0805], [4.26598, 52.07903], [4.26815, 52.07566]]]]}}, {"type": "Feature", "properties": {"statcode": "BU05181252", "statnaam": "Bomenbuurt"}, "geometry": {"type": "MultiPolygon", "coordinates": [[[[4.27303, 52.0852], [4.27656, 52.08212], [4.2769, 52.07876], [4.27693, 52.07872], [4.26815, 52.07566], [4.26598, 52.07903], [4.26736, 52.0805], [4.2653, 52.08248], [4.27267, 52.08552], [4.27303, 52.0852]]]]}}, {"type": "Feature", "properties": {"statcode": "BU05181309", "statnaam": "Vogelwijk"}, "geometry": {"type": "MultiPolygon", "coordinates": [[[[4.27267, 52.08552], [4.2653, 52.08248], [4.25365, 52.07771], [4.25059, 52.07645], [4.24055, 52.07231], [4.23733, 52.07617], [4.23108, 52.07855], [4.24361, 52.08826], [4.25632, 52.08652], [4.26433, 52.09142], [4.26475, 52.09163], [4.27267, 52.08552]]]]}}, {"type": "Feature", "properties": {"statcode": "BU05181481", "statnaam": "Bosjes van Pex"}, "geometry": {"type": "MultiPolygon", "coordinates": [[[[4.25053, 52.0692], [4.24606, 52.06751], [4.24377, 52.06673], [4.24387, 52.06773], [4.24057, 52.07227], [4.24055, 52.07231], [4.25059, 52.07645], [4.25264, 52.07382], [4.2522, 52.07279], [4.24908, 52.07069], [4.25053, 52.0692]]]]}}, {"type": "Feature", "properties": {"statcode": "BU05181492", "statnaam": "Bohemen en Meer en Bos"}, "geometry": {"type": "MultiPolygon", "coordinates": [[[[4.24377, 52.06673], [4.24358, 52.06667], [4.23494, 52.06419], [4.2262, 52.06169], [4.2257, 52.0637], [4.22328, 52.06641], [4.22814, 52.06832], [4.23243, 52.06893], [4.24057, 52.07227], [4.24387, 52.06773], [4.24377, 52.06673]]]]}}, {"type": "Feature", "properties": {"statcode": "BU05181590", "statnaam": "Ockenburgh"}, "geometry": {"type": "MultiPolygon", "coordinates": [[[[4.2262, 52.06169], [4.22617, 52.05777], [4.22886, 52.05193], [4.21884, 52.0478], [4.20412, 52.04473], [4.19634, 52.05566], [4.20514, 52.06061], [4.20241, 52.06153], [4.21158, 52.06603], [4.21513, 52.06417], [4.21802, 52.06399], [4.22328, 52.06641], [4.2257, 52.0637], [4.2262, 52.06169]]]]}}, {"type": "Feature", "properties": {"statcode": "BU05181591", "statnaam": "Kijkduin"}, "geometry": {"type": "MultiPolygon", "coordinates": [[[[4.24055, 52.07231], [4.24057, 52.07227], [4.23243, 52.06893], [4.22814, 52.06832], [4.22328, 52.06641], [4.21802, 52.06399], [4.21513, 52.06417], [4.21158, 52.06603], [4.22549, 52.07437], [4.23108, 52.07855], [4.23733, 52.07617], [4.24055, 52.07231]]]]}}, {"type": "Feature", "properties": {"statcode": "BU05181697", "statnaam": "Kraayenstein en Vroondaal"}, "geometry": {"type": "MultiPolygon", "coordinates": [[[[4.23091, 52.05179], [4.23436, 52.04997], [4.23657, 52.05055], [4.2417, 52.04385], [4.23942, 52.04223], [4.23505, 52.03926], [4.22833, 52.03464], [4.21923, 52.03374], [4.21373, 52.03169], [4.21226, 52.03075], [4.20958, 52.03365], [4.21243, 52.03403], [4.20904, 52.03827], [4.20416, 52.04467], [4.20412, 52.04473], [4.21884, 52.0478], [4.22886, 52.05193], [4.23091, 52.05179]]]]}}, {"type": "Feature", "properties": {"statcode": "BU05181785", "statnaam": "Kerketuinen en Zichtenburg"}, "geometry": {"type": "MultiPolygon", "coordinates": [[[[4.2616, 52.05135], [4.24568, 52.04001], [4.23942, 52.04223], [4.2417, 52.04385], [4.25641, 52.054], [4.2616, 52.05135]]]]}}, {"type": "Feature", "properties": {"statcode": "BU05181786", "statnaam": "Houtwijk"}, "geometry": {"type": "MultiPolygon", "coordinates": [[[[4.25924, 52.06264], [4.26122, 52.06165], [4.26412, 52.0586], [4.25641, 52.054], [4.2417, 52.04385], [4.23657, 52.05055], [4.24348, 52.05249], [4.24173, 52.0555], [4.24888, 52.05766], [4.25912, 52.06275], [4.25924, 52.06264]]]]}}, {"type": "Feature", "properties": {"statcode": "BU05181795", "statnaam": "Kom Loosduinen"}, "geometry": {"type": "MultiPolygon", "coordinates": [[[[4.2373, 52.05507], [4.24173, 52.0555], [4.24348, 52.05249], [4.23657, 52.05055], [4.23436, 52.04997], [4.23091, 52.05179], [4.22886, 52.05193], [4.22617, 52.05777], [4.22734, 52.05803], [4.22843, 52.05641], [4.23308, 52.05439], [4.2373, 52.05507]]]]}}, {"type": "Feature", "properties": {"statcode": "BU05181806", "statnaam": "Waldeck-Zuid"}, "geometry": {"type": "MultiPolygon", "coordinates": [[[[4.2373, 52.05507], [4.23308, 52.05439], [4.22843, 52.05641], [4.22734, 52.05803], [4.235, 52.05866], [4.2373, 52.05507]]]]}}, {"type": "Feature", "properties": {"statcode": "BU05181840", "statnaam": "Nieuw Waldeck"}, "geometry": {"type": "MultiPolygon", "coordinates": [[[[4.24483, 52.06378], [4.24888, 52.05766], [4.24173, 52.0555], [4.2373, 52.05507], [4.235, 52.05866], [4.23634, 52.06251], [4.24184, 52.06404], [4.24483, 52.06378]]]]}}, {"type": "Feature", "properties": {"statcode": "BU05181882", "statnaam": "Rosenburg"}, "geometry": {"type": "MultiPolygon", "coordinates": [[[[4.25243, 52.06445], [4.25912, 52.06275], [4.24888, 52.05766], [4.24483, 52.06378], [4.24358, 52.06667], [4.24377, 52.06673], [4.24606, 52.06751], [4.25243, 52.06445]]]]}}, {"type": "Feature", "properties": {"statcode": "BU05181893", "statnaam": "Componistenbuurt"}, "geometry": {"type": "MultiPolygon", "coordinates": [[[[4.24483, 52.06378], [4.24184, 52.06404], [4.23634, 52.06251], [4.23494, 52.06419], [4.24358, 52.06667], [4.24483, 52.06378]]]]}}, {"type": "Feature", "properties": {"statcode": "BU05181894", "statnaam": "Waldeck-Noord"}, "geometry": {"type": "MultiPolygon", "coordinates": [[[[4.23634, 52.06251], [4.235, 52.05866], [4.22734, 52.05803], [4.22617, 52.05777], [4.2262, 52.06169], [4.23494, 52.06419], [4.23634, 52.06251]]]]}}, {"type": "Feature", "properties": {"statcode": "BU05181953", "statnaam": "Vruchtenbuurt"}, "geometry": {"type": "MultiPolygon", "coordinates": [[[[4.26395, 52.0695], [4.25305, 52.06553], [4.25243, 52.06445], [4.24606, 52.06751], [4.25053, 52.0692], [4.25931, 52.07256], [4.26183, 52.07348], [4.26395, 52.0695]]]]}}, {"type": "Feature", "properties": {"statcode": "BU05181983", "statnaam": "Eykenduinen"}, "geometry": {"type": "MultiPolygon", "coordinates": [[[[4.27019, 52.06685], [4.27018, 52.06684], [4.25924, 52.06264], [4.25912, 52.06275], [4.25243, 52.06445], [4.25305, 52.06553], [4.26395, 52.0695], [4.26766, 52.07071], [4.27019, 52.06685]]]]}}, {"type": "Feature", "properties": {"statcode": "BU05182054", "statnaam": "Heesterbuurt"}, "geometry": {"type": "MultiPolygon", "coordinates": [[[[4.27524, 52.06849], [4.27019, 52.06685], [4.26766, 52.07071], [4.26395, 52.0695], [4.26183, 52.07348], [4.26815, 52.07566], [4.27524, 52.06849]]]]}}, {"type": "Feature", "properties": {"statcode": "BU05182055", "statnaam": "Valkenboskwartier"}, "geometry": {"type": "MultiPolygon", "coordinates": [[[[4.28083, 52.07438], [4.28417, 52.07065], [4.28414, 52.07064], [4.27589, 52.0687], [4.27524, 52.06849], [4.26815, 52.07566], [4.27693, 52.07872], [4.28083, 52.07438]]]]}}, {"type": "Feature", "properties": {"statcode": "BU05182110", "statnaam": "Rond de Energiecentrale"}, "geometry": {"type": "MultiPolygon", "coordinates": [[[[4.29479, 52.07649], [4.29696, 52.07397], [4.29105, 52.07267], [4.28417, 52.07065], [4.28083, 52.07438], [4.2919, 52.0787], [4.29479, 52.07649]]]]}}, {"type": "Feature", "properties": {"statcode": "BU05182144", "statnaam": "Koningsplein e.o."}, "geometry": {"type": "MultiPolygon", "coordinates": [[[[4.2919, 52.0787], [4.28083, 52.07438], [4.27693, 52.07872], [4.2769, 52.07876], [4.28762, 52.08181], [4.2919, 52.0787]]]]}}, {"type": "Feature", "properties": {"statcode": "BU05182245", "statnaam": "Zeeheldenkwartier"}, "geometry": {"type": "MultiPolygon", "coordinates": [[[[4.30042, 52.08688], [4.30389, 52.08391], [4.30094, 52.0827], [4.30238, 52.07973], [4.29479, 52.07649], [4.2919, 52.0787], [4.28762, 52.08181], [4.29334, 52.08461], [4.29263, 52.0851], [4.29247, 52.08693], [4.29552, 52.08828], [4.30042, 52.08688]]]]}}, {"type": "Feature", "properties": {"statcode": "BU05182347", "statnaam": "Willemspark"}, "geometry": {"type": "MultiPolygon", "coordinates": [[[[4.31518, 52.08606], [4.31557, 52.08558], [4.31395, 52.08488], [4.31207, 52.08673], [4.30389, 52.08391], [4.30042, 52.08688], [4.30411, 52.08823], [4.31209, 52.08985], [4.31518, 52.08606]]]]}}, {"type": "Feature", "properties": {"statcode": "BU05182449", "statnaam": "Haagse Bos"}, "geometry": {"type": "MultiPolygon", "coordinates": [[[[4.34304, 52.09137], [4.34235, 52.09126], [4.3347, 52.08804], [4.32952, 52.08531], [4.32481, 52.08324], [4.32019, 52.08136], [4.31557, 52.08558], [4.31518, 52.08606], [4.32237, 52.08897], [4.32989, 52.09232], [4.34232, 52.09748], [4.34374, 52.09811], [4.34594, 52.0958], [4.34075, 52.09408], [4.34304, 52.09137]]]]}}, {"type": "Feature", "properties": {"statcode": "BU05182561", "statnaam": "Landen"}, "geometry": {"type": "MultiPolygon", "coordinates": [[[[4.37046, 52.09623], [4.37271, 52.09477], [4.37147, 52.09384], [4.37344, 52.09235], [4.37305, 52.09206], [4.36803, 52.0897], [4.36778, 52.08958], [4.35848, 52.09912], [4.36331, 52.1018], [4.36987, 52.09623], [4.37046, 52.09623]]]]}}, {"type": "Feature", "properties": {"statcode": "BU05182567", "statnaam": "Kampen"}, "geometry": {"type": "MultiPolygon", "coordinates": [[[[4.3589, 52.08556], [4.35678, 52.0846], [4.3532, 52.08301], [4.35249, 52.08269], [4.34235, 52.09126], [4.34304, 52.09137], [4.34959, 52.09344], [4.3589, 52.08556]]]]}}, {"type": "Feature", "properties": {"statcode": "BU05182568", "statnaam": "Marlot"}, "geometry": {"type": "MultiPolygon", "coordinates": [[[[4.35883, 52.10553], [4.36319, 52.10211], [4.36331, 52.1018], [4.35848, 52.09912], [4.34959, 52.09344], [4.34304, 52.09137], [4.34075, 52.09408], [4.34594, 52.0958], [4.34374, 52.09811], [4.35849, 52.10576], [4.35862, 52.10568], [4.35883, 52.10553]]]]}}, {"type": "Feature", "properties": {"statcode": "BU05182569", "statnaam": "Burgen en Horsten"}, "geometry": {"type": "MultiPolygon", "coordinates": [[[[4.36778, 52.08958], [4.3589, 52.08556], [4.34959, 52.09344], [4.35848, 52.09912], [4.36778, 52.08958]]]]}}, {"type": "Feature", "properties": {"statcode": "BU05182664", "statnaam": "Bezuidenhout-West"}, "geometry": {"type": "MultiPolygon", "coordinates": [[[[4.33885, 52.07661], [4.33521, 52.075], [4.33384, 52.07499], [4.33214, 52.07564], [4.32549, 52.07937], [4.32481, 52.08324], [4.32952, 52.08531], [4.33404, 52.08028], [4.33885, 52.07661]]]]}}, {"type": "Feature", "properties": {"statcode": "BU05182665", "statnaam": "Bezuidenhout-Midden"}, "geometry": {"type": "MultiPolygon", "coordinates": [[[[4.33896, 52.07666], [4.33885, 52.07661], [4.33404, 52.08028], [4.32952, 52.08531], [4.3347, 52.08804], [4.3451, 52.07948], [4.34539, 52.07911], [4.33896, 52.07666]]]]}}, {"type": "Feature", "properties": {"statcode": "BU05182666", "statnaam": "Bezuidenhout-Oost"}, "geometry": {"type": "MultiPolygon", "coordinates": [[[[4.3451, 52.07948], [4.3347, 52.08804], [4.34235, 52.09126], [4.35249, 52.08269], [4.3451, 52.07948]]]]}}, {"type": "Feature", "properties": {"statcode": "BU05182718", "statnaam": "Huygenspark"}, "geometry": {"type": "MultiPolygon", "coordinates": [[[[4.32455, 52.07264], [4.32616, 52.07164], [4.32512, 52.07133], [4.32571, 52.0701], [4.3211, 52.06809], [4.31576, 52.06597], [4.31485, 52.06641], [4.31907, 52.06878], [4.31758, 52.07026], [4.31591, 52.06956], [4.31376, 52.07098], [4.31251, 52.07072], [4.31142, 52.07194], [4.31961, 52.07495], [4.32012, 52.075], [4.32455, 52.07264]]]]}}, {"type": "Feature", "properties": {"statcode": "BU05182762", "statnaam": "Rivierenbuurt-Zuid"}, "geometry": {"type": "MultiPolygon", "coordinates": [[[[4.33384, 52.07499], [4.32617, 52.07165], [4.32616, 52.07164], [4.32455, 52.07264], [4.32993, 52.07523], [4.33214, 52.07564], [4.33384, 52.07499]]]]}}, {"type": "Feature", "properties": {"statcode": "BU05182763", "statnaam": "Rivierenbuurt-Noord"}, "geometry": {"type": "MultiPolygon", "coordinates": [[[[4.33214, 52.07564], [4.32993, 52.07523], [4.32455, 52.07264], [4.32012, 52.075], [4.32484, 52.07754], [4.32019, 52.08136], [4.32481, 52.08324], [4.32549, 52.07937], [4.33214, 52.07564]]]]}}, {"type": "Feature", "properties": {"statcode": "BU05182811", "statnaam": "Kortenbos"}, "geometry": {"type": "MultiPolygon", "coordinates": [[[[4.30902, 52.07817], [4.30882, 52.07556], [4.29943, 52.07229], [4.29696, 52.07397], [4.29479, 52.07649], [4.30238, 52.07973], [4.30094, 52.0827], [4.30389, 52.08391], [4.30862, 52.07944], [4.30902, 52.07817]]]]}}, {"type": "Feature", "properties": {"statcode": "BU05182812", "statnaam": "Voorhout"}, "geometry": {"type": "MultiPolygon", "coordinates": [[[[4.31557, 52.08558], [4.32019, 52.08136], [4.31351, 52.07827], [4.30902, 52.07817], [4.30862, 52.07944], [4.30389, 52.08391], [4.31207, 52.08673], [4.31395, 52.08488], [4.31557, 52.08558]]]]}}, {"type": "Feature", "properties": {"statcode": "BU05182813", "statnaam": "Uilebomen"}, "geometry": {"type": "MultiPolygon", "coordinates": [[[[4.32012, 52.075], [4.31961, 52.07495], [4.31351, 52.07827], [4.32019, 52.08136], [4.32484, 52.07754], [4.32012, 52.075]]]]}}, {"type": "Feature", "properties": {"statcode": "BU05182814", "statnaam": "Zuidwal"}, "geometry": {"type": "MultiPolygon", "coordinates": [[[[4.31961, 52.07495], [4.31142, 52.07194], [4.30788, 52.07076], [4.30607, 52.07273], [4.30065, 52.07098], [4.29943, 52.07229], [4.30882, 52.07556], [4.30902, 52.07817], [4.31351, 52.07827], [4.31961, 52.07495]]]]}}, {"type": "Feature", "properties": {"statcode": "BU05182915", "statnaam": "Schildersbuurt-West"}, "geometry": {"type": "MultiPolygon", "coordinates": [[[[4.29943, 52.07229], [4.30065, 52.07098], [4.30071, 52.07011], [4.3062, 52.06507], [4.30798, 52.06116], [4.3046, 52.06135], [4.30126, 52.06284], [4.29684, 52.06716], [4.29288, 52.06991], [4.29105, 52.07267], [4.29696, 52.07397], [4.29943, 52.07229]]]]}}, {"type": "Feature", "properties": {"statcode": "BU05182916", "statnaam": "Schildersbuurt-Noord"}, "geometry": {"type": "MultiPolygon", "coordinates": [[[[4.31142, 52.07194], [4.31251, 52.07072], [4.31376, 52.07098], [4.31591, 52.06956], [4.3062, 52.06507], [4.30071, 52.07011], [4.30065, 52.07098], [4.30607, 52.07273], [4.30788, 52.07076], [4.31142, 52.07194]]]]}}, {"type": "Feature", "properties": {"statcode": "BU05182917", "statnaam": "Schildersbuurt-Oost"}, "geometry": {"type": "MultiPolygon", "coordinates": [[[[4.31576, 52.06597], [4.31145, 52.06217], [4.30798, 52.06116], [4.3062, 52.06507], [4.31591, 52.06956], [4.31758, 52.07026], [4.31907, 52.06878], [4.31485, 52.06641], [4.31576, 52.06597]]]]}}, {"type": "Feature", "properties": {"statcode": "BU05183032", "statnaam": "Transvaalkwartier-Noord"}, "geometry": {"type": "MultiPolygon", "coordinates": [[[[4.29288, 52.06991], [4.28631, 52.06736], [4.28414, 52.07064], [4.28417, 52.07065], [4.29105, 52.07267], [4.29288, 52.06991]]]]}}, {"type": "Feature", "properties": {"statcode": "BU05183033", "statnaam": "Transvaalkwartier-Midden"}, "geometry": {"type": "MultiPolygon", "coordinates": [[[[4.29684, 52.06716], [4.28927, 52.06367], [4.28638, 52.06729], [4.28631, 52.06736], [4.29288, 52.06991], [4.29684, 52.06716]]]]}}, {"type": "Feature", "properties": {"statcode": "BU05183034", "statnaam": "Transvaalkwartier-Zuid"}, "geometry": {"type": "MultiPolygon", "coordinates": [[[[4.30126, 52.06284], [4.29754, 52.06112], [4.29215, 52.0598], [4.28927, 52.06367], [4.29684, 52.06716], [4.30126, 52.06284]]]]}}, {"type": "Feature", "properties": {"statcode": "BU05183130", "statnaam": "Rustenburg"}, "geometry": {"type": "MultiPolygon", "coordinates": [[[[4.27881, 52.06549], [4.28224, 52.06156], [4.27411, 52.06252], [4.27018, 52.06684], [4.27019, 52.06685], [4.27524, 52.06849], [4.27589, 52.0687], [4.27881, 52.06549]]]]}}, {"type": "Feature", "properties": {"statcode": "BU05183131", "statnaam": "Oostbroek-Noord"}, "geometry": {"type": "MultiPolygon", "coordinates": [[[[4.28631, 52.06736], [4.28638, 52.06729], [4.27881, 52.06549], [4.27589, 52.0687], [4.28414, 52.07064], [4.28631, 52.06736]]]]}}, {"type": "Feature", "properties": {"statcode": "BU05183135", "statnaam": "Oostbroek-Zuid"}, "geometry": {"type": "MultiPolygon", "coordinates": [[[[4.28927, 52.06367], [4.29215, 52.0598], [4.29213, 52.05956], [4.28266, 52.06154], [4.28224, 52.06156], [4.27881, 52.06549], [4.28638, 52.06729], [4.28927, 52.06367]]]]}}, {"type": "Feature", "properties": {"statcode": "BU05183284", "statnaam": "Leyenburg"}, "geometry": {"type": "MultiPolygon", "coordinates": [[[[4.28224, 52.06156], [4.28266, 52.06154], [4.27484, 52.05721], [4.26957, 52.05413], [4.26167, 52.05131], [4.2616, 52.05135], [4.25641, 52.054], [4.26412, 52.0586], [4.26122, 52.06165], [4.25924, 52.06264], [4.27018, 52.06684], [4.27411, 52.06252], [4.28224, 52.06156]]]]}}, {"type": "Feature", "properties": {"statcode": "BU05183387", "statnaam": "Venen, Oorden en Raden"}, "geometry": {"type": "MultiPolygon", "coordinates": [[[[4.26167, 52.05131], [4.26781, 52.04739], [4.25085, 52.03769], [4.24568, 52.04001], [4.2616, 52.05135], [4.26167, 52.05131]]]]}}, {"type": "Feature", "properties": {"statcode": "BU05183396", "statnaam": "Zijden, Steden en Zichten"}, "geometry": {"type": "MultiPolygon", "coordinates": [[[[4.27368, 52.04341], [4.27379, 52.04334], [4.25505, 52.03365], [4.25085, 52.03769], [4.26781, 52.04739], [4.27368, 52.04341]]]]}}, {"type": "Feature", "properties": {"statcode": "BU05183398", "statnaam": "Dreven en Gaarden"}, "geometry": {"type": "MultiPolygon", "coordinates": [[[[4.28002, 52.04023], [4.27366, 52.03668], [4.27297, 52.03552], [4.27266, 52.03592], [4.26665, 52.03301], [4.25913, 52.02957], [4.25505, 52.03365], [4.27379, 52.04334], [4.28002, 52.04023]]]]}}, {"type": "Feature", "properties": {"statcode": "BU05183399", "statnaam": "De Uithof"}, "geometry": {"type": "MultiPolygon", "coordinates": [[[[4.24568, 52.04001], [4.25085, 52.03769], [4.25505, 52.03365], [4.25913, 52.02957], [4.25638, 52.02835], [4.25489, 52.02829], [4.24822, 52.02523], [4.24481, 52.02873], [4.24429, 52.02885], [4.24142, 52.03195], [4.23505, 52.03926], [4.23942, 52.04223], [4.24568, 52.04001]]]]}}, {"type": "Feature", "properties": {"statcode": "BU05183480", "statnaam": "Morgenstond-Zuid"}, "geometry": {"type": "MultiPolygon", "coordinates": [[[[4.28861, 52.04539], [4.2886, 52.04437], [4.28002, 52.04023], [4.27379, 52.04334], [4.27368, 52.04341], [4.27929, 52.04619], [4.28365, 52.04874], [4.28861, 52.04539]]]]}}, {"type": "Feature", "properties": {"statcode": "BU05183488", "statnaam": "Morgenstond-West"}, "geometry": {"type": "MultiPolygon", "coordinates": [[[[4.27929, 52.04619], [4.27368, 52.04341], [4.26781, 52.04739], [4.26167, 52.05131], [4.26957, 52.05413], [4.27929, 52.04619]]]]}}, {"type": "Feature", "properties": {"statcode": "BU05183489", "statnaam": "Morgenstond-Oost"}, "geometry": {"type": "MultiPolygon", "coordinates": [[[[4.28563, 52.04961], [4.28365, 52.04874], [4.27929, 52.04619], [4.26957, 52.05413], [4.27484, 52.05721], [4.28563, 52.04961]]]]}}, {"type": "Feature", "properties": {"statcode": "BU05183536", "statnaam": "Zuiderpark"}, "geometry": {"type": "MultiPolygon", "coordinates": [[[[4.29213, 52.05956], [4.29218, 52.05949], [4.29586, 52.05447], [4.28563, 52.04961], [4.27484, 52.05721], [4.28266, 52.06154], [4.29213, 52.05956]]]]}}, {"type": "Feature", "properties": {"statcode": "BU05183620", "statnaam": "Moerwijk-Oost"}, "geometry": {"type": "MultiPolygon", "coordinates": [[[[4.30981, 52.04857], [4.30441, 52.04666], [4.30323, 52.04696], [4.29855, 52.0503], [4.29873, 52.05086], [4.30828, 52.0552], [4.30837, 52.05199], [4.30981, 52.04857]]]]}}, {"type": "Feature", "properties": {"statcode": "BU05183637", "statnaam": "Moerwijk-West"}, "geometry": {"type": "MultiPolygon", "coordinates": [[[[4.29873, 52.05086], [4.29855, 52.0503], [4.28861, 52.04539], [4.28365, 52.04874], [4.28563, 52.04961], [4.29586, 52.05447], [4.29873, 52.05086]]]]}}, {"type": "Feature", "properties": {"statcode": "BU05183638", "statnaam": "Moerwijk-Noord"}, "geometry": {"type": "MultiPolygon", "coordinates": [[[[4.30889, 52.05821], [4.30835, 52.05634], [4.30828, 52.0552], [4.29873, 52.05086], [4.29586, 52.05447], [4.29218, 52.05949], [4.30407, 52.05642], [4.30889, 52.05821]]]]}}, {"type": "Feature", "properties": {"statcode": "BU05183639", "statnaam": "Moerwijk-Zuid"}, "geometry": {"type": "MultiPolygon", "coordinates": [[[[4.30323, 52.04696], [4.29837, 52.04556], [4.29874, 52.04501], [4.29725, 52.04457], [4.29756, 52.04407], [4.29677, 52.04373], [4.29551, 52.04358], [4.29345, 52.04306], [4.29387, 52.04254], [4.29095, 52.04157], [4.2886, 52.04437], [4.28861, 52.04539], [4.29855, 52.0503], [4.30323, 52.04696]]]]}}, {"type": "Feature", "properties": {"statcode": "BU05183721", "statnaam": "Groente- en Fruitmarkt"}, "geometry": {"type": "MultiPolygon", "coordinates": [[[[4.30798, 52.06116], [4.31145, 52.06217], [4.30889, 52.05821], [4.30407, 52.05642], [4.29218, 52.05949], [4.29213, 52.05956], [4.29215, 52.0598], [4.29754, 52.06112], [4.30126, 52.06284], [4.3046, 52.06135], [4.30798, 52.06116]]]]}}, {"type": "Feature", "properties": {"statcode": "BU05183819", "statnaam": "Laakhaven-Oost"}, "geometry": {"type": "MultiPolygon", "coordinates": [[[[4.33258, 52.06809], [4.32897, 52.0666], [4.32421, 52.06383], [4.32018, 52.06708], [4.3211, 52.06809], [4.32571, 52.0701], [4.32512, 52.07133], [4.32616, 52.07164], [4.32617, 52.07165], [4.33258, 52.06809]]]]}}, {"type": "Feature", "properties": {"statcode": "BU05183822", "statnaam": "Laakhaven-West"}, "geometry": {"type": "MultiPolygon", "coordinates": [[[[4.32421, 52.06383], [4.31922, 52.06064], [4.3123, 52.05715], [4.31172, 52.05612], [4.30835, 52.05634], [4.30889, 52.05821], [4.31145, 52.06217], [4.31576, 52.06597], [4.3211, 52.06809], [4.32018, 52.06708], [4.32421, 52.06383]]]]}}, {"type": "Feature", "properties": {"statcode": "BU05183823", "statnaam": "Spoorwijk"}, "geometry": {"type": "MultiPolygon", "coordinates": [[[[4.31172, 52.05612], [4.31362, 52.05583], [4.31542, 52.05387], [4.31535, 52.05208], [4.31645, 52.05087], [4.31308, 52.05013], [4.31004, 52.04867], [4.30981, 52.04857], [4.30837, 52.05199], [4.30828, 52.0552], [4.30835, 52.05634], [4.31172, 52.05612]]]]}}, {"type": "Feature", "properties": {"statcode": "BU05183824", "statnaam": "Laakkwartier-West"}, "geometry": {"type": "MultiPolygon", "coordinates": [[[[4.31645, 52.05087], [4.31535, 52.05208], [4.31542, 52.05387], [4.31362, 52.05583], [4.31172, 52.05612], [4.3123, 52.05715], [4.31922, 52.06064], [4.32412, 52.05565], [4.32135, 52.05462], [4.32191, 52.05305], [4.31645, 52.05087]]]]}}, {"type": "Feature", "properties": {"statcode": "BU05183825", "statnaam": "Laakkwartier-Oost"}, "geometry": {"type": "MultiPolygon", "coordinates": [[[[4.33489, 52.05952], [4.33033, 52.05734], [4.32865, 52.05655], [4.32764, 52.05694], [4.32763, 52.05645], [4.32549, 52.05544], [4.32412, 52.05565], [4.31922, 52.06064], [4.32421, 52.06383], [4.32897, 52.0666], [4.32959, 52.06526], [4.32785, 52.06124], [4.33153, 52.05978], [4.33489, 52.05952]]]]}}, {"type": "Feature", "properties": {"statcode": "BU05183826", "statnaam": "Noordpolderbuurt"}, "geometry": {"type": "MultiPolygon", "coordinates": [[[[4.34031, 52.06195], [4.33515, 52.05963], [4.33489, 52.05952], [4.33153, 52.05978], [4.32785, 52.06124], [4.32959, 52.06526], [4.32897, 52.0666], [4.33258, 52.06809], [4.34031, 52.06195]]]]}}, {"type": "Feature", "properties": {"statcode": "BU05183960", "statnaam": "Binckhorst"}, "geometry": {"type": "MultiPolygon", "coordinates": [[[[4.33521, 52.075], [4.35493, 52.06825], [4.35552, 52.06804], [4.3422, 52.06113], [4.34188, 52.06098], [4.34031, 52.06195], [4.33258, 52.06809], [4.32617, 52.07165], [4.33384, 52.07499], [4.33521, 52.075]]]]}}, {"type": "Feature", "properties": {"statcode": "BU05184001", "statnaam": "Erasmus Veld"}, "geometry": {"type": "MultiPolygon", "coordinates": [[[[4.29095, 52.04157], [4.29171, 52.04038], [4.2779, 52.03247], [4.2759, 52.03156], [4.27297, 52.03552], [4.27366, 52.03668], [4.28002, 52.04023], [4.2886, 52.04437], [4.29095, 52.04157]]]]}}, {"type": "Feature", "properties": {"statcode": "BU05184002", "statnaam": "Hoge Veld"}, "geometry": {"type": "MultiPolygon", "coordinates": [[[[4.29862, 52.02982], [4.29789, 52.02947], [4.29713, 52.03007], [4.29473, 52.02993], [4.2828, 52.02763], [4.28174, 52.02737], [4.2779, 52.03247], [4.29171, 52.04038], [4.29862, 52.02982]]]]}}, {"type": "Feature", "properties": {"statcode": "BU05184003", "statnaam": "Parkbuurt oosteinde"}, "geometry": {"type": "MultiPolygon", "coordinates": [[[[4.29789, 52.02947], [4.29791, 52.02945], [4.30093, 52.02593], [4.29937, 52.02648], [4.29741, 52.02613], [4.287, 52.02287], [4.28677, 52.02297], [4.28825, 52.02376], [4.28515, 52.02562], [4.28565, 52.02591], [4.28505, 52.02627], [4.28588, 52.02648], [4.28525, 52.02742], [4.28347, 52.0267], [4.2828, 52.02763], [4.29473, 52.02993], [4.29713, 52.03007], [4.29789, 52.02947]]]]}}, {"type": "Feature", "properties": {"statcode": "BU05184004", "statnaam": "Lage Veld"}, "geometry": {"type": "MultiPolygon", "coordinates": [[[[4.30093, 52.02593], [4.30419, 52.02215], [4.30242, 52.02255], [4.29434, 52.01936], [4.287, 52.02287], [4.29741, 52.02613], [4.29937, 52.02648], [4.30093, 52.02593]]]]}}, {"type": "Feature", "properties": {"statcode": "BU05184005", "statnaam": "Zonne Veld"}, "geometry": {"type": "MultiPolygon", "coordinates": [[[[4.30419, 52.02215], [4.30431, 52.022], [4.30764, 52.01815], [4.30266, 52.01649], [4.30108, 52.01787], [4.29861, 52.01688], [4.29551, 52.01485], [4.28974, 52.01765], [4.29434, 52.01936], [4.30242, 52.02255], [4.30419, 52.02215]]]]}}, {"type": "Feature", "properties": {"statcode": "BU05184106", "statnaam": "Vlietzoom-West"}, "geometry": {"type": "MultiPolygon", "coordinates": [[[[4.37473, 52.06138], [4.3709, 52.05809], [4.36608, 52.05405], [4.35637, 52.04689], [4.35231, 52.04818], [4.35264, 52.0491], [4.34469, 52.05394], [4.34726, 52.0563], [4.3469, 52.05705], [4.34415, 52.05938], [4.34188, 52.06098], [4.3422, 52.06113], [4.34413, 52.05972], [4.34424, 52.05977], [4.34448, 52.05962], [4.348, 52.0565], [4.35228, 52.05939], [4.35332, 52.05867], [4.35398, 52.05899], [4.35757, 52.05655], [4.35725, 52.05634], [4.35735, 52.05626], [4.35923, 52.05735], [4.35947, 52.05718], [4.35982, 52.05737], [4.35944, 52.05763], [4.35997, 52.05793], [4.35958, 52.0582], [4.36012, 52.0585], [4.36045, 52.05827], [4.36083, 52.05847], [4.35602, 52.06157], [4.36382, 52.06517], [4.37473, 52.06138]]]]}}, {"type": "Feature", "properties": {"statcode": "BU05184107", "statnaam": "Vliegeniersbuurt"}, "geometry": {"type": "MultiPolygon", "coordinates": [[[[4.35637, 52.04689], [4.3639, 52.04273], [4.35498, 52.0368], [4.35444, 52.03448], [4.35686, 52.03174], [4.3615, 52.02941], [4.36243, 52.02769], [4.36026, 52.02676], [4.35977, 52.02654], [4.35885, 52.02733], [4.35779, 52.02686], [4.35753, 52.02738], [4.3579, 52.02777], [4.35483, 52.03044], [4.35378, 52.03068], [4.35036, 52.03931], [4.34688, 52.04247], [4.34684, 52.04357], [4.34606, 52.04402], [4.34688, 52.04552], [4.34913, 52.04689], [4.35231, 52.04818], [4.35637, 52.04689]]]]}}, {"type": "Feature", "properties": {"statcode": "BU05184110", "statnaam": "De Reef"}, "geometry": {"type": "MultiPolygon", "coordinates": [[[[4.38937, 52.05639], [4.38411, 52.05278], [4.37976, 52.05273], [4.37489, 52.05657], [4.37371, 52.05609], [4.3709, 52.05809], [4.37473, 52.06138], [4.38937, 52.05639]]]]}}, {"type": "Feature", "properties": {"statcode": "BU05184208", "statnaam": "Bosweide"}, "geometry": {"type": "MultiPolygon", "coordinates": [[[[4.374, 52.04875], [4.3639, 52.04273], [4.35637, 52.04689], [4.36608, 52.05405], [4.374, 52.04875]]]]}}, {"type": "Feature", "properties": {"statcode": "BU05184209", "statnaam": "Tedingerbroek"}, "geometry": {"type": "MultiPolygon", "coordinates": [[[[4.37976, 52.05273], [4.374, 52.04875], [4.36608, 52.05405], [4.3709, 52.05809], [4.37371, 52.05609], [4.37489, 52.05657], [4.37976, 52.05273]]]]}}, {"type": "Feature", "properties": {"statcode": "BU05184211", "statnaam": "De Venen"}, "geometry": {"type": "MultiPolygon", "coordinates": [[[[4.39565, 52.05445], [4.40136, 52.05334], [4.40007, 52.05237], [4.40007, 52.05237], [4.39855, 52.05122], [4.39444, 52.05405], [4.39357, 52.05348], [4.39376, 52.05333], [4.39312, 52.05284], [4.39259, 52.05315], [4.39113, 52.05195], [4.39144, 52.05176], [4.38968, 52.04996], [4.3879, 52.05117], [4.3861, 52.04997], [4.38411, 52.05278], [4.38937, 52.05639], [4.39565, 52.05445]]]]}}, {"type": "Feature", "properties": {"statcode": "BU05184212", "statnaam": "Morgenweide"}, "geometry": {"type": "MultiPolygon", "coordinates": [[[[4.3861, 52.04997], [4.38584, 52.0498], [4.3781, 52.04465], [4.37266, 52.04093], [4.3698, 52.03982], [4.3639, 52.04273], [4.374, 52.04875], [4.37976, 52.05273], [4.38411, 52.05278], [4.3861, 52.04997]]]]}}, {"type": "Feature", "properties": {"statcode": "BU05184213", "statnaam": "Singels"}, "geometry": {"type": "MultiPolygon", "coordinates": [[[[4.3698, 52.03982], [4.35686, 52.03174], [4.35444, 52.03448], [4.35498, 52.0368], [4.3639, 52.04273], [4.3698, 52.03982]]]]}}, {"type": "Feature", "properties": {"statcode": "BU05184214", "statnaam": "Waterbuurt"}, "geometry": {"type": "MultiPolygon", "coordinates": [[[[4.38118, 52.03639], [4.3735, 52.0326], [4.3634, 52.0281], [4.36243, 52.02769], [4.3615, 52.02941], [4.35686, 52.03174], [4.3698, 52.03982], [4.37266, 52.04093], [4.37986, 52.03595], [4.38118, 52.03639]]]]}}, {"type": "Feature", "properties": {"statcode": "BU05184215", "statnaam": "De Bras"}, "geometry": {"type": "MultiPolygon", "coordinates": [[[[4.38785, 52.03844], [4.39393, 52.03305], [4.37974, 52.02673], [4.3735, 52.0326], [4.38118, 52.03639], [4.38677, 52.03844], [4.38785, 52.03844]]]]}}, {"type": "Feature", "properties": {"statcode": "BU05184316", "statnaam": "Vlietzoom-Oost"}, "geometry": {"type": "MultiPolygon", "coordinates": [[[[4.38865, 52.07297], [4.39192, 52.07473], [4.39462, 52.07591], [4.39709, 52.07476], [4.38373, 52.0686], [4.37473, 52.06138], [4.36382, 52.06517], [4.36401, 52.06532], [4.37143, 52.06958], [4.38, 52.07475], [4.38436, 52.07616], [4.38458, 52.07623], [4.38865, 52.07297]]]]}}, {"type": "Feature", "properties": {"statcode": "BU05184317", "statnaam": "De Rivieren"}, "geometry": {"type": "MultiPolygon", "coordinates": [[[[4.40593, 52.07659], [4.39585, 52.06788], [4.38782, 52.06131], [4.39665, 52.05613], [4.39565, 52.05445], [4.38937, 52.05639], [4.37473, 52.06138], [4.38373, 52.0686], [4.39709, 52.07476], [4.40392, 52.07785], [4.40593, 52.07659]]]]}}, {"type": "Feature", "properties": {"statcode": "BU05184418", "statnaam": "De Lanen"}, "geometry": {"type": "MultiPolygon", "coordinates": [[[[4.40245, 52.06319], [4.39665, 52.05613], [4.38782, 52.06131], [4.39585, 52.06788], [4.40245, 52.06319]]]]}}, {"type": "Feature", "properties": {"statcode": "BU05184419", "statnaam": "De Velden"}, "geometry": {"type": "MultiPolygon", "coordinates": [[[[4.41188, 52.07213], [4.40245, 52.06319], [4.39585, 52.06788], [4.40593, 52.07659], [4.41188, 52.07213]]]]}}, {"type": "Feature", "properties": {"statcode": "BU05184420", "statnaam": "De Vissen"}, "geometry": {"type": "MultiPolygon", "coordinates": [[[[4.42083, 52.06258], [4.42042, 52.0621], [4.42243, 52.05733], [4.41539, 52.05744], [4.41109, 52.05782], [4.40704, 52.05907], [4.40245, 52.06319], [4.41188, 52.07213], [4.41724, 52.06622], [4.42069, 52.06346], [4.42083, 52.06258]]]]}}, {"type": "Feature", "properties": {"statcode": "BU05184421", "statnaam": "Rietbuurt"}, "geometry": {"type": "MultiPolygon", "coordinates": [[[[4.42207, 52.05167], [4.40136, 52.05334], [4.39565, 52.05445], [4.39665, 52.05613], [4.40245, 52.06319], [4.40704, 52.05907], [4.41109, 52.05782], [4.41539, 52.05744], [4.41523, 52.05701], [4.42139, 52.05221], [4.42207, 52.05167]]]]}}]}