{"type": "FeatureCollection", "features": [{"type": "Feature", "properties": {"statcode": "WK051801", "statnaam": "Wijk 01 Oostduinen"}, "geometry": {"type": "MultiPolygon", "coordinates": [[[[4.32884, 52.10929], [4.32252, 52.10768], [4.31868, 52.10691], [4.31472, 52.10703], [4.30398, 52.11084], [4.29403, 52.11386], [4.28666, 52.11924], [4.30264, 52.12852], [4.32884, 52.10929]]]]}}, {"type": "Feature", "properties": {"statcode": "WK051802", "statnaam": "Wijk 02 Belgisch Park"}, "geometry": {"type": "MultiPolygon", "coordinates": [[[[4.28666, 52.11924], [4.29403, 52.11386], [4.30398, 52.11084], [4.30192, 52.10626], [4.29934, 52.10799], [4.29171, 52.10745], [4.29008, 52.10836], [4.28401, 52.11169], [4.28262, 52.11254], [4.28313, 52.11336], [4.28009, 52.11542], [4.28166, 52.11623], [4.27992, 52.11719], [4.27989, 52.11673], [4.27935, 52.1167], [4.27915, 52.11682], [4.27914, 52.11723], [4.27986, 52.11733], [4.27965, 52.11787], [4.28002, 52.11792], [4.28017, 52.11781], [4.28003, 52.11733], [4.28045, 52.11711], [4.28091, 52.11716], [4.28081, 52.11749], [4.28105, 52.11751], [4.28119, 52.11715], [4.28055, 52.11704], [4.28184, 52.11632], [4.28666, 52.11924]]]]}}, {"type": "Feature", "properties": {"statcode": "WK051803", "statnaam": "Wijk 03 Westbroekpark en Duttendel"}, "geometry": {"type": "MultiPolygon", "coordinates": [[[[4.31472, 52.10703], [4.31868, 52.10691], [4.32252, 52.10768], [4.32168, 52.10645], [4.31672, 52.10428], [4.31135, 52.1017], [4.30881, 52.0983], [4.30625, 52.09663], [4.29996, 52.09864], [4.3, 52.09899], [4.28611, 52.10404], [4.28567, 52.10422], [4.29008, 52.10836], [4.29171, 52.10745], [4.29934, 52.10799], [4.30192, 52.10626], [4.30398, 52.11084], [4.31472, 52.10703]]]]}}, {"type": "Feature", "properties": {"statcode": "WK051804", "statnaam": "Wijk 04 Benoordenhout"}, "geometry": {"type": "MultiPolygon", "coordinates": [[[[4.32329, 52.09921], [4.32739, 52.09566], [4.33725, 52.09877], [4.33857, 52.09744], [4.34136, 52.09834], [4.34232, 52.09748], [4.32989, 52.09232], [4.32237, 52.08897], [4.31518, 52.08606], [4.31209, 52.08985], [4.31204, 52.08992], [4.30911, 52.09347], [4.30625, 52.09663], [4.30881, 52.0983], [4.31135, 52.1017], [4.31672, 52.10428], [4.32168, 52.10645], [4.32252, 52.10768], [4.32884, 52.10929], [4.32894, 52.10921], [4.329, 52.10917], [4.33306, 52.10573], [4.33043, 52.10426], [4.33226, 52.10304], [4.32329, 52.09921]]]]}}, {"type": "Feature", "properties": {"statcode": "WK051805", "statnaam": "Wijk 05 Archipelbuurt"}, "geometry": {"type": "MultiPolygon", "coordinates": [[[[4.30625, 52.09663], [4.30911, 52.09347], [4.31204, 52.08992], [4.31209, 52.08985], [4.30411, 52.08823], [4.30042, 52.08688], [4.29552, 52.08828], [4.29374, 52.0897], [4.29542, 52.09195], [4.30038, 52.09431], [4.29996, 52.09864], [4.30625, 52.09663]]]]}}, {"type": "Feature", "properties": {"statcode": "WK051806", "statnaam": "Wijk 06 Van Stolkpark en Scheveningse Bosjes"}, "geometry": {"type": "MultiPolygon", "coordinates": [[[[4.3, 52.09899], [4.29996, 52.09864], [4.30038, 52.09431], [4.29542, 52.09195], [4.29374, 52.0897], [4.286, 52.09595], [4.28106, 52.09996], [4.28611, 52.10404], [4.3, 52.09899]]]]}}, {"type": "Feature", "properties": {"statcode": "WK051807", "statnaam": "Wijk 07 Scheveningen"}, "geometry": {"type": "MultiPolygon", "coordinates": [[[[4.28611, 52.10404], [4.28106, 52.09996], [4.27823, 52.10228], [4.27622, 52.10169], [4.27447, 52.10169], [4.26809, 52.09415], [4.26475, 52.09163], [4.26433, 52.09142], [4.25811, 52.09659], [4.25523, 52.09807], [4.25607, 52.09978], [4.25383, 52.10121], [4.25246, 52.10395], [4.25422, 52.10142], [4.25794, 52.09891], [4.2599, 52.099], [4.26054, 52.09867], [4.26071, 52.09828], [4.25902, 52.09784], [4.25939, 52.09701], [4.26104, 52.09729], [4.26375, 52.09689], [4.26465, 52.09749], [4.26358, 52.09827], [4.26417, 52.09863], [4.26691, 52.09735], [4.26318, 52.09484], [4.26419, 52.09425], [4.27173, 52.09957], [4.27078, 52.10005], [4.2672, 52.09749], [4.26545, 52.09841], [4.26541, 52.09874], [4.26873, 52.10111], [4.26721, 52.1019], [4.26317, 52.09906], [4.26124, 52.09921], [4.26066, 52.09957], [4.26103, 52.10059], [4.25881, 52.10146], [4.25775, 52.10345], [4.25592, 52.10386], [4.25618, 52.10419], [4.25818, 52.10365], [4.25894, 52.10228], [4.26145, 52.10294], [4.26523, 52.10548], [4.26913, 52.10791], [4.28009, 52.11542], [4.28313, 52.11336], [4.28262, 52.11254], [4.28401, 52.11169], [4.29008, 52.10836], [4.28567, 52.10422], [4.28611, 52.10404]]]]}}, {"type": "Feature", "properties": {"statcode": "WK051808", "statnaam": "Wijk 08 Duindorp"}, "geometry": {"type": "MultiPolygon", "coordinates": [[[[4.26433, 52.09142], [4.25632, 52.08652], [4.24361, 52.08826], [4.25523, 52.09807], [4.25811, 52.09659], [4.26433, 52.09142]]]]}}, {"type": "Feature", "properties": {"statcode": "WK051809", "statnaam": "Wijk 09 Geuzen- en Statenkwartier"}, "geometry": {"type": "MultiPolygon", "coordinates": [[[[4.27823, 52.10228], [4.28106, 52.09996], [4.286, 52.09595], [4.28105, 52.09358], [4.27827, 52.09072], [4.27948, 52.08852], [4.2732, 52.08578], [4.27303, 52.0852], [4.27267, 52.08552], [4.26475, 52.09163], [4.26809, 52.09415], [4.27447, 52.10169], [4.27622, 52.10169], [4.27823, 52.10228]]]]}}, {"type": "Feature", "properties": {"statcode": "WK051810", "statnaam": "Wijk 10 Zorgvliet"}, "geometry": {"type": "MultiPolygon", "coordinates": [[[[4.29374, 52.0897], [4.29552, 52.08828], [4.29247, 52.08693], [4.29263, 52.0851], [4.28651, 52.08543], [4.28263, 52.08504], [4.27948, 52.08852], [4.27827, 52.09072], [4.28105, 52.09358], [4.286, 52.09595], [4.29374, 52.0897]]]]}}, {"type": "Feature", "properties": {"statcode": "WK051811", "statnaam": "Wijk 11 Duinoord"}, "geometry": {"type": "MultiPolygon", "coordinates": [[[[4.27948, 52.08852], [4.28263, 52.08504], [4.28651, 52.08543], [4.29263, 52.0851], [4.29334, 52.08461], [4.28762, 52.08181], [4.2769, 52.07876], [4.27656, 52.08212], [4.27303, 52.0852], [4.2732, 52.08578], [4.27948, 52.08852]]]]}}, {"type": "Feature", "properties": {"statcode": "WK051812", "statnaam": "Wijk 12 Bomen- en Bloemenbuurt"}, "geometry": {"type": "MultiPolygon", "coordinates": [[[[4.25931, 52.07256], [4.25053, 52.0692], [4.24908, 52.07069], [4.2522, 52.07279], [4.25264, 52.07382], [4.25059, 52.07645], [4.25365, 52.07771], [4.2653, 52.08248], [4.27267, 52.08552], [4.27303, 52.0852], [4.27656, 52.08212], [4.2769, 52.07876], [4.27693, 52.07872], [4.26815, 52.07566], [4.26183, 52.07348], [4.25931, 52.07256]]]]}}, {"type": "Feature", "properties": {"statcode": "WK051813", "statnaam": "Wijk 13 Vogelwijk"}, "geometry": {"type": "MultiPolygon", "coordinates": [[[[4.27267, 52.08552], [4.2653, 52.08248], [4.25365, 52.07771], [4.25059, 52.07645], [4.24055, 52.07231], [4.23733, 52.07617], [4.23108, 52.07855], [4.24361, 52.08826], [4.25632, 52.08652], [4.26433, 52.09142], [4.26475, 52.09163], [4.27267, 52.08552]]]]}}, {"type": "Feature", "properties": {"statcode": "WK051814", "statnaam": "Wijk 14 Bohemen en Meer en Bos"}, "geometry": {"type": "MultiPolygon", "coordinates": [[[[4.23494, 52.06419], [4.2262, 52.06169], [4.2257, 52.0637], [4.22328, 52.06641], [4.22814, 52.06832], [4.23243, 52.06893], [4.24057, 52.07227], [4.24055, 52.07231], [4.25059, 52.07645], [4.25264, 52.07382], [4.2522, 52.07279], [4.24908, 52.07069], [4.25053, 52.0692], [4.24606, 52.06751], [4.24377, 52.06673], [4.24358, 52.06667], [4.23494, 52.06419]]]]}}, {"type": "Feature", "properties": {"statcode": "WK051815", "statnaam": "Wijk 15 Kijkduin en Ockenburgh"}, "geometry": {"type": "MultiPolygon", "coordinates": [[[[4.21884, 52.0478], [4.20412, 52.04473], [4.19634, 52.05566], [4.20514, 52.06061], [4.20241, 52.06153], [4.21158, 52.06603], [4.22549, 52.07437], [4.23108, 52.07855], [4.23733, 52.07617], [4.24055, 52.07231], [4.24057, 52.07227], [4.23243, 52.06893], [4.22814, 52.06832], [4.22328, 52.06641], [4.2257, 52.0637], [4.2262, 52.06169], [4.22617, 52.05777], [4.22886, 52.05193], [4.21884, 52.0478]]]]}}, {"type": "Feature", "properties": {"statcode": "WK051816", "statnaam": "Wijk 16 Kraayenstein en Vroondaal"}, "geometry": {"type": "MultiPolygon", "coordinates": [[[[4.23091, 52.05179], [4.23436, 52.04997], [4.23657, 52.05055], [4.2417, 52.04385], [4.23942, 52.04223], [4.23505, 52.03926], [4.22833, 52.03464], [4.21923, 52.03374], [4.21373, 52.03169], [4.21226, 52.03075], [4.20958, 52.03365], [4.21243, 52.03403], [4.20904, 52.03827], [4.20416, 52.04467], [4.20412, 52.04473], [4.21884, 52.0478], [4.22886, 52.05193], [4.23091, 52.05179]]]]}}, {"type": "Feature", "properties": {"statcode": "WK051817", "statnaam": "Wijk 17 Loosduinen"}, "geometry": {"type": "MultiPolygon", "coordinates": [[[[4.26412, 52.0586], [4.25641, 52.054], [4.2616, 52.05135], [4.24568, 52.04001], [4.23942, 52.04223], [4.2417, 52.04385], [4.23657, 52.05055], [4.23436, 52.04997], [4.23091, 52.05179], [4.22886, 52.05193], [4.22617, 52.05777], [4.22734, 52.05803], [4.22843, 52.05641], [4.23308, 52.05439], [4.2373, 52.05507], [4.24173, 52.0555], [4.24888, 52.05766], [4.25912, 52.06275], [4.25924, 52.06264], [4.26122, 52.06165], [4.26412, 52.0586]]]]}}, {"type": "Feature", "properties": {"statcode": "WK051818", "statnaam": "Wijk 18 Waldeck"}, "geometry": {"type": "MultiPolygon", "coordinates": [[[[4.25912, 52.06275], [4.24888, 52.05766], [4.24173, 52.0555], [4.2373, 52.05507], [4.23308, 52.05439], [4.22843, 52.05641], [4.22734, 52.05803], [4.22617, 52.05777], [4.2262, 52.06169], [4.23494, 52.06419], [4.24358, 52.06667], [4.24377, 52.06673], [4.24606, 52.06751], [4.25243, 52.06445], [4.25912, 52.06275]]]]}}, {"type": "Feature", "properties": {"statcode": "WK051819", "statnaam": "Wijk 19 Vruchtenbuurt"}, "geometry": {"type": "MultiPolygon", "coordinates": [[[[4.26183, 52.07348], [4.26395, 52.0695], [4.26766, 52.07071], [4.27019, 52.06685], [4.27018, 52.06684], [4.25924, 52.06264], [4.25912, 52.06275], [4.25243, 52.06445], [4.24606, 52.06751], [4.25053, 52.0692], [4.25931, 52.07256], [4.26183, 52.07348]]]]}}, {"type": "Feature", "properties": {"statcode": "WK051820", "statnaam": "Wijk 20 Valkenboskwartier"}, "geometry": {"type": "MultiPolygon", "coordinates": [[[[4.28083, 52.07438], [4.28417, 52.07065], [4.28414, 52.07064], [4.27589, 52.0687], [4.27524, 52.06849], [4.27019, 52.06685], [4.26766, 52.07071], [4.26395, 52.0695], [4.26183, 52.07348], [4.26815, 52.07566], [4.27693, 52.07872], [4.28083, 52.07438]]]]}}, {"type": "Feature", "properties": {"statcode": "WK051821", "statnaam": "Wijk 21 Regentessekwartier"}, "geometry": {"type": "MultiPolygon", "coordinates": [[[[4.29105, 52.07267], [4.28417, 52.07065], [4.28083, 52.07438], [4.27693, 52.07872], [4.2769, 52.07876], [4.28762, 52.08181], [4.2919, 52.0787], [4.29479, 52.07649], [4.29696, 52.07397], [4.29105, 52.07267]]]]}}, {"type": "Feature", "properties": {"statcode": "WK051822", "statnaam": "Wijk 22 Zeeheldenkwartier"}, "geometry": {"type": "MultiPolygon", "coordinates": [[[[4.30042, 52.08688], [4.30389, 52.08391], [4.30094, 52.0827], [4.30238, 52.07973], [4.29479, 52.07649], [4.2919, 52.0787], [4.28762, 52.08181], [4.29334, 52.08461], [4.29263, 52.0851], [4.29247, 52.08693], [4.29552, 52.08828], [4.30042, 52.08688]]]]}}, {"type": "Feature", "properties": {"statcode": "WK051823", "statnaam": "Wijk 23 Willemspark"}, "geometry": {"type": "MultiPolygon", "coordinates": [[[[4.31518, 52.08606], [4.31557, 52.08558], [4.31395, 52.08488], [4.31207, 52.08673], [4.30389, 52.08391], [4.30042, 52.08688], [4.30411, 52.08823], [4.31209, 52.08985], [4.31518, 52.08606]]]]}}, {"type": "Feature", "properties": {"statcode": "WK051824", "statnaam": "Wijk 24 Haagse Bos"}, "geometry": {"type": "MultiPolygon", "coordinates": [[[[4.34304, 52.09137], [4.34235, 52.09126], [4.3347, 52.08804], [4.32952, 52.08531], [4.32481, 52.08324], [4.32019, 52.08136], [4.31557, 52.08558], [4.31518, 52.08606], [4.32237, 52.08897], [4.32989, 52.09232], [4.34232, 52.09748], [4.34374, 52.09811], [4.34594, 52.0958], [4.34075, 52.09408], [4.34304, 52.09137]]]]}}, {"type": "Feature", "properties": {"statcode": "WK051825", "statnaam": "Wijk 25 Mariahoeve en Marlot"}, "geometry": {"type": "MultiPolygon", "coordinates": [[[[4.3532, 52.08301], [4.35249, 52.08269], [4.34235, 52.09126], [4.34304, 52.09137], [4.34075, 52.09408], [4.34594, 52.0958], [4.34374, 52.09811], [4.35849, 52.10576], [4.35862, 52.10568], [4.35883, 52.10553], [4.36319, 52.10211], [4.36331, 52.1018], [4.36987, 52.09623], [4.37046, 52.09623], [4.37271, 52.09477], [4.37147, 52.09384], [4.37344, 52.09235], [4.37305, 52.09206], [4.36803, 52.0897], [4.36778, 52.08958], [4.3589, 52.08556], [4.35678, 52.0846], [4.3532, 52.08301]]]]}}, {"type": "Feature", "properties": {"statcode": "WK051826", "statnaam": "Wijk 26 Bezuidenhout"}, "geometry": {"type": "MultiPolygon", "coordinates": [[[[4.33885, 52.07661], [4.33521, 52.075], [4.33384, 52.07499], [4.33214, 52.07564], [4.32549, 52.07937], [4.32481, 52.08324], [4.32952, 52.08531], [4.3347, 52.08804], [4.34235, 52.09126], [4.35249, 52.08269], [4.3451, 52.07948], [4.34539, 52.07911], [4.33896, 52.07666], [4.33885, 52.07661]]]]}}, {"type": "Feature", "properties": {"statcode": "WK051827", "statnaam": "Wijk 27 Stationsbuurt"}, "geometry": {"type": "MultiPolygon", "coordinates": [[[[4.32512, 52.07133], [4.32571, 52.0701], [4.3211, 52.06809], [4.31576, 52.06597], [4.31485, 52.06641], [4.31907, 52.06878], [4.31758, 52.07026], [4.31591, 52.06956], [4.31376, 52.07098], [4.31251, 52.07072], [4.31142, 52.07194], [4.31961, 52.07495], [4.32012, 52.075], [4.32484, 52.07754], [4.32019, 52.08136], [4.32481, 52.08324], [4.32549, 52.07937], [4.33214, 52.07564], [4.33384, 52.07499], [4.32617, 52.07165], [4.32616, 52.07164], [4.32512, 52.07133]]]]}}, {"type": "Feature", "properties": {"statcode": "WK051828", "statnaam": "Wijk 28 Centrum"}, "geometry": {"type": "MultiPolygon", "coordinates": [[[[4.31207, 52.08673], [4.31395, 52.08488], [4.31557, 52.08558], [4.32019, 52.08136], [4.32484, 52.07754], [4.32012, 52.075], [4.31961, 52.07495], [4.31142, 52.07194], [4.30788, 52.07076], [4.30607, 52.07273], [4.30065, 52.07098], [4.29943, 52.07229], [4.29696, 52.07397], [4.29479, 52.07649], [4.30238, 52.07973], [4.30094, 52.0827], [4.30389, 52.08391], [4.31207, 52.08673]]]]}}, {"type": "Feature", "properties": {"statcode": "WK051829", "statnaam": "Wijk 29 Schildersbuurt"}, "geometry": {"type": "MultiPolygon", "coordinates": [[[[4.29943, 52.07229], [4.30065, 52.07098], [4.30607, 52.07273], [4.30788, 52.07076], [4.31142, 52.07194], [4.31251, 52.07072], [4.31376, 52.07098], [4.31591, 52.06956], [4.31758, 52.07026], [4.31907, 52.06878], [4.31485, 52.06641], [4.31576, 52.06597], [4.31145, 52.06217], [4.30798, 52.06116], [4.3046, 52.06135], [4.30126, 52.06284], [4.29684, 52.06716], [4.29288, 52.06991], [4.29105, 52.07267], [4.29696, 52.07397], [4.29943, 52.07229]]]]}}, {"type": "Feature", "properties": {"statcode": "WK051830", "statnaam": "Wijk 30 Transvaalkwartier"}, "geometry": {"type": "MultiPolygon", "coordinates": [[[[4.29754, 52.06112], [4.29215, 52.0598], [4.28927, 52.06367], [4.28638, 52.06729], [4.28631, 52.06736], [4.28414, 52.07064], [4.28417, 52.07065], [4.29105, 52.07267], [4.29288, 52.06991], [4.29684, 52.06716], [4.30126, 52.06284], [4.29754, 52.06112]]]]}}, {"type": "Feature", "properties": {"statcode": "WK051831", "statnaam": "Wijk 31 Rustenburg en Oostbroek"}, "geometry": {"type": "MultiPolygon", "coordinates": [[[[4.29215, 52.0598], [4.29213, 52.05956], [4.28266, 52.06154], [4.28224, 52.06156], [4.27411, 52.06252], [4.27018, 52.06684], [4.27019, 52.06685], [4.27524, 52.06849], [4.27589, 52.0687], [4.28414, 52.07064], [4.28631, 52.06736], [4.28638, 52.06729], [4.28927, 52.06367], [4.29215, 52.0598]]]]}}, {"type": "Feature", "properties": {"statcode": "WK051832", "statnaam": "Wijk 32 Leyenburg"}, "geometry": {"type": "MultiPolygon", "coordinates": [[[[4.28224, 52.06156], [4.28266, 52.06154], [4.27484, 52.05721], [4.26957, 52.05413], [4.26167, 52.05131], [4.2616, 52.05135], [4.25641, 52.054], [4.26412, 52.0586], [4.26122, 52.06165], [4.25924, 52.06264], [4.27018, 52.06684], [4.27411, 52.06252], [4.28224, 52.06156]]]]}}, {"type": "Feature", "properties": {"statcode": "WK051833", "statnaam": "Wijk 33 Bouwlust"}, "geometry": {"type": "MultiPolygon", "coordinates": [[[[4.27379, 52.04334], [4.28002, 52.04023], [4.27366, 52.03668], [4.27297, 52.03552], [4.27266, 52.03592], [4.26665, 52.03301], [4.25913, 52.02957], [4.25638, 52.02835], [4.25489, 52.02829], [4.24822, 52.02523], [4.24481, 52.02873], [4.24429, 52.02885], [4.24142, 52.03195], [4.23505, 52.03926], [4.23942, 52.04223], [4.24568, 52.04001], [4.2616, 52.05135], [4.26167, 52.05131], [4.26781, 52.04739], [4.27368, 52.04341], [4.27379, 52.04334]]]]}}, {"type": "Feature", "properties": {"statcode": "WK051834", "statnaam": "Wijk 34 Morgenstond"}, "geometry": {"type": "MultiPolygon", "coordinates": [[[[4.2886, 52.04437], [4.28002, 52.04023], [4.27379, 52.04334], [4.27368, 52.04341], [4.26781, 52.04739], [4.26167, 52.05131], [4.26957, 52.05413], [4.27484, 52.05721], [4.28563, 52.04961], [4.28365, 52.04874], [4.28861, 52.04539], [4.2886, 52.04437]]]]}}, {"type": "Feature", "properties": {"statcode": "WK051835", "statnaam": "Wijk 35 Zuiderpark"}, "geometry": {"type": "MultiPolygon", "coordinates": [[[[4.29213, 52.05956], [4.29218, 52.05949], [4.29586, 52.05447], [4.28563, 52.04961], [4.27484, 52.05721], [4.28266, 52.06154], [4.29213, 52.05956]]]]}}, {"type": "Feature", "properties": {"statcode": "WK051836", "statnaam": "Wijk 36 Moerwijk"}, "geometry": {"type": "MultiPolygon", "coordinates": [[[[4.29218, 52.05949], [4.30407, 52.05642], [4.30889, 52.05821], [4.30835, 52.05634], [4.30828, 52.0552], [4.30837, 52.05199], [4.30981, 52.04857], [4.30441, 52.04666], [4.30323, 52.04696], [4.29837, 52.04556], [4.29874, 52.04501], [4.29725, 52.04457], [4.29756, 52.04407], [4.29677, 52.04373], [4.29551, 52.04358], [4.29345, 52.04306], [4.29387, 52.04254], [4.29095, 52.04157], [4.2886, 52.04437], [4.28861, 52.04539], [4.28365, 52.04874], [4.28563, 52.04961], [4.29586, 52.05447], [4.29218, 52.05949]]]]}}, {"type": "Feature", "properties": {"statcode": "WK051837", "statnaam": "Wijk 37 Groente- en Fruitmarkt"}, "geometry": {"type": "MultiPolygon", "coordinates": [[[[4.30798, 52.06116], [4.31145, 52.06217], [4.30889, 52.05821], [4.30407, 52.05642], [4.29218, 52.05949], [4.29213, 52.05956], [4.29215, 52.0598], [4.29754, 52.06112], [4.30126, 52.06284], [4.3046, 52.06135], [4.30798, 52.06116]]]]}}, {"type": "Feature", "properties": {"statcode": "WK051838", "statnaam": "Wijk 38 Laakkwartier en Spoorwijk"}, "geometry": {"type": "MultiPolygon", "coordinates": [[[[4.33033, 52.05734], [4.32865, 52.05655], [4.32764, 52.05694], [4.32763, 52.05645], [4.32549, 52.05544], [4.32412, 52.05565], [4.32135, 52.05462], [4.32191, 52.05305], [4.31645, 52.05087], [4.31308, 52.05013], [4.31004, 52.04867], [4.30981, 52.04857], [4.30837, 52.05199], [4.30828, 52.0552], [4.30835, 52.05634], [4.30889, 52.05821], [4.31145, 52.06217], [4.31576, 52.06597], [4.3211, 52.06809], [4.32571, 52.0701], [4.32512, 52.07133], [4.32616, 52.07164], [4.32617, 52.07165], [4.33258, 52.06809], [4.34031, 52.06195], [4.33515, 52.05963], [4.33489, 52.05952], [4.33033, 52.05734]]]]}}, {"type": "Feature", "properties": {"statcode": "WK051839", "statnaam": "Wijk 39 Binckhorst"}, "geometry": {"type": "MultiPolygon", "coordinates": [[[[4.33521, 52.075], [4.35493, 52.06825], [4.35552, 52.06804], [4.3422, 52.06113], [4.34188, 52.06098], [4.34031, 52.06195], [4.33258, 52.06809], [4.32617, 52.07165], [4.33384, 52.07499], [4.33521, 52.075]]]]}}, {"type": "Feature", "properties": {"statcode": "WK051840", "statnaam": "Wijk 40 Wateringse Veld"}, "geometry": {"type": "MultiPolygon", "coordinates": [[[[4.29171, 52.04038], [4.29862, 52.02982], [4.29789, 52.02947], [4.29791, 52.02945], [4.30093, 52.02593], [4.30419, 52.02215], [4.30431, 52.022], [4.30764, 52.01815], [4.30266, 52.01649], [4.30108, 52.01787], [4.29861, 52.01688], [4.29551, 52.01485], [4.28974, 52.01765], [4.29434, 52.01936], [4.287, 52.02287], [4.28677, 52.02297], [4.28825, 52.02376], [4.28515, 52.02562], [4.28565, 52.02591], [4.28505, 52.02627], [4.28588, 52.02648], [4.28525, 52.02742], [4.28347, 52.0267], [4.2828, 52.02763], [4.28174, 52.02737], [4.2779, 52.03247], [4.2759, 52.03156], [4.27297, 52.03552], [4.27366, 52.03668], [4.28002, 52.04023], [4.2886, 52.04437], [4.29095, 52.04157], [4.29171, 52.04038]]]]}}, {"type": "Feature", "properties": {"statcode": "WK051841", "statnaam": "Wijk 41 Hoornwijk"}, "geometry": {"type": "MultiPolygon", "coordinates": [[[[4.37473, 52.06138], [4.38937, 52.05639], [4.38411, 52.05278], [4.37976, 52.05273], [4.37489, 52.05657], [4.37371, 52.05609], [4.3709, 52.05809], [4.36608, 52.05405], [4.35637, 52.04689], [4.3639, 52.04273], [4.35498, 52.0368], [4.35444, 52.03448], [4.35686, 52.03174], [4.3615, 52.02941], [4.36243, 52.02769], [4.36026, 52.02676], [4.35977, 52.02654], [4.35885, 52.02733], [4.35779, 52.02686], [4.35753, 52.02738], [4.3579, 52.02777], [4.35483, 52.03044], [4.35378, 52.03068], [4.35036, 52.03931], [4.34688, 52.04247], [4.34684, 52.04357], [4.34606, 52.04402], [4.34688, 52.04552], [4.34913, 52.04689], [4.35231, 52.04818], [4.35264, 52.0491], [4.34469, 52.05394], [4.34726, 52.0563], [4.3469, 52.05705], [4.34415, 52.05938], [4.34188, 52.06098], [4.3422, 52.06113], [4.34413, 52.05972], [4.34424, 52.05977], [4.34448, 52.05962], [4.348, 52.0565], [4.35228, 52.05939], [4.35332, 52.05867], [4.35398, 52.05899], [4.35757, 52.05655], [4.35725, 52.05634], [4.35735, 52.05626], [4.35923, 52.05735], [4.35947, 52.05718], [4.35982, 52.05737], [4.35944, 52.05763], [4.35997, 52.05793], [4.35958, 52.0582], [4.36012, 52.0585], [4.36045, 52.05827], [4.36083, 52.05847], [4.35602, 52.06157], [4.36382, 52.06517], [4.37473, 52.06138]]]]}}, {"type": "Feature", "properties": {"statcode": "WK051842", "statnaam": "Wijk 42 Ypenburg"}, "geometry": {"type": "MultiPolygon", "coordinates": [[[[4.3709, 52.05809], [4.37371, 52.05609], [4.37489, 52.05657], [4.37976, 52.05273], [4.38411, 52.05278], [4.38937, 52.05639], [4.39565, 52.05445], [4.40136, 52.05334], [4.40007, 52.05237], [4.40007, 52.05237], [4.39855, 52.05122], [4.39444, 52.05405], [4.39357, 52.05348], [4.39376, 52.05333], [4.39312, 52.05284], [4.39259, 52.05315], [4.39113, 52.05195], [4.39144, 52.05176], [4.38968, 52.04996], [4.3879, 52.05117], [4.3861, 52.04997], [4.38584, 52.0498], [4.3781, 52.04465], [4.37266, 52.04093], [4.37986, 52.03595], [4.38118, 52.03639], [4.38677, 52.03844], [4.38785, 52.03844], [4.39393, 52.03305], [4.37974, 52.02673], [4.3735, 52.0326], [4.3634, 52.0281], [4.36243, 52.02769], [4.3615, 52.02941], [4.35686, 52.03174], [4.35444, 52.03448], [4.35498, 52.0368], [4.3639, 52.04273], [4.35637, 52.04689], [4.36608, 52.05405], [4.3709, 52.05809]]]]}}, {"type": "Feature", "properties": {"statcode": "WK051843", "statnaam": "Wijk 43 Forepark"}, "geometry": {"type": "MultiPolygon", "coordinates": [[[[4.40593, 52.07659], [4.39585, 52.06788], [4.38782, 52.06131], [4.39665, 52.05613], [4.39565, 52.05445], [4.38937, 52.05639], [4.37473, 52.06138], [4.36382, 52.06517], [4.36401, 52.06532], [4.37143, 52.06958], [4.38, 52.07475], [4.38436, 52.07616], [4.38458, 52.07623], [4.38865, 52.07297], [4.39192, 52.07473], [4.39462, 52.07591], [4.39709, 52.07476], [4.40392, 52.07785], [4.40593, 52.07659]]]]}}, {"type": "Feature", "properties": {"statcode": "WK051844", "statnaam": "Wijk 44 Leidschenveen"}, "geometry": {"type": "MultiPolygon", "coordinates": [[[[4.42042, 52.0621], [4.42243, 52.05733], [4.41539, 52.05744], [4.41523, 52.05701], [4.42139, 52.05221], [4.42207, 52.05167], [4.40136, 52.05334], [4.39565, 52.05445], [4.39665, 52.05613], [4.38782, 52.06131], [4.39585, 52.06788], [4.40593, 52.07659], [4.41188, 52.07213], [4.41724, 52.06622], [4.42069, 52.06346], [4.42083, 52.06258], [4.42042, 52.0621]]]]}}]}