{"type": "FeatureCollection", "features": [{"type": "Feature", "properties": {"statcode": "WK050501", "statnaam": "Wijk 01 Binnenstad"}, "geometry": {"type": "MultiPolygon", "coordinates": [[[[4.66972, 51.8116], [4.67232, 51.80916], [4.67315, 51.80721], [4.67348, 51.80675], [4.66209, 51.80801], [4.66253, 51.80915], [4.66161, 51.80806], [4.65721, 51.80881], [4.65628, 51.80905], [4.65055, 51.81132], [4.65079, 51.81151], [4.65475, 51.81444], [4.65632, 51.81543], [4.65646, 51.81551], [4.65858, 51.81669], [4.66325, 51.81903], [4.66444, 51.81948], [4.66839, 51.82055], [4.67138, 51.82085], [4.66882, 51.81711], [4.66861, 51.81592], [4.66932, 51.81588], [4.67361, 51.81491], [4.6722, 51.81327], [4.66972, 51.8116]]]]}}, {"type": "Feature", "properties": {"statcode": "WK050502", "statnaam": "Wijk 02 Noordflank"}, "geometry": {"type": "MultiPolygon", "coordinates": [[[[4.68834, 51.82141], [4.68936, 51.81884], [4.68819, 51.81704], [4.68788, 51.81575], [4.68424, 51.81313], [4.68291, 51.81179], [4.68207, 51.81135], [4.6784, 51.80917], [4.67315, 51.80721], [4.67232, 51.80916], [4.66972, 51.8116], [4.6722, 51.81327], [4.67361, 51.81491], [4.66932, 51.81588], [4.66861, 51.81592], [4.66882, 51.81711], [4.67138, 51.82085], [4.67171, 51.82085], [4.67173, 51.82079], [4.67637, 51.82042], [4.68463, 51.82078], [4.68834, 51.82141]]]]}}, {"type": "Feature", "properties": {"statcode": "WK050503", "statnaam": "Wijk 03 Oud Krispijn"}, "geometry": {"type": "MultiPolygon", "coordinates": [[[[4.66183, 51.80649], [4.66406, 51.80378], [4.66613, 51.79918], [4.66663, 51.79837], [4.66736, 51.79723], [4.65918, 51.79504], [4.65694, 51.79517], [4.64986, 51.80139], [4.64989, 51.80169], [4.6501, 51.80629], [4.65328, 51.80561], [4.65721, 51.80881], [4.66161, 51.80806], [4.66183, 51.80649]]]]}}, {"type": "Feature", "properties": {"statcode": "WK050504", "statnaam": "Wijk 04 Nieuw-krispijn"}, "geometry": {"type": "MultiPolygon", "coordinates": [[[[4.67871, 51.80272], [4.67649, 51.79697], [4.67417, 51.798], [4.66736, 51.79723], [4.66663, 51.79837], [4.66613, 51.79918], [4.66406, 51.80378], [4.66183, 51.80649], [4.66161, 51.80806], [4.66253, 51.80915], [4.66209, 51.80801], [4.67348, 51.80675], [4.67459, 51.80652], [4.67777, 51.80502], [4.67871, 51.80272]]]]}}, {"type": "Feature", "properties": {"statcode": "WK050505", "statnaam": "Wijk 05 Het Reeland"}, "geometry": {"type": "MultiPolygon", "coordinates": [[[[4.68671, 51.79786], [4.67894, 51.79565], [4.67649, 51.79697], [4.67871, 51.80272], [4.67777, 51.80502], [4.67459, 51.80652], [4.67348, 51.80675], [4.67315, 51.80721], [4.6784, 51.80917], [4.68207, 51.81135], [4.68291, 51.81179], [4.68424, 51.81313], [4.68788, 51.81575], [4.68819, 51.81704], [4.69234, 51.81691], [4.69764, 51.81637], [4.70151, 51.81525], [4.70723, 51.8135], [4.70479, 51.81009], [4.70004, 51.80573], [4.69815, 51.80399], [4.6971, 51.80302], [4.69261, 51.79927], [4.68671, 51.79786]]]]}}, {"type": "Feature", "properties": {"statcode": "WK050506", "statnaam": "Wijk 06 Staart"}, "geometry": {"type": "MultiPolygon", "coordinates": [[[[4.72964, 51.82217], [4.74169, 51.82222], [4.74176, 51.82222], [4.742, 51.8154], [4.73982, 51.80963], [4.73526, 51.80545], [4.71896, 51.80855], [4.71658, 51.81025], [4.71519, 51.81263], [4.71396, 51.81317], [4.70723, 51.8135], [4.70151, 51.81525], [4.69764, 51.81637], [4.69234, 51.81691], [4.68819, 51.81704], [4.68936, 51.81884], [4.68834, 51.82141], [4.69227, 51.82201], [4.69784, 51.82259], [4.70373, 51.82314], [4.70792, 51.82335], [4.70998, 51.82335], [4.72964, 51.82217]]]]}}, {"type": "Feature", "properties": {"statcode": "WK050507", "statnaam": "Wijk 07 Wielwijk"}, "geometry": {"type": "MultiPolygon", "coordinates": [[[[4.66312, 51.78073], [4.6597, 51.7769], [4.65594, 51.77699], [4.65, 51.77712], [4.65049, 51.78009], [4.65051, 51.78079], [4.65032, 51.78418], [4.64883, 51.79163], [4.64886, 51.79203], [4.64894, 51.79445], [4.64925, 51.7972], [4.64935, 51.79786], [4.64986, 51.80139], [4.65694, 51.79517], [4.65918, 51.79504], [4.65898, 51.79312], [4.65871, 51.7905], [4.65843, 51.78772], [4.66211, 51.78619], [4.6635, 51.78466], [4.66661, 51.78461], [4.66641, 51.78439], [4.66354, 51.7812], [4.66312, 51.78073]]]]}}, {"type": "Feature", "properties": {"statcode": "WK050508", "statnaam": "Wijk 08 Crabbehof/Zuidhoven"}, "geometry": {"type": "MultiPolygon", "coordinates": [[[[4.67212, 51.79078], [4.66661, 51.78461], [4.6635, 51.78466], [4.66211, 51.78619], [4.65843, 51.78772], [4.65871, 51.7905], [4.65898, 51.79312], [4.65918, 51.79504], [4.66736, 51.79723], [4.67417, 51.798], [4.67649, 51.79697], [4.67315, 51.79193], [4.67212, 51.79078]]]]}}, {"type": "Feature", "properties": {"statcode": "WK050509", "statnaam": "Wijk 09 Sterrenburg"}, "geometry": {"type": "MultiPolygon", "coordinates": [[[[4.66238, 51.7679], [4.64929, 51.76443], [4.64956, 51.76493], [4.65601, 51.77278], [4.65963, 51.77682], [4.6597, 51.7769], [4.66312, 51.78073], [4.66354, 51.7812], [4.66641, 51.78439], [4.66661, 51.78461], [4.67212, 51.79078], [4.67315, 51.79193], [4.67878, 51.79103], [4.68682, 51.79013], [4.68572, 51.78443], [4.68469, 51.78399], [4.68799, 51.7839], [4.6877, 51.7786], [4.68747, 51.77451], [4.67608, 51.77151], [4.66238, 51.7679]]]]}}, {"type": "Feature", "properties": {"statcode": "WK050510", "statnaam": "Wijk 10 Dubbeldam"}, "geometry": {"type": "MultiPolygon", "coordinates": [[[[4.71986, 51.79706], [4.72516, 51.79551], [4.7273, 51.79531], [4.73421, 51.7943], [4.73476, 51.79422], [4.7371, 51.79331], [4.73698, 51.79005], [4.73586, 51.78924], [4.72764, 51.78868], [4.71338, 51.78593], [4.71312, 51.78138], [4.68747, 51.77451], [4.6877, 51.7786], [4.68799, 51.7839], [4.68469, 51.78399], [4.68572, 51.78443], [4.68682, 51.79013], [4.67878, 51.79103], [4.67315, 51.79193], [4.67649, 51.79697], [4.67894, 51.79565], [4.68671, 51.79786], [4.69261, 51.79927], [4.6971, 51.80302], [4.69815, 51.80399], [4.70501, 51.80321], [4.70691, 51.80299], [4.71486, 51.8021], [4.71444, 51.80058], [4.7177, 51.79822], [4.71986, 51.79706]]]]}}, {"type": "Feature", "properties": {"statcode": "WK050511", "statnaam": "Wijk 11 Stadspolders"}, "geometry": {"type": "MultiPolygon", "coordinates": [[[[4.73964, 51.79701], [4.73476, 51.79422], [4.73421, 51.7943], [4.7273, 51.79531], [4.72516, 51.79551], [4.71986, 51.79706], [4.7177, 51.79822], [4.71444, 51.80058], [4.71486, 51.8021], [4.70691, 51.80299], [4.70501, 51.80321], [4.69815, 51.80399], [4.70004, 51.80573], [4.70479, 51.81009], [4.70723, 51.8135], [4.71396, 51.81317], [4.71519, 51.81263], [4.71658, 51.81025], [4.71896, 51.80855], [4.73526, 51.80545], [4.73951, 51.80414], [4.73923, 51.80318], [4.73964, 51.79701]]]]}}, {"type": "Feature", "properties": {"statcode": "WK050519", "statnaam": "Wijk 19 Industriegebied West"}, "geometry": {"type": "MultiPolygon", "coordinates": [[[[4.65721, 51.80881], [4.65328, 51.80561], [4.6501, 51.80629], [4.64989, 51.80169], [4.64986, 51.80139], [4.64935, 51.79786], [4.64925, 51.7972], [4.64894, 51.79445], [4.64886, 51.79203], [4.64883, 51.79163], [4.65032, 51.78418], [4.65051, 51.78079], [4.65049, 51.78009], [4.65, 51.77712], [4.65594, 51.77699], [4.6597, 51.7769], [4.65963, 51.77682], [4.65601, 51.77278], [4.64956, 51.76493], [4.64929, 51.76443], [4.64609, 51.76327], [4.64, 51.74897], [4.63677, 51.74869], [4.63112, 51.75011], [4.62711, 51.76028], [4.62612, 51.76605], [4.62693, 51.77266], [4.62699, 51.77291], [4.62771, 51.77764], [4.6275, 51.78217], [4.62742, 51.78249], [4.62684, 51.78475], [4.62321, 51.79241], [4.62187, 51.79769], [4.62122, 51.8008], [4.63218, 51.80213], [4.64196, 51.80571], [4.64807, 51.80928], [4.65055, 51.81132], [4.65628, 51.80905], [4.65721, 51.80881]]]]}}, {"type": "Feature", "properties": {"statcode": "WK050598", "statnaam": "Wijk 98 Verspreide bebouwing"}, "geometry": {"type": "MultiPolygon", "coordinates": [[[[4.77855, 51.81529], [4.78535, 51.8152], [4.78974, 51.81574], [4.79748, 51.81717], [4.81142, 51.81866], [4.82011, 51.81906], [4.83905, 51.81925], [4.84768, 51.81892], [4.85611, 51.81839], [4.87488, 51.8176], [4.88332, 51.81863], [4.88464, 51.81647], [4.85967, 51.80268], [4.85441, 51.80068], [4.84598, 51.79876], [4.83611, 51.79784], [4.82887, 51.79802], [4.80687, 51.80034], [4.79719, 51.79977], [4.77354, 51.79332], [4.76598, 51.78963], [4.76522, 51.78921], [4.75524, 51.78161], [4.75057, 51.77576], [4.74479, 51.76349], [4.74077, 51.75882], [4.73663, 51.75557], [4.72459, 51.74791], [4.70375, 51.73693], [4.69326, 51.73228], [4.6816, 51.72842], [4.6763, 51.72492], [4.67522, 51.72421], [4.64514, 51.71907], [4.6445, 51.71896], [4.64157, 51.72338], [4.64104, 51.72341], [4.64403, 51.71886], [4.64385, 51.71883], [4.64087, 51.72336], [4.63981, 51.72321], [4.635, 51.72199], [4.63493, 51.72171], [4.63436, 51.72154], [4.63685, 51.71744], [4.63643, 51.71735], [4.63392, 51.72142], [4.63334, 51.72135], [4.63281, 51.72152], [4.62818, 51.72035], [4.62767, 51.72361], [4.62876, 51.72553], [4.62787, 51.72551], [4.62707, 51.72409], [4.62646, 51.72227], [4.62641, 51.72081], [4.62744, 51.72054], [4.62774, 51.71998], [4.62666, 51.71995], [4.62622, 51.72016], [4.62597, 51.72053], [4.62567, 51.72056], [4.6236, 51.7214], [4.62658, 51.72826], [4.63113, 51.74175], [4.63112, 51.75011], [4.63677, 51.74869], [4.64, 51.74897], [4.64609, 51.76327], [4.64929, 51.76443], [4.66238, 51.7679], [4.67608, 51.77151], [4.68747, 51.77451], [4.71312, 51.78138], [4.71338, 51.78593], [4.72764, 51.78868], [4.73586, 51.78924], [4.73698, 51.79005], [4.7371, 51.79331], [4.73476, 51.79422], [4.73964, 51.79701], [4.73923, 51.80318], [4.73951, 51.80414], [4.73526, 51.80545], [4.73982, 51.80963], [4.742, 51.8154], [4.74176, 51.82222], [4.75144, 51.82161], [4.75776, 51.81919], [4.76618, 51.81607], [4.77209, 51.81532], [4.77855, 51.81529]]]]}}]}