{"type": "FeatureCollection", "features": [{"type": "Feature", "properties": {"statcode": "BU05460000", "statnaam": "Pieterswijk"}, "geometry": {"type": "MultiPolygon", "coordinates": [[[[4.49068, 52.15966], [4.49366, 52.15681], [4.49312, 52.15634], [4.48756, 52.1559], [4.48623, 52.1563], [4.48545, 52.15787], [4.48532, 52.161], [4.49068, 52.15966]]]]}}, {"type": "Feature", "properties": {"statcode": "BU05460001", "statnaam": "Academiewijk"}, "geometry": {"type": "MultiPolygon", "coordinates": [[[[4.48484, 52.16108], [4.48532, 52.161], [4.48545, 52.15787], [4.48623, 52.1563], [4.48756, 52.1559], [4.48822, 52.15384], [4.48418, 52.1544], [4.48299, 52.15517], [4.48082, 52.16092], [4.48161, 52.16106], [4.48484, 52.16108]]]]}}, {"type": "Feature", "properties": {"statcode": "BU05460002", "statnaam": "Levendaal-West"}, "geometry": {"type": "MultiPolygon", "coordinates": [[[[4.49382, 52.1535], [4.48822, 52.15384], [4.48756, 52.1559], [4.49312, 52.15634], [4.49382, 52.1535]]]]}}, {"type": "Feature", "properties": {"statcode": "BU05460003", "statnaam": "Levendaal-Oost"}, "geometry": {"type": "MultiPolygon", "coordinates": [[[[4.49497, 52.15637], [4.499, 52.15606], [4.5033, 52.15606], [4.5041, 52.15606], [4.50291, 52.15339], [4.49382, 52.1535], [4.49312, 52.15634], [4.49366, 52.15681], [4.49497, 52.15637]]]]}}, {"type": "Feature", "properties": {"statcode": "BU05460100", "statnaam": "De Camp"}, "geometry": {"type": "MultiPolygon", "coordinates": [[[[4.49016, 52.16256], [4.49068, 52.15966], [4.48532, 52.161], [4.48484, 52.16108], [4.48599, 52.16266], [4.49016, 52.16256]]]]}}, {"type": "Feature", "properties": {"statcode": "BU05460101", "statnaam": "Marewijk"}, "geometry": {"type": "MultiPolygon", "coordinates": [[[[4.5003, 52.16145], [4.50095, 52.16095], [4.50021, 52.16083], [4.4971, 52.16032], [4.49068, 52.15966], [4.49016, 52.16256], [4.5003, 52.16145]]]]}}, {"type": "Feature", "properties": {"statcode": "BU05460102", "statnaam": "Pancras-West"}, "geometry": {"type": "MultiPolygon", "coordinates": [[[[4.49497, 52.15637], [4.49366, 52.15681], [4.49068, 52.15966], [4.4971, 52.16032], [4.49497, 52.15637]]]]}}, {"type": "Feature", "properties": {"statcode": "BU05460103", "statnaam": "Pancras-Oost"}, "geometry": {"type": "MultiPolygon", "coordinates": [[[[4.499, 52.15606], [4.49497, 52.15637], [4.4971, 52.16032], [4.50021, 52.16083], [4.499, 52.15606]]]]}}, {"type": "Feature", "properties": {"statcode": "BU05460104", "statnaam": "d'Oude Morsch"}, "geometry": {"type": "MultiPolygon", "coordinates": [[[[4.48599, 52.16266], [4.48484, 52.16108], [4.48161, 52.16106], [4.48121, 52.16321], [4.48541, 52.16433], [4.48599, 52.16266]]]]}}, {"type": "Feature", "properties": {"statcode": "BU05460105", "statnaam": "Noordvest"}, "geometry": {"type": "MultiPolygon", "coordinates": [[[[4.50034, 52.16357], [4.5003, 52.16145], [4.49016, 52.16256], [4.48946, 52.16458], [4.49391, 52.16469], [4.50034, 52.16357]]]]}}, {"type": "Feature", "properties": {"statcode": "BU05460106", "statnaam": "Havenwijk-Noord"}, "geometry": {"type": "MultiPolygon", "coordinates": [[[[4.5054, 52.16306], [4.50491, 52.16138], [4.50095, 52.16095], [4.5003, 52.16145], [4.50034, 52.16357], [4.5054, 52.16306]]]]}}, {"type": "Feature", "properties": {"statcode": "BU05460107", "statnaam": "Havenwijk-Zuid"}, "geometry": {"type": "MultiPolygon", "coordinates": [[[[4.5033, 52.15606], [4.499, 52.15606], [4.50021, 52.16083], [4.50095, 52.16095], [4.50491, 52.16138], [4.5033, 52.15606]]]]}}, {"type": "Feature", "properties": {"statcode": "BU05460108", "statnaam": "Molenbuurt"}, "geometry": {"type": "MultiPolygon", "coordinates": [[[[4.49016, 52.16256], [4.48599, 52.16266], [4.48541, 52.16433], [4.48946, 52.16458], [4.49016, 52.16256]]]]}}, {"type": "Feature", "properties": {"statcode": "BU05460109", "statnaam": "De Waard"}, "geometry": {"type": "MultiPolygon", "coordinates": [[[[4.51483, 52.1608], [4.51395, 52.15567], [4.5041, 52.15606], [4.5033, 52.15606], [4.50491, 52.16138], [4.51483, 52.1608]]]]}}, {"type": "Feature", "properties": {"statcode": "BU05460200", "statnaam": "Stationskwartier"}, "geometry": {"type": "MultiPolygon", "coordinates": [[[[4.48946, 52.16458], [4.48541, 52.16433], [4.48121, 52.16321], [4.47875, 52.16401], [4.48327, 52.16724], [4.48907, 52.17193], [4.49084, 52.16923], [4.48946, 52.16458]]]]}}, {"type": "Feature", "properties": {"statcode": "BU05460300", "statnaam": "Groenoord"}, "geometry": {"type": "MultiPolygon", "coordinates": [[[[4.49858, 52.17257], [4.49688, 52.17027], [4.49706, 52.16754], [4.49391, 52.16469], [4.48946, 52.16458], [4.49084, 52.16923], [4.48907, 52.17193], [4.49106, 52.17348], [4.49858, 52.17257]]]]}}, {"type": "Feature", "properties": {"statcode": "BU05460301", "statnaam": "Noorderkwartier"}, "geometry": {"type": "MultiPolygon", "coordinates": [[[[4.50675, 52.17179], [4.50734, 52.16927], [4.50657, 52.16343], [4.5054, 52.16306], [4.50034, 52.16357], [4.49391, 52.16469], [4.49706, 52.16754], [4.49688, 52.17027], [4.49858, 52.17257], [4.50675, 52.17179]]]]}}, {"type": "Feature", "properties": {"statcode": "BU05460302", "statnaam": "De Kooi"}, "geometry": {"type": "MultiPolygon", "coordinates": [[[[4.51483, 52.1608], [4.50491, 52.16138], [4.5054, 52.16306], [4.50657, 52.16343], [4.50734, 52.16927], [4.50675, 52.17179], [4.51122, 52.17136], [4.51512, 52.17109], [4.51552, 52.16951], [4.51619, 52.16582], [4.51504, 52.1634], [4.51483, 52.1608]]]]}}, {"type": "Feature", "properties": {"statcode": "BU05460400", "statnaam": "Meerburg"}, "geometry": {"type": "MultiPolygon", "coordinates": [[[[4.52169, 52.15386], [4.52224, 52.15217], [4.52224, 52.15216], [4.51425, 52.15019], [4.51276, 52.14921], [4.51083, 52.14968], [4.51225, 52.15113], [4.51395, 52.15567], [4.51917, 52.15504], [4.52169, 52.15386]]]]}}, {"type": "Feature", "properties": {"statcode": "BU05460401", "statnaam": "Rijndijkbuurt"}, "geometry": {"type": "MultiPolygon", "coordinates": [[[[4.51395, 52.15567], [4.51225, 52.15113], [4.50713, 52.15314], [4.50291, 52.15339], [4.5041, 52.15606], [4.51395, 52.15567]]]]}}, {"type": "Feature", "properties": {"statcode": "BU05460402", "statnaam": "Professorenwijk-Oost"}, "geometry": {"type": "MultiPolygon", "coordinates": [[[[4.51225, 52.15113], [4.51083, 52.14968], [4.50726, 52.14748], [4.50253, 52.14575], [4.50044, 52.14833], [4.50627, 52.15168], [4.50713, 52.15314], [4.51225, 52.15113]]]]}}, {"type": "Feature", "properties": {"statcode": "BU05460403", "statnaam": "Burgemeesterswijk"}, "geometry": {"type": "MultiPolygon", "coordinates": [[[[4.50291, 52.15339], [4.50713, 52.15314], [4.50627, 52.15168], [4.50044, 52.14833], [4.4945, 52.15153], [4.49382, 52.1535], [4.50291, 52.15339]]]]}}, {"type": "Feature", "properties": {"statcode": "BU05460404", "statnaam": "Professorenwijk-West"}, "geometry": {"type": "MultiPolygon", "coordinates": [[[[4.50044, 52.14833], [4.50253, 52.14575], [4.49904, 52.14458], [4.49167, 52.14713], [4.4945, 52.15153], [4.50044, 52.14833]]]]}}, {"type": "Feature", "properties": {"statcode": "BU05460405", "statnaam": "Tuinstadwijk"}, "geometry": {"type": "MultiPolygon", "coordinates": [[[[4.49382, 52.1535], [4.4945, 52.15153], [4.49167, 52.14713], [4.4842, 52.14952], [4.4842, 52.14954], [4.48447, 52.15145], [4.48808, 52.15304], [4.48822, 52.15384], [4.49382, 52.1535]]]]}}, {"type": "Feature", "properties": {"statcode": "BU05460406", "statnaam": "Cronestein"}, "geometry": {"type": "MultiPolygon", "coordinates": [[[[4.49167, 52.14713], [4.49904, 52.14458], [4.48787, 52.14087], [4.48554, 52.13993], [4.48435, 52.14802], [4.4842, 52.14952], [4.49167, 52.14713]]]]}}, {"type": "Feature", "properties": {"statcode": "BU05460407", "statnaam": "Klein Cronestein"}, "geometry": {"type": "MultiPolygon", "coordinates": [[[[4.51068, 52.14087], [4.51321, 52.13997], [4.5131, 52.13992], [4.49797, 52.13216], [4.49677, 52.13302], [4.4949, 52.1323], [4.48889, 52.13862], [4.48787, 52.14087], [4.49904, 52.14458], [4.51068, 52.14087]]]]}}, {"type": "Feature", "properties": {"statcode": "BU05460408", "statnaam": "Roomburg"}, "geometry": {"type": "MultiPolygon", "coordinates": [[[[4.52391, 52.14766], [4.52404, 52.1474], [4.51599, 52.14469], [4.51068, 52.14087], [4.49904, 52.14458], [4.50253, 52.14575], [4.50726, 52.14748], [4.51083, 52.14968], [4.51276, 52.14921], [4.51425, 52.15019], [4.52224, 52.15216], [4.52391, 52.14766]]]]}}, {"type": "Feature", "properties": {"statcode": "BU05460409", "statnaam": "Waardeiland"}, "geometry": {"type": "MultiPolygon", "coordinates": [[[[4.51886, 52.15822], [4.52082, 52.15655], [4.52169, 52.15386], [4.51917, 52.15504], [4.51395, 52.15567], [4.51483, 52.1608], [4.51886, 52.15822]]]]}}, {"type": "Feature", "properties": {"statcode": "BU05460500", "statnaam": "Vreewijk"}, "geometry": {"type": "MultiPolygon", "coordinates": [[[[4.48822, 52.15384], [4.48808, 52.15304], [4.48447, 52.15145], [4.4842, 52.14954], [4.48103, 52.15166], [4.47941, 52.15523], [4.47688, 52.16008], [4.48082, 52.16092], [4.48299, 52.15517], [4.48418, 52.1544], [4.48822, 52.15384]]]]}}, {"type": "Feature", "properties": {"statcode": "BU05460501", "statnaam": "Haagweg-Noord"}, "geometry": {"type": "MultiPolygon", "coordinates": [[[[4.47941, 52.15523], [4.47513, 52.15462], [4.47495, 52.1552], [4.47207, 52.15482], [4.47056, 52.15562], [4.47434, 52.15903], [4.47688, 52.16008], [4.47941, 52.15523]]]]}}, {"type": "Feature", "properties": {"statcode": "BU05460502", "statnaam": "Gasthuiswijk"}, "geometry": {"type": "MultiPolygon", "coordinates": [[[[4.48554, 52.13993], [4.47689, 52.13623], [4.47528, 52.13797], [4.47882, 52.1392], [4.47702, 52.14189], [4.47509, 52.1474], [4.48435, 52.14802], [4.48554, 52.13993]]]]}}, {"type": "Feature", "properties": {"statcode": "BU05460503", "statnaam": "Fortuinwijk-Noord"}, "geometry": {"type": "MultiPolygon", "coordinates": [[[[4.47702, 52.14189], [4.46668, 52.14089], [4.46605, 52.14642], [4.47509, 52.1474], [4.47702, 52.14189]]]]}}, {"type": "Feature", "properties": {"statcode": "BU05460504", "statnaam": "Boshuizen"}, "geometry": {"type": "MultiPolygon", "coordinates": [[[[4.47207, 52.15482], [4.47509, 52.1474], [4.46605, 52.14642], [4.46541, 52.14944], [4.46297, 52.14895], [4.46244, 52.14978], [4.45929, 52.1497], [4.45976, 52.15003], [4.46215, 52.15174], [4.46484, 52.15183], [4.47056, 52.15562], [4.47207, 52.15482]]]]}}, {"type": "Feature", "properties": {"statcode": "BU05460505", "statnaam": "Oostvliet"}, "geometry": {"type": "MultiPolygon", "coordinates": [[[[4.48889, 52.13862], [4.4949, 52.1323], [4.49677, 52.13302], [4.49797, 52.13216], [4.49656, 52.13145], [4.49195, 52.12901], [4.48752, 52.12741], [4.47298, 52.11895], [4.47229, 52.11964], [4.47232, 52.12346], [4.47294, 52.1237], [4.46815, 52.12855], [4.46748, 52.12832], [4.46685, 52.12898], [4.46598, 52.12789], [4.46642, 52.12733], [4.46519, 52.12661], [4.46449, 52.12731], [4.46892, 52.13276], [4.46907, 52.1332], [4.47689, 52.13623], [4.48554, 52.13993], [4.48787, 52.14087], [4.48889, 52.13862]]]]}}, {"type": "Feature", "properties": {"statcode": "BU05460506", "statnaam": "Haagweg-Zuid"}, "geometry": {"type": "MultiPolygon", "coordinates": [[[[4.4842, 52.14954], [4.4842, 52.14952], [4.48435, 52.14802], [4.47509, 52.1474], [4.47207, 52.15482], [4.47495, 52.1552], [4.47513, 52.15462], [4.47941, 52.15523], [4.48103, 52.15166], [4.4842, 52.14954]]]]}}, {"type": "Feature", "properties": {"statcode": "BU05460507", "statnaam": "Fortuinwijk-Zuid"}, "geometry": {"type": "MultiPolygon", "coordinates": [[[[4.47689, 52.13623], [4.46907, 52.1332], [4.46924, 52.13428], [4.46717, 52.13694], [4.46668, 52.14089], [4.47702, 52.14189], [4.47882, 52.1392], [4.47528, 52.13797], [4.47689, 52.13623]]]]}}, {"type": "Feature", "properties": {"statcode": "BU05460600", "statnaam": "Transvaalbuurt"}, "geometry": {"type": "MultiPolygon", "coordinates": [[[[4.48121, 52.16321], [4.48161, 52.16106], [4.48082, 52.16092], [4.47688, 52.16008], [4.47434, 52.15903], [4.47056, 52.15562], [4.46867, 52.15662], [4.47875, 52.16401], [4.48121, 52.16321]]]]}}, {"type": "Feature", "properties": {"statcode": "BU05460601", "statnaam": "Lage Mors"}, "geometry": {"type": "MultiPolygon", "coordinates": [[[[4.47119, 52.16393], [4.47875, 52.16401], [4.46867, 52.15662], [4.46038, 52.16128], [4.45855, 52.16355], [4.45941, 52.16497], [4.47119, 52.16393]]]]}}, {"type": "Feature", "properties": {"statcode": "BU05460602", "statnaam": "Hoge Mors"}, "geometry": {"type": "MultiPolygon", "coordinates": [[[[4.45941, 52.16497], [4.45855, 52.16355], [4.46038, 52.16128], [4.46867, 52.15662], [4.47056, 52.15562], [4.46484, 52.15183], [4.46215, 52.15174], [4.45066, 52.15942], [4.44829, 52.16198], [4.44837, 52.16205], [4.45041, 52.16632], [4.45941, 52.16497]]]]}}, {"type": "Feature", "properties": {"statcode": "BU05460700", "statnaam": "Pesthuiswijk"}, "geometry": {"type": "MultiPolygon", "coordinates": [[[[4.48327, 52.16724], [4.47875, 52.16401], [4.47119, 52.16393], [4.47107, 52.16605], [4.46816, 52.16947], [4.4726, 52.16942], [4.47947, 52.17064], [4.48327, 52.16724]]]]}}, {"type": "Feature", "properties": {"statcode": "BU05460701", "statnaam": "Houtkwartier"}, "geometry": {"type": "MultiPolygon", "coordinates": [[[[4.49192, 52.17541], [4.49344, 52.17586], [4.49106, 52.17348], [4.48907, 52.17193], [4.48327, 52.16724], [4.47947, 52.17064], [4.47926, 52.17104], [4.48214, 52.17599], [4.48461, 52.17802], [4.4874, 52.17692], [4.48743, 52.17817], [4.4896, 52.17715], [4.49192, 52.17541]]]]}}, {"type": "Feature", "properties": {"statcode": "BU05460702", "statnaam": "Raadsherenbuurt"}, "geometry": {"type": "MultiPolygon", "coordinates": [[[[4.48461, 52.17802], [4.48214, 52.17599], [4.47926, 52.17104], [4.47157, 52.17446], [4.47865, 52.17958], [4.47971, 52.179], [4.4808, 52.17963], [4.48461, 52.17802]]]]}}, {"type": "Feature", "properties": {"statcode": "BU05460703", "statnaam": "Vogelwijk"}, "geometry": {"type": "MultiPolygon", "coordinates": [[[[4.47157, 52.17446], [4.47926, 52.17104], [4.47947, 52.17064], [4.4726, 52.16942], [4.46816, 52.16947], [4.46687, 52.16993], [4.46757, 52.17045], [4.46723, 52.17217], [4.46851, 52.17348], [4.46957, 52.17435], [4.47157, 52.17446]]]]}}, {"type": "Feature", "properties": {"statcode": "BU05460704", "statnaam": "Leeuwenhoek"}, "geometry": {"type": "MultiPolygon", "coordinates": [[[[4.45478, 52.17108], [4.46687, 52.16993], [4.46816, 52.16947], [4.47107, 52.16605], [4.47119, 52.16393], [4.45941, 52.16497], [4.45041, 52.16632], [4.45305, 52.16849], [4.45478, 52.17108]]]]}}, {"type": "Feature", "properties": {"statcode": "BU05460800", "statnaam": "Slaaghwijk"}, "geometry": {"type": "MultiPolygon", "coordinates": [[[[4.49739, 52.17701], [4.50343, 52.17585], [4.51033, 52.17515], [4.51134, 52.17527], [4.51122, 52.17136], [4.50675, 52.17179], [4.49858, 52.17257], [4.49106, 52.17348], [4.49344, 52.17586], [4.49537, 52.1778], [4.49739, 52.17701]]]]}}, {"type": "Feature", "properties": {"statcode": "BU05460801", "statnaam": "Zijlwijk-Zuid"}, "geometry": {"type": "MultiPolygon", "coordinates": [[[[4.51849, 52.17425], [4.51717, 52.17267], [4.51512, 52.17109], [4.51122, 52.17136], [4.51134, 52.17527], [4.51033, 52.17515], [4.51086, 52.1784], [4.51798, 52.17853], [4.51849, 52.17425]]]]}}, {"type": "Feature", "properties": {"statcode": "BU05460802", "statnaam": "Zijlwijk-Noord"}, "geometry": {"type": "MultiPolygon", "coordinates": [[[[4.51837, 52.18212], [4.51798, 52.17853], [4.51086, 52.1784], [4.50812, 52.17905], [4.50694, 52.18], [4.50758, 52.18039], [4.50415, 52.18159], [4.50824, 52.18154], [4.50852, 52.18397], [4.51721, 52.18272], [4.51837, 52.18212]]]]}}, {"type": "Feature", "properties": {"statcode": "BU05460803", "statnaam": "Merenwijk-Centrum"}, "geometry": {"type": "MultiPolygon", "coordinates": [[[[4.51086, 52.1784], [4.51033, 52.17515], [4.50343, 52.17585], [4.50495, 52.17874], [4.50338, 52.17923], [4.50415, 52.18159], [4.50758, 52.18039], [4.50694, 52.18], [4.50812, 52.17905], [4.51086, 52.1784]]]]}}, {"type": "Feature", "properties": {"statcode": "BU05460804", "statnaam": "Leedewijk-Zuid"}, "geometry": {"type": "MultiPolygon", "coordinates": [[[[4.50343, 52.17585], [4.49739, 52.17701], [4.50338, 52.17923], [4.50495, 52.17874], [4.50343, 52.17585]]]]}}, {"type": "Feature", "properties": {"statcode": "BU05460805", "statnaam": "Leedewijk-Noord"}, "geometry": {"type": "MultiPolygon", "coordinates": [[[[4.50852, 52.18397], [4.50824, 52.18154], [4.50415, 52.18159], [4.50338, 52.17923], [4.49739, 52.17701], [4.49537, 52.1778], [4.49717, 52.18094], [4.49756, 52.18398], [4.49834, 52.18399], [4.50163, 52.18426], [4.50355, 52.18462], [4.50852, 52.18397]]]]}}, {"type": "Feature", "properties": {"statcode": "BU05460900", "statnaam": "Schenkwijk"}, "geometry": {"type": "MultiPolygon", "coordinates": [[[[4.45066, 52.15942], [4.4487, 52.1572], [4.45226, 52.15306], [4.4501, 52.15186], [4.44719, 52.15359], [4.44137, 52.1495], [4.43887, 52.15327], [4.43922, 52.1547], [4.44048, 52.15565], [4.44829, 52.16198], [4.45066, 52.15942]]]]}}, {"type": "Feature", "properties": {"statcode": "BU05460901", "statnaam": "Kloosterhof"}, "geometry": {"type": "MultiPolygon", "coordinates": [[[[4.46215, 52.15174], [4.45976, 52.15003], [4.45676, 52.15039], [4.45305, 52.15191], [4.45226, 52.15306], [4.4487, 52.1572], [4.45066, 52.15942], [4.46215, 52.15174]]]]}}, {"type": "Feature", "properties": {"statcode": "BU05460902", "statnaam": "Dobbewijk-Noord"}, "geometry": {"type": "MultiPolygon", "coordinates": [[[[4.45976, 52.15003], [4.45929, 52.1497], [4.45702, 52.14779], [4.45466, 52.14798], [4.4528, 52.14644], [4.45127, 52.14647], [4.45021, 52.14728], [4.44937, 52.15023], [4.4501, 52.15186], [4.45226, 52.15306], [4.45305, 52.15191], [4.45676, 52.15039], [4.45976, 52.15003]]]]}}, {"type": "Feature", "properties": {"statcode": "BU05460903", "statnaam": "Dobbewijk-Zuid"}, "geometry": {"type": "MultiPolygon", "coordinates": [[[[4.4501, 52.15186], [4.44937, 52.15023], [4.45021, 52.14728], [4.45127, 52.14647], [4.4528, 52.14644], [4.45466, 52.14798], [4.45702, 52.14779], [4.45087, 52.14213], [4.4496, 52.14098], [4.44656, 52.14119], [4.44468, 52.14062], [4.44379, 52.14101], [4.44299, 52.14535], [4.44394, 52.14604], [4.44137, 52.1495], [4.44719, 52.15359], [4.4501, 52.15186]]]]}}]}