{"type": "FeatureCollection", "features": [{"type": "Feature", "properties": {"statcode": "BU07960211", "statnaam": "Aawijk Zuid"}, "geometry": {"type": "MultiPolygon", "coordinates": [[[[5.35093, 51.69349], [5.34773, 51.68379], [5.33305, 51.68597], [5.32468, 51.68716], [5.32474, 51.68758], [5.3244, 51.69172], [5.32962, 51.69279], [5.34067, 51.69368], [5.35093, 51.69349]]]]}}, {"type": "Feature", "properties": {"statcode": "BU07960909", "statnaam": "De Hambaken"}, "geometry": {"type": "MultiPolygon", "coordinates": [[[[5.30875, 51.71521], [5.312, 51.71079], [5.31051, 51.71045], [5.30606, 51.71028], [5.30358, 51.71374], [5.30875, 51.71521]]]]}}, {"type": "Feature", "properties": {"statcode": "BU07960507", "statnaam": "A2 zone Rosmalen zuid"}, "geometry": {"type": "MultiPolygon", "coordinates": [[[[5.36018, 51.70342], [5.3618, 51.70375], [5.36265, 51.70252], [5.368, 51.69709], [5.36622, 51.69697], [5.36246, 51.6985], [5.36071, 51.69877], [5.35927, 51.69868], [5.35183, 51.69879], [5.35091, 51.70182], [5.34638, 51.70818], [5.35316, 51.71021], [5.36018, 51.70342]]]]}}, {"type": "Feature", "properties": {"statcode": "BU07961003", "statnaam": "Abdijenbuurt"}, "geometry": {"type": "MultiPolygon", "coordinates": [[[[5.31748, 51.72828], [5.32027, 51.72649], [5.32525, 51.72357], [5.31498, 51.72066], [5.31409, 51.7224], [5.30803, 51.72544], [5.31171, 51.72662], [5.3124, 51.72793], [5.31239, 51.72923], [5.31015, 51.73097], [5.31027, 51.73195], [5.31181, 51.73235], [5.31748, 51.72828]]]]}}, {"type": "Feature", "properties": {"statcode": "BU07960911", "statnaam": "De Muziekinstrumentenbuurt"}, "geometry": {"type": "MultiPolygon", "coordinates": [[[[5.30222, 51.71796], [5.30156, 51.71698], [5.30348, 51.71387], [5.29801, 51.71235], [5.2961, 51.71784], [5.30168, 51.7186], [5.30222, 51.71796]]]]}}, {"type": "Feature", "properties": {"statcode": "BU07961010", "statnaam": "Bedrijventerrein Maaspoort"}, "geometry": {"type": "MultiPolygon", "coordinates": [[[[5.28306, 51.73333], [5.28497, 51.73101], [5.28392, 51.72937], [5.28601, 51.72688], [5.29063, 51.72267], [5.29478, 51.72162], [5.2961, 51.71784], [5.28829, 51.71676], [5.27607, 51.73201], [5.27761, 51.7324], [5.28306, 51.73333]]]]}}, {"type": "Feature", "properties": {"statcode": "BU07960608", "statnaam": "A2 zone Rosmalen noord"}, "geometry": {"type": "MultiPolygon", "coordinates": [[[[5.34801, 51.71719], [5.35316, 51.71021], [5.34638, 51.70818], [5.33762, 51.71642], [5.34594, 51.71938], [5.34801, 51.71719]]]]}}, {"type": "Feature", "properties": {"statcode": "BU07960201", "statnaam": "Het Bossche Broek"}, "geometry": {"type": "MultiPolygon", "coordinates": [[[[5.30924, 51.67976], [5.31214, 51.67789], [5.31128, 51.67371], [5.31563, 51.67118], [5.31876, 51.67087], [5.30856, 51.66906], [5.30322, 51.6672], [5.30078, 51.66822], [5.29881, 51.6673], [5.29425, 51.6722], [5.29578, 51.67295], [5.29462, 51.67654], [5.29493, 51.68232], [5.29651, 51.68264], [5.29663, 51.6836], [5.30048, 51.68492], [5.3046, 51.6841], [5.30905, 51.68518], [5.30924, 51.67976]]]]}}, {"type": "Feature", "properties": {"statcode": "BU07961107", "statnaam": "De Kruiskamp"}, "geometry": {"type": "MultiPolygon", "coordinates": [[[[5.26236, 51.70462], [5.26999, 51.69962], [5.262, 51.69384], [5.26075, 51.69212], [5.25395, 51.69334], [5.24848, 51.6951], [5.24892, 51.69713], [5.25157, 51.69937], [5.25133, 51.69978], [5.2588, 51.70601], [5.26236, 51.70462]]]]}}, {"type": "Feature", "properties": {"statcode": "BU07960709", "statnaam": "De Stek"}, "geometry": {"type": "MultiPolygon", "coordinates": [[[[5.35671, 51.74101], [5.35297, 51.73963], [5.35092, 51.74177], [5.35587, 51.74397], [5.35671, 51.74101]]]]}}, {"type": "Feature", "properties": {"statcode": "BU07961001", "statnaam": "De Italiaanse buurt"}, "geometry": {"type": "MultiPolygon", "coordinates": [[[[5.30273, 51.72681], [5.30268, 51.72439], [5.30567, 51.72281], [5.30821, 51.71953], [5.30168, 51.7186], [5.2961, 51.71784], [5.29478, 51.72162], [5.29547, 51.72455], [5.29845, 51.72609], [5.30273, 51.72681]]]]}}, {"type": "Feature", "properties": {"statcode": "BU07960205", "statnaam": "De Gestelse Buurt"}, "geometry": {"type": "MultiPolygon", "coordinates": [[[[5.33168, 51.6805], [5.32973, 51.68029], [5.3295, 51.67924], [5.32738, 51.67921], [5.32746, 51.68299], [5.32749, 51.68476], [5.33168, 51.68523], [5.33168, 51.6805]]]]}}, {"type": "Feature", "properties": {"statcode": "BU07960207", "statnaam": "De Meerendonk"}, "geometry": {"type": "MultiPolygon", "coordinates": [[[[5.34773, 51.68379], [5.3467, 51.68083], [5.34489, 51.67878], [5.34121, 51.67685], [5.33736, 51.67605], [5.33576, 51.68001], [5.33168, 51.6805], [5.33168, 51.68523], [5.33305, 51.68597], [5.34773, 51.68379]]]]}}, {"type": "Feature", "properties": {"statcode": "BU07960303", "statnaam": "Aawijk noord"}, "geometry": {"type": "MultiPolygon", "coordinates": [[[[5.33678, 51.69665], [5.3404, 51.69587], [5.34067, 51.69368], [5.32962, 51.69279], [5.32834, 51.69547], [5.33551, 51.69752], [5.33678, 51.69665]]]]}}, {"type": "Feature", "properties": {"statcode": "BU07960701", "statnaam": "Brabantpoort"}, "geometry": {"type": "MultiPolygon", "coordinates": [[[[5.34613, 51.72722], [5.34594, 51.71938], [5.33762, 51.71642], [5.3318, 51.72018], [5.33466, 51.72697], [5.34613, 51.72722]]]]}}, {"type": "Feature", "properties": {"statcode": "BU07961201", "statnaam": "Kom Engelen"}, "geometry": {"type": "MultiPolygon", "coordinates": [[[[5.27202, 51.72313], [5.27607, 51.71702], [5.27616, 51.71464], [5.27221, 51.71353], [5.26999, 51.71463], [5.26414, 51.71596], [5.2589, 51.71432], [5.25763, 51.71762], [5.25474, 51.71928], [5.26508, 51.72676], [5.27202, 51.72313]]]]}}, {"type": "Feature", "properties": {"statcode": "BU07961204", "statnaam": "De Haverleij"}, "geometry": {"type": "MultiPolygon", "coordinates": [[[[5.24968, 51.73358], [5.26508, 51.72676], [5.25474, 51.71928], [5.24649, 51.72169], [5.24342, 51.72004], [5.24303, 51.72034], [5.23849, 51.72421], [5.24268, 51.7266], [5.24176, 51.7299], [5.24468, 51.73442], [5.24968, 51.73358]]]]}}, {"type": "Feature", "properties": {"statcode": "BU07960902", "statnaam": "De Herven"}, "geometry": {"type": "MultiPolygon", "coordinates": [[[[5.32952, 51.70843], [5.32943, 51.70534], [5.3192, 51.70195], [5.31834, 51.70556], [5.31959, 51.70839], [5.32427, 51.71135], [5.32952, 51.70843]]]]}}, {"type": "Feature", "properties": {"statcode": "BU07961007", "statnaam": "Het Zilverpark"}, "geometry": {"type": "MultiPolygon", "coordinates": [[[[5.29348, 51.73358], [5.29467, 51.73298], [5.29536, 51.73126], [5.29721, 51.731], [5.29845, 51.72609], [5.29547, 51.72455], [5.29382, 51.72517], [5.28948, 51.72965], [5.29123, 51.73211], [5.2918, 51.73323], [5.29348, 51.73358]]]]}}, {"type": "Feature", "properties": {"statcode": "BU07960505", "statnaam": "Sparrenburg"}, "geometry": {"type": "MultiPolygon", "coordinates": [[[[5.38715, 51.71662], [5.38197, 51.71174], [5.37752, 51.71], [5.37147, 51.71321], [5.37004, 51.71529], [5.37844, 51.71782], [5.38522, 51.71986], [5.38715, 51.71662]]]]}}, {"type": "Feature", "properties": {"statcode": "BU07961401", "statnaam": "Kom Vinkel"}, "geometry": {"type": "MultiPolygon", "coordinates": [[[[5.46856, 51.7079], [5.47072, 51.7069], [5.46914, 51.70545], [5.46902, 51.70146], [5.45277, 51.70053], [5.45121, 51.70392], [5.45495, 51.70761], [5.46816, 51.7099], [5.46856, 51.7079]]]]}}, {"type": "Feature", "properties": {"statcode": "BU07960801", "statnaam": "Kom Empel"}, "geometry": {"type": "MultiPolygon", "coordinates": [[[[5.32819, 51.73278], [5.33126, 51.7318], [5.32788, 51.72678], [5.32639, 51.72622], [5.3216, 51.72692], [5.32027, 51.72649], [5.31748, 51.72828], [5.32198, 51.73195], [5.32615, 51.73288], [5.32819, 51.73278]]]]}}, {"type": "Feature", "properties": {"statcode": "BU07961402", "statnaam": "Vinkeloord"}, "geometry": {"type": "MultiPolygon", "coordinates": [[[[5.43791, 51.7062], [5.43933, 51.70043], [5.42981, 51.70148], [5.42786, 51.70324], [5.4238, 51.70433], [5.42026, 51.70405], [5.41768, 51.70776], [5.42184, 51.70875], [5.4247, 51.71128], [5.42108, 51.71585], [5.43143, 51.71757], [5.43791, 51.7062]]]]}}, {"type": "Feature", "properties": {"statcode": "BU07960101", "statnaam": "Binnenstad centrum"}, "geometry": {"type": "MultiPolygon", "coordinates": [[[[5.30215, 51.69442], [5.30812, 51.69167], [5.30713, 51.68623], [5.30905, 51.68518], [5.3046, 51.6841], [5.30048, 51.68492], [5.29663, 51.6836], [5.29651, 51.68264], [5.29493, 51.68232], [5.29303, 51.68241], [5.29324, 51.6838], [5.29824, 51.68863], [5.29936, 51.69402], [5.30125, 51.69538], [5.30215, 51.69442]]]]}}, {"type": "Feature", "properties": {"statcode": "BU07960915", "statnaam": "Bedrijventerrein Noord"}, "geometry": {"type": "MultiPolygon", "coordinates": [[[[5.29801, 51.71235], [5.29831, 51.71149], [5.29426, 51.71198], [5.29111, 51.71343], [5.28829, 51.71676], [5.2961, 51.71784], [5.29801, 51.71235]]]]}}, {"type": "Feature", "properties": {"statcode": "BU07960106", "statnaam": "Vughterpoort"}, "geometry": {"type": "MultiPolygon", "coordinates": [[[[5.29493, 51.68232], [5.29462, 51.67654], [5.29578, 51.67295], [5.29425, 51.6722], [5.29232, 51.67167], [5.29113, 51.67195], [5.29192, 51.67446], [5.29082, 51.68224], [5.29303, 51.68241], [5.29493, 51.68232]]]]}}, {"type": "Feature", "properties": {"statcode": "BU07960105", "statnaam": "Het Zand"}, "geometry": {"type": "MultiPolygon", "coordinates": [[[[5.30156, 51.69597], [5.30125, 51.69538], [5.29936, 51.69402], [5.29824, 51.68863], [5.29324, 51.6838], [5.29303, 51.68241], [5.29082, 51.68224], [5.29073, 51.68282], [5.29385, 51.69128], [5.29698, 51.69801], [5.29731, 51.69858], [5.30156, 51.69597]]]]}}, {"type": "Feature", "properties": {"statcode": "BU07961202", "statnaam": "De Vutter"}, "geometry": {"type": "MultiPolygon", "coordinates": [[[[5.26999, 51.71463], [5.27221, 51.71353], [5.26267, 51.70875], [5.26008, 51.71091], [5.2589, 51.71432], [5.26414, 51.71596], [5.26999, 51.71463]]]]}}, {"type": "Feature", "properties": {"statcode": "BU07960906", "statnaam": "De Reit"}, "geometry": {"type": "MultiPolygon", "coordinates": [[[[5.33762, 51.71642], [5.32996, 51.71387], [5.32569, 51.71658], [5.32454, 51.71762], [5.32601, 51.71841], [5.32746, 51.7182], [5.33088, 51.71929], [5.3318, 51.72018], [5.33762, 51.71642]]]]}}, {"type": "Feature", "properties": {"statcode": "BU07961011", "statnaam": "Oud Empel"}, "geometry": {"type": "MultiPolygon", "coordinates": [[[[5.28328, 51.73978], [5.29165, 51.73726], [5.296, 51.73672], [5.30034, 51.73729], [5.30436, 51.73878], [5.30759, 51.73583], [5.31181, 51.73235], [5.31027, 51.73195], [5.30709, 51.73436], [5.30426, 51.73411], [5.30275, 51.73317], [5.29986, 51.73327], [5.29701, 51.73259], [5.29721, 51.731], [5.29536, 51.73126], [5.29467, 51.73298], [5.29348, 51.73358], [5.2918, 51.73323], [5.29123, 51.73211], [5.28519, 51.73574], [5.28407, 51.73739], [5.28213, 51.73797], [5.27459, 51.73752], [5.27761, 51.7324], [5.27607, 51.73201], [5.26986, 51.73647], [5.26854, 51.73965], [5.27572, 51.74017], [5.28328, 51.73978]]]]}}, {"type": "Feature", "properties": {"statcode": "BU07960706", "statnaam": "De Hoven"}, "geometry": {"type": "MultiPolygon", "coordinates": [[[[5.35752, 51.72881], [5.35215, 51.72732], [5.34613, 51.72722], [5.34576, 51.73371], [5.35387, 51.73422], [5.35752, 51.72881]]]]}}, {"type": "Feature", "properties": {"statcode": "BU07960904", "statnaam": "De Slagen"}, "geometry": {"type": "MultiPolygon", "coordinates": [[[[5.32427, 51.71135], [5.31959, 51.70839], [5.31388, 51.70859], [5.31382, 51.70762], [5.31051, 51.71045], [5.312, 51.71079], [5.32068, 51.71412], [5.32427, 51.71135]]]]}}, {"type": "Feature", "properties": {"statcode": "BU07961106", "statnaam": "De Schutskamp"}, "geometry": {"type": "MultiPolygon", "coordinates": [[[[5.28203, 51.69349], [5.27951, 51.69186], [5.27283, 51.68684], [5.2703, 51.68733], [5.26388, 51.69111], [5.26075, 51.69212], [5.262, 51.69384], [5.26999, 51.69962], [5.28203, 51.69349]]]]}}, {"type": "Feature", "properties": {"statcode": "BU07960912", "statnaam": "De Edelstenenbuurt"}, "geometry": {"type": "MultiPolygon", "coordinates": [[[[5.30358, 51.71374], [5.30606, 51.71028], [5.305, 51.70804], [5.30195, 51.70704], [5.29831, 51.71149], [5.29801, 51.71235], [5.30348, 51.71387], [5.30358, 51.71374]]]]}}, {"type": "Feature", "properties": {"statcode": "BU07960504", "statnaam": "Binckhorst"}, "geometry": {"type": "MultiPolygon", "coordinates": [[[[5.41026, 51.72085], [5.41514, 51.71476], [5.40861, 51.71325], [5.38679, 51.71014], [5.38154, 51.70895], [5.37752, 51.71], [5.38197, 51.71174], [5.38715, 51.71662], [5.38522, 51.71986], [5.39721, 51.72346], [5.40226, 51.72498], [5.40533, 51.72591], [5.40852, 51.72687], [5.41026, 51.72085]]]]}}, {"type": "Feature", "properties": {"statcode": "BU07961104", "statnaam": "Deuteren"}, "geometry": {"type": "MultiPolygon", "coordinates": [[[[5.28302, 51.69081], [5.28255, 51.68573], [5.27283, 51.68684], [5.27951, 51.69186], [5.28302, 51.69081]]]]}}, {"type": "Feature", "properties": {"statcode": "BU07960604", "statnaam": "Kruisstraat"}, "geometry": {"type": "MultiPolygon", "coordinates": [[[[5.41081, 51.72765], [5.40852, 51.72687], [5.40533, 51.72591], [5.4028, 51.73084], [5.39894, 51.73028], [5.39599, 51.72897], [5.39721, 51.72346], [5.38522, 51.71986], [5.37844, 51.71782], [5.37409, 51.71877], [5.37292, 51.72092], [5.3759, 51.72602], [5.36987, 51.73061], [5.37187, 51.73302], [5.37872, 51.73493], [5.38067, 51.73465], [5.4056, 51.73836], [5.41081, 51.72765]]]]}}, {"type": "Feature", "properties": {"statcode": "BU07960601", "statnaam": "'t Ven"}, "geometry": {"type": "MultiPolygon", "coordinates": [[[[5.35975, 51.71673], [5.3596, 51.71215], [5.35316, 51.71021], [5.34801, 51.71719], [5.35843, 51.71906], [5.35975, 51.71673]]]]}}, {"type": "Feature", "properties": {"statcode": "BU07961304", "statnaam": "Heeseind"}, "geometry": {"type": "MultiPolygon", "coordinates": [[[[5.43019, 51.73341], [5.42526, 51.73193], [5.4295, 51.72477], [5.43013, 51.72053], [5.432, 51.72017], [5.43601, 51.72103], [5.43704, 51.7185], [5.43143, 51.71757], [5.42108, 51.71585], [5.41514, 51.71476], [5.41026, 51.72085], [5.40852, 51.72687], [5.41081, 51.72765], [5.4056, 51.73836], [5.4173, 51.73999], [5.42465, 51.74188], [5.43019, 51.73341]]]]}}, {"type": "Feature", "properties": {"statcode": "BU07960203", "statnaam": "Bazeldonk"}, "geometry": {"type": "MultiPolygon", "coordinates": [[[[5.32468, 51.68716], [5.32749, 51.68476], [5.32746, 51.68299], [5.32269, 51.68299], [5.31607, 51.68707], [5.31683, 51.68831], [5.32468, 51.68716]]]]}}, {"type": "Feature", "properties": {"statcode": "BU07960402", "statnaam": "De Vliert"}, "geometry": {"type": "MultiPolygon", "coordinates": [[[[5.31064, 51.7012], [5.31957, 51.7006], [5.32142, 51.69426], [5.31542, 51.69271], [5.3134, 51.6934], [5.3091, 51.69647], [5.30357, 51.69796], [5.30403, 51.70196], [5.31064, 51.7012]]]]}}, {"type": "Feature", "properties": {"statcode": "BU07960503", "statnaam": "Het Vinkel"}, "geometry": {"type": "MultiPolygon", "coordinates": [[[[5.4247, 51.71128], [5.42184, 51.70875], [5.41768, 51.70776], [5.42026, 51.70405], [5.4238, 51.70433], [5.42786, 51.70324], [5.42981, 51.70148], [5.40607, 51.69908], [5.39771, 51.69849], [5.38571, 51.70098], [5.3858, 51.70353], [5.38833, 51.70342], [5.39317, 51.70482], [5.39118, 51.70828], [5.38679, 51.71014], [5.40861, 51.71325], [5.41514, 51.71476], [5.42108, 51.71585], [5.4247, 51.71128]]]]}}, {"type": "Feature", "properties": {"statcode": "BU07960910", "statnaam": "De Sprookjesbuurt"}, "geometry": {"type": "MultiPolygon", "coordinates": [[[[5.30962, 51.71581], [5.30875, 51.71521], [5.30358, 51.71374], [5.30348, 51.71387], [5.30156, 51.71698], [5.30222, 51.71796], [5.30168, 51.7186], [5.30821, 51.71953], [5.30962, 51.71581]]]]}}, {"type": "Feature", "properties": {"statcode": "BU07960804", "statnaam": "De Koornwaard"}, "geometry": {"type": "MultiPolygon", "coordinates": [[[[5.3559, 51.75143], [5.364, 51.75151], [5.36359, 51.74881], [5.36133, 51.7465], [5.35983, 51.74574], [5.35587, 51.74397], [5.35092, 51.74177], [5.34489, 51.73923], [5.3359, 51.73641], [5.33314, 51.74015], [5.33033, 51.73993], [5.32842, 51.73869], [5.32651, 51.73887], [5.31374, 51.73555], [5.30759, 51.73583], [5.30436, 51.73878], [5.32204, 51.74652], [5.35351, 51.75548], [5.3559, 51.75143]]]]}}, {"type": "Feature", "properties": {"statcode": "BU07960206", "statnaam": "Pettelaarpark"}, "geometry": {"type": "MultiPolygon", "coordinates": [[[[5.33576, 51.68001], [5.33736, 51.67605], [5.3283, 51.67398], [5.32738, 51.67921], [5.3295, 51.67924], [5.32973, 51.68029], [5.33168, 51.6805], [5.33576, 51.68001]]]]}}, {"type": "Feature", "properties": {"statcode": "BU07960702", "statnaam": "De Groote Vliet"}, "geometry": {"type": "MultiPolygon", "coordinates": [[[[5.35376, 51.7237], [5.35084, 51.72314], [5.34838, 51.72026], [5.34594, 51.71938], [5.34613, 51.72722], [5.35215, 51.72732], [5.35376, 51.7237]]]]}}, {"type": "Feature", "properties": {"statcode": "BU07960707", "statnaam": "De Lanen"}, "geometry": {"type": "MultiPolygon", "coordinates": [[[[5.35297, 51.73963], [5.35387, 51.73422], [5.34576, 51.73371], [5.34489, 51.73923], [5.35092, 51.74177], [5.35297, 51.73963]]]]}}, {"type": "Feature", "properties": {"statcode": "BU07960913", "statnaam": "Orthen"}, "geometry": {"type": "MultiPolygon", "coordinates": [[[[5.31382, 51.70762], [5.31362, 51.70567], [5.31076, 51.70562], [5.31064, 51.7012], [5.30403, 51.70196], [5.30195, 51.70704], [5.305, 51.70804], [5.30606, 51.71028], [5.31051, 51.71045], [5.31382, 51.70762]]]]}}, {"type": "Feature", "properties": {"statcode": "BU07960212", "statnaam": "Bedrijvenpark De Brand"}, "geometry": {"type": "MultiPolygon", "coordinates": [[[[5.35927, 51.69868], [5.36563, 51.68886], [5.36986, 51.68434], [5.37331, 51.68134], [5.37711, 51.6788], [5.37659, 51.67852], [5.37247, 51.68011], [5.36781, 51.68079], [5.36701, 51.68084], [5.36647, 51.68069], [5.35735, 51.682], [5.35748, 51.6824], [5.34773, 51.68379], [5.35093, 51.69349], [5.35183, 51.69879], [5.35927, 51.69868]]]]}}, {"type": "Feature", "properties": {"statcode": "BU07961499", "statnaam": "Landelijk gebied Vinkel"}, "geometry": {"type": "MultiPolygon", "coordinates": [[[[5.47883, 51.72416], [5.48478, 51.71331], [5.48777, 51.7129], [5.48782, 51.71207], [5.49771, 51.71171], [5.49732, 51.71077], [5.49892, 51.71057], [5.49823, 51.70918], [5.49966, 51.70901], [5.49907, 51.70708], [5.49239, 51.7061], [5.48307, 51.70146], [5.47829, 51.70143], [5.47105, 51.69115], [5.4694, 51.69127], [5.46985, 51.68914], [5.46033, 51.68965], [5.45877, 51.69203], [5.45687, 51.68759], [5.45272, 51.68847], [5.45168, 51.68675], [5.44517, 51.68858], [5.4474, 51.69502], [5.446, 51.6953], [5.44135, 51.69466], [5.44335, 51.69762], [5.4396, 51.69865], [5.43933, 51.70043], [5.43791, 51.7062], [5.43143, 51.71757], [5.43704, 51.7185], [5.44303, 51.71985], [5.44989, 51.72237], [5.46319, 51.72587], [5.47424, 51.72896], [5.48014, 51.72446], [5.47883, 51.72416]], [[5.45121, 51.70392], [5.45277, 51.70053], [5.46902, 51.70146], [5.46914, 51.70545], [5.47072, 51.7069], [5.46856, 51.7079], [5.46816, 51.7099], [5.45495, 51.70761], [5.45121, 51.70392]]]]}}, {"type": "Feature", "properties": {"statcode": "BU07961006", "statnaam": "De Staatsliedenbuurt"}, "geometry": {"type": "MultiPolygon", "coordinates": [[[[5.30275, 51.73317], [5.30273, 51.72681], [5.30273, 51.72681], [5.29845, 51.72609], [5.29721, 51.731], [5.29701, 51.73259], [5.29986, 51.73327], [5.30275, 51.73317]]]]}}, {"type": "Feature", "properties": {"statcode": "BU07960802", "statnaam": "Maasakker"}, "geometry": {"type": "MultiPolygon", "coordinates": [[[[5.32651, 51.73887], [5.32873, 51.73505], [5.32819, 51.73278], [5.32615, 51.73288], [5.32198, 51.73195], [5.31748, 51.72828], [5.31181, 51.73235], [5.30759, 51.73583], [5.31374, 51.73555], [5.32651, 51.73887]]]]}}, {"type": "Feature", "properties": {"statcode": "BU07960210", "statnaam": "Grevelingen"}, "geometry": {"type": "MultiPolygon", "coordinates": [[[[5.32474, 51.68758], [5.31955, 51.68925], [5.31892, 51.69014], [5.3244, 51.69172], [5.32474, 51.68758]]]]}}, {"type": "Feature", "properties": {"statcode": "BU07961002", "statnaam": "Maasdal"}, "geometry": {"type": "MultiPolygon", "coordinates": [[[[5.30273, 51.72681], [5.30567, 51.72634], [5.30803, 51.72544], [5.31409, 51.7224], [5.31498, 51.72066], [5.30821, 51.71953], [5.30567, 51.72281], [5.30268, 51.72439], [5.30273, 51.72681], [5.30273, 51.72681]]]]}}, {"type": "Feature", "properties": {"statcode": "BU07960502", "statnaam": "Maliskamp oost"}, "geometry": {"type": "MultiPolygon", "coordinates": [[[[5.39118, 51.70828], [5.39317, 51.70482], [5.38833, 51.70342], [5.3858, 51.70353], [5.38571, 51.70098], [5.37568, 51.70028], [5.37555, 51.70367], [5.37987, 51.70671], [5.37888, 51.70816], [5.38154, 51.70895], [5.38679, 51.71014], [5.39118, 51.70828]]]]}}, {"type": "Feature", "properties": {"statcode": "BU07961103", "statnaam": "Willemspoort"}, "geometry": {"type": "MultiPolygon", "coordinates": [[[[5.27283, 51.68684], [5.28255, 51.68573], [5.28611, 51.68514], [5.28908, 51.68314], [5.29073, 51.68282], [5.29082, 51.68224], [5.29192, 51.67446], [5.29149, 51.67481], [5.28907, 51.68053], [5.28859, 51.68186], [5.2873, 51.68226], [5.2743, 51.68367], [5.2703, 51.68733], [5.27283, 51.68684]]]]}}, {"type": "Feature", "properties": {"statcode": "BU07961303", "statnaam": "De Lage Kant"}, "geometry": {"type": "MultiPolygon", "coordinates": [[[[5.45054, 51.73938], [5.45191, 51.7376], [5.45417, 51.73546], [5.45193, 51.734], [5.45314, 51.73239], [5.45471, 51.73287], [5.45645, 51.73137], [5.4579, 51.72996], [5.46007, 51.73071], [5.46259, 51.7282], [5.46319, 51.72587], [5.44989, 51.72237], [5.44948, 51.72281], [5.44893, 51.72369], [5.44813, 51.72489], [5.44632, 51.72752], [5.4443, 51.72719], [5.44069, 51.73308], [5.43807, 51.73578], [5.45131, 51.7398], [5.4514, 51.73968], [5.45054, 51.73938]]]]}}, {"type": "Feature", "properties": {"statcode": "BU07961203", "statnaam": "Henriëttewaard"}, "geometry": {"type": "MultiPolygon", "coordinates": [[[[5.26986, 51.73647], [5.27607, 51.73201], [5.28829, 51.71676], [5.27616, 51.71464], [5.27607, 51.71702], [5.27202, 51.72313], [5.26508, 51.72676], [5.24968, 51.73358], [5.25547, 51.7349], [5.26414, 51.73883], [5.26854, 51.73965], [5.26986, 51.73647]]]]}}, {"type": "Feature", "properties": {"statcode": "BU07960914", "statnaam": "Orthen west"}, "geometry": {"type": "MultiPolygon", "coordinates": [[[[5.29831, 51.71149], [5.30195, 51.70704], [5.30403, 51.70196], [5.29871, 51.70027], [5.29842, 51.70596], [5.29426, 51.71198], [5.29831, 51.71149]]]]}}, {"type": "Feature", "properties": {"statcode": "BU07960798", "statnaam": "Overig landelijk gebied De Groote Wielen"}, "geometry": {"type": "MultiPolygon", "coordinates": [[[[5.34489, 51.73923], [5.34576, 51.73371], [5.34613, 51.72722], [5.33466, 51.72697], [5.33885, 51.73155], [5.3359, 51.73641], [5.34489, 51.73923]]]]}}, {"type": "Feature", "properties": {"statcode": "BU07961302", "statnaam": "Bedrijventerrein Nuland"}, "geometry": {"type": "MultiPolygon", "coordinates": [[[[5.44893, 51.72369], [5.44948, 51.72281], [5.44361, 51.72129], [5.44104, 51.72124], [5.44176, 51.72364], [5.44813, 51.72489], [5.44893, 51.72369]]]]}}, {"type": "Feature", "properties": {"statcode": "BU07960209", "statnaam": "De Bossche Pad"}, "geometry": {"type": "MultiPolygon", "coordinates": [[[[5.31892, 51.69014], [5.31955, 51.68925], [5.32474, 51.68758], [5.32468, 51.68716], [5.31683, 51.68831], [5.31805, 51.69048], [5.31892, 51.69014]]]]}}, {"type": "Feature", "properties": {"statcode": "BU07960901", "statnaam": "De Buitenpepers"}, "geometry": {"type": "MultiPolygon", "coordinates": [[[[5.31959, 51.70839], [5.31834, 51.70556], [5.3192, 51.70195], [5.31957, 51.7006], [5.31064, 51.7012], [5.31076, 51.70562], [5.31362, 51.70567], [5.31382, 51.70762], [5.31388, 51.70859], [5.31959, 51.70839]]]]}}, {"type": "Feature", "properties": {"statcode": "BU07960605", "statnaam": "Bedrijventerrein Kruisstraat"}, "geometry": {"type": "MultiPolygon", "coordinates": [[[[5.40533, 51.72591], [5.40226, 51.72498], [5.39721, 51.72346], [5.39599, 51.72897], [5.39894, 51.73028], [5.4028, 51.73084], [5.40533, 51.72591]]]]}}, {"type": "Feature", "properties": {"statcode": "BU07960905", "statnaam": "De Haren"}, "geometry": {"type": "MultiPolygon", "coordinates": [[[[5.32996, 51.71387], [5.32427, 51.71135], [5.32068, 51.71412], [5.32569, 51.71658], [5.32996, 51.71387]]]]}}, {"type": "Feature", "properties": {"statcode": "BU07960710", "statnaam": "De Beemden"}, "geometry": {"type": "MultiPolygon", "coordinates": [[[[5.3623, 51.74232], [5.3635, 51.73748], [5.35925, 51.73527], [5.35891, 51.73803], [5.35671, 51.74101], [5.35587, 51.74397], [5.35983, 51.74574], [5.3623, 51.74232]]]]}}, {"type": "Feature", "properties": {"statcode": "BU07960602", "statnaam": "Rosmalen centrum"}, "geometry": {"type": "MultiPolygon", "coordinates": [[[[5.36454, 51.71996], [5.36647, 51.71749], [5.37004, 51.71529], [5.3596, 51.71215], [5.35975, 51.71673], [5.35843, 51.71906], [5.36454, 51.71996]]]]}}, {"type": "Feature", "properties": {"statcode": "BU07960704", "statnaam": "Broekland"}, "geometry": {"type": "MultiPolygon", "coordinates": [[[[5.37187, 51.73302], [5.36987, 51.73061], [5.36144, 51.72649], [5.35679, 51.73205], [5.35882, 51.73519], [5.35925, 51.73527], [5.3635, 51.73748], [5.36601, 51.73831], [5.37187, 51.73302]]]]}}, {"type": "Feature", "properties": {"statcode": "BU07961108", "statnaam": "De Rietvelden oost"}, "geometry": {"type": "MultiPolygon", "coordinates": [[[[5.28183, 51.70167], [5.29045, 51.69732], [5.28203, 51.69349], [5.26999, 51.69962], [5.27572, 51.70329], [5.28094, 51.70406], [5.28183, 51.70167]]]]}}, {"type": "Feature", "properties": {"statcode": "BU07960401", "statnaam": "De Muntel"}, "geometry": {"type": "MultiPolygon", "coordinates": [[[[5.3091, 51.69647], [5.3134, 51.6934], [5.31542, 51.69271], [5.31554, 51.69223], [5.31286, 51.69092], [5.30467, 51.69449], [5.30299, 51.69597], [5.30156, 51.69597], [5.30357, 51.69796], [5.3091, 51.69647]]]]}}, {"type": "Feature", "properties": {"statcode": "BU07961004", "statnaam": "Lokeren"}, "geometry": {"type": "MultiPolygon", "coordinates": [[[[5.31015, 51.73097], [5.31239, 51.72923], [5.3124, 51.72793], [5.31171, 51.72662], [5.30803, 51.72544], [5.30567, 51.72634], [5.3068, 51.72941], [5.31015, 51.73097]]]]}}, {"type": "Feature", "properties": {"statcode": "BU07960903", "statnaam": "Bedrijventerrein De Herven"}, "geometry": {"type": "MultiPolygon", "coordinates": [[[[5.34638, 51.70818], [5.3358, 51.70499], [5.31957, 51.7006], [5.3192, 51.70195], [5.32943, 51.70534], [5.32952, 51.70843], [5.32427, 51.71135], [5.32996, 51.71387], [5.33762, 51.71642], [5.34638, 51.70818]]]]}}, {"type": "Feature", "properties": {"statcode": "BU07961110", "statnaam": "Veemarktkwartier"}, "geometry": {"type": "MultiPolygon", "coordinates": [[[[5.28927, 51.70406], [5.2945, 51.69988], [5.29731, 51.69858], [5.29698, 51.69801], [5.29384, 51.69879], [5.29045, 51.69732], [5.28183, 51.70167], [5.28094, 51.70406], [5.28092, 51.70737], [5.28927, 51.70406]]]]}}, {"type": "Feature", "properties": {"statcode": "BU07960204", "statnaam": "Bedrijventerrein Zuid"}, "geometry": {"type": "MultiPolygon", "coordinates": [[[[5.33305, 51.68597], [5.33168, 51.68523], [5.32749, 51.68476], [5.32468, 51.68716], [5.33305, 51.68597]]]]}}, {"type": "Feature", "properties": {"statcode": "BU07960803", "statnaam": "Empel oost"}, "geometry": {"type": "MultiPolygon", "coordinates": [[[[5.33314, 51.74015], [5.3359, 51.73641], [5.33885, 51.73155], [5.33466, 51.72697], [5.3318, 51.72018], [5.32525, 51.72357], [5.32027, 51.72649], [5.3216, 51.72692], [5.32639, 51.72622], [5.32788, 51.72678], [5.33126, 51.7318], [5.32819, 51.73278], [5.32873, 51.73505], [5.32651, 51.73887], [5.32842, 51.73869], [5.33033, 51.73993], [5.33314, 51.74015]]]]}}, {"type": "Feature", "properties": {"statcode": "BU07960103", "statnaam": "De Hofstad"}, "geometry": {"type": "MultiPolygon", "coordinates": [[[[5.31805, 51.69048], [5.31683, 51.68831], [5.31205, 51.68992], [5.31286, 51.69092], [5.31554, 51.69223], [5.31805, 51.69048]]]]}}, {"type": "Feature", "properties": {"statcode": "BU07960301", "statnaam": "De Hinthamerpoort"}, "geometry": {"type": "MultiPolygon", "coordinates": [[[[5.32155, 51.69416], [5.3244, 51.69172], [5.31892, 51.69014], [5.31805, 51.69048], [5.31554, 51.69223], [5.31542, 51.69271], [5.32142, 51.69426], [5.32155, 51.69416]]]]}}, {"type": "Feature", "properties": {"statcode": "BU07960607", "statnaam": "De Overlaet west"}, "geometry": {"type": "MultiPolygon", "coordinates": [[[[5.3579, 51.72462], [5.36158, 51.72368], [5.36329, 51.72209], [5.36454, 51.71996], [5.35843, 51.71906], [5.34801, 51.71719], [5.34594, 51.71938], [5.34838, 51.72026], [5.35084, 51.72314], [5.35376, 51.7237], [5.3579, 51.72462]]]]}}, {"type": "Feature", "properties": {"statcode": "BU07960501", "statnaam": "Maliskamp west"}, "geometry": {"type": "MultiPolygon", "coordinates": [[[[5.37987, 51.70671], [5.37555, 51.70367], [5.37568, 51.70028], [5.37312, 51.69974], [5.37154, 51.69797], [5.368, 51.69709], [5.36265, 51.70252], [5.36718, 51.70471], [5.37888, 51.70816], [5.37987, 51.70671]]]]}}, {"type": "Feature", "properties": {"statcode": "BU07961005", "statnaam": "Maasstroom"}, "geometry": {"type": "MultiPolygon", "coordinates": [[[[5.31027, 51.73195], [5.31015, 51.73097], [5.3068, 51.72941], [5.30567, 51.72634], [5.30273, 51.72681], [5.30275, 51.73317], [5.30426, 51.73411], [5.30709, 51.73436], [5.31027, 51.73195]]]]}}, {"type": "Feature", "properties": {"statcode": "BU07961111", "statnaam": "Ertveld"}, "geometry": {"type": "MultiPolygon", "coordinates": [[[[5.29111, 51.71343], [5.29426, 51.71198], [5.29842, 51.70596], [5.29871, 51.70027], [5.29731, 51.69858], [5.2945, 51.69988], [5.28927, 51.70406], [5.28092, 51.70737], [5.27558, 51.7107], [5.27616, 51.71464], [5.28829, 51.71676], [5.29111, 51.71343]]]]}}, {"type": "Feature", "properties": {"statcode": "BU07960609", "statnaam": "Rosmalense Polder"}, "geometry": {"type": "MultiPolygon", "coordinates": [[[[5.41297, 51.75742], [5.41655, 51.75125], [5.42465, 51.74188], [5.4173, 51.73999], [5.4056, 51.73836], [5.38067, 51.73465], [5.37872, 51.73493], [5.37468, 51.74106], [5.36922, 51.74726], [5.36304, 51.74613], [5.36133, 51.7465], [5.36359, 51.74881], [5.364, 51.75151], [5.37429, 51.75332], [5.39081, 51.75998], [5.41182, 51.76217], [5.41297, 51.75742]]]]}}, {"type": "Feature", "properties": {"statcode": "BU07960102", "statnaam": "Binnenstad oost"}, "geometry": {"type": "MultiPolygon", "coordinates": [[[[5.31205, 51.68992], [5.31683, 51.68831], [5.31607, 51.68707], [5.31412, 51.68554], [5.30905, 51.68518], [5.30713, 51.68623], [5.30812, 51.69167], [5.31205, 51.68992]]]]}}, {"type": "Feature", "properties": {"statcode": "BU07961102", "statnaam": "Paleiskwartier"}, "geometry": {"type": "MultiPolygon", "coordinates": [[[[5.29385, 51.69128], [5.29073, 51.68282], [5.28908, 51.68314], [5.28611, 51.68514], [5.28255, 51.68573], [5.28302, 51.69081], [5.28759, 51.6921], [5.29385, 51.69128]]]]}}, {"type": "Feature", "properties": {"statcode": "BU07960908", "statnaam": "De Rompert"}, "geometry": {"type": "MultiPolygon", "coordinates": [[[[5.31663, 51.71777], [5.32068, 51.71412], [5.312, 51.71079], [5.30875, 51.71521], [5.30962, 51.71581], [5.30821, 51.71953], [5.31498, 51.72066], [5.31663, 51.71777]]]]}}, {"type": "Feature", "properties": {"statcode": "BU07961109", "statnaam": "De Rietvelden west"}, "geometry": {"type": "MultiPolygon", "coordinates": [[[[5.27558, 51.7107], [5.28092, 51.70737], [5.28094, 51.70406], [5.27572, 51.70329], [5.26999, 51.69962], [5.26236, 51.70462], [5.2588, 51.70601], [5.26267, 51.70875], [5.27221, 51.71353], [5.27616, 51.71464], [5.27558, 51.7107]]]]}}, {"type": "Feature", "properties": {"statcode": "BU07961009", "statnaam": "Maasoever"}, "geometry": {"type": "MultiPolygon", "coordinates": [[[[5.28407, 51.73739], [5.28519, 51.73574], [5.29123, 51.73211], [5.28948, 51.72965], [5.28497, 51.73101], [5.28306, 51.73333], [5.27761, 51.7324], [5.27459, 51.73752], [5.28213, 51.73797], [5.28407, 51.73739]]]]}}, {"type": "Feature", "properties": {"statcode": "BU07961301", "statnaam": "Kom Nuland"}, "geometry": {"type": "MultiPolygon", "coordinates": [[[[5.44069, 51.73308], [5.4443, 51.72719], [5.44632, 51.72752], [5.44813, 51.72489], [5.44176, 51.72364], [5.44104, 51.72124], [5.44361, 51.72129], [5.44948, 51.72281], [5.44989, 51.72237], [5.44303, 51.71985], [5.43704, 51.7185], [5.43601, 51.72103], [5.432, 51.72017], [5.43013, 51.72053], [5.4295, 51.72477], [5.42526, 51.73193], [5.43019, 51.73341], [5.43807, 51.73578], [5.44069, 51.73308]]]]}}, {"type": "Feature", "properties": {"statcode": "BU07960703", "statnaam": "Vlietdijk"}, "geometry": {"type": "MultiPolygon", "coordinates": [[[[5.35679, 51.73205], [5.36144, 51.72649], [5.36158, 51.72368], [5.3579, 51.72462], [5.35376, 51.7237], [5.35215, 51.72732], [5.35752, 51.72881], [5.35387, 51.73422], [5.35882, 51.73519], [5.35679, 51.73205]]]]}}, {"type": "Feature", "properties": {"statcode": "BU07960603", "statnaam": "Hondsberg"}, "geometry": {"type": "MultiPolygon", "coordinates": [[[[5.37292, 51.72092], [5.37409, 51.71877], [5.37844, 51.71782], [5.37004, 51.71529], [5.36647, 51.71749], [5.36454, 51.71996], [5.36329, 51.72209], [5.3759, 51.72602], [5.37292, 51.72092]]]]}}, {"type": "Feature", "properties": {"statcode": "BU07960104", "statnaam": "Binnenstad noord"}, "geometry": {"type": "MultiPolygon", "coordinates": [[[[5.30467, 51.69449], [5.31286, 51.69092], [5.31205, 51.68992], [5.30812, 51.69167], [5.30215, 51.69442], [5.30125, 51.69538], [5.30156, 51.69597], [5.30299, 51.69597], [5.30467, 51.69449]]]]}}, {"type": "Feature", "properties": {"statcode": "BU07960907", "statnaam": "De Donk"}, "geometry": {"type": "MultiPolygon", "coordinates": [[[[5.3318, 51.72018], [5.33088, 51.71929], [5.32746, 51.7182], [5.32601, 51.71841], [5.32454, 51.71762], [5.32569, 51.71658], [5.32068, 51.71412], [5.31663, 51.71777], [5.31498, 51.72066], [5.32525, 51.72357], [5.3318, 51.72018]]]]}}, {"type": "Feature", "properties": {"statcode": "BU07960708", "statnaam": "Centrum De Groote Wielen"}, "geometry": {"type": "MultiPolygon", "coordinates": [[[[5.35891, 51.73803], [5.35925, 51.73527], [5.35882, 51.73519], [5.35387, 51.73422], [5.35297, 51.73963], [5.35671, 51.74101], [5.35891, 51.73803]]]]}}, {"type": "Feature", "properties": {"statcode": "BU07960306", "statnaam": "Hintham noord"}, "geometry": {"type": "MultiPolygon", "coordinates": [[[[5.35091, 51.70182], [5.33442, 51.70014], [5.3358, 51.70499], [5.34638, 51.70818], [5.35091, 51.70182]]]]}}, {"type": "Feature", "properties": {"statcode": "BU07961101", "statnaam": "Boschveld"}, "geometry": {"type": "MultiPolygon", "coordinates": [[[[5.29698, 51.69801], [5.29385, 51.69128], [5.28759, 51.6921], [5.28302, 51.69081], [5.27951, 51.69186], [5.28203, 51.69349], [5.29045, 51.69732], [5.29384, 51.69879], [5.29698, 51.69801]]]]}}, {"type": "Feature", "properties": {"statcode": "BU07961008", "statnaam": "Maasvallei"}, "geometry": {"type": "MultiPolygon", "coordinates": [[[[5.28948, 51.72965], [5.29382, 51.72517], [5.29547, 51.72455], [5.29478, 51.72162], [5.29063, 51.72267], [5.28601, 51.72688], [5.28392, 51.72937], [5.28497, 51.73101], [5.28948, 51.72965]]]]}}, {"type": "Feature", "properties": {"statcode": "BU07960705", "statnaam": "De Watertuinen"}, "geometry": {"type": "MultiPolygon", "coordinates": [[[[5.37872, 51.73493], [5.37187, 51.73302], [5.36601, 51.73831], [5.37468, 51.74106], [5.37872, 51.73493]]]]}}, {"type": "Feature", "properties": {"statcode": "BU07961105", "statnaam": "De Moerputten"}, "geometry": {"type": "MultiPolygon", "coordinates": [[[[5.25395, 51.69334], [5.26075, 51.69212], [5.26388, 51.69111], [5.2703, 51.68733], [5.2743, 51.68367], [5.26563, 51.68472], [5.26062, 51.68402], [5.25725, 51.68404], [5.25381, 51.6844], [5.24745, 51.68339], [5.23839, 51.68453], [5.23427, 51.6855], [5.2319, 51.68926], [5.22616, 51.69003], [5.22682, 51.69085], [5.22874, 51.69135], [5.24838, 51.695], [5.24848, 51.6951], [5.25395, 51.69334]]]]}}, {"type": "Feature", "properties": {"statcode": "BU07960606", "statnaam": "De Overlaet oost"}, "geometry": {"type": "MultiPolygon", "coordinates": [[[[5.3759, 51.72602], [5.36329, 51.72209], [5.36158, 51.72368], [5.36144, 51.72649], [5.36987, 51.73061], [5.3759, 51.72602]]]]}}, {"type": "Feature", "properties": {"statcode": "BU07961206", "statnaam": "Engelermeer"}, "geometry": {"type": "MultiPolygon", "coordinates": [[[[5.24268, 51.7266], [5.23849, 51.72421], [5.24303, 51.72034], [5.24342, 51.72004], [5.24649, 51.72169], [5.25474, 51.71928], [5.25763, 51.71762], [5.2589, 51.71432], [5.26008, 51.71091], [5.26267, 51.70875], [5.2588, 51.70601], [5.25133, 51.69978], [5.24893, 51.70124], [5.24817, 51.7011], [5.24701, 51.70274], [5.24112, 51.70103], [5.23899, 51.70204], [5.23727, 51.70476], [5.23576, 51.70465], [5.23621, 51.70617], [5.2412, 51.71399], [5.22998, 51.71057], [5.22931, 51.71229], [5.22854, 51.71477], [5.23106, 51.72402], [5.22752, 51.72715], [5.24176, 51.7299], [5.24268, 51.7266]]]]}}, {"type": "Feature", "properties": {"statcode": "BU07960506", "statnaam": "Molenhoek"}, "geometry": {"type": "MultiPolygon", "coordinates": [[[[5.37147, 51.71321], [5.37752, 51.71], [5.38154, 51.70895], [5.37888, 51.70816], [5.36718, 51.70471], [5.36265, 51.70252], [5.3618, 51.70375], [5.36018, 51.70342], [5.35316, 51.71021], [5.3596, 51.71215], [5.37004, 51.71529], [5.37147, 51.71321]]]]}}, {"type": "Feature", "properties": {"statcode": "BU07960305", "statnaam": "Hintham zuid"}, "geometry": {"type": "MultiPolygon", "coordinates": [[[[5.35183, 51.69879], [5.35093, 51.69349], [5.34067, 51.69368], [5.3404, 51.69587], [5.33678, 51.69665], [5.33551, 51.69752], [5.33442, 51.70014], [5.35091, 51.70182], [5.35183, 51.69879]]]]}}, {"type": "Feature", "properties": {"statcode": "BU07960304", "statnaam": "Graafsebuurt noord"}, "geometry": {"type": "MultiPolygon", "coordinates": [[[[5.33442, 51.70014], [5.33551, 51.69752], [5.32834, 51.69547], [5.32713, 51.69703], [5.32155, 51.69416], [5.32142, 51.69426], [5.31957, 51.7006], [5.3358, 51.70499], [5.33442, 51.70014]]]]}}, {"type": "Feature", "properties": {"statcode": "BU07961399", "statnaam": "Landelijk gebied Nuland"}, "geometry": {"type": "MultiPolygon", "coordinates": [[[[5.44403, 51.75331], [5.44352, 51.75105], [5.44742, 51.74531], [5.45131, 51.7398], [5.43807, 51.73578], [5.43019, 51.73341], [5.42465, 51.74188], [5.41655, 51.75125], [5.41297, 51.75742], [5.41182, 51.76217], [5.42323, 51.76323], [5.43622, 51.76473], [5.43882, 51.76503], [5.44403, 51.75331]]]]}}, {"type": "Feature", "properties": {"statcode": "BU07961205", "statnaam": "Bokhoven"}, "geometry": {"type": "MultiPolygon", "coordinates": [[[[5.22214, 51.74339], [5.2311, 51.7413], [5.24468, 51.73442], [5.24176, 51.7299], [5.22752, 51.72715], [5.22488, 51.72666], [5.22174, 51.72939], [5.21935, 51.72815], [5.21516, 51.73133], [5.21002, 51.73395], [5.21053, 51.73439], [5.21007, 51.73541], [5.21044, 51.73548], [5.2095, 51.73737], [5.21037, 51.73771], [5.20649, 51.74148], [5.21185, 51.74274], [5.21635, 51.74345], [5.22214, 51.74339]]]]}}, {"type": "Feature", "properties": {"statcode": "BU07960202", "statnaam": "Zuid"}, "geometry": {"type": "MultiPolygon", "coordinates": [[[[5.32269, 51.68299], [5.32746, 51.68299], [5.32738, 51.67921], [5.3283, 51.67398], [5.32747, 51.67337], [5.31906, 51.67037], [5.31876, 51.67087], [5.31563, 51.67118], [5.31128, 51.67371], [5.31214, 51.67789], [5.30924, 51.67976], [5.30905, 51.68518], [5.31412, 51.68554], [5.31607, 51.68707], [5.32269, 51.68299]]]]}}, {"type": "Feature", "properties": {"statcode": "BU07960302", "statnaam": "Graafsebuurt zuid"}, "geometry": {"type": "MultiPolygon", "coordinates": [[[[5.32834, 51.69547], [5.32962, 51.69279], [5.3244, 51.69172], [5.32155, 51.69416], [5.32713, 51.69703], [5.32834, 51.69547]]]]}}, {"type": "Feature", "properties": {"statcode": "BU07960799", "statnaam": "Landelijk gebied De Groote Wielen"}, "geometry": {"type": "MultiPolygon", "coordinates": [[[[5.37468, 51.74106], [5.36601, 51.73831], [5.3635, 51.73748], [5.3623, 51.74232], [5.35983, 51.74574], [5.36133, 51.7465], [5.36304, 51.74613], [5.36922, 51.74726], [5.37468, 51.74106]]]]}}, {"type": "Feature", "properties": {"statcode": "BU07960208", "statnaam": "Kloosterstraat"}, "geometry": {"type": "MultiPolygon", "coordinates": [[[[5.35748, 51.6824], [5.35735, 51.682], [5.35702, 51.68107], [5.35576, 51.68129], [5.35331, 51.68145], [5.35218, 51.68108], [5.35094, 51.67714], [5.35596, 51.674], [5.35388, 51.67314], [5.35461, 51.67251], [5.35293, 51.67181], [5.35369, 51.67107], [5.34396, 51.66745], [5.34148, 51.66619], [5.34201, 51.6653], [5.33888, 51.664], [5.32747, 51.67337], [5.3283, 51.67398], [5.33736, 51.67605], [5.34121, 51.67685], [5.34489, 51.67878], [5.3467, 51.68083], [5.34773, 51.68379], [5.35748, 51.6824]]]]}}, {"type": "Feature", "properties": {"statcode": "BU07960403", "statnaam": "Orthenpoort"}, "geometry": {"type": "MultiPolygon", "coordinates": [[[[5.30357, 51.69796], [5.30156, 51.69597], [5.29731, 51.69858], [5.29871, 51.70027], [5.30403, 51.70196], [5.30357, 51.69796]]]]}}]}