{"type": "FeatureCollection", "features": [{"type": "Feature", "properties": {"statcode": "BU07721110", "statnaam": "Binnenstad"}, "geometry": {"type": "MultiPolygon", "coordinates": [[[[5.48461, 51.44218], [5.48469, 51.4406], [5.48681, 51.4393], [5.48559, 51.43767], [5.48458, 51.43635], [5.4861, 51.43456], [5.48496, 51.43229], [5.48076, 51.4343], [5.47504, 51.43839], [5.47569, 51.44114], [5.47506, 51.44241], [5.48367, 51.44391], [5.48461, 51.44218]]]]}}, {"type": "Feature", "properties": {"statcode": "BU07721120", "statnaam": "Bergen"}, "geometry": {"type": "MultiPolygon", "coordinates": [[[[5.47504, 51.43839], [5.48076, 51.4343], [5.47847, 51.43225], [5.47933, 51.43063], [5.47858, 51.42928], [5.47812, 51.43093], [5.47254, 51.43476], [5.47156, 51.43538], [5.46903, 51.43869], [5.47504, 51.43839]]]]}}, {"type": "Feature", "properties": {"statcode": "BU07721130", "statnaam": "Witte Dame"}, "geometry": {"type": "MultiPolygon", "coordinates": [[[[5.47506, 51.44241], [5.47569, 51.44114], [5.47504, 51.43839], [5.46903, 51.43869], [5.47038, 51.44222], [5.4707, 51.44249], [5.47506, 51.44241]]]]}}, {"type": "Feature", "properties": {"statcode": "BU07721140", "statnaam": "Fellenoord"}, "geometry": {"type": "MultiPolygon", "coordinates": [[[[5.48367, 51.44391], [5.47506, 51.44241], [5.4707, 51.44249], [5.47286, 51.44354], [5.47196, 51.4445], [5.47498, 51.44537], [5.47698, 51.4463], [5.48038, 51.44639], [5.48054, 51.44481], [5.48333, 51.44505], [5.48367, 51.44391]]]]}}, {"type": "Feature", "properties": {"statcode": "BU07721150", "statnaam": "TU-terrein"}, "geometry": {"type": "MultiPolygon", "coordinates": [[[[5.49391, 51.45217], [5.49687, 51.45096], [5.50054, 51.44744], [5.50212, 51.44519], [5.50239, 51.44487], [5.50284, 51.44429], [5.48461, 51.44218], [5.48367, 51.44391], [5.48333, 51.44505], [5.48054, 51.44481], [5.48038, 51.44639], [5.48442, 51.45288], [5.49391, 51.45217]]]]}}, {"type": "Feature", "properties": {"statcode": "BU07722110", "statnaam": "Irisbuurt"}, "geometry": {"type": "MultiPolygon", "coordinates": [[[[5.49034, 51.43688], [5.50405, 51.43491], [5.50286, 51.43133], [5.49339, 51.43211], [5.4861, 51.43456], [5.48458, 51.43635], [5.48559, 51.43767], [5.49034, 51.43688]]]]}}, {"type": "Feature", "properties": {"statcode": "BU07722120", "statnaam": "Rochusbuurt"}, "geometry": {"type": "MultiPolygon", "coordinates": [[[[5.49339, 51.43211], [5.4889, 51.43049], [5.48614, 51.4299], [5.48496, 51.43229], [5.4861, 51.43456], [5.49339, 51.43211]]]]}}, {"type": "Feature", "properties": {"statcode": "BU07722130", "statnaam": "Elzent-Noord"}, "geometry": {"type": "MultiPolygon", "coordinates": [[[[5.48496, 51.43229], [5.48614, 51.4299], [5.48211, 51.42852], [5.47858, 51.42928], [5.47933, 51.43063], [5.47847, 51.43225], [5.48076, 51.4343], [5.48496, 51.43229]]]]}}, {"type": "Feature", "properties": {"statcode": "BU07722140", "statnaam": "Tuindorp"}, "geometry": {"type": "MultiPolygon", "coordinates": [[[[5.50286, 51.43133], [5.4994, 51.42751], [5.49537, 51.42543], [5.48932, 51.42878], [5.4889, 51.43049], [5.49339, 51.43211], [5.50286, 51.43133]]]]}}, {"type": "Feature", "properties": {"statcode": "BU07722150", "statnaam": "Joriskwartier"}, "geometry": {"type": "MultiPolygon", "coordinates": [[[[5.49537, 51.42543], [5.49279, 51.42417], [5.48689, 51.42851], [5.48614, 51.4299], [5.4889, 51.43049], [5.48932, 51.42878], [5.49537, 51.42543]]]]}}, {"type": "Feature", "properties": {"statcode": "BU07722160", "statnaam": "Bloemenplein"}, "geometry": {"type": "MultiPolygon", "coordinates": [[[[5.49279, 51.42417], [5.48552, 51.4239], [5.48689, 51.42851], [5.49279, 51.42417]]]]}}, {"type": "Feature", "properties": {"statcode": "BU07722170", "statnaam": "Looiakkers"}, "geometry": {"type": "MultiPolygon", "coordinates": [[[[5.48689, 51.42851], [5.48552, 51.4239], [5.47925, 51.42445], [5.48211, 51.42852], [5.48614, 51.4299], [5.48689, 51.42851]]]]}}, {"type": "Feature", "properties": {"statcode": "BU07722180", "statnaam": "Elzent-Zuid"}, "geometry": {"type": "MultiPolygon", "coordinates": [[[[5.48211, 51.42852], [5.47925, 51.42445], [5.47719, 51.42463], [5.47552, 51.42584], [5.47549, 51.42692], [5.47858, 51.42928], [5.48211, 51.42852]]]]}}, {"type": "Feature", "properties": {"statcode": "BU07722210", "statnaam": "Kerstroosplein"}, "geometry": {"type": "MultiPolygon", "coordinates": [[[[5.49562, 51.42002], [5.49733, 51.41609], [5.49142, 51.41592], [5.4933, 51.42353], [5.49562, 51.42002]]]]}}, {"type": "Feature", "properties": {"statcode": "BU07722220", "statnaam": "Gerardusplein"}, "geometry": {"type": "MultiPolygon", "coordinates": [[[[5.4933, 51.42353], [5.49142, 51.41592], [5.4834, 51.41658], [5.48552, 51.4239], [5.49279, 51.42417], [5.4933, 51.42353]]]]}}, {"type": "Feature", "properties": {"statcode": "BU07722230", "statnaam": "Genneperzijde"}, "geometry": {"type": "MultiPolygon", "coordinates": [[[[5.47925, 51.42445], [5.48552, 51.4239], [5.4834, 51.41658], [5.47721, 51.41725], [5.4776, 51.41798], [5.48081, 51.41884], [5.48108, 51.42062], [5.48022, 51.42198], [5.47798, 51.42222], [5.47719, 51.42463], [5.47925, 51.42445]]]]}}, {"type": "Feature", "properties": {"statcode": "BU07722240", "statnaam": "Roosten"}, "geometry": {"type": "MultiPolygon", "coordinates": [[[[5.49979, 51.4113], [5.50464, 51.40011], [5.50362, 51.40152], [5.49985, 51.40386], [5.49005, 51.40445], [5.49142, 51.41592], [5.49733, 51.41609], [5.49979, 51.4113]]]]}}, {"type": "Feature", "properties": {"statcode": "BU07722250", "statnaam": "Eikenburg"}, "geometry": {"type": "MultiPolygon", "coordinates": [[[[5.49142, 51.41592], [5.49005, 51.40445], [5.48231, 51.40465], [5.48037, 51.40469], [5.4834, 51.41658], [5.49142, 51.41592]]]]}}, {"type": "Feature", "properties": {"statcode": "BU07722260", "statnaam": "Sportpark Aalsterweg"}, "geometry": {"type": "MultiPolygon", "coordinates": [[[[5.4834, 51.41658], [5.48037, 51.40469], [5.48007, 51.40474], [5.4771, 51.40488], [5.4752, 51.40879], [5.47572, 51.4102], [5.47474, 51.4151], [5.47721, 51.41725], [5.4834, 51.41658]]]]}}, {"type": "Feature", "properties": {"statcode": "BU07722300", "statnaam": "Puttense Dreef"}, "geometry": {"type": "MultiPolygon", "coordinates": [[[[5.52165, 51.42843], [5.51958, 51.42477], [5.51577, 51.42309], [5.51245, 51.42382], [5.50883, 51.42281], [5.50605, 51.4238], [5.50764, 51.4256], [5.51121, 51.4246], [5.514, 51.42962], [5.52165, 51.42843]]]]}}, {"type": "Feature", "properties": {"statcode": "BU07722310", "statnaam": "Poeijers"}, "geometry": {"type": "MultiPolygon", "coordinates": [[[[5.51207, 51.43403], [5.51875, 51.43341], [5.53203, 51.43199], [5.53096, 51.42742], [5.53035, 51.4272], [5.52518, 51.4279], [5.52165, 51.42843], [5.514, 51.42962], [5.50286, 51.43133], [5.50405, 51.43491], [5.51207, 51.43403]]]]}}, {"type": "Feature", "properties": {"statcode": "BU07722320", "statnaam": "Burghplan"}, "geometry": {"type": "MultiPolygon", "coordinates": [[[[5.514, 51.42962], [5.51121, 51.4246], [5.50764, 51.4256], [5.50605, 51.4238], [5.4994, 51.42751], [5.50286, 51.43133], [5.514, 51.42962]]]]}}, {"type": "Feature", "properties": {"statcode": "BU07722330", "statnaam": "Sintenbuurt"}, "geometry": {"type": "MultiPolygon", "coordinates": [[[[5.50605, 51.4238], [5.50432, 51.42013], [5.50034, 51.42275], [5.49537, 51.42543], [5.4994, 51.42751], [5.50605, 51.4238]]]]}}, {"type": "Feature", "properties": {"statcode": "BU07722340", "statnaam": "Tivoli"}, "geometry": {"type": "MultiPolygon", "coordinates": [[[[5.50883, 51.42281], [5.50956, 51.42254], [5.51011, 51.41925], [5.50948, 51.41778], [5.50833, 51.41746], [5.50432, 51.42013], [5.50605, 51.4238], [5.50883, 51.42281]]]]}}, {"type": "Feature", "properties": {"statcode": "BU07722350", "statnaam": "Gijzenrooi"}, "geometry": {"type": "MultiPolygon", "coordinates": [[[[5.51577, 51.42309], [5.51813, 51.42129], [5.51934, 51.41888], [5.51454, 51.41203], [5.50916, 51.41681], [5.50833, 51.41746], [5.50948, 51.41778], [5.51011, 51.41925], [5.50956, 51.42254], [5.50883, 51.42281], [5.51245, 51.42382], [5.51577, 51.42309]]]]}}, {"type": "Feature", "properties": {"statcode": "BU07722360", "statnaam": "Nieuwe Erven"}, "geometry": {"type": "MultiPolygon", "coordinates": [[[[5.50034, 51.42275], [5.49562, 51.42002], [5.4933, 51.42353], [5.49279, 51.42417], [5.49537, 51.42543], [5.50034, 51.42275]]]]}}, {"type": "Feature", "properties": {"statcode": "BU07722370", "statnaam": "Kruidenbuurt"}, "geometry": {"type": "MultiPolygon", "coordinates": [[[[5.50432, 51.42013], [5.50321, 51.41746], [5.49733, 51.41609], [5.49562, 51.42002], [5.50034, 51.42275], [5.50432, 51.42013]]]]}}, {"type": "Feature", "properties": {"statcode": "BU07722380", "statnaam": "Schuttersbosch"}, "geometry": {"type": "MultiPolygon", "coordinates": [[[[5.50833, 51.41746], [5.50916, 51.41681], [5.505, 51.41504], [5.50617, 51.41227], [5.50514, 51.41169], [5.49979, 51.4113], [5.49733, 51.41609], [5.50321, 51.41746], [5.50432, 51.42013], [5.50833, 51.41746]]]]}}, {"type": "Feature", "properties": {"statcode": "BU07722390", "statnaam": "Leenderheide"}, "geometry": {"type": "MultiPolygon", "coordinates": [[[[5.51454, 51.41203], [5.52211, 51.40655], [5.5258, 51.40515], [5.52581, 51.4047], [5.50761, 51.40453], [5.50518, 51.40342], [5.50487, 51.40015], [5.50464, 51.40011], [5.49979, 51.4113], [5.50514, 51.41169], [5.50617, 51.41227], [5.505, 51.41504], [5.50916, 51.41681], [5.51454, 51.41203]]]]}}, {"type": "Feature", "properties": {"statcode": "BU07722399", "statnaam": "Riel"}, "geometry": {"type": "MultiPolygon", "coordinates": [[[[5.52518, 51.4279], [5.5258, 51.40515], [5.52211, 51.40655], [5.51454, 51.41203], [5.51934, 51.41888], [5.51813, 51.42129], [5.51577, 51.42309], [5.51958, 51.42477], [5.52165, 51.42843], [5.52518, 51.4279]]]]}}, {"type": "Feature", "properties": {"statcode": "BU07723110", "statnaam": "Villapark"}, "geometry": {"type": "MultiPolygon", "coordinates": [[[[5.50408, 51.44163], [5.49981, 51.44203], [5.49034, 51.43688], [5.48559, 51.43767], [5.48681, 51.4393], [5.48469, 51.4406], [5.48461, 51.44218], [5.50284, 51.44429], [5.50408, 51.44163]]]]}}, {"type": "Feature", "properties": {"statcode": "BU07723120", "statnaam": "Lakerlopen"}, "geometry": {"type": "MultiPolygon", "coordinates": [[[[5.50408, 51.44163], [5.50494, 51.43821], [5.50405, 51.43491], [5.49034, 51.43688], [5.49981, 51.44203], [5.50408, 51.44163]]]]}}, {"type": "Feature", "properties": {"statcode": "BU07723210", "statnaam": "Doornakkers-West"}, "geometry": {"type": "MultiPolygon", "coordinates": [[[[5.51293, 51.44387], [5.51441, 51.44264], [5.5145, 51.44134], [5.51207, 51.43403], [5.50405, 51.43491], [5.50494, 51.43821], [5.50408, 51.44163], [5.50284, 51.44429], [5.50239, 51.44487], [5.51293, 51.44387]]]]}}, {"type": "Feature", "properties": {"statcode": "BU07723220", "statnaam": "Doornakkers-Oost"}, "geometry": {"type": "MultiPolygon", "coordinates": [[[[5.52374, 51.43991], [5.52079, 51.43865], [5.51875, 51.43341], [5.51207, 51.43403], [5.5145, 51.44134], [5.51441, 51.44264], [5.51293, 51.44387], [5.51887, 51.4422], [5.52374, 51.43991]]]]}}, {"type": "Feature", "properties": {"statcode": "BU07723280", "statnaam": "Tongelresche Akkers"}, "geometry": {"type": "MultiPolygon", "coordinates": [[[[5.53475, 51.43168], [5.53203, 51.43199], [5.51875, 51.43341], [5.52079, 51.43865], [5.52374, 51.43991], [5.53475, 51.43168]]]]}}, {"type": "Feature", "properties": {"statcode": "BU07723330", "statnaam": "Muschberg, Geestenberg"}, "geometry": {"type": "MultiPolygon", "coordinates": [[[[5.52374, 51.43991], [5.51887, 51.4422], [5.51293, 51.44387], [5.50239, 51.44487], [5.50212, 51.44519], [5.50642, 51.44527], [5.52799, 51.44805], [5.53115, 51.4427], [5.52374, 51.43991]]]]}}, {"type": "Feature", "properties": {"statcode": "BU07723340", "statnaam": "Urkhoven"}, "geometry": {"type": "MultiPolygon", "coordinates": [[[[5.5414, 51.44104], [5.54132, 51.44046], [5.54071, 51.44051], [5.54126, 51.43972], [5.54266, 51.43924], [5.54263, 51.43998], [5.54392, 51.4396], [5.54356, 51.43871], [5.54438, 51.43721], [5.54589, 51.43658], [5.54678, 51.43367], [5.54025, 51.43133], [5.53476, 51.43169], [5.53475, 51.43168], [5.52374, 51.43991], [5.53115, 51.4427], [5.52799, 51.44805], [5.53883, 51.44944], [5.53908, 51.44845], [5.54015, 51.44797], [5.53852, 51.44561], [5.53941, 51.44457], [5.53851, 51.44354], [5.5414, 51.44104]]]]}}, {"type": "Feature", "properties": {"statcode": "BU07723350", "statnaam": "'t Hofke"}, "geometry": {"type": "MultiPolygon", "coordinates": [[[[5.53447, 51.45157], [5.53883, 51.44944], [5.52799, 51.44805], [5.50642, 51.44527], [5.50212, 51.44519], [5.50054, 51.44744], [5.51267, 51.45149], [5.52239, 51.45441], [5.53169, 51.45562], [5.53159, 51.45554], [5.53447, 51.45157]]]]}}, {"type": "Feature", "properties": {"statcode": "BU07723360", "statnaam": "Karpen"}, "geometry": {"type": "MultiPolygon", "coordinates": [[[[5.51267, 51.45149], [5.50054, 51.44744], [5.49687, 51.45096], [5.49391, 51.45217], [5.49568, 51.45353], [5.4983, 51.45766], [5.50401, 51.45762], [5.50774, 51.45648], [5.51267, 51.45149]]]]}}, {"type": "Feature", "properties": {"statcode": "BU07723370", "statnaam": "Koudenhoven"}, "geometry": {"type": "MultiPolygon", "coordinates": [[[[5.51494, 51.46498], [5.51589, 51.46513], [5.51693, 51.46424], [5.51758, 51.46435], [5.51898, 51.46291], [5.51811, 51.46295], [5.51827, 51.46263], [5.52095, 51.46155], [5.52107, 51.46102], [5.52187, 51.46109], [5.52492, 51.45949], [5.52984, 51.4587], [5.531, 51.45725], [5.53253, 51.45721], [5.53169, 51.45562], [5.52239, 51.45441], [5.51267, 51.45149], [5.50774, 51.45648], [5.50401, 51.45762], [5.4983, 51.45766], [5.49837, 51.45859], [5.50184, 51.46114], [5.50941, 51.46445], [5.51439, 51.46556], [5.51494, 51.46498]]]]}}, {"type": "Feature", "properties": {"statcode": "BU07724100", "statnaam": "Limbeek-Zuid"}, "geometry": {"type": "MultiPolygon", "coordinates": [[[[5.47007, 51.44625], [5.47196, 51.4445], [5.47286, 51.44354], [5.4707, 51.44249], [5.47038, 51.44222], [5.46657, 51.44332], [5.46349, 51.44534], [5.46527, 51.44636], [5.47007, 51.44625]]]]}}, {"type": "Feature", "properties": {"statcode": "BU07724110", "statnaam": "Limbeek-Noord"}, "geometry": {"type": "MultiPolygon", "coordinates": [[[[5.47007, 51.44625], [5.46527, 51.44636], [5.46349, 51.44534], [5.45751, 51.44984], [5.46456, 51.4518], [5.47007, 51.44625]]]]}}, {"type": "Feature", "properties": {"statcode": "BU07724120", "statnaam": "Hemelrijken"}, "geometry": {"type": "MultiPolygon", "coordinates": [[[[5.47498, 51.44537], [5.47196, 51.4445], [5.47007, 51.44625], [5.46456, 51.4518], [5.47145, 51.45273], [5.47535, 51.44795], [5.47498, 51.44537]]]]}}, {"type": "Feature", "properties": {"statcode": "BU07724130", "statnaam": "Gildebuurt"}, "geometry": {"type": "MultiPolygon", "coordinates": [[[[5.47698, 51.4463], [5.47498, 51.44537], [5.47535, 51.44795], [5.47145, 51.45273], [5.47787, 51.45294], [5.47698, 51.4463]]]]}}, {"type": "Feature", "properties": {"statcode": "BU07724140", "statnaam": "Woenselse Watermolen"}, "geometry": {"type": "MultiPolygon", "coordinates": [[[[5.48442, 51.45288], [5.48038, 51.44639], [5.47698, 51.4463], [5.47787, 51.45294], [5.48442, 51.45288]]]]}}, {"type": "Feature", "properties": {"statcode": "BU07724210", "statnaam": "Woensel-West"}, "geometry": {"type": "MultiPolygon", "coordinates": [[[[5.45946, 51.45687], [5.46456, 51.4518], [5.45751, 51.44984], [5.44876, 51.45636], [5.45432, 51.46204], [5.45946, 51.45687]]]]}}, {"type": "Feature", "properties": {"statcode": "BU07724220", "statnaam": "Kronehoef"}, "geometry": {"type": "MultiPolygon", "coordinates": [[[[5.47121, 51.45701], [5.47709, 51.45723], [5.47787, 51.45294], [5.47145, 51.45273], [5.46456, 51.4518], [5.45946, 51.45687], [5.4638, 51.46041], [5.46753, 51.45733], [5.47121, 51.45701]]]]}}, {"type": "Feature", "properties": {"statcode": "BU07724230", "statnaam": "Barrier"}, "geometry": {"type": "MultiPolygon", "coordinates": [[[[5.4638, 51.46041], [5.45946, 51.45687], [5.45432, 51.46204], [5.45958, 51.46408], [5.4638, 51.46041]]]]}}, {"type": "Feature", "properties": {"statcode": "BU07724240", "statnaam": "Mensfort"}, "geometry": {"type": "MultiPolygon", "coordinates": [[[[5.47121, 51.45701], [5.46753, 51.45733], [5.4638, 51.46041], [5.45958, 51.46408], [5.46713, 51.46709], [5.47121, 51.45701]]]]}}, {"type": "Feature", "properties": {"statcode": "BU07724250", "statnaam": "Rapenland"}, "geometry": {"type": "MultiPolygon", "coordinates": [[[[5.4728, 51.46744], [5.47475, 51.46748], [5.47709, 51.45723], [5.47121, 51.45701], [5.46713, 51.46709], [5.46804, 51.46758], [5.4728, 51.46744]]]]}}, {"type": "Feature", "properties": {"statcode": "BU07724260", "statnaam": "Vredeoord"}, "geometry": {"type": "MultiPolygon", "coordinates": [[[[5.44983, 51.46653], [5.45432, 51.46204], [5.44876, 51.45636], [5.43227, 51.46891], [5.43781, 51.47223], [5.44239, 51.474], [5.44983, 51.46653]]]]}}, {"type": "Feature", "properties": {"statcode": "BU07724310", "statnaam": "Generalenbuurt"}, "geometry": {"type": "MultiPolygon", "coordinates": [[[[5.48574, 51.45748], [5.47709, 51.45723], [5.47475, 51.46748], [5.47864, 51.46756], [5.4869, 51.46771], [5.48574, 51.45748]]]]}}, {"type": "Feature", "properties": {"statcode": "BU07724320", "statnaam": "Oude Toren"}, "geometry": {"type": "MultiPolygon", "coordinates": [[[[5.48442, 51.45288], [5.47787, 51.45294], [5.47709, 51.45723], [5.48574, 51.45748], [5.48442, 51.45288]]]]}}, {"type": "Feature", "properties": {"statcode": "BU07724330", "statnaam": "Hondsheuvels"}, "geometry": {"type": "MultiPolygon", "coordinates": [[[[5.49391, 51.45217], [5.48442, 51.45288], [5.48574, 51.45748], [5.4983, 51.45766], [5.49568, 51.45353], [5.49391, 51.45217]]]]}}, {"type": "Feature", "properties": {"statcode": "BU07724340", "statnaam": "Oude Gracht-West"}, "geometry": {"type": "MultiPolygon", "coordinates": [[[[5.49364, 51.46728], [5.49151, 51.46402], [5.49067, 51.46023], [5.49837, 51.45859], [5.4983, 51.45766], [5.48574, 51.45748], [5.4869, 51.46771], [5.49364, 51.46728]]]]}}, {"type": "Feature", "properties": {"statcode": "BU07724350", "statnaam": "Oude Gracht-Oost"}, "geometry": {"type": "MultiPolygon", "coordinates": [[[[5.50184, 51.46114], [5.49837, 51.45859], [5.49067, 51.46023], [5.49151, 51.46402], [5.49364, 51.46728], [5.5045, 51.46765], [5.49926, 51.46257], [5.50184, 51.46114]]]]}}, {"type": "Feature", "properties": {"statcode": "BU07724360", "statnaam": "Eckartdal"}, "geometry": {"type": "MultiPolygon", "coordinates": [[[[5.51158, 51.4675], [5.51287, 51.4666], [5.51412, 51.46652], [5.51439, 51.46556], [5.50941, 51.46445], [5.50184, 51.46114], [5.49926, 51.46257], [5.5045, 51.46765], [5.51158, 51.4675]]]]}}, {"type": "Feature", "properties": {"statcode": "BU07725110", "statnaam": "Driehoeksbos"}, "geometry": {"type": "MultiPolygon", "coordinates": [[[[5.46027, 51.47494], [5.45314, 51.47167], [5.4539, 51.46992], [5.44983, 51.46653], [5.44239, 51.474], [5.45626, 51.47903], [5.46027, 51.47494]]]]}}, {"type": "Feature", "properties": {"statcode": "BU07725120", "statnaam": "Prinsejagt"}, "geometry": {"type": "MultiPolygon", "coordinates": [[[[5.46804, 51.46758], [5.46713, 51.46709], [5.45958, 51.46408], [5.45432, 51.46204], [5.44983, 51.46653], [5.4539, 51.46992], [5.45314, 51.47167], [5.46027, 51.47494], [5.46804, 51.46758]]]]}}, {"type": "Feature", "properties": {"statcode": "BU07725130", "statnaam": "Jagershoef"}, "geometry": {"type": "MultiPolygon", "coordinates": [[[[5.47194, 51.47094], [5.4728, 51.46744], [5.46804, 51.46758], [5.46027, 51.47494], [5.46377, 51.47623], [5.47048, 51.47639], [5.47194, 51.47094]]]]}}, {"type": "Feature", "properties": {"statcode": "BU07725140", "statnaam": "'t Hool"}, "geometry": {"type": "MultiPolygon", "coordinates": [[[[5.47974, 51.47615], [5.4791, 51.47047], [5.47194, 51.47094], [5.47048, 51.47639], [5.47974, 51.47615]]]]}}, {"type": "Feature", "properties": {"statcode": "BU07725150", "statnaam": "Winkelcentrum"}, "geometry": {"type": "MultiPolygon", "coordinates": [[[[5.4791, 51.47047], [5.47864, 51.46756], [5.47475, 51.46748], [5.4728, 51.46744], [5.47194, 51.47094], [5.4791, 51.47047]]]]}}, {"type": "Feature", "properties": {"statcode": "BU07725160", "statnaam": "Vlokhoven"}, "geometry": {"type": "MultiPolygon", "coordinates": [[[[5.48833, 51.47587], [5.4869, 51.46771], [5.47864, 51.46756], [5.4791, 51.47047], [5.47974, 51.47615], [5.48833, 51.47587]]]]}}, {"type": "Feature", "properties": {"statcode": "BU07725200", "statnaam": "Kapelbeemd"}, "geometry": {"type": "MultiPolygon", "coordinates": [[[[5.43113, 51.48545], [5.42503, 51.4819], [5.42522, 51.4809], [5.42059, 51.47772], [5.41236, 51.48404], [5.41171, 51.48465], [5.41191, 51.48468], [5.41799, 51.48624], [5.42715, 51.48961], [5.43113, 51.48545]]]]}}, {"type": "Feature", "properties": {"statcode": "BU07725210", "statnaam": "Kerkdorp Acht"}, "geometry": {"type": "MultiPolygon", "coordinates": [[[[5.43694, 51.47959], [5.44239, 51.474], [5.43781, 51.47223], [5.43227, 51.46891], [5.42059, 51.47772], [5.42522, 51.4809], [5.42503, 51.4819], [5.43113, 51.48545], [5.43694, 51.47959]]]]}}, {"type": "Feature", "properties": {"statcode": "BU07725220", "statnaam": "Achtse Barrier-Gunterslaer"}, "geometry": {"type": "MultiPolygon", "coordinates": [[[[5.4538, 51.48464], [5.45457, 51.48258], [5.45626, 51.47903], [5.44239, 51.474], [5.43694, 51.47959], [5.44156, 51.48171], [5.44725, 51.48206], [5.44488, 51.48575], [5.45287, 51.48707], [5.4538, 51.48464]]]]}}, {"type": "Feature", "properties": {"statcode": "BU07725230", "statnaam": "Achtse Barrier-Spaaihoef"}, "geometry": {"type": "MultiPolygon", "coordinates": [[[[5.44488, 51.48575], [5.44725, 51.48206], [5.44156, 51.48171], [5.43694, 51.47959], [5.43113, 51.48545], [5.42715, 51.48961], [5.44217, 51.49384], [5.44205, 51.49242], [5.43889, 51.492], [5.4372, 51.49085], [5.44051, 51.48767], [5.444, 51.48714], [5.44488, 51.48575]]]]}}, {"type": "Feature", "properties": {"statcode": "BU07725240", "statnaam": "Achtse Barrier-Hoeven"}, "geometry": {"type": "MultiPolygon", "coordinates": [[[[5.45287, 51.48707], [5.44488, 51.48575], [5.444, 51.48714], [5.44051, 51.48767], [5.4372, 51.49085], [5.43889, 51.492], [5.44205, 51.49242], [5.44217, 51.49384], [5.44257, 51.49393], [5.44978, 51.49525], [5.4513, 51.49546], [5.45287, 51.48707]]]]}}, {"type": "Feature", "properties": {"statcode": "BU07725310", "statnaam": "Woenselse Heide"}, "geometry": {"type": "MultiPolygon", "coordinates": [[[[5.47048, 51.47639], [5.46377, 51.47623], [5.46027, 51.47494], [5.45626, 51.47903], [5.45457, 51.48258], [5.46177, 51.48378], [5.46956, 51.48407], [5.46972, 51.48407], [5.47048, 51.47639]]]]}}, {"type": "Feature", "properties": {"statcode": "BU07725320", "statnaam": "Tempel"}, "geometry": {"type": "MultiPolygon", "coordinates": [[[[5.48949, 51.48252], [5.48833, 51.47587], [5.47974, 51.47615], [5.47048, 51.47639], [5.46972, 51.48407], [5.48252, 51.48409], [5.48916, 51.4853], [5.48949, 51.48252]]]]}}, {"type": "Feature", "properties": {"statcode": "BU07725330", "statnaam": "Blixembosch-West"}, "geometry": {"type": "MultiPolygon", "coordinates": [[[[5.46956, 51.48407], [5.46177, 51.48378], [5.45457, 51.48258], [5.4538, 51.48464], [5.45648, 51.48893], [5.46216, 51.49098], [5.46602, 51.49373], [5.46819, 51.49121], [5.46956, 51.48407]]]]}}, {"type": "Feature", "properties": {"statcode": "BU07725340", "statnaam": "Blixembosch-Oost"}, "geometry": {"type": "MultiPolygon", "coordinates": [[[[5.47914, 51.49661], [5.48648, 51.48979], [5.48916, 51.4853], [5.48252, 51.48409], [5.46972, 51.48407], [5.46956, 51.48407], [5.46819, 51.49121], [5.46602, 51.49373], [5.46874, 51.49579], [5.47213, 51.49574], [5.47645, 51.49707], [5.47914, 51.49661]]]]}}, {"type": "Feature", "properties": {"statcode": "BU07725350", "statnaam": "Castiliëlaan"}, "geometry": {"type": "MultiPolygon", "coordinates": [[[[5.46874, 51.49579], [5.46602, 51.49373], [5.46216, 51.49098], [5.45648, 51.48893], [5.4538, 51.48464], [5.45287, 51.48707], [5.4513, 51.49546], [5.46389, 51.49698], [5.46825, 51.49684], [5.46874, 51.49579]]]]}}, {"type": "Feature", "properties": {"statcode": "BU07725410", "statnaam": "Eckart"}, "geometry": {"type": "MultiPolygon", "coordinates": [[[[5.50337, 51.47469], [5.49364, 51.46728], [5.4869, 51.46771], [5.48833, 51.47587], [5.50337, 51.47469]]]]}}, {"type": "Feature", "properties": {"statcode": "BU07725420", "statnaam": "Luytelaer"}, "geometry": {"type": "MultiPolygon", "coordinates": [[[[5.50809, 51.47446], [5.5081, 51.47117], [5.51011, 51.46987], [5.50904, 51.46943], [5.51158, 51.4675], [5.5045, 51.46765], [5.49364, 51.46728], [5.50337, 51.47469], [5.50835, 51.47555], [5.50809, 51.47446]]]]}}, {"type": "Feature", "properties": {"statcode": "BU07725430", "statnaam": "Vaartbroek"}, "geometry": {"type": "MultiPolygon", "coordinates": [[[[5.50602, 51.4823], [5.50956, 51.47924], [5.50794, 51.47857], [5.50875, 51.47706], [5.50835, 51.47555], [5.50337, 51.47469], [5.48833, 51.47587], [5.48949, 51.48252], [5.5021, 51.48179], [5.50602, 51.4823]]]]}}, {"type": "Feature", "properties": {"statcode": "BU07725440", "statnaam": "Heesterakker"}, "geometry": {"type": "MultiPolygon", "coordinates": [[[[5.50815, 51.48542], [5.5066, 51.48376], [5.50552, 51.48356], [5.50602, 51.4823], [5.5021, 51.48179], [5.48949, 51.48252], [5.48916, 51.4853], [5.49533, 51.48671], [5.50815, 51.48542]]]]}}, {"type": "Feature", "properties": {"statcode": "BU07725450", "statnaam": "Esp"}, "geometry": {"type": "MultiPolygon", "coordinates": [[[[5.49533, 51.48671], [5.48916, 51.4853], [5.48648, 51.48979], [5.47914, 51.49661], [5.49621, 51.49678], [5.49638, 51.49678], [5.49533, 51.48671]]]]}}, {"type": "Feature", "properties": {"statcode": "BU07725460", "statnaam": "Bokt"}, "geometry": {"type": "MultiPolygon", "coordinates": [[[[5.51057, 51.48735], [5.50841, 51.48768], [5.50815, 51.48542], [5.49533, 51.48671], [5.49638, 51.49678], [5.51142, 51.49692], [5.51332, 51.49625], [5.51339, 51.49548], [5.51555, 51.49334], [5.51249, 51.49103], [5.51246, 51.48956], [5.51057, 51.48735]]]]}}, {"type": "Feature", "properties": {"statcode": "BU07726110", "statnaam": "Eliasterrein, Vonderkwartier"}, "geometry": {"type": "MultiPolygon", "coordinates": [[[[5.47156, 51.43538], [5.46674, 51.43338], [5.46412, 51.43521], [5.45854, 51.43853], [5.45891, 51.43869], [5.46903, 51.43869], [5.47156, 51.43538]]]]}}, {"type": "Feature", "properties": {"statcode": "BU07726120", "statnaam": "Philipsdorp"}, "geometry": {"type": "MultiPolygon", "coordinates": [[[[5.47038, 51.44222], [5.46903, 51.43869], [5.45891, 51.43869], [5.45502, 51.44145], [5.46117, 51.44288], [5.4611, 51.44358], [5.46349, 51.44534], [5.46657, 51.44332], [5.47038, 51.44222]]]]}}, {"type": "Feature", "properties": {"statcode": "BU07726130", "statnaam": "Engelsbergen"}, "geometry": {"type": "MultiPolygon", "coordinates": [[[[5.46412, 51.43521], [5.45441, 51.4318], [5.4519, 51.43597], [5.45854, 51.43853], [5.46412, 51.43521]]]]}}, {"type": "Feature", "properties": {"statcode": "BU07726140", "statnaam": "Schouwbroek"}, "geometry": {"type": "MultiPolygon", "coordinates": [[[[5.45891, 51.43869], [5.45854, 51.43853], [5.4519, 51.43597], [5.45007, 51.43968], [5.45502, 51.44145], [5.45891, 51.43869]]]]}}, {"type": "Feature", "properties": {"statcode": "BU07726150", "statnaam": "Schoot"}, "geometry": {"type": "MultiPolygon", "coordinates": [[[[5.4611, 51.44358], [5.46117, 51.44288], [5.45502, 51.44145], [5.45007, 51.43968], [5.44861, 51.4449], [5.44891, 51.44681], [5.45177, 51.44795], [5.45354, 51.44587], [5.4611, 51.44358]]]]}}, {"type": "Feature", "properties": {"statcode": "BU07726160", "statnaam": "Strijp S"}, "geometry": {"type": "MultiPolygon", "coordinates": [[[[5.46349, 51.44534], [5.4611, 51.44358], [5.45354, 51.44587], [5.45177, 51.44795], [5.45751, 51.44984], [5.46349, 51.44534]]]]}}, {"type": "Feature", "properties": {"statcode": "BU07726210", "statnaam": "Hurk"}, "geometry": {"type": "MultiPolygon", "coordinates": [[[[5.43191, 51.43753], [5.44718, 51.43523], [5.4519, 51.43597], [5.45441, 51.4318], [5.44971, 51.42991], [5.43919, 51.42576], [5.42791, 51.42217], [5.42633, 51.43041], [5.42716, 51.43089], [5.42592, 51.43664], [5.43158, 51.43871], [5.43191, 51.43753]]]]}}, {"type": "Feature", "properties": {"statcode": "BU07726220", "statnaam": "Het Ven"}, "geometry": {"type": "MultiPolygon", "coordinates": [[[[5.45007, 51.43968], [5.4519, 51.43597], [5.44718, 51.43523], [5.43191, 51.43753], [5.43158, 51.43871], [5.44313, 51.44353], [5.44861, 51.4449], [5.45007, 51.43968]]]]}}, {"type": "Feature", "properties": {"statcode": "BU07726230", "statnaam": "Lievendaal"}, "geometry": {"type": "MultiPolygon", "coordinates": [[[[5.43542, 51.44714], [5.44313, 51.44353], [5.43158, 51.43871], [5.42592, 51.43664], [5.4264, 51.44002], [5.42717, 51.44798], [5.42571, 51.44954], [5.42238, 51.45127], [5.43542, 51.44714]]]]}}, {"type": "Feature", "properties": {"statcode": "BU07726240", "statnaam": "Drents Dorp"}, "geometry": {"type": "MultiPolygon", "coordinates": [[[[5.45177, 51.44795], [5.44891, 51.44681], [5.44861, 51.4449], [5.44313, 51.44353], [5.43542, 51.44714], [5.44177, 51.4505], [5.44449, 51.44793], [5.44997, 51.44979], [5.45177, 51.44795]]]]}}, {"type": "Feature", "properties": {"statcode": "BU07726250", "statnaam": "Zwaanstraat"}, "geometry": {"type": "MultiPolygon", "coordinates": [[[[5.45751, 51.44984], [5.45177, 51.44795], [5.44997, 51.44979], [5.44449, 51.44793], [5.44177, 51.4505], [5.44583, 51.45399], [5.44876, 51.45636], [5.45751, 51.44984]]]]}}, {"type": "Feature", "properties": {"statcode": "BU07726260", "statnaam": "Wielewaal"}, "geometry": {"type": "MultiPolygon", "coordinates": [[[[5.44583, 51.45399], [5.44177, 51.4505], [5.43542, 51.44714], [5.42238, 51.45127], [5.41312, 51.45605], [5.40882, 51.45983], [5.40906, 51.45993], [5.41788, 51.46396], [5.44583, 51.45399]]]]}}, {"type": "Feature", "properties": {"statcode": "BU07726270", "statnaam": "Herdgang"}, "geometry": {"type": "MultiPolygon", "coordinates": [[[[5.44876, 51.45636], [5.44583, 51.45399], [5.41788, 51.46396], [5.4247, 51.46655], [5.4292, 51.46728], [5.43227, 51.46891], [5.44876, 51.45636]]]]}}, {"type": "Feature", "properties": {"statcode": "BU07726280", "statnaam": "Mispelhoef"}, "geometry": {"type": "MultiPolygon", "coordinates": [[[[5.42059, 51.47772], [5.43227, 51.46891], [5.4292, 51.46728], [5.4247, 51.46655], [5.41788, 51.46396], [5.40906, 51.45993], [5.40659, 51.46402], [5.40362, 51.47836], [5.40567, 51.48207], [5.40828, 51.48327], [5.41236, 51.48404], [5.42059, 51.47772]]]]}}, {"type": "Feature", "properties": {"statcode": "BU07726310", "statnaam": "BeA2"}, "geometry": {"type": "MultiPolygon", "coordinates": [[[[5.39102, 51.48555], [5.39605, 51.4844], [5.40129, 51.48383], [5.40714, 51.48407], [5.41171, 51.48465], [5.41236, 51.48404], [5.40828, 51.48327], [5.40567, 51.48207], [5.40362, 51.47836], [5.40659, 51.46402], [5.40906, 51.45993], [5.40882, 51.45983], [5.40247, 51.45728], [5.3978, 51.46067], [5.39393, 51.46433], [5.39256, 51.46714], [5.39207, 51.471], [5.39082, 51.47133], [5.39119, 51.47176], [5.39052, 51.48515], [5.39104, 51.48504], [5.39102, 51.48555]]]]}}, {"type": "Feature", "properties": {"statcode": "BU07726320", "statnaam": "Meerbos"}, "geometry": {"type": "MultiPolygon", "coordinates": [[[[5.42238, 51.45127], [5.42571, 51.44954], [5.42717, 51.44798], [5.4264, 51.44002], [5.42425, 51.44158], [5.41408, 51.44891], [5.41091, 51.45119], [5.40247, 51.45728], [5.40882, 51.45983], [5.41312, 51.45605], [5.42238, 51.45127]]]]}}, {"type": "Feature", "properties": {"statcode": "BU07726330", "statnaam": "Grasrijk"}, "geometry": {"type": "MultiPolygon", "coordinates": [[[[5.41794, 51.4428], [5.42205, 51.44137], [5.42425, 51.44158], [5.4264, 51.44002], [5.42592, 51.43664], [5.42716, 51.43089], [5.42633, 51.43041], [5.42428, 51.43153], [5.41994, 51.43285], [5.41717, 51.43149], [5.41674, 51.43172], [5.41463, 51.43017], [5.41207, 51.43134], [5.4107, 51.43506], [5.40751, 51.43903], [5.41324, 51.44176], [5.41794, 51.4428]]]]}}, {"type": "Feature", "properties": {"statcode": "BU07726340", "statnaam": "Zandrijk"}, "geometry": {"type": "MultiPolygon", "coordinates": [[[[5.41408, 51.44891], [5.41109, 51.44401], [5.40901, 51.44553], [5.40712, 51.44452], [5.39997, 51.44497], [5.41091, 51.45119], [5.41408, 51.44891]]]]}}, {"type": "Feature", "properties": {"statcode": "BU07726350", "statnaam": "Waterrijk"}, "geometry": {"type": "MultiPolygon", "coordinates": [[[[5.40492, 51.43713], [5.40079, 51.43297], [5.39765, 51.43364], [5.39634, 51.43392], [5.3938, 51.43458], [5.39114, 51.43652], [5.39479, 51.44103], [5.39641, 51.44181], [5.40111, 51.44072], [5.40539, 51.43764], [5.40492, 51.43713]]]]}}, {"type": "Feature", "properties": {"statcode": "BU07726360", "statnaam": "Park Forum"}, "geometry": {"type": "MultiPolygon", "coordinates": [[[[5.39791, 51.4449], [5.39641, 51.44181], [5.39479, 51.44103], [5.39114, 51.43652], [5.38922, 51.43764], [5.38737, 51.4378], [5.37969, 51.43509], [5.37913, 51.43661], [5.37748, 51.44185], [5.39528, 51.44679], [5.39791, 51.4449]]]]}}, {"type": "Feature", "properties": {"statcode": "BU07726370", "statnaam": "Flight Forum"}, "geometry": {"type": "MultiPolygon", "coordinates": [[[[5.40247, 51.45728], [5.41091, 51.45119], [5.39997, 51.44497], [5.39791, 51.4449], [5.39528, 51.44679], [5.39778, 51.44749], [5.39635, 51.44958], [5.38745, 51.45333], [5.39345, 51.45914], [5.3978, 51.46067], [5.40247, 51.45728]]]]}}, {"type": "Feature", "properties": {"statcode": "BU07726380", "statnaam": "Eindhoven Airport"}, "geometry": {"type": "MultiPolygon", "coordinates": [[[[5.39393, 51.46433], [5.3978, 51.46067], [5.39345, 51.45914], [5.38745, 51.45333], [5.39635, 51.44958], [5.39778, 51.44749], [5.39528, 51.44679], [5.37748, 51.44185], [5.37913, 51.43661], [5.3732, 51.43761], [5.37125, 51.43891], [5.3678, 51.43837], [5.36682, 51.43745], [5.3669, 51.43621], [5.36223, 51.43546], [5.36225, 51.43606], [5.35692, 51.4382], [5.35774, 51.44023], [5.36083, 51.44312], [5.36123, 51.4471], [5.36064, 51.44985], [5.35672, 51.4536], [5.36149, 51.45736], [5.36351, 51.46026], [5.36717, 51.45943], [5.36945, 51.46532], [5.37915, 51.46384], [5.38468, 51.46766], [5.38754, 51.46821], [5.38711, 51.46927], [5.38957, 51.4706], [5.39068, 51.47064], [5.39082, 51.47133], [5.39207, 51.471], [5.39256, 51.46714], [5.39393, 51.46433]]]]}}, {"type": "Feature", "properties": {"statcode": "BU07726390", "statnaam": "Bosrijk"}, "geometry": {"type": "MultiPolygon", "coordinates": [[[[5.42425, 51.44158], [5.42205, 51.44137], [5.41794, 51.4428], [5.41324, 51.44176], [5.41109, 51.44401], [5.41408, 51.44891], [5.42425, 51.44158]]]]}}, {"type": "Feature", "properties": {"statcode": "BU07726399", "statnaam": "Meerrijk"}, "geometry": {"type": "MultiPolygon", "coordinates": [[[[5.40901, 51.44553], [5.41109, 51.44401], [5.41324, 51.44176], [5.40751, 51.43903], [5.4107, 51.43506], [5.409, 51.43446], [5.40744, 51.43601], [5.40492, 51.43713], [5.40539, 51.43764], [5.40111, 51.44072], [5.39641, 51.44181], [5.39791, 51.4449], [5.39997, 51.44497], [5.40712, 51.44452], [5.40901, 51.44553]]]]}}, {"type": "Feature", "properties": {"statcode": "BU07727110", "statnaam": "Schrijversbuurt"}, "geometry": {"type": "MultiPolygon", "coordinates": [[[[5.47858, 51.42928], [5.47549, 51.42692], [5.47552, 51.42584], [5.47719, 51.42463], [5.47233, 51.42526], [5.46411, 51.42749], [5.47254, 51.43476], [5.47812, 51.43093], [5.47858, 51.42928]]]]}}, {"type": "Feature", "properties": {"statcode": "BU07727120", "statnaam": "Oude Spoorbaan"}, "geometry": {"type": "MultiPolygon", "coordinates": [[[[5.47254, 51.43476], [5.46411, 51.42749], [5.46056, 51.42864], [5.46674, 51.43338], [5.47156, 51.43538], [5.47254, 51.43476]]]]}}, {"type": "Feature", "properties": {"statcode": "BU07727130", "statnaam": "Hagenkamp"}, "geometry": {"type": "MultiPolygon", "coordinates": [[[[5.46674, 51.43338], [5.46056, 51.42864], [5.45441, 51.4318], [5.46412, 51.43521], [5.46674, 51.43338]]]]}}, {"type": "Feature", "properties": {"statcode": "BU07727210", "statnaam": "Genderdal"}, "geometry": {"type": "MultiPolygon", "coordinates": [[[[5.46056, 51.42864], [5.44782, 51.42054], [5.44546, 51.42004], [5.44553, 51.42176], [5.45018, 51.42913], [5.44971, 51.42991], [5.45441, 51.4318], [5.46056, 51.42864]]]]}}, {"type": "Feature", "properties": {"statcode": "BU07727220", "statnaam": "Blaarthem"}, "geometry": {"type": "MultiPolygon", "coordinates": [[[[5.46411, 51.42749], [5.46134, 51.42372], [5.45646, 51.42191], [5.44782, 51.42054], [5.46056, 51.42864], [5.46411, 51.42749]]]]}}, {"type": "Feature", "properties": {"statcode": "BU07727230", "statnaam": "Rapelenburg"}, "geometry": {"type": "MultiPolygon", "coordinates": [[[[5.47233, 51.42526], [5.47008, 51.42298], [5.46521, 51.42274], [5.46134, 51.42372], [5.46411, 51.42749], [5.47233, 51.42526]]]]}}, {"type": "Feature", "properties": {"statcode": "BU07727240", "statnaam": "Bennekel-Oost"}, "geometry": {"type": "MultiPolygon", "coordinates": [[[[5.47008, 51.42298], [5.46898, 51.42203], [5.46957, 51.41977], [5.46841, 51.41818], [5.46675, 51.41629], [5.46461, 51.41596], [5.4588, 51.4153], [5.45906, 51.41842], [5.45646, 51.42191], [5.46134, 51.42372], [5.46521, 51.42274], [5.47008, 51.42298]]]]}}, {"type": "Feature", "properties": {"statcode": "BU07727250", "statnaam": "Bennekel-West, Gagelbosch"}, "geometry": {"type": "MultiPolygon", "coordinates": [[[[5.4588, 51.4153], [5.45364, 51.41503], [5.44806, 51.41315], [5.44546, 51.42004], [5.44782, 51.42054], [5.45646, 51.42191], [5.45906, 51.41842], [5.4588, 51.4153]]]]}}, {"type": "Feature", "properties": {"statcode": "BU07727260", "statnaam": "Gennep"}, "geometry": {"type": "MultiPolygon", "coordinates": [[[[5.47719, 51.42463], [5.47798, 51.42222], [5.48022, 51.42198], [5.48108, 51.42062], [5.48081, 51.41884], [5.4776, 51.41798], [5.47721, 51.41725], [5.47474, 51.4151], [5.47572, 51.4102], [5.4752, 51.40879], [5.4771, 51.40488], [5.46932, 51.40535], [5.46198, 51.40495], [5.46461, 51.41596], [5.46675, 51.41629], [5.46841, 51.41818], [5.46957, 51.41977], [5.46898, 51.42203], [5.47008, 51.42298], [5.47233, 51.42526], [5.47719, 51.42463]]]]}}, {"type": "Feature", "properties": {"statcode": "BU07727270", "statnaam": "Beemden"}, "geometry": {"type": "MultiPolygon", "coordinates": [[[[5.46198, 51.40495], [5.4618, 51.40496], [5.45351, 51.40529], [5.43619, 51.40498], [5.43575, 51.40419], [5.43559, 51.40737], [5.43661, 51.41019], [5.43753, 51.41028], [5.44107, 51.41008], [5.44463, 51.41243], [5.44806, 51.41315], [5.45364, 51.41503], [5.4588, 51.4153], [5.46461, 51.41596], [5.46198, 51.40495]]]]}}, {"type": "Feature", "properties": {"statcode": "BU07727310", "statnaam": "Genderbeemd"}, "geometry": {"type": "MultiPolygon", "coordinates": [[[[5.44546, 51.42004], [5.43726, 51.41932], [5.43311, 51.41752], [5.43077, 51.41718], [5.42737, 51.41701], [5.42781, 51.42186], [5.42791, 51.42217], [5.43919, 51.42576], [5.44971, 51.42991], [5.45018, 51.42913], [5.44553, 51.42176], [5.44546, 51.42004]]]]}}, {"type": "Feature", "properties": {"statcode": "BU07727320", "statnaam": "Hanevoet"}, "geometry": {"type": "MultiPolygon", "coordinates": [[[[5.44806, 51.41315], [5.44463, 51.41243], [5.44107, 51.41008], [5.43753, 51.41028], [5.43556, 51.41279], [5.43642, 51.41361], [5.4352, 51.41756], [5.43077, 51.41718], [5.43311, 51.41752], [5.43726, 51.41932], [5.44546, 51.42004], [5.44806, 51.41315]]]]}}, {"type": "Feature", "properties": {"statcode": "BU07727330", "statnaam": "Ooievaarsnest"}, "geometry": {"type": "MultiPolygon", "coordinates": [[[[5.43753, 51.41028], [5.43661, 51.41019], [5.43559, 51.40737], [5.43575, 51.40419], [5.43535, 51.40336], [5.43119, 51.40206], [5.43096, 51.40264], [5.4299, 51.40281], [5.42728, 51.40265], [5.42538, 51.40442], [5.42865, 51.40521], [5.42985, 51.40618], [5.42942, 51.41156], [5.42737, 51.41701], [5.43077, 51.41718], [5.4352, 51.41756], [5.43642, 51.41361], [5.43556, 51.41279], [5.43753, 51.41028]]]]}}]}