{"type": "FeatureCollection", "features": [{"type": "Feature", "properties": {"statcode": "WK079601", "statnaam": "Binnenstad"}, "geometry": {"type": "MultiPolygon", "coordinates": [[[[5.30467, 51.69449], [5.31286, 51.69092], [5.31554, 51.69223], [5.31805, 51.69048], [5.31683, 51.68831], [5.31607, 51.68707], [5.31412, 51.68554], [5.30905, 51.68518], [5.3046, 51.6841], [5.30048, 51.68492], [5.29663, 51.6836], [5.29651, 51.68264], [5.29493, 51.68232], [5.29462, 51.67654], [5.29578, 51.67295], [5.29425, 51.6722], [5.29232, 51.67167], [5.29113, 51.67195], [5.29192, 51.67446], [5.29082, 51.68224], [5.29073, 51.68282], [5.29385, 51.69128], [5.29698, 51.69801], [5.29731, 51.69858], [5.30156, 51.69597], [5.30299, 51.69597], [5.30467, 51.69449]]]]}}, {"type": "Feature", "properties": {"statcode": "WK079602", "statnaam": "Zuidoost"}, "geometry": {"type": "MultiPolygon", "coordinates": [[[[5.35927, 51.69868], [5.36563, 51.68886], [5.36986, 51.68434], [5.37331, 51.68134], [5.37711, 51.6788], [5.37659, 51.67852], [5.37247, 51.68011], [5.36781, 51.68079], [5.36701, 51.68084], [5.36647, 51.68069], [5.35735, 51.682], [5.35702, 51.68107], [5.35576, 51.68129], [5.35331, 51.68145], [5.35218, 51.68108], [5.35094, 51.67714], [5.35596, 51.674], [5.35388, 51.67314], [5.35461, 51.67251], [5.35293, 51.67181], [5.35369, 51.67107], [5.34396, 51.66745], [5.34148, 51.66619], [5.34201, 51.6653], [5.33888, 51.664], [5.32747, 51.67337], [5.31906, 51.67037], [5.31876, 51.67087], [5.30856, 51.66906], [5.30322, 51.6672], [5.30078, 51.66822], [5.29881, 51.6673], [5.29425, 51.6722], [5.29578, 51.67295], [5.29462, 51.67654], [5.29493, 51.68232], [5.29651, 51.68264], [5.29663, 51.6836], [5.30048, 51.68492], [5.3046, 51.6841], [5.30905, 51.68518], [5.31412, 51.68554], [5.31607, 51.68707], [5.31683, 51.68831], [5.31805, 51.69048], [5.31892, 51.69014], [5.3244, 51.69172], [5.32962, 51.69279], [5.34067, 51.69368], [5.35093, 51.69349], [5.35183, 51.69879], [5.35927, 51.69868]]]]}}, {"type": "Feature", "properties": {"statcode": "WK079603", "statnaam": "Graafsepoort"}, "geometry": {"type": "MultiPolygon", "coordinates": [[[[5.35183, 51.69879], [5.35093, 51.69349], [5.34067, 51.69368], [5.32962, 51.69279], [5.3244, 51.69172], [5.31892, 51.69014], [5.31805, 51.69048], [5.31554, 51.69223], [5.31542, 51.69271], [5.32142, 51.69426], [5.31957, 51.7006], [5.3358, 51.70499], [5.34638, 51.70818], [5.35091, 51.70182], [5.35183, 51.69879]]]]}}, {"type": "Feature", "properties": {"statcode": "WK079604", "statnaam": "Muntel / Vliert"}, "geometry": {"type": "MultiPolygon", "coordinates": [[[[5.31554, 51.69223], [5.31286, 51.69092], [5.30467, 51.69449], [5.30299, 51.69597], [5.30156, 51.69597], [5.29731, 51.69858], [5.29871, 51.70027], [5.30403, 51.70196], [5.31064, 51.7012], [5.31957, 51.7006], [5.32142, 51.69426], [5.31542, 51.69271], [5.31554, 51.69223]]]]}}, {"type": "Feature", "properties": {"statcode": "WK079605", "statnaam": "Rosmalen-Zuid"}, "geometry": {"type": "MultiPolygon", "coordinates": [[[[5.41026, 51.72085], [5.41514, 51.71476], [5.42108, 51.71585], [5.4247, 51.71128], [5.42184, 51.70875], [5.41768, 51.70776], [5.42026, 51.70405], [5.4238, 51.70433], [5.42786, 51.70324], [5.42981, 51.70148], [5.40607, 51.69908], [5.39771, 51.69849], [5.38571, 51.70098], [5.37568, 51.70028], [5.37312, 51.69974], [5.37154, 51.69797], [5.368, 51.69709], [5.36622, 51.69697], [5.36246, 51.6985], [5.36071, 51.69877], [5.35927, 51.69868], [5.35183, 51.69879], [5.35091, 51.70182], [5.34638, 51.70818], [5.35316, 51.71021], [5.3596, 51.71215], [5.37004, 51.71529], [5.37844, 51.71782], [5.38522, 51.71986], [5.39721, 51.72346], [5.40226, 51.72498], [5.40533, 51.72591], [5.40852, 51.72687], [5.41026, 51.72085]]]]}}, {"type": "Feature", "properties": {"statcode": "WK079606", "statnaam": "Rosmalen-Noord"}, "geometry": {"type": "MultiPolygon", "coordinates": [[[[5.41655, 51.75125], [5.42465, 51.74188], [5.4173, 51.73999], [5.4056, 51.73836], [5.41081, 51.72765], [5.40852, 51.72687], [5.40533, 51.72591], [5.40226, 51.72498], [5.39721, 51.72346], [5.38522, 51.71986], [5.37844, 51.71782], [5.37004, 51.71529], [5.3596, 51.71215], [5.35316, 51.71021], [5.34638, 51.70818], [5.33762, 51.71642], [5.34594, 51.71938], [5.34838, 51.72026], [5.35084, 51.72314], [5.35376, 51.7237], [5.3579, 51.72462], [5.36158, 51.72368], [5.36144, 51.72649], [5.36987, 51.73061], [5.37187, 51.73302], [5.37872, 51.73493], [5.37468, 51.74106], [5.36922, 51.74726], [5.36304, 51.74613], [5.36133, 51.7465], [5.36359, 51.74881], [5.364, 51.75151], [5.37429, 51.75332], [5.39081, 51.75998], [5.41182, 51.76217], [5.41297, 51.75742], [5.41655, 51.75125]]]]}}, {"type": "Feature", "properties": {"statcode": "WK079607", "statnaam": "De Groote Wielen"}, "geometry": {"type": "MultiPolygon", "coordinates": [[[[5.36922, 51.74726], [5.37468, 51.74106], [5.37872, 51.73493], [5.37187, 51.73302], [5.36987, 51.73061], [5.36144, 51.72649], [5.36158, 51.72368], [5.3579, 51.72462], [5.35376, 51.7237], [5.35084, 51.72314], [5.34838, 51.72026], [5.34594, 51.71938], [5.33762, 51.71642], [5.3318, 51.72018], [5.33466, 51.72697], [5.33885, 51.73155], [5.3359, 51.73641], [5.34489, 51.73923], [5.35092, 51.74177], [5.35587, 51.74397], [5.35983, 51.74574], [5.36133, 51.7465], [5.36304, 51.74613], [5.36922, 51.74726]]]]}}, {"type": "Feature", "properties": {"statcode": "WK079608", "statnaam": "Empel"}, "geometry": {"type": "MultiPolygon", "coordinates": [[[[5.35351, 51.75548], [5.3559, 51.75143], [5.364, 51.75151], [5.36359, 51.74881], [5.36133, 51.7465], [5.35983, 51.74574], [5.35587, 51.74397], [5.35092, 51.74177], [5.34489, 51.73923], [5.3359, 51.73641], [5.33885, 51.73155], [5.33466, 51.72697], [5.3318, 51.72018], [5.32525, 51.72357], [5.32027, 51.72649], [5.31748, 51.72828], [5.31181, 51.73235], [5.30759, 51.73583], [5.30436, 51.73878], [5.32204, 51.74652], [5.35351, 51.75548]]]]}}, {"type": "Feature", "properties": {"statcode": "WK079609", "statnaam": "Noord"}, "geometry": {"type": "MultiPolygon", "coordinates": [[[[5.3358, 51.70499], [5.31957, 51.7006], [5.31064, 51.7012], [5.30403, 51.70196], [5.29871, 51.70027], [5.29842, 51.70596], [5.29426, 51.71198], [5.29111, 51.71343], [5.28829, 51.71676], [5.2961, 51.71784], [5.30168, 51.7186], [5.30821, 51.71953], [5.31498, 51.72066], [5.32525, 51.72357], [5.3318, 51.72018], [5.33762, 51.71642], [5.34638, 51.70818], [5.3358, 51.70499]]]]}}, {"type": "Feature", "properties": {"statcode": "WK079610", "statnaam": "Maaspoort"}, "geometry": {"type": "MultiPolygon", "coordinates": [[[[5.29165, 51.73726], [5.296, 51.73672], [5.30034, 51.73729], [5.30436, 51.73878], [5.30759, 51.73583], [5.31181, 51.73235], [5.31748, 51.72828], [5.32027, 51.72649], [5.32525, 51.72357], [5.31498, 51.72066], [5.30821, 51.71953], [5.30168, 51.7186], [5.2961, 51.71784], [5.28829, 51.71676], [5.27607, 51.73201], [5.26986, 51.73647], [5.26854, 51.73965], [5.27572, 51.74017], [5.28328, 51.73978], [5.29165, 51.73726]]]]}}, {"type": "Feature", "properties": {"statcode": "WK079611", "statnaam": "West"}, "geometry": {"type": "MultiPolygon", "coordinates": [[[[5.29385, 51.69128], [5.29073, 51.68282], [5.29082, 51.68224], [5.29192, 51.67446], [5.29149, 51.67481], [5.28907, 51.68053], [5.28859, 51.68186], [5.2873, 51.68226], [5.2743, 51.68367], [5.26563, 51.68472], [5.26062, 51.68402], [5.25725, 51.68404], [5.25381, 51.6844], [5.24745, 51.68339], [5.23839, 51.68453], [5.23427, 51.6855], [5.2319, 51.68926], [5.22616, 51.69003], [5.22682, 51.69085], [5.22874, 51.69135], [5.24838, 51.695], [5.24848, 51.6951], [5.24892, 51.69713], [5.25157, 51.69937], [5.25133, 51.69978], [5.2588, 51.70601], [5.26267, 51.70875], [5.27221, 51.71353], [5.27616, 51.71464], [5.28829, 51.71676], [5.29111, 51.71343], [5.29426, 51.71198], [5.29842, 51.70596], [5.29871, 51.70027], [5.29731, 51.69858], [5.29698, 51.69801], [5.29385, 51.69128]]]]}}, {"type": "Feature", "properties": {"statcode": "WK079612", "statnaam": "Engelen"}, "geometry": {"type": "MultiPolygon", "coordinates": [[[[5.24468, 51.73442], [5.24968, 51.73358], [5.25547, 51.7349], [5.26414, 51.73883], [5.26854, 51.73965], [5.26986, 51.73647], [5.27607, 51.73201], [5.28829, 51.71676], [5.27616, 51.71464], [5.27221, 51.71353], [5.26267, 51.70875], [5.2588, 51.70601], [5.25133, 51.69978], [5.24893, 51.70124], [5.24817, 51.7011], [5.24701, 51.70274], [5.24112, 51.70103], [5.23899, 51.70204], [5.23727, 51.70476], [5.23576, 51.70465], [5.23621, 51.70617], [5.2412, 51.71399], [5.22998, 51.71057], [5.22931, 51.71229], [5.22854, 51.71477], [5.23106, 51.72402], [5.22752, 51.72715], [5.22488, 51.72666], [5.22174, 51.72939], [5.21935, 51.72815], [5.21516, 51.73133], [5.21002, 51.73395], [5.21053, 51.73439], [5.21007, 51.73541], [5.21044, 51.73548], [5.2095, 51.73737], [5.21037, 51.73771], [5.20649, 51.74148], [5.21185, 51.74274], [5.21635, 51.74345], [5.22214, 51.74339], [5.2311, 51.7413], [5.24468, 51.73442]]]]}}, {"type": "Feature", "properties": {"statcode": "WK079613", "statnaam": "Nuland"}, "geometry": {"type": "MultiPolygon", "coordinates": [[[[5.45193, 51.734], [5.45314, 51.73239], [5.45471, 51.73287], [5.45645, 51.73137], [5.4579, 51.72996], [5.46007, 51.73071], [5.46259, 51.7282], [5.46319, 51.72587], [5.44989, 51.72237], [5.44303, 51.71985], [5.43704, 51.7185], [5.43143, 51.71757], [5.42108, 51.71585], [5.41514, 51.71476], [5.41026, 51.72085], [5.40852, 51.72687], [5.41081, 51.72765], [5.4056, 51.73836], [5.4173, 51.73999], [5.42465, 51.74188], [5.41655, 51.75125], [5.41297, 51.75742], [5.41182, 51.76217], [5.42323, 51.76323], [5.43622, 51.76473], [5.43882, 51.76503], [5.44403, 51.75331], [5.44352, 51.75105], [5.44742, 51.74531], [5.45131, 51.7398], [5.4514, 51.73968], [5.45054, 51.73938], [5.45191, 51.7376], [5.45417, 51.73546], [5.45193, 51.734]]]]}}, {"type": "Feature", "properties": {"statcode": "WK079614", "statnaam": "Vinkel"}, "geometry": {"type": "MultiPolygon", "coordinates": [[[[5.49239, 51.7061], [5.48307, 51.70146], [5.47829, 51.70143], [5.47105, 51.69115], [5.4694, 51.69127], [5.46985, 51.68914], [5.46033, 51.68965], [5.45877, 51.69203], [5.45687, 51.68759], [5.45272, 51.68847], [5.45168, 51.68675], [5.44517, 51.68858], [5.4474, 51.69502], [5.446, 51.6953], [5.44135, 51.69466], [5.44335, 51.69762], [5.4396, 51.69865], [5.43933, 51.70043], [5.42981, 51.70148], [5.42786, 51.70324], [5.4238, 51.70433], [5.42026, 51.70405], [5.41768, 51.70776], [5.42184, 51.70875], [5.4247, 51.71128], [5.42108, 51.71585], [5.43143, 51.71757], [5.43704, 51.7185], [5.44303, 51.71985], [5.44989, 51.72237], [5.46319, 51.72587], [5.47424, 51.72896], [5.48014, 51.72446], [5.47883, 51.72416], [5.48478, 51.71331], [5.48777, 51.7129], [5.48782, 51.71207], [5.49771, 51.71171], [5.49732, 51.71077], [5.49892, 51.71057], [5.49823, 51.70918], [5.49966, 51.70901], [5.49907, 51.70708], [5.49239, 51.7061]]]]}}]}