{"type": "FeatureCollection", "features": [{"type": "Feature", "properties": {"statcode": "BU08551001", "statnaam": "Binnenstad West"}, "geometry": {"type": "MultiPolygon", "coordinates": [[[[5.08466, 51.55428], [5.08061, 51.555], [5.07828, 51.55527], [5.07813, 51.56008], [5.08403, 51.56015], [5.08364, 51.55681], [5.08466, 51.55428]]]]}}, {"type": "Feature", "properties": {"statcode": "BU08551002", "statnaam": "Binnenstad Oost"}, "geometry": {"type": "MultiPolygon", "coordinates": [[[[5.09129, 51.55956], [5.09106, 51.55721], [5.09049, 51.55514], [5.08584, 51.55421], [5.08466, 51.55428], [5.08364, 51.55681], [5.08403, 51.56015], [5.09129, 51.55956]]]]}}, {"type": "Feature", "properties": {"statcode": "BU08551003", "statnaam": "Koningsplein"}, "geometry": {"type": "MultiPolygon", "coordinates": [[[[5.08997, 51.55333], [5.08922, 51.55196], [5.08702, 51.5515], [5.08584, 51.55421], [5.09049, 51.55514], [5.08997, 51.55333]]]]}}, {"type": "Feature", "properties": {"statcode": "BU08551004", "statnaam": "Oude Dijk"}, "geometry": {"type": "MultiPolygon", "coordinates": [[[[5.08466, 51.55428], [5.08584, 51.55421], [5.08702, 51.5515], [5.08704, 51.55147], [5.07998, 51.55041], [5.08007, 51.55249], [5.08117, 51.55336], [5.07982, 51.55432], [5.08061, 51.555], [5.08466, 51.55428]]]]}}, {"type": "Feature", "properties": {"statcode": "BU08551101", "statnaam": "Veemarktkwartier"}, "geometry": {"type": "MultiPolygon", "coordinates": [[[[5.09304, 51.55722], [5.09106, 51.55721], [5.09129, 51.55956], [5.09152, 51.5599], [5.09829, 51.56022], [5.09304, 51.55722]]]]}}, {"type": "Feature", "properties": {"statcode": "BU08551102", "statnaam": "Tivoli"}, "geometry": {"type": "MultiPolygon", "coordinates": [[[[5.10464, 51.55755], [5.10517, 51.55624], [5.10242, 51.5555], [5.09623, 51.55637], [5.09304, 51.55722], [5.09829, 51.56022], [5.10062, 51.56065], [5.10355, 51.56123], [5.10464, 51.55755]]]]}}, {"type": "Feature", "properties": {"statcode": "BU08551103", "statnaam": "Hoogvenne Oost"}, "geometry": {"type": "MultiPolygon", "coordinates": [[[[5.10242, 51.5555], [5.10517, 51.55624], [5.10617, 51.55501], [5.10378, 51.55415], [5.10002, 51.55283], [5.09845, 51.55244], [5.09623, 51.55637], [5.10242, 51.5555]]]]}}, {"type": "Feature", "properties": {"statcode": "BU08551104", "statnaam": "Hoogvenne West"}, "geometry": {"type": "MultiPolygon", "coordinates": [[[[5.09623, 51.55637], [5.09845, 51.55244], [5.09799, 51.55239], [5.08997, 51.55333], [5.09049, 51.55514], [5.09106, 51.55721], [5.09304, 51.55722], [5.09623, 51.55637]]]]}}, {"type": "Feature", "properties": {"statcode": "BU08551105", "statnaam": "Piushaven"}, "geometry": {"type": "MultiPolygon", "coordinates": [[[[5.09799, 51.55239], [5.09822, 51.55208], [5.0926, 51.55098], [5.08896, 51.55123], [5.08922, 51.55196], [5.08997, 51.55333], [5.09799, 51.55239]]]]}}, {"type": "Feature", "properties": {"statcode": "BU08551201", "statnaam": "Armhoef Noord-West"}, "geometry": {"type": "MultiPolygon", "coordinates": [[[[5.10838, 51.55869], [5.10464, 51.55755], [5.10355, 51.56123], [5.10661, 51.56175], [5.10838, 51.55869]]]]}}, {"type": "Feature", "properties": {"statcode": "BU08551202", "statnaam": "Armhoef Noord-Oost"}, "geometry": {"type": "MultiPolygon", "coordinates": [[[[5.11113, 51.55853], [5.10838, 51.55869], [5.10661, 51.56175], [5.109, 51.56223], [5.11113, 51.55853]]]]}}, {"type": "Feature", "properties": {"statcode": "BU08551203", "statnaam": "Armhoef Zuid"}, "geometry": {"type": "MultiPolygon", "coordinates": [[[[5.11113, 51.55853], [5.11198, 51.55711], [5.10617, 51.55501], [5.10517, 51.55624], [5.10464, 51.55755], [5.10838, 51.55869], [5.11113, 51.55853]]]]}}, {"type": "Feature", "properties": {"statcode": "BU08551301", "statnaam": "Jeruzalem Noord"}, "geometry": {"type": "MultiPolygon", "coordinates": [[[[5.11312, 51.55522], [5.10775, 51.55333], [5.10617, 51.55501], [5.11198, 51.55711], [5.11312, 51.55522]]]]}}, {"type": "Feature", "properties": {"statcode": "BU08551302", "statnaam": "Jeruzalem Zuid"}, "geometry": {"type": "MultiPolygon", "coordinates": [[[[5.1146, 51.55276], [5.10986, 51.55157], [5.10963, 51.55175], [5.10775, 51.55333], [5.11312, 51.55522], [5.1146, 51.55276]]]]}}, {"type": "Feature", "properties": {"statcode": "BU08551401", "statnaam": "Fatima West"}, "geometry": {"type": "MultiPolygon", "coordinates": [[[[5.10014, 51.54704], [5.09983, 51.54689], [5.09619, 51.54728], [5.09546, 51.54971], [5.09283, 51.54944], [5.0926, 51.55098], [5.09822, 51.55208], [5.10014, 51.54704]]]]}}, {"type": "Feature", "properties": {"statcode": "BU08551402", "statnaam": "Fatima Oost"}, "geometry": {"type": "MultiPolygon", "coordinates": [[[[5.10162, 51.55116], [5.10408, 51.54887], [5.10014, 51.54704], [5.09822, 51.55208], [5.09799, 51.55239], [5.09845, 51.55244], [5.10002, 51.55283], [5.10162, 51.55116]]]]}}, {"type": "Feature", "properties": {"statcode": "BU08551403", "statnaam": "Fatima Noord"}, "geometry": {"type": "MultiPolygon", "coordinates": [[[[5.1058, 51.55276], [5.10162, 51.55116], [5.10002, 51.55283], [5.10378, 51.55415], [5.1058, 51.55276]]]]}}, {"type": "Feature", "properties": {"statcode": "BU08551404", "statnaam": "Bedrijventerrein AaBe"}, "geometry": {"type": "MultiPolygon", "coordinates": [[[[5.10963, 51.55175], [5.10986, 51.55157], [5.10992, 51.55152], [5.10408, 51.54887], [5.10162, 51.55116], [5.1058, 51.55276], [5.10963, 51.55175]]]]}}, {"type": "Feature", "properties": {"statcode": "BU08551405", "statnaam": "Hoevenseweg"}, "geometry": {"type": "MultiPolygon", "coordinates": [[[[5.10775, 51.55333], [5.10963, 51.55175], [5.1058, 51.55276], [5.10378, 51.55415], [5.10617, 51.55501], [5.10775, 51.55333]]]]}}, {"type": "Feature", "properties": {"statcode": "BU08551501", "statnaam": "Broekhoven I West"}, "geometry": {"type": "MultiPolygon", "coordinates": [[[[5.08896, 51.55123], [5.08798, 51.54939], [5.08704, 51.55147], [5.08702, 51.5515], [5.08922, 51.55196], [5.08896, 51.55123]]]]}}, {"type": "Feature", "properties": {"statcode": "BU08551502", "statnaam": "Broekhoven I"}, "geometry": {"type": "MultiPolygon", "coordinates": [[[[5.0926, 51.55098], [5.09283, 51.54944], [5.09546, 51.54971], [5.09619, 51.54728], [5.09197, 51.54671], [5.08819, 51.54886], [5.08798, 51.54939], [5.08896, 51.55123], [5.0926, 51.55098]]]]}}, {"type": "Feature", "properties": {"statcode": "BU08551503", "statnaam": "Voltterrein"}, "geometry": {"type": "MultiPolygon", "coordinates": [[[[5.09197, 51.54671], [5.08431, 51.54612], [5.08819, 51.54886], [5.09197, 51.54671]]]]}}, {"type": "Feature", "properties": {"statcode": "BU08551504", "statnaam": "Broekhoven II West"}, "geometry": {"type": "MultiPolygon", "coordinates": [[[[5.09416, 51.54428], [5.08969, 51.5433], [5.08302, 51.5436], [5.08431, 51.54612], [5.09197, 51.54671], [5.09416, 51.54428]]]]}}, {"type": "Feature", "properties": {"statcode": "BU08551505", "statnaam": "Broekhoven II Oost"}, "geometry": {"type": "MultiPolygon", "coordinates": [[[[5.09983, 51.54689], [5.09958, 51.54678], [5.09416, 51.54428], [5.09197, 51.54671], [5.09619, 51.54728], [5.09983, 51.54689]]]]}}, {"type": "Feature", "properties": {"statcode": "BU08551601", "statnaam": "Afrikaanderbuurt West"}, "geometry": {"type": "MultiPolygon", "coordinates": [[[[5.0696, 51.54837], [5.06895, 51.54401], [5.06497, 51.54397], [5.06706, 51.54836], [5.06772, 51.54867], [5.0696, 51.54837]]]]}}, {"type": "Feature", "properties": {"statcode": "BU08551602", "statnaam": "Afrikaanderbuurt Midden"}, "geometry": {"type": "MultiPolygon", "coordinates": [[[[5.07775, 51.54715], [5.07741, 51.54397], [5.06895, 51.54401], [5.0696, 51.54837], [5.07775, 51.54715]]]]}}, {"type": "Feature", "properties": {"statcode": "BU08551603", "statnaam": "Afrikaanderbuurt Oost"}, "geometry": {"type": "MultiPolygon", "coordinates": [[[[5.08058, 51.54704], [5.08431, 51.54612], [5.08302, 51.5436], [5.08021, 51.54379], [5.07741, 51.54397], [5.07775, 51.54715], [5.08058, 51.54704]]]]}}, {"type": "Feature", "properties": {"statcode": "BU08551604", "statnaam": "Zeeheldenbuurt"}, "geometry": {"type": "MultiPolygon", "coordinates": [[[[5.08798, 51.54939], [5.08819, 51.54886], [5.08431, 51.54612], [5.08058, 51.54704], [5.07998, 51.55041], [5.08704, 51.55147], [5.08798, 51.54939]]]]}}, {"type": "Feature", "properties": {"statcode": "BU08551701", "statnaam": "Kromhoutpark"}, "geometry": {"type": "MultiPolygon", "coordinates": [[[[5.06843, 51.5559], [5.069, 51.5536], [5.06459, 51.55305], [5.06336, 51.55478], [5.06381, 51.55625], [5.06843, 51.5559]]]]}}, {"type": "Feature", "properties": {"statcode": "BU08551702", "statnaam": "Westend"}, "geometry": {"type": "MultiPolygon", "coordinates": [[[[5.06459, 51.55305], [5.06537, 51.55157], [5.06142, 51.5518], [5.06336, 51.55478], [5.06459, 51.55305]]]]}}, {"type": "Feature", "properties": {"statcode": "BU08551703", "statnaam": "Schildersbuurt Noord"}, "geometry": {"type": "MultiPolygon", "coordinates": [[[[5.06923, 51.55262], [5.06537, 51.55157], [5.06459, 51.55305], [5.069, 51.5536], [5.06923, 51.55262]]]]}}, {"type": "Feature", "properties": {"statcode": "BU08551704", "statnaam": "Schildersbuurt Zuid"}, "geometry": {"type": "MultiPolygon", "coordinates": [[[[5.06923, 51.55261], [5.06929, 51.54995], [5.0683, 51.54913], [5.06537, 51.55157], [5.06923, 51.55262], [5.06923, 51.55261]]]]}}, {"type": "Feature", "properties": {"statcode": "BU08551705", "statnaam": "Schrijversbuurt"}, "geometry": {"type": "MultiPolygon", "coordinates": [[[[5.06537, 51.55157], [5.0683, 51.54913], [5.06772, 51.54867], [5.06706, 51.54836], [5.06013, 51.55012], [5.06142, 51.5518], [5.06537, 51.55157]]]]}}, {"type": "Feature", "properties": {"statcode": "BU08551706", "statnaam": "Staatsliedenbuurt Oost"}, "geometry": {"type": "MultiPolygon", "coordinates": [[[[5.06706, 51.54836], [5.06497, 51.54397], [5.06397, 51.54394], [5.06037, 51.5449], [5.0568, 51.54733], [5.06013, 51.55012], [5.06706, 51.54836]]]]}}, {"type": "Feature", "properties": {"statcode": "BU08551707", "statnaam": "Het Laar"}, "geometry": {"type": "MultiPolygon", "coordinates": [[[[5.06037, 51.5449], [5.06397, 51.54394], [5.05582, 51.54393], [5.0542, 51.54464], [5.05417, 51.546], [5.05671, 51.54728], [5.0568, 51.54733], [5.06037, 51.5449]]]]}}, {"type": "Feature", "properties": {"statcode": "BU08551801", "statnaam": "Trouwlaan"}, "geometry": {"type": "MultiPolygon", "coordinates": [[[[5.08117, 51.55336], [5.08007, 51.55249], [5.07998, 51.55041], [5.08058, 51.54704], [5.07775, 51.54715], [5.0773, 51.54917], [5.07365, 51.55094], [5.0763, 51.55158], [5.07962, 51.55418], [5.07982, 51.55432], [5.08117, 51.55336]]]]}}, {"type": "Feature", "properties": {"statcode": "BU08551802", "statnaam": "Uitvindersbuurt"}, "geometry": {"type": "MultiPolygon", "coordinates": [[[[5.0773, 51.54917], [5.07775, 51.54715], [5.0696, 51.54837], [5.06772, 51.54867], [5.0683, 51.54913], [5.06929, 51.54995], [5.07365, 51.55094], [5.0773, 51.54917]]]]}}, {"type": "Feature", "properties": {"statcode": "BU08551901", "statnaam": "Sint Anna Noord"}, "geometry": {"type": "MultiPolygon", "coordinates": [[[[5.06849, 51.5559], [5.0757, 51.55536], [5.07828, 51.55527], [5.08061, 51.555], [5.07982, 51.55432], [5.07962, 51.55418], [5.06923, 51.55261], [5.06923, 51.55262], [5.069, 51.5536], [5.06843, 51.5559], [5.06849, 51.5559]]]]}}, {"type": "Feature", "properties": {"statcode": "BU08551902", "statnaam": "Sint Anna Zuid"}, "geometry": {"type": "MultiPolygon", "coordinates": [[[[5.07962, 51.55418], [5.0763, 51.55158], [5.07365, 51.55094], [5.06929, 51.54995], [5.06923, 51.55261], [5.07962, 51.55418]]]]}}, {"type": "Feature", "properties": {"statcode": "BU08552001", "statnaam": "Bomenbuurt West"}, "geometry": {"type": "MultiPolygon", "coordinates": [[[[5.06807, 51.56034], [5.06849, 51.5559], [5.06843, 51.5559], [5.06381, 51.55625], [5.06464, 51.56051], [5.06807, 51.56034]]]]}}, {"type": "Feature", "properties": {"statcode": "BU08552002", "statnaam": "Bomenbuurt Midden"}, "geometry": {"type": "MultiPolygon", "coordinates": [[[[5.07412, 51.55789], [5.0757, 51.55536], [5.06849, 51.5559], [5.06807, 51.56034], [5.07423, 51.56044], [5.07412, 51.55789]]]]}}, {"type": "Feature", "properties": {"statcode": "BU08552003", "statnaam": "Bomenbuurt Oost"}, "geometry": {"type": "MultiPolygon", "coordinates": [[[[5.07709, 51.56033], [5.07813, 51.56008], [5.07828, 51.55527], [5.0757, 51.55536], [5.07412, 51.55789], [5.07423, 51.56044], [5.0743, 51.56044], [5.07709, 51.56033]]]]}}, {"type": "Feature", "properties": {"statcode": "BU08552101", "statnaam": "VGL-terrein"}, "geometry": {"type": "MultiPolygon", "coordinates": [[[[5.07445, 51.56155], [5.0743, 51.56044], [5.07423, 51.56044], [5.06807, 51.56034], [5.06464, 51.56051], [5.06518, 51.56289], [5.07445, 51.56155]]]]}}, {"type": "Feature", "properties": {"statcode": "BU08552102", "statnaam": "Talentsquare"}, "geometry": {"type": "MultiPolygon", "coordinates": [[[[5.07734, 51.56118], [5.07709, 51.56033], [5.0743, 51.56044], [5.07445, 51.56155], [5.07734, 51.56118]]]]}}, {"type": "Feature", "properties": {"statcode": "BU08552103", "statnaam": "Spoorlaan"}, "geometry": {"type": "MultiPolygon", "coordinates": [[[[5.09152, 51.5599], [5.09129, 51.55956], [5.08403, 51.56015], [5.07813, 51.56008], [5.07709, 51.56033], [5.07734, 51.56118], [5.09152, 51.5599]]]]}}, {"type": "Feature", "properties": {"statcode": "BU08552201", "statnaam": "Bouwmeestersbuurt Noord"}, "geometry": {"type": "MultiPolygon", "coordinates": [[[[5.0756, 51.56793], [5.07724, 51.56716], [5.07745, 51.56202], [5.07457, 51.56215], [5.07355, 51.56382], [5.07187, 51.56395], [5.06918, 51.56676], [5.06936, 51.56682], [5.07409, 51.56855], [5.0756, 51.56793]]]]}}, {"type": "Feature", "properties": {"statcode": "BU08552202", "statnaam": "Bouwmeestersbuurt Zuid"}, "geometry": {"type": "MultiPolygon", "coordinates": [[[[5.07187, 51.56395], [5.07355, 51.56382], [5.07457, 51.56215], [5.07445, 51.56155], [5.06518, 51.56289], [5.06576, 51.56626], [5.06918, 51.56676], [5.07187, 51.56395]]]]}}, {"type": "Feature", "properties": {"statcode": "BU08552301", "statnaam": "Textielbuurt West"}, "geometry": {"type": "MultiPolygon", "coordinates": [[[[5.07277, 51.57219], [5.06935, 51.57384], [5.06643, 51.57557], [5.07223, 51.57617], [5.07384, 51.57633], [5.07277, 51.57219]]]]}}, {"type": "Feature", "properties": {"statcode": "BU08552302", "statnaam": "Textielbuurt Oost"}, "geometry": {"type": "MultiPolygon", "coordinates": [[[[5.07941, 51.5738], [5.07315, 51.57183], [5.07277, 51.57219], [5.07384, 51.57633], [5.07732, 51.57647], [5.07941, 51.5738]]]]}}, {"type": "Feature", "properties": {"statcode": "BU08552303", "statnaam": "Nassaubuurt"}, "geometry": {"type": "MultiPolygon", "coordinates": [[[[5.06935, 51.57384], [5.0685, 51.57316], [5.0682, 51.56835], [5.06934, 51.568], [5.06936, 51.56682], [5.06918, 51.56676], [5.06576, 51.56626], [5.0663, 51.57556], [5.06643, 51.57557], [5.06935, 51.57384]]]]}}, {"type": "Feature", "properties": {"statcode": "BU08552304", "statnaam": "Kasteel West"}, "geometry": {"type": "MultiPolygon", "coordinates": [[[[5.07277, 51.57219], [5.07315, 51.57183], [5.07409, 51.56855], [5.06936, 51.56682], [5.06934, 51.568], [5.0682, 51.56835], [5.0685, 51.57316], [5.06935, 51.57384], [5.07277, 51.57219]]]]}}, {"type": "Feature", "properties": {"statcode": "BU08552305", "statnaam": "Kasteel Oost"}, "geometry": {"type": "MultiPolygon", "coordinates": [[[[5.08055, 51.57274], [5.0756, 51.56793], [5.07409, 51.56855], [5.07315, 51.57183], [5.07941, 51.5738], [5.08055, 51.57274]]]]}}, {"type": "Feature", "properties": {"statcode": "BU08552401", "statnaam": "Goirke Noord"}, "geometry": {"type": "MultiPolygon", "coordinates": [[[[5.08498, 51.57581], [5.08346, 51.5753], [5.08055, 51.57274], [5.07941, 51.5738], [5.07732, 51.57647], [5.08602, 51.57678], [5.08498, 51.57581]]]]}}, {"type": "Feature", "properties": {"statcode": "BU08552402", "statnaam": "Pastorieklamp West"}, "geometry": {"type": "MultiPolygon", "coordinates": [[[[5.08357, 51.57333], [5.08256, 51.56741], [5.08183, 51.5672], [5.07724, 51.56716], [5.0756, 51.56793], [5.08055, 51.57274], [5.08346, 51.5753], [5.08357, 51.57333]]]]}}, {"type": "Feature", "properties": {"statcode": "BU08552403", "statnaam": "Pastorieklamp Oost"}, "geometry": {"type": "MultiPolygon", "coordinates": [[[[5.08659, 51.5685], [5.08575, 51.56782], [5.08256, 51.56741], [5.08357, 51.57333], [5.08659, 51.5685]]]]}}, {"type": "Feature", "properties": {"statcode": "BU08552501", "statnaam": "Sint Pieterspark"}, "geometry": {"type": "MultiPolygon", "coordinates": [[[[5.08989, 51.57222], [5.09042, 51.5716], [5.08659, 51.5685], [5.08357, 51.57333], [5.08346, 51.5753], [5.08498, 51.57581], [5.08989, 51.57222]]]]}}, {"type": "Feature", "properties": {"statcode": "BU08552502", "statnaam": "Hoefstraat Noord"}, "geometry": {"type": "MultiPolygon", "coordinates": [[[[5.08841, 51.57607], [5.09349, 51.57298], [5.08989, 51.57222], [5.08498, 51.57581], [5.08602, 51.57678], [5.08841, 51.57607]]]]}}, {"type": "Feature", "properties": {"statcode": "BU08552503", "statnaam": "Padua"}, "geometry": {"type": "MultiPolygon", "coordinates": [[[[5.09446, 51.56739], [5.08831, 51.56753], [5.08675, 51.56782], [5.08575, 51.56782], [5.08659, 51.5685], [5.09042, 51.5716], [5.09446, 51.56739]]]]}}, {"type": "Feature", "properties": {"statcode": "BU08552504", "statnaam": "Hoefstraat Zuid"}, "geometry": {"type": "MultiPolygon", "coordinates": [[[[5.09358, 51.57289], [5.09649, 51.57024], [5.0983, 51.56855], [5.09446, 51.56739], [5.09042, 51.5716], [5.08989, 51.57222], [5.09349, 51.57298], [5.09358, 51.57289]]]]}}, {"type": "Feature", "properties": {"statcode": "BU08552601", "statnaam": "Besterd"}, "geometry": {"type": "MultiPolygon", "coordinates": [[[[5.09446, 51.56739], [5.09515, 51.56686], [5.0924, 51.56093], [5.09208, 51.56094], [5.09178, 51.56165], [5.08831, 51.56753], [5.09446, 51.56739]]]]}}, {"type": "Feature", "properties": {"statcode": "BU08552602", "statnaam": "Rosmolen"}, "geometry": {"type": "MultiPolygon", "coordinates": [[[[5.10044, 51.5657], [5.09515, 51.56686], [5.09446, 51.56739], [5.0983, 51.56855], [5.10044, 51.5657]]]]}}, {"type": "Feature", "properties": {"statcode": "BU08552603", "statnaam": "Loven Noord"}, "geometry": {"type": "MultiPolygon", "coordinates": [[[[5.10044, 51.5657], [5.10052, 51.56553], [5.0976, 51.5639], [5.0924, 51.56093], [5.09515, 51.56686], [5.10044, 51.5657]]]]}}, {"type": "Feature", "properties": {"statcode": "BU08552604", "statnaam": "Loven Zuid"}, "geometry": {"type": "MultiPolygon", "coordinates": [[[[5.10062, 51.56065], [5.09829, 51.56022], [5.09152, 51.5599], [5.09208, 51.56094], [5.0924, 51.56093], [5.0976, 51.5639], [5.10062, 51.56065]]]]}}, {"type": "Feature", "properties": {"statcode": "BU08552605", "statnaam": "Loven Oost"}, "geometry": {"type": "MultiPolygon", "coordinates": [[[[5.10145, 51.56421], [5.10318, 51.5619], [5.10355, 51.56123], [5.10062, 51.56065], [5.0976, 51.5639], [5.10052, 51.56553], [5.10145, 51.56421]]]]}}, {"type": "Feature", "properties": {"statcode": "BU08552701", "statnaam": "Theresia West"}, "geometry": {"type": "MultiPolygon", "coordinates": [[[[5.08267, 51.5657], [5.08055, 51.56525], [5.08012, 51.56187], [5.07747, 51.56191], [5.07745, 51.56202], [5.07724, 51.56716], [5.08183, 51.5672], [5.08267, 51.5657]]]]}}, {"type": "Feature", "properties": {"statcode": "BU08552702", "statnaam": "Theresia Midden"}, "geometry": {"type": "MultiPolygon", "coordinates": [[[[5.08699, 51.56184], [5.08012, 51.56187], [5.08055, 51.56525], [5.08267, 51.5657], [5.08183, 51.5672], [5.08256, 51.56741], [5.08575, 51.56782], [5.08675, 51.56782], [5.08563, 51.56648], [5.08752, 51.5644], [5.08699, 51.56184]]]]}}, {"type": "Feature", "properties": {"statcode": "BU08552703", "statnaam": "Theresia Oost"}, "geometry": {"type": "MultiPolygon", "coordinates": [[[[5.08831, 51.56753], [5.09178, 51.56165], [5.08699, 51.56184], [5.08752, 51.5644], [5.08563, 51.56648], [5.08675, 51.56782], [5.08831, 51.56753]]]]}}, {"type": "Feature", "properties": {"statcode": "BU08552801", "statnaam": "Spoorzone Noord-West"}, "geometry": {"type": "MultiPolygon", "coordinates": [[[[5.07745, 51.56202], [5.07747, 51.56191], [5.07734, 51.56118], [5.07445, 51.56155], [5.07457, 51.56215], [5.07745, 51.56202]]]]}}, {"type": "Feature", "properties": {"statcode": "BU08552802", "statnaam": "Spoorzone Noord-Oost"}, "geometry": {"type": "MultiPolygon", "coordinates": [[[[5.08699, 51.56184], [5.09178, 51.56165], [5.09208, 51.56094], [5.09152, 51.5599], [5.07734, 51.56118], [5.07747, 51.56191], [5.08012, 51.56187], [5.08699, 51.56184]]]]}}, {"type": "Feature", "properties": {"statcode": "BU08552901", "statnaam": "Smariusterrein"}, "geometry": {"type": "MultiPolygon", "coordinates": [[[[5.07266, 51.57798], [5.07223, 51.57617], [5.06643, 51.57557], [5.0663, 51.57556], [5.06624, 51.57864], [5.07266, 51.57798]]]]}}, {"type": "Feature", "properties": {"statcode": "BU08552902", "statnaam": "Ind.terrein Kanaalzone Noord"}, "geometry": {"type": "MultiPolygon", "coordinates": [[[[5.09067, 51.57811], [5.08841, 51.57607], [5.08602, 51.57678], [5.07732, 51.57647], [5.07384, 51.57633], [5.07223, 51.57617], [5.07266, 51.57798], [5.07344, 51.57791], [5.08461, 51.57897], [5.09067, 51.57811]]]]}}, {"type": "Feature", "properties": {"statcode": "BU08552903", "statnaam": "Ind.terrein Kanaalzone Noord-Oost"}, "geometry": {"type": "MultiPolygon", "coordinates": [[[[5.09655, 51.5742], [5.09358, 51.57289], [5.09349, 51.57298], [5.08841, 51.57607], [5.09067, 51.57811], [5.09655, 51.5742]]]]}}, {"type": "Feature", "properties": {"statcode": "BU08552904", "statnaam": "Melis Stokestraat"}, "geometry": {"type": "MultiPolygon", "coordinates": [[[[5.10077, 51.57072], [5.09649, 51.57024], [5.09358, 51.57289], [5.09655, 51.5742], [5.10077, 51.57072]]]]}}, {"type": "Feature", "properties": {"statcode": "BU08552905", "statnaam": "Ind.terrein Kanaalzone Oost"}, "geometry": {"type": "MultiPolygon", "coordinates": [[[[5.10643, 51.56591], [5.10145, 51.56421], [5.10052, 51.56553], [5.10044, 51.5657], [5.0983, 51.56855], [5.09649, 51.57024], [5.10077, 51.57072], [5.10643, 51.56591]]]]}}, {"type": "Feature", "properties": {"statcode": "BU08552906", "statnaam": "Ind.terrein Kanaalzone Zuid"}, "geometry": {"type": "MultiPolygon", "coordinates": [[[[5.10832, 51.56329], [5.10318, 51.5619], [5.10145, 51.56421], [5.10643, 51.56591], [5.10832, 51.56329]]]]}}, {"type": "Feature", "properties": {"statcode": "BU08552907", "statnaam": "Kanaalzone Bosscheweg"}, "geometry": {"type": "MultiPolygon", "coordinates": [[[[5.109, 51.56223], [5.10661, 51.56175], [5.10355, 51.56123], [5.10318, 51.5619], [5.10832, 51.56329], [5.109, 51.56223]]]]}}, {"type": "Feature", "properties": {"statcode": "BU08553001", "statnaam": "Moerenburg"}, "geometry": {"type": "MultiPolygon", "coordinates": [[[[5.12886, 51.55984], [5.12304, 51.55674], [5.12176, 51.55431], [5.12438, 51.55162], [5.1182, 51.54689], [5.1146, 51.55276], [5.11312, 51.55522], [5.11198, 51.55711], [5.11113, 51.55853], [5.109, 51.56223], [5.10982, 51.56242], [5.12658, 51.56663], [5.12886, 51.55984]]]]}}, {"type": "Feature", "properties": {"statcode": "BU08553101", "statnaam": "Leijpark"}, "geometry": {"type": "MultiPolygon", "coordinates": [[[[5.11076, 51.54821], [5.10956, 51.54792], [5.10641, 51.54345], [5.1046, 51.54232], [5.10319, 51.54312], [5.10126, 51.54177], [5.10137, 51.54562], [5.09983, 51.54689], [5.10014, 51.54704], [5.10408, 51.54887], [5.10992, 51.55152], [5.11076, 51.54821]]]]}}, {"type": "Feature", "properties": {"statcode": "BU08553102", "statnaam": "Koningshoeven"}, "geometry": {"type": "MultiPolygon", "coordinates": [[[[5.1182, 51.54689], [5.1188, 51.54592], [5.11349, 51.54235], [5.11119, 51.54574], [5.11076, 51.54821], [5.10992, 51.55152], [5.10986, 51.55157], [5.1146, 51.55276], [5.1182, 51.54689]]]]}}, {"type": "Feature", "properties": {"statcode": "BU08553103", "statnaam": "Elisabethziekenhuis"}, "geometry": {"type": "MultiPolygon", "coordinates": [[[[5.10729, 51.54286], [5.1075, 51.54045], [5.10456, 51.53811], [5.10293, 51.53853], [5.10055, 51.53816], [5.09935, 51.53959], [5.10068, 51.54004], [5.10126, 51.54177], [5.10319, 51.54312], [5.1046, 51.54232], [5.10641, 51.54345], [5.10729, 51.54286]]]]}}, {"type": "Feature", "properties": {"statcode": "BU08553104", "statnaam": "Leijhoeven"}, "geometry": {"type": "MultiPolygon", "coordinates": [[[[5.11119, 51.54574], [5.11349, 51.54235], [5.11366, 51.54101], [5.11252, 51.54002], [5.10982, 51.53938], [5.1061, 51.53743], [5.10456, 51.53811], [5.1075, 51.54045], [5.10729, 51.54286], [5.10641, 51.54345], [5.10956, 51.54792], [5.11076, 51.54821], [5.11119, 51.54574]]]]}}, {"type": "Feature", "properties": {"statcode": "BU08553201", "statnaam": "Ezelvense Akkers"}, "geometry": {"type": "MultiPolygon", "coordinates": [[[[5.09509, 51.54318], [5.09038, 51.54185], [5.09127, 51.5398], [5.09011, 51.53942], [5.08519, 51.54024], [5.08265, 51.54064], [5.08302, 51.5436], [5.08969, 51.5433], [5.09416, 51.54428], [5.09509, 51.54318]]]]}}, {"type": "Feature", "properties": {"statcode": "BU08553202", "statnaam": "Landbouwbuurt"}, "geometry": {"type": "MultiPolygon", "coordinates": [[[[5.09655, 51.54154], [5.09127, 51.5398], [5.09038, 51.54185], [5.09509, 51.54318], [5.09655, 51.54154]]]]}}, {"type": "Feature", "properties": {"statcode": "BU08553203", "statnaam": "Vogeltjesbuurt West"}, "geometry": {"type": "MultiPolygon", "coordinates": [[[[5.09875, 51.54077], [5.09655, 51.54154], [5.09509, 51.54318], [5.09416, 51.54428], [5.09958, 51.54678], [5.09875, 51.54077]]]]}}, {"type": "Feature", "properties": {"statcode": "BU08553204", "statnaam": "Vogeltjesbuurt Oost"}, "geometry": {"type": "MultiPolygon", "coordinates": [[[[5.10137, 51.54562], [5.10126, 51.54177], [5.10068, 51.54004], [5.09875, 51.54077], [5.09958, 51.54678], [5.09983, 51.54689], [5.10137, 51.54562]]]]}}, {"type": "Feature", "properties": {"statcode": "BU08553205", "statnaam": "Visserijbuurt"}, "geometry": {"type": "MultiPolygon", "coordinates": [[[[5.09875, 51.54077], [5.10068, 51.54004], [5.09935, 51.53959], [5.09602, 51.53883], [5.0945, 51.53818], [5.09011, 51.53942], [5.09127, 51.5398], [5.09655, 51.54154], [5.09875, 51.54077]]]]}}, {"type": "Feature", "properties": {"statcode": "BU08553206", "statnaam": "Groenewoud Oost"}, "geometry": {"type": "MultiPolygon", "coordinates": [[[[5.09772, 51.53638], [5.09527, 51.53591], [5.09311, 51.53619], [5.0945, 51.53818], [5.09602, 51.53883], [5.09772, 51.53638]]]]}}, {"type": "Feature", "properties": {"statcode": "BU08553207", "statnaam": "Groenewoud Midden"}, "geometry": {"type": "MultiPolygon", "coordinates": [[[[5.09011, 51.53942], [5.0945, 51.53818], [5.09311, 51.53619], [5.08544, 51.5367], [5.08519, 51.54024], [5.09011, 51.53942]]]]}}, {"type": "Feature", "properties": {"statcode": "BU08553208", "statnaam": "Groenewoud West"}, "geometry": {"type": "MultiPolygon", "coordinates": [[[[5.08265, 51.54064], [5.08519, 51.54024], [5.08544, 51.5367], [5.08548, 51.53559], [5.08346, 51.53582], [5.08202, 51.54067], [5.08265, 51.54064]]]]}}, {"type": "Feature", "properties": {"statcode": "BU08553209", "statnaam": "Groenewoud Zuid"}, "geometry": {"type": "MultiPolygon", "coordinates": [[[[5.10055, 51.53816], [5.10293, 51.53853], [5.10456, 51.53811], [5.1061, 51.53743], [5.10282, 51.53604], [5.09647, 51.53497], [5.08548, 51.53559], [5.08544, 51.5367], [5.09311, 51.53619], [5.09527, 51.53591], [5.09772, 51.53638], [5.09602, 51.53883], [5.09935, 51.53959], [5.10055, 51.53816]]]]}}, {"type": "Feature", "properties": {"statcode": "BU08553301", "statnaam": "Stappegoor Noord"}, "geometry": {"type": "MultiPolygon", "coordinates": [[[[5.07741, 51.54397], [5.08021, 51.54379], [5.07891, 51.54332], [5.07872, 51.54202], [5.07971, 51.54072], [5.08202, 51.54067], [5.08346, 51.53582], [5.07383, 51.53672], [5.07365, 51.53964], [5.06409, 51.54131], [5.0647, 51.54319], [5.06497, 51.54397], [5.06895, 51.54401], [5.07741, 51.54397]]]]}}, {"type": "Feature", "properties": {"statcode": "BU08553302", "statnaam": "Zuiderpark"}, "geometry": {"type": "MultiPolygon", "coordinates": [[[[5.08302, 51.5436], [5.08265, 51.54064], [5.08202, 51.54067], [5.07971, 51.54072], [5.07872, 51.54202], [5.07891, 51.54332], [5.08021, 51.54379], [5.08302, 51.5436]]]]}}, {"type": "Feature", "properties": {"statcode": "BU08553303", "statnaam": "Stappegoor Zuid"}, "geometry": {"type": "MultiPolygon", "coordinates": [[[[5.07365, 51.53964], [5.07383, 51.53672], [5.07353, 51.53674], [5.06468, 51.53743], [5.06291, 51.53784], [5.06298, 51.538], [5.06409, 51.54131], [5.07365, 51.53964]]]]}}, {"type": "Feature", "properties": {"statcode": "BU08553401", "statnaam": "Bedrijventerrein Het Laar"}, "geometry": {"type": "MultiPolygon", "coordinates": [[[[5.0542, 51.54464], [5.05582, 51.54393], [5.06397, 51.54394], [5.06497, 51.54397], [5.0647, 51.54319], [5.06266, 51.54314], [5.0613, 51.53816], [5.04793, 51.53944], [5.05094, 51.54376], [5.05417, 51.546], [5.0542, 51.54464]]]]}}, {"type": "Feature", "properties": {"statcode": "BU08553402", "statnaam": "Goirleseweg West"}, "geometry": {"type": "MultiPolygon", "coordinates": [[[[5.06409, 51.54131], [5.06298, 51.538], [5.0613, 51.53816], [5.06266, 51.54314], [5.0647, 51.54319], [5.06409, 51.54131]]]]}}, {"type": "Feature", "properties": {"statcode": "BU08553501", "statnaam": "De Blaak Noord-West"}, "geometry": {"type": "MultiPolygon", "coordinates": [[[[5.04108, 51.55795], [5.05015, 51.55199], [5.04682, 51.54914], [5.03829, 51.54963], [5.0382, 51.55151], [5.03966, 51.55161], [5.03984, 51.55368], [5.03799, 51.55365], [5.03969, 51.55836], [5.04108, 51.55795]]]]}}, {"type": "Feature", "properties": {"statcode": "BU08553502", "statnaam": "De Blaak Noord-Oost"}, "geometry": {"type": "MultiPolygon", "coordinates": [[[[5.05671, 51.54728], [5.05417, 51.546], [5.05094, 51.54376], [5.04395, 51.54662], [5.04682, 51.54914], [5.05015, 51.55199], [5.05671, 51.54728]]]]}}, {"type": "Feature", "properties": {"statcode": "BU08553503", "statnaam": "De Blaak Zuid-West"}, "geometry": {"type": "MultiPolygon", "coordinates": [[[[5.04682, 51.54914], [5.04395, 51.54662], [5.03672, 51.53999], [5.03322, 51.53993], [5.02995, 51.54403], [5.03597, 51.54618], [5.03829, 51.54963], [5.04682, 51.54914]]]]}}, {"type": "Feature", "properties": {"statcode": "BU08553504", "statnaam": "De Blaak Zuid-Oost"}, "geometry": {"type": "MultiPolygon", "coordinates": [[[[5.05094, 51.54376], [5.04793, 51.53944], [5.03672, 51.53999], [5.04395, 51.54662], [5.05094, 51.54376]]]]}}, {"type": "Feature", "properties": {"statcode": "BU08553601", "statnaam": "Friezenlaan"}, "geometry": {"type": "MultiPolygon", "coordinates": [[[[5.0555, 51.55687], [5.05197, 51.55338], [5.05015, 51.55199], [5.04108, 51.55795], [5.0555, 51.55687]]]]}}, {"type": "Feature", "properties": {"statcode": "BU08553602", "statnaam": "Burgemeestersbuurt"}, "geometry": {"type": "MultiPolygon", "coordinates": [[[[5.06381, 51.55625], [5.06336, 51.55478], [5.06142, 51.5518], [5.06013, 51.55012], [5.05197, 51.55338], [5.0555, 51.55687], [5.06381, 51.55625]]]]}}, {"type": "Feature", "properties": {"statcode": "BU08553603", "statnaam": "Staatsliedenbuurt West"}, "geometry": {"type": "MultiPolygon", "coordinates": [[[[5.06013, 51.55012], [5.0568, 51.54733], [5.05671, 51.54728], [5.05015, 51.55199], [5.05197, 51.55338], [5.06013, 51.55012]]]]}}, {"type": "Feature", "properties": {"statcode": "BU08553701", "statnaam": "Universiteit"}, "geometry": {"type": "MultiPolygon", "coordinates": [[[[5.0461, 51.56575], [5.04567, 51.56315], [5.04559, 51.56195], [5.04516, 51.55998], [5.03962, 51.56109], [5.04251, 51.5663], [5.0461, 51.56575]]]]}}, {"type": "Feature", "properties": {"statcode": "BU08553702", "statnaam": "Abdij- en Torenbuurt"}, "geometry": {"type": "MultiPolygon", "coordinates": [[[[5.05119, 51.56497], [5.057, 51.56409], [5.05701, 51.56244], [5.04567, 51.56315], [5.0461, 51.56575], [5.05119, 51.56497]]]]}}, {"type": "Feature", "properties": {"statcode": "BU08553703", "statnaam": "Universiteit Campus"}, "geometry": {"type": "MultiPolygon", "coordinates": [[[[5.05701, 51.56244], [5.05676, 51.56112], [5.04559, 51.56195], [5.04567, 51.56315], [5.05701, 51.56244]]]]}}, {"type": "Feature", "properties": {"statcode": "BU08553704", "statnaam": "Kastelenbuurt Noord"}, "geometry": {"type": "MultiPolygon", "coordinates": [[[[5.05676, 51.56112], [5.05618, 51.55818], [5.04998, 51.55864], [5.04516, 51.55998], [5.04559, 51.56195], [5.05676, 51.56112]]]]}}, {"type": "Feature", "properties": {"statcode": "BU08553705", "statnaam": "Kastelenbuurt Zuid"}, "geometry": {"type": "MultiPolygon", "coordinates": [[[[5.04516, 51.55998], [5.04998, 51.55864], [5.05618, 51.55818], [5.0555, 51.55687], [5.04108, 51.55795], [5.03969, 51.55836], [5.03825, 51.55863], [5.03962, 51.56109], [5.04516, 51.55998]]]]}}, {"type": "Feature", "properties": {"statcode": "BU08553706", "statnaam": "Sportweg"}, "geometry": {"type": "MultiPolygon", "coordinates": [[[[5.06183, 51.56338], [5.06518, 51.56289], [5.06464, 51.56051], [5.05676, 51.56112], [5.05701, 51.56244], [5.057, 51.56409], [5.06183, 51.56338]]]]}}, {"type": "Feature", "properties": {"statcode": "BU08553707", "statnaam": "Notre Dame"}, "geometry": {"type": "MultiPolygon", "coordinates": [[[[5.06464, 51.56051], [5.06381, 51.55625], [5.0555, 51.55687], [5.05618, 51.55818], [5.05676, 51.56112], [5.06464, 51.56051]]]]}}, {"type": "Feature", "properties": {"statcode": "BU08553801", "statnaam": "Tweestedenziekenhuis"}, "geometry": {"type": "MultiPolygon", "coordinates": [[[[5.06412, 51.57891], [5.06624, 51.57864], [5.0663, 51.57556], [5.06304, 51.57549], [5.05598, 51.57627], [5.04793, 51.57718], [5.04467, 51.58104], [5.06412, 51.57891]]]]}}, {"type": "Feature", "properties": {"statcode": "BU08553802", "statnaam": "Het Zand Noord-West"}, "geometry": {"type": "MultiPolygon", "coordinates": [[[[5.05598, 51.57627], [5.05524, 51.57366], [5.05367, 51.5738], [5.05128, 51.57478], [5.04619, 51.57557], [5.04793, 51.57718], [5.05598, 51.57627]]]]}}, {"type": "Feature", "properties": {"statcode": "BU08553803", "statnaam": "Het Zand Noord-Oost"}, "geometry": {"type": "MultiPolygon", "coordinates": [[[[5.06304, 51.57549], [5.06187, 51.57307], [5.05524, 51.57366], [5.05598, 51.57627], [5.06304, 51.57549]]]]}}, {"type": "Feature", "properties": {"statcode": "BU08553804", "statnaam": "Jagersbuurt West"}, "geometry": {"type": "MultiPolygon", "coordinates": [[[[5.05128, 51.57478], [5.05367, 51.5738], [5.05301, 51.57145], [5.04897, 51.57154], [5.04485, 51.57241], [5.04619, 51.57557], [5.05128, 51.57478]]]]}}, {"type": "Feature", "properties": {"statcode": "BU08553805", "statnaam": "Jagersbuurt Oost"}, "geometry": {"type": "MultiPolygon", "coordinates": [[[[5.05524, 51.57366], [5.06187, 51.57307], [5.06155, 51.57135], [5.05835, 51.57086], [5.05301, 51.57145], [5.05367, 51.5738], [5.05524, 51.57366]]]]}}, {"type": "Feature", "properties": {"statcode": "BU08553806", "statnaam": "Luchthavenbuurt West"}, "geometry": {"type": "MultiPolygon", "coordinates": [[[[5.04897, 51.57154], [5.04755, 51.5678], [5.04319, 51.56811], [5.04374, 51.57004], [5.04485, 51.57241], [5.04897, 51.57154]]]]}}, {"type": "Feature", "properties": {"statcode": "BU08553807", "statnaam": "Luchthavenbuurt Oost"}, "geometry": {"type": "MultiPolygon", "coordinates": [[[[5.05301, 51.57145], [5.05165, 51.56733], [5.04755, 51.5678], [5.04897, 51.57154], [5.05301, 51.57145]]]]}}, {"type": "Feature", "properties": {"statcode": "BU08553808", "statnaam": "Westermarkt"}, "geometry": {"type": "MultiPolygon", "coordinates": [[[[5.05835, 51.57086], [5.05778, 51.56652], [5.05165, 51.56733], [5.05301, 51.57145], [5.05835, 51.57086]]]]}}, {"type": "Feature", "properties": {"statcode": "BU08553809", "statnaam": "Tiendschuur"}, "geometry": {"type": "MultiPolygon", "coordinates": [[[[5.06246, 51.56628], [5.05778, 51.56652], [5.05835, 51.57086], [5.06155, 51.57135], [5.06246, 51.56628]]]]}}, {"type": "Feature", "properties": {"statcode": "BU08553810", "statnaam": "Vijverlaan"}, "geometry": {"type": "MultiPolygon", "coordinates": [[[[5.04755, 51.5678], [5.05165, 51.56733], [5.05119, 51.56497], [5.0461, 51.56575], [5.04251, 51.5663], [5.04319, 51.56811], [5.04755, 51.5678]]]]}}, {"type": "Feature", "properties": {"statcode": "BU08553811", "statnaam": "Station Universiteit"}, "geometry": {"type": "MultiPolygon", "coordinates": [[[[5.05778, 51.56652], [5.057, 51.56409], [5.05119, 51.56497], [5.05165, 51.56733], [5.05778, 51.56652]]]]}}, {"type": "Feature", "properties": {"statcode": "BU08553812", "statnaam": "Bokhamer West"}, "geometry": {"type": "MultiPolygon", "coordinates": [[[[5.06246, 51.56628], [5.06183, 51.56338], [5.057, 51.56409], [5.05778, 51.56652], [5.06246, 51.56628]]]]}}, {"type": "Feature", "properties": {"statcode": "BU08553813", "statnaam": "Bokhamer"}, "geometry": {"type": "MultiPolygon", "coordinates": [[[[5.06576, 51.56626], [5.06518, 51.56289], [5.06183, 51.56338], [5.06246, 51.56628], [5.06576, 51.56626]]]]}}, {"type": "Feature", "properties": {"statcode": "BU08553814", "statnaam": "Rooi Pannen"}, "geometry": {"type": "MultiPolygon", "coordinates": [[[[5.06576, 51.56626], [5.06246, 51.56628], [5.06155, 51.57135], [5.06187, 51.57307], [5.06304, 51.57549], [5.0663, 51.57556], [5.06576, 51.56626]]]]}}, {"type": "Feature", "properties": {"statcode": "BU08553901", "statnaam": "Wandelbos Noord-West"}, "geometry": {"type": "MultiPolygon", "coordinates": [[[[5.03264, 51.58227], [5.03145, 51.57862], [5.03091, 51.57748], [5.02954, 51.57766], [5.02913, 51.57624], [5.02264, 51.57876], [5.02741, 51.58203], [5.02791, 51.58302], [5.03264, 51.58227]]]]}}, {"type": "Feature", "properties": {"statcode": "BU08553902", "statnaam": "Kruidenbuurt West"}, "geometry": {"type": "MultiPolygon", "coordinates": [[[[5.03994, 51.58153], [5.03888, 51.57717], [5.03145, 51.57862], [5.03264, 51.58227], [5.03994, 51.58153]]]]}}, {"type": "Feature", "properties": {"statcode": "BU08553903", "statnaam": "Kruidenbuurt Oost"}, "geometry": {"type": "MultiPolygon", "coordinates": [[[[5.04467, 51.58104], [5.04793, 51.57718], [5.04619, 51.57557], [5.0388, 51.57679], [5.03888, 51.57717], [5.03994, 51.58153], [5.04467, 51.58104]]]]}}, {"type": "Feature", "properties": {"statcode": "BU08553904", "statnaam": "Kruidenbuurt Zuid"}, "geometry": {"type": "MultiPolygon", "coordinates": [[[[5.03888, 51.57717], [5.0388, 51.57679], [5.0373, 51.57498], [5.02913, 51.57624], [5.02954, 51.57766], [5.03091, 51.57748], [5.03145, 51.57862], [5.03888, 51.57717]]]]}}, {"type": "Feature", "properties": {"statcode": "BU08553905", "statnaam": "Kleurenbuurt Noord"}, "geometry": {"type": "MultiPolygon", "coordinates": [[[[5.04619, 51.57557], [5.04485, 51.57241], [5.03809, 51.57477], [5.0373, 51.57498], [5.0388, 51.57679], [5.04619, 51.57557]]]]}}, {"type": "Feature", "properties": {"statcode": "BU08554001", "statnaam": "Het Wandelbos / Drijflanen"}, "geometry": {"type": "MultiPolygon", "coordinates": [[[[5.02913, 51.57624], [5.02862, 51.5725], [5.02762, 51.57151], [5.02546, 51.57219], [5.02414, 51.57163], [5.03123, 51.56945], [5.03543, 51.57231], [5.04374, 51.57004], [5.04319, 51.56811], [5.04251, 51.5663], [5.01785, 51.57004], [5.01997, 51.57294], [5.02247, 51.57862], [5.02264, 51.57876], [5.02913, 51.57624]]]]}}, {"type": "Feature", "properties": {"statcode": "BU08554002", "statnaam": "Auteursbuurt"}, "geometry": {"type": "MultiPolygon", "coordinates": [[[[5.0373, 51.57498], [5.03809, 51.57477], [5.03543, 51.57231], [5.03123, 51.56945], [5.02414, 51.57163], [5.02546, 51.57219], [5.02762, 51.57151], [5.02862, 51.5725], [5.02913, 51.57624], [5.0373, 51.57498]]]]}}, {"type": "Feature", "properties": {"statcode": "BU08554003", "statnaam": "Kleurenbuurt Zuid"}, "geometry": {"type": "MultiPolygon", "coordinates": [[[[5.04485, 51.57241], [5.04374, 51.57004], [5.03543, 51.57231], [5.03809, 51.57477], [5.04485, 51.57241]]]]}}, {"type": "Feature", "properties": {"statcode": "BU08554101", "statnaam": "De Oude Warande"}, "geometry": {"type": "MultiPolygon", "coordinates": [[[[5.04251, 51.5663], [5.03962, 51.56109], [5.03825, 51.55863], [5.01795, 51.56149], [5.01859, 51.56388], [5.01727, 51.56713], [5.01785, 51.57004], [5.04251, 51.5663]]]]}}, {"type": "Feature", "properties": {"statcode": "BU08554201", "statnaam": "Stokhasselt Noord-West"}, "geometry": {"type": "MultiPolygon", "coordinates": [[[[5.07399, 51.59569], [5.07508, 51.59398], [5.07456, 51.59219], [5.07323, 51.59128], [5.07036, 51.5916], [5.07134, 51.59624], [5.07399, 51.59569]]]]}}, {"type": "Feature", "properties": {"statcode": "BU08554202", "statnaam": "Stokhasselt Noord-Oost"}, "geometry": {"type": "MultiPolygon", "coordinates": [[[[5.08172, 51.59405], [5.08131, 51.59073], [5.08089, 51.58982], [5.07422, 51.59059], [5.07323, 51.59128], [5.07456, 51.59219], [5.07508, 51.59398], [5.07399, 51.59569], [5.08172, 51.59405]]]]}}, {"type": "Feature", "properties": {"statcode": "BU08554203", "statnaam": "Stokhasselt West"}, "geometry": {"type": "MultiPolygon", "coordinates": [[[[5.07323, 51.59128], [5.07422, 51.59059], [5.07234, 51.58776], [5.0693, 51.5881], [5.06972, 51.5894], [5.07036, 51.5916], [5.07323, 51.59128]]]]}}, {"type": "Feature", "properties": {"statcode": "BU08554204", "statnaam": "Stokhasselt Oost"}, "geometry": {"type": "MultiPolygon", "coordinates": [[[[5.08089, 51.58982], [5.07967, 51.58719], [5.07913, 51.58627], [5.07312, 51.58704], [5.07234, 51.58776], [5.07422, 51.59059], [5.08089, 51.58982]]]]}}, {"type": "Feature", "properties": {"statcode": "BU08554205", "statnaam": "Stokhasselt Zuid-West"}, "geometry": {"type": "MultiPolygon", "coordinates": [[[[5.07234, 51.58776], [5.07312, 51.58704], [5.071, 51.58344], [5.06772, 51.58379], [5.0693, 51.5881], [5.07234, 51.58776]]]]}}, {"type": "Feature", "properties": {"statcode": "BU08554206", "statnaam": "Stokhasselt Zuid-Oost"}, "geometry": {"type": "MultiPolygon", "coordinates": [[[[5.07913, 51.58627], [5.07622, 51.58271], [5.071, 51.58344], [5.07312, 51.58704], [5.07913, 51.58627]]]]}}, {"type": "Feature", "properties": {"statcode": "BU08554207", "statnaam": "Stokhasselt Zuid"}, "geometry": {"type": "MultiPolygon", "coordinates": [[[[5.071, 51.58344], [5.07622, 51.58271], [5.07427, 51.58061], [5.07344, 51.57791], [5.07266, 51.57798], [5.06624, 51.57864], [5.06772, 51.58379], [5.071, 51.58344]]]]}}, {"type": "Feature", "properties": {"statcode": "BU08554301", "statnaam": "Heikant Noord-West"}, "geometry": {"type": "MultiPolygon", "coordinates": [[[[5.09015, 51.59203], [5.08945, 51.5895], [5.08131, 51.59073], [5.08172, 51.59405], [5.09015, 51.59203]]]]}}, {"type": "Feature", "properties": {"statcode": "BU08554302", "statnaam": "Heikant Noord-Oost"}, "geometry": {"type": "MultiPolygon", "coordinates": [[[[5.09621, 51.59053], [5.09588, 51.5891], [5.08945, 51.5895], [5.09015, 51.59203], [5.09621, 51.59053]]]]}}, {"type": "Feature", "properties": {"statcode": "BU08554303", "statnaam": "Heikant West"}, "geometry": {"type": "MultiPolygon", "coordinates": [[[[5.08945, 51.5895], [5.0889, 51.58787], [5.08415, 51.58849], [5.08451, 51.58658], [5.08628, 51.58502], [5.08436, 51.58544], [5.07967, 51.58719], [5.08089, 51.58982], [5.08131, 51.59073], [5.08945, 51.5895]]]]}}, {"type": "Feature", "properties": {"statcode": "BU08554304", "statnaam": "Heikant Oost"}, "geometry": {"type": "MultiPolygon", "coordinates": [[[[5.09588, 51.5891], [5.09481, 51.58451], [5.09276, 51.58425], [5.08628, 51.58502], [5.08451, 51.58658], [5.08415, 51.58849], [5.0889, 51.58787], [5.08945, 51.5895], [5.09588, 51.5891]]]]}}, {"type": "Feature", "properties": {"statcode": "BU08554305", "statnaam": "Heikant Zuid-West"}, "geometry": {"type": "MultiPolygon", "coordinates": [[[[5.08436, 51.58544], [5.08221, 51.58153], [5.07622, 51.58271], [5.07913, 51.58627], [5.07967, 51.58719], [5.08436, 51.58544]]]]}}, {"type": "Feature", "properties": {"statcode": "BU08554306", "statnaam": "Heikant Zuid-Oost"}, "geometry": {"type": "MultiPolygon", "coordinates": [[[[5.08628, 51.58502], [5.09276, 51.58425], [5.09481, 51.58451], [5.09371, 51.5811], [5.08364, 51.58136], [5.08221, 51.58153], [5.08436, 51.58544], [5.08628, 51.58502]]]]}}, {"type": "Feature", "properties": {"statcode": "BU08554307", "statnaam": "Lijnse Hoek West"}, "geometry": {"type": "MultiPolygon", "coordinates": [[[[5.08221, 51.58153], [5.08364, 51.58136], [5.08461, 51.57897], [5.07344, 51.57791], [5.07427, 51.58061], [5.07622, 51.58271], [5.08221, 51.58153]]]]}}, {"type": "Feature", "properties": {"statcode": "BU08554308", "statnaam": "Lijnse Hoek Oost"}, "geometry": {"type": "MultiPolygon", "coordinates": [[[[5.09371, 51.5811], [5.09067, 51.57811], [5.08461, 51.57897], [5.08364, 51.58136], [5.09371, 51.5811]]]]}}, {"type": "Feature", "properties": {"statcode": "BU08554401", "statnaam": "Quirijnstok Noord-West"}, "geometry": {"type": "MultiPolygon", "coordinates": [[[[5.10233, 51.58746], [5.09924, 51.58453], [5.09481, 51.58451], [5.09588, 51.5891], [5.09621, 51.59053], [5.10233, 51.58746]]]]}}, {"type": "Feature", "properties": {"statcode": "BU08554402", "statnaam": "Quirijnstok Noord-Oost"}, "geometry": {"type": "MultiPolygon", "coordinates": [[[[5.10568, 51.58582], [5.10287, 51.58306], [5.09924, 51.58453], [5.10233, 51.58746], [5.10568, 51.58582]]]]}}, {"type": "Feature", "properties": {"statcode": "BU08554403", "statnaam": "Quirijnstok West"}, "geometry": {"type": "MultiPolygon", "coordinates": [[[[5.10287, 51.58306], [5.10122, 51.58104], [5.09735, 51.58087], [5.09371, 51.5811], [5.09481, 51.58451], [5.09924, 51.58453], [5.10287, 51.58306]]]]}}, {"type": "Feature", "properties": {"statcode": "BU08554404", "statnaam": "Quirijnstok Zuid-West"}, "geometry": {"type": "MultiPolygon", "coordinates": [[[[5.09735, 51.58087], [5.09686, 51.57434], [5.09655, 51.5742], [5.09067, 51.57811], [5.09371, 51.5811], [5.09735, 51.58087]]]]}}, {"type": "Feature", "properties": {"statcode": "BU08554405", "statnaam": "Quirijnstok Zuid-Oost"}, "geometry": {"type": "MultiPolygon", "coordinates": [[[[5.10273, 51.58104], [5.10349, 51.58044], [5.1029, 51.57932], [5.10443, 51.57665], [5.10538, 51.57685], [5.10267, 51.5738], [5.09686, 51.57434], [5.09735, 51.58087], [5.10122, 51.58104], [5.10273, 51.58104]]]]}}, {"type": "Feature", "properties": {"statcode": "BU08554406", "statnaam": "Quirijnstokpark"}, "geometry": {"type": "MultiPolygon", "coordinates": [[[[5.10883, 51.5843], [5.10587, 51.5807], [5.10802, 51.57998], [5.10538, 51.57685], [5.10443, 51.57665], [5.1029, 51.57932], [5.10349, 51.58044], [5.10273, 51.58104], [5.10122, 51.58104], [5.10287, 51.58306], [5.10568, 51.58582], [5.10883, 51.5843]]]]}}, {"type": "Feature", "properties": {"statcode": "BU08554501", "statnaam": "Ind.terrein Loven Noord"}, "geometry": {"type": "MultiPolygon", "coordinates": [[[[5.11591, 51.58088], [5.11863, 51.57958], [5.12381, 51.57722], [5.11929, 51.57172], [5.11627, 51.56801], [5.11348, 51.56887], [5.1142, 51.56979], [5.11342, 51.56998], [5.10077, 51.57072], [5.09655, 51.5742], [5.09686, 51.57434], [5.10267, 51.5738], [5.10538, 51.57685], [5.10802, 51.57998], [5.10587, 51.5807], [5.10883, 51.5843], [5.11591, 51.58088]]]]}}, {"type": "Feature", "properties": {"statcode": "BU08554502", "statnaam": "Ind.terrein Loven Zuid"}, "geometry": {"type": "MultiPolygon", "coordinates": [[[[5.11342, 51.56998], [5.1142, 51.56979], [5.11348, 51.56887], [5.11627, 51.56801], [5.11274, 51.56392], [5.10982, 51.56242], [5.109, 51.56223], [5.10832, 51.56329], [5.10643, 51.56591], [5.10077, 51.57072], [5.11342, 51.56998]]]]}}, {"type": "Feature", "properties": {"statcode": "BU08554601", "statnaam": "Bosscheweg"}, "geometry": {"type": "MultiPolygon", "coordinates": [[[[5.12058, 51.57], [5.12536, 51.56876], [5.12658, 51.56663], [5.10982, 51.56242], [5.11274, 51.56392], [5.11627, 51.56801], [5.11929, 51.57172], [5.12058, 51.57]]]]}}, {"type": "Feature", "properties": {"statcode": "BU08554701", "statnaam": "Moerse Dreef"}, "geometry": {"type": "MultiPolygon", "coordinates": [[[[5.02791, 51.58302], [5.02741, 51.58203], [5.01947, 51.58531], [5.01264, 51.58629], [5.00957, 51.58394], [5.00696, 51.58439], [5.00906, 51.58589], [5.00504, 51.58814], [5.00602, 51.59127], [5.02791, 51.58302]]]]}}, {"type": "Feature", "properties": {"statcode": "BU08554702", "statnaam": "Gesworen Hoek West"}, "geometry": {"type": "MultiPolygon", "coordinates": [[[[5.01947, 51.58531], [5.01807, 51.58413], [5.01604, 51.58308], [5.01517, 51.58357], [5.01356, 51.58247], [5.00957, 51.58394], [5.01264, 51.58629], [5.01947, 51.58531]]]]}}, {"type": "Feature", "properties": {"statcode": "BU08554703", "statnaam": "Gesworen Hoek Zuid"}, "geometry": {"type": "MultiPolygon", "coordinates": [[[[5.02227, 51.5815], [5.01928, 51.57971], [5.01657, 51.58077], [5.01356, 51.58247], [5.01517, 51.58357], [5.01604, 51.58308], [5.01807, 51.58413], [5.02227, 51.5815]]]]}}, {"type": "Feature", "properties": {"statcode": "BU08554704", "statnaam": "Gesworen Hoek Oost"}, "geometry": {"type": "MultiPolygon", "coordinates": [[[[5.02741, 51.58203], [5.02264, 51.57876], [5.02247, 51.57862], [5.01928, 51.57971], [5.02227, 51.5815], [5.01807, 51.58413], [5.01947, 51.58531], [5.02741, 51.58203]]]]}}, {"type": "Feature", "properties": {"statcode": "BU08554801", "statnaam": "Huibeven West"}, "geometry": {"type": "MultiPolygon", "coordinates": [[[[5.00957, 51.58394], [5.01356, 51.58247], [5.01657, 51.58077], [5.01602, 51.58007], [5.00693, 51.57802], [5.00506, 51.57918], [5.00696, 51.58439], [5.00957, 51.58394]]]]}}, {"type": "Feature", "properties": {"statcode": "BU08554802", "statnaam": "Huibeven Midden"}, "geometry": {"type": "MultiPolygon", "coordinates": [[[[5.01424, 51.57471], [5.00711, 51.57678], [5.00693, 51.57802], [5.01602, 51.58007], [5.01424, 51.57471]]]]}}, {"type": "Feature", "properties": {"statcode": "BU08554803", "statnaam": "Huibeven Oost"}, "geometry": {"type": "MultiPolygon", "coordinates": [[[[5.01928, 51.57971], [5.02247, 51.57862], [5.01997, 51.57294], [5.01424, 51.57471], [5.01602, 51.58007], [5.01657, 51.58077], [5.01928, 51.57971]]]]}}, {"type": "Feature", "properties": {"statcode": "BU08554804", "statnaam": "Huibeven Zuid"}, "geometry": {"type": "MultiPolygon", "coordinates": [[[[5.01424, 51.57471], [5.01997, 51.57294], [5.01785, 51.57004], [5.00535, 51.57191], [5.00711, 51.57678], [5.01424, 51.57471]]]]}}, {"type": "Feature", "properties": {"statcode": "BU08554901", "statnaam": "Campenhoef West"}, "geometry": {"type": "MultiPolygon", "coordinates": [[[[5.00213, 51.57819], [5.00183, 51.57778], [4.99638, 51.57857], [4.99451, 51.5735], [4.99287, 51.57374], [4.99324, 51.57625], [4.99553, 51.58004], [5.00213, 51.57819]]]]}}, {"type": "Feature", "properties": {"statcode": "BU08554902", "statnaam": "Campenhoef Midden"}, "geometry": {"type": "MultiPolygon", "coordinates": [[[[5.00183, 51.57778], [5.0025, 51.57664], [5.00156, 51.57247], [4.99451, 51.5735], [4.99638, 51.57857], [5.00183, 51.57778]]]]}}, {"type": "Feature", "properties": {"statcode": "BU08554903", "statnaam": "Campenhoef Oost"}, "geometry": {"type": "MultiPolygon", "coordinates": [[[[5.00535, 51.57191], [5.00156, 51.57247], [5.0025, 51.57664], [5.00711, 51.57678], [5.00535, 51.57191]]]]}}, {"type": "Feature", "properties": {"statcode": "BU08555001", "statnaam": "Heyhoef"}, "geometry": {"type": "MultiPolygon", "coordinates": [[[[5.00693, 51.57802], [5.00711, 51.57678], [5.0025, 51.57664], [5.00183, 51.57778], [5.00213, 51.57819], [5.00375, 51.57893], [5.00506, 51.57918], [5.00693, 51.57802]]]]}}, {"type": "Feature", "properties": {"statcode": "BU08555101", "statnaam": "Heerevelden West"}, "geometry": {"type": "MultiPolygon", "coordinates": [[[[5.00218, 51.58513], [5.00137, 51.58297], [5.00375, 51.57893], [5.00213, 51.57819], [4.99553, 51.58004], [4.99629, 51.58248], [4.99637, 51.58277], [4.99736, 51.58586], [5.00218, 51.58513]]]]}}, {"type": "Feature", "properties": {"statcode": "BU08555102", "statnaam": "Heerevelden Oost"}, "geometry": {"type": "MultiPolygon", "coordinates": [[[[5.00696, 51.58439], [5.00506, 51.57918], [5.00375, 51.57893], [5.00137, 51.58297], [5.00218, 51.58513], [5.00696, 51.58439]]]]}}, {"type": "Feature", "properties": {"statcode": "BU08555201", "statnaam": "Dongewijk Noord"}, "geometry": {"type": "MultiPolygon", "coordinates": [[[[4.99629, 51.58248], [4.99553, 51.58004], [4.99324, 51.57625], [4.99008, 51.5764], [4.9866, 51.57502], [4.98637, 51.57977], [4.98556, 51.58408], [4.99629, 51.58248]]]]}}, {"type": "Feature", "properties": {"statcode": "BU08555202", "statnaam": "Dongewijk Zuid"}, "geometry": {"type": "MultiPolygon", "coordinates": [[[[4.99324, 51.57625], [4.99287, 51.57374], [4.98664, 51.57468], [4.9866, 51.57502], [4.99008, 51.5764], [4.99324, 51.57625]]]]}}, {"type": "Feature", "properties": {"statcode": "BU08555301", "statnaam": "De Kievit Noord-West"}, "geometry": {"type": "MultiPolygon", "coordinates": [[[[4.99504, 51.59097], [4.99432, 51.58839], [4.99245, 51.58665], [4.98692, 51.58739], [4.98742, 51.58912], [4.99096, 51.59127], [4.99504, 51.59097]]]]}}, {"type": "Feature", "properties": {"statcode": "BU08555302", "statnaam": "De Kievit Noord-Oost"}, "geometry": {"type": "MultiPolygon", "coordinates": [[[[5.00037, 51.59016], [5.00504, 51.58814], [5.00906, 51.58589], [5.00696, 51.58439], [5.00218, 51.58513], [5.00201, 51.58696], [5.0002, 51.5884], [4.99736, 51.58895], [4.99432, 51.58839], [4.99504, 51.59097], [5.00037, 51.59016]]]]}}, {"type": "Feature", "properties": {"statcode": "BU08555303", "statnaam": "De Kievit Zuid-West"}, "geometry": {"type": "MultiPolygon", "coordinates": [[[[4.98692, 51.58739], [4.99245, 51.58665], [4.99298, 51.58418], [4.99637, 51.58277], [4.99629, 51.58248], [4.98556, 51.58408], [4.98472, 51.5882], [4.98692, 51.58739]]]]}}, {"type": "Feature", "properties": {"statcode": "BU08555304", "statnaam": "De Kievit Zuid-Oost"}, "geometry": {"type": "MultiPolygon", "coordinates": [[[[5.00218, 51.58513], [4.99736, 51.58586], [4.99637, 51.58277], [4.99298, 51.58418], [4.99245, 51.58665], [4.99432, 51.58839], [4.99736, 51.58895], [5.0002, 51.5884], [5.00201, 51.58696], [5.00218, 51.58513]]]]}}, {"type": "Feature", "properties": {"statcode": "BU08555401", "statnaam": "Lange Rekken"}, "geometry": {"type": "MultiPolygon", "coordinates": [[[[4.97713, 51.6022], [4.97392, 51.5973], [4.97429, 51.59208], [4.9734, 51.59207], [4.97286, 51.59731], [4.96777, 51.59769], [4.96874, 51.60206], [4.96784, 51.60286], [4.96116, 51.60618], [4.94881, 51.61038], [4.94785, 51.61117], [4.95025, 51.61239], [4.97713, 51.6022]]]]}}, {"type": "Feature", "properties": {"statcode": "BU08555402", "statnaam": "Reeshofweide"}, "geometry": {"type": "MultiPolygon", "coordinates": [[[[4.98395, 51.59961], [4.97904, 51.59384], [4.97924, 51.59322], [4.97899, 51.59311], [4.97741, 51.59622], [4.97392, 51.5973], [4.97713, 51.6022], [4.98395, 51.59961]]]]}}, {"type": "Feature", "properties": {"statcode": "BU08555403", "statnaam": "Dalemweide"}, "geometry": {"type": "MultiPolygon", "coordinates": [[[[4.97741, 51.59622], [4.97899, 51.59311], [4.97671, 51.59208], [4.97429, 51.59208], [4.97392, 51.5973], [4.97741, 51.59622]]]]}}, {"type": "Feature", "properties": {"statcode": "BU08555404", "statnaam": "Leeuwerik West"}, "geometry": {"type": "MultiPolygon", "coordinates": [[[[4.9898, 51.59739], [4.9874, 51.59409], [4.97924, 51.59322], [4.97904, 51.59384], [4.98395, 51.59961], [4.9898, 51.59739]]]]}}, {"type": "Feature", "properties": {"statcode": "BU08555405", "statnaam": "Leeuwerik Midden"}, "geometry": {"type": "MultiPolygon", "coordinates": [[[[4.99523, 51.59535], [4.99614, 51.595], [4.99504, 51.59097], [4.99096, 51.59127], [4.9874, 51.59409], [4.9898, 51.59739], [4.99523, 51.59535]]]]}}, {"type": "Feature", "properties": {"statcode": "BU08555406", "statnaam": "Leeuwerik Oost"}, "geometry": {"type": "MultiPolygon", "coordinates": [[[[5.00206, 51.59278], [5.00602, 51.59127], [5.00504, 51.58814], [5.00037, 51.59016], [4.99504, 51.59097], [4.99614, 51.595], [5.00206, 51.59278]]]]}}, {"type": "Feature", "properties": {"statcode": "BU08555407", "statnaam": "Leeuwerik Zuid"}, "geometry": {"type": "MultiPolygon", "coordinates": [[[[4.99096, 51.59127], [4.98742, 51.58912], [4.98692, 51.58739], [4.98472, 51.5882], [4.98416, 51.58854], [4.97899, 51.59311], [4.97924, 51.59322], [4.9874, 51.59409], [4.99096, 51.59127]]]]}}, {"type": "Feature", "properties": {"statcode": "BU08555501", "statnaam": "Dalem Noord I"}, "geometry": {"type": "MultiPolygon", "coordinates": [[[[4.98416, 51.58854], [4.98141, 51.58728], [4.97986, 51.5893], [4.97688, 51.58989], [4.97671, 51.59208], [4.97899, 51.59311], [4.98416, 51.58854]]]]}}, {"type": "Feature", "properties": {"statcode": "BU08555502", "statnaam": "Dalem Noord II"}, "geometry": {"type": "MultiPolygon", "coordinates": [[[[4.97986, 51.5893], [4.98141, 51.58728], [4.98416, 51.58854], [4.98472, 51.5882], [4.98556, 51.58408], [4.98385, 51.58383], [4.97611, 51.58471], [4.97688, 51.58989], [4.97986, 51.5893]]]]}}, {"type": "Feature", "properties": {"statcode": "BU08555503", "statnaam": "Stadsrand Dalem Noord"}, "geometry": {"type": "MultiPolygon", "coordinates": [[[[4.97671, 51.59208], [4.97688, 51.58989], [4.97611, 51.58471], [4.97234, 51.58515], [4.9734, 51.59207], [4.97429, 51.59208], [4.97671, 51.59208]]]]}}, {"type": "Feature", "properties": {"statcode": "BU08555601", "statnaam": "Dalem Zuid I"}, "geometry": {"type": "MultiPolygon", "coordinates": [[[[4.98385, 51.58383], [4.98556, 51.58408], [4.98637, 51.57977], [4.9753, 51.58124], [4.97611, 51.58471], [4.98385, 51.58383]]]]}}, {"type": "Feature", "properties": {"statcode": "BU08555602", "statnaam": "Dalem Zuid II"}, "geometry": {"type": "MultiPolygon", "coordinates": [[[[4.98637, 51.57977], [4.9866, 51.57502], [4.98664, 51.57468], [4.98254, 51.57531], [4.97724, 51.57611], [4.97486, 51.57815], [4.9753, 51.58124], [4.98637, 51.57977]]]]}}, {"type": "Feature", "properties": {"statcode": "BU08555603", "statnaam": "Stadsrand Dalem Zuid"}, "geometry": {"type": "MultiPolygon", "coordinates": [[[[4.97611, 51.58471], [4.9753, 51.58124], [4.97486, 51.57815], [4.97724, 51.57611], [4.97266, 51.57678], [4.9692, 51.57727], [4.97027, 51.57722], [4.97234, 51.58515], [4.97611, 51.58471]]]]}}, {"type": "Feature", "properties": {"statcode": "BU08555701", "statnaam": "Koolhoven Noord"}, "geometry": {"type": "MultiPolygon", "coordinates": [[[[4.97724, 51.57611], [4.98254, 51.57531], [4.98142, 51.57238], [4.97154, 51.57385], [4.97266, 51.57678], [4.97724, 51.57611]]]]}}, {"type": "Feature", "properties": {"statcode": "BU08555702", "statnaam": "Koolhoven Zuid"}, "geometry": {"type": "MultiPolygon", "coordinates": [[[[4.98142, 51.57238], [4.98071, 51.57052], [4.98002, 51.56902], [4.97034, 51.57046], [4.97154, 51.57385], [4.98142, 51.57238]]]]}}, {"type": "Feature", "properties": {"statcode": "BU08555703", "statnaam": "Koolhoven Buiten"}, "geometry": {"type": "MultiPolygon", "coordinates": [[[[4.98664, 51.57468], [4.9866, 51.57161], [4.98564, 51.57175], [4.98565, 51.57054], [4.98071, 51.57052], [4.98142, 51.57238], [4.98254, 51.57531], [4.98664, 51.57468]]]]}}, {"type": "Feature", "properties": {"statcode": "BU08555704", "statnaam": "Buitengebied Koolhoven"}, "geometry": {"type": "MultiPolygon", "coordinates": [[[[4.97266, 51.57678], [4.97154, 51.57385], [4.97034, 51.57046], [4.98002, 51.56902], [4.98071, 51.57052], [4.98565, 51.57054], [4.98564, 51.57175], [4.9866, 51.57161], [4.98694, 51.56586], [4.9681, 51.56932], [4.96899, 51.5713], [4.96678, 51.57366], [4.9692, 51.57727], [4.97266, 51.57678]]]]}}, {"type": "Feature", "properties": {"statcode": "BU08555705", "statnaam": "Koolhoven Oost"}, "geometry": {"type": "MultiPolygon", "coordinates": [[[[4.99287, 51.57374], [4.99312, 51.57064], [4.99286, 51.56495], [4.98694, 51.56586], [4.9866, 51.57161], [4.98664, 51.57468], [4.99287, 51.57374]]]]}}, {"type": "Feature", "properties": {"statcode": "BU08555801", "statnaam": "Witbrant West"}, "geometry": {"type": "MultiPolygon", "coordinates": [[[[4.99451, 51.5735], [5.00156, 51.57247], [5.00535, 51.57191], [5.00436, 51.56896], [4.99312, 51.57064], [4.99287, 51.57374], [4.99451, 51.5735]]]]}}, {"type": "Feature", "properties": {"statcode": "BU08555802", "statnaam": "Witbrant Oost"}, "geometry": {"type": "MultiPolygon", "coordinates": [[[[5.01785, 51.57004], [5.01727, 51.56713], [5.01859, 51.56388], [5.01302, 51.56657], [5.00679, 51.56743], [5.00667, 51.56862], [5.00436, 51.56896], [5.00535, 51.57191], [5.01785, 51.57004]]]]}}, {"type": "Feature", "properties": {"statcode": "BU08555803", "statnaam": "Buitengebied Witbrant"}, "geometry": {"type": "MultiPolygon", "coordinates": [[[[5.00436, 51.56896], [5.00667, 51.56862], [5.00679, 51.56743], [5.01302, 51.56657], [5.01859, 51.56388], [5.01795, 51.56149], [5.01183, 51.56229], [5.00815, 51.56279], [4.99794, 51.56424], [4.99286, 51.56495], [4.99312, 51.57064], [5.00436, 51.56896]]]]}}, {"type": "Feature", "properties": {"statcode": "BU08555901", "statnaam": "Buitengebied Kraaiven West"}, "geometry": {"type": "MultiPolygon", "coordinates": [[[[5.05298, 51.59408], [5.05306, 51.59356], [5.0429, 51.58866], [5.03883, 51.59146], [5.03411, 51.59471], [5.03813, 51.59707], [5.05298, 51.59408]]]]}}, {"type": "Feature", "properties": {"statcode": "BU08555902", "statnaam": "Buitengebied Kraaiven Oost"}, "geometry": {"type": "MultiPolygon", "coordinates": [[[[5.07155, 51.59789], [5.07134, 51.59624], [5.07036, 51.5916], [5.06972, 51.5894], [5.067, 51.58955], [5.0571, 51.59065], [5.05759, 51.59117], [5.05543, 51.59299], [5.05306, 51.59356], [5.05298, 51.59408], [5.05623, 51.59417], [5.0676, 51.59781], [5.07155, 51.59789]]]]}}, {"type": "Feature", "properties": {"statcode": "BU08555903", "statnaam": "Bedrijventerrein Kraaiven West"}, "geometry": {"type": "MultiPolygon", "coordinates": [[[[5.0429, 51.58866], [5.03768, 51.58591], [5.03401, 51.58839], [5.03883, 51.59146], [5.0429, 51.58866]]]]}}, {"type": "Feature", "properties": {"statcode": "BU08555904", "statnaam": "Bedrijventerrein Kraaiven"}, "geometry": {"type": "MultiPolygon", "coordinates": [[[[5.05543, 51.59299], [5.05759, 51.59117], [5.0571, 51.59065], [5.067, 51.58955], [5.06412, 51.57891], [5.04467, 51.58104], [5.03768, 51.58591], [5.0429, 51.58866], [5.05306, 51.59356], [5.05543, 51.59299]]]]}}, {"type": "Feature", "properties": {"statcode": "BU08555905", "statnaam": "Bedrijventerrein Kraaiven PDV"}, "geometry": {"type": "MultiPolygon", "coordinates": [[[[5.06972, 51.5894], [5.0693, 51.5881], [5.06772, 51.58379], [5.06624, 51.57864], [5.06412, 51.57891], [5.067, 51.58955], [5.06972, 51.5894]]]]}}, {"type": "Feature", "properties": {"statcode": "BU08556001", "statnaam": "Bedrijventerrein Vossenberg West II"}, "geometry": {"type": "MultiPolygon", "coordinates": [[[[4.99636, 51.60753], [4.99652, 51.60147], [4.99523, 51.59535], [4.9898, 51.59739], [4.98395, 51.59961], [4.97713, 51.6022], [4.98099, 51.60573], [4.98423, 51.6072], [4.99636, 51.60753]]]]}}, {"type": "Feature", "properties": {"statcode": "BU08556002", "statnaam": "Bedrijventerrein Vossenberg West I"}, "geometry": {"type": "MultiPolygon", "coordinates": [[[[5.00396, 51.6069], [5.01521, 51.60289], [5.01394, 51.60158], [5.00638, 51.59716], [5.00206, 51.59278], [4.99614, 51.595], [4.99523, 51.59535], [4.99652, 51.60147], [4.99636, 51.60753], [5.00396, 51.6069]]]]}}, {"type": "Feature", "properties": {"statcode": "BU08556003", "statnaam": "Bedrijventerrein Vossenberg Scheg"}, "geometry": {"type": "MultiPolygon", "coordinates": [[[[5.02061, 51.60094], [5.03813, 51.59707], [5.03411, 51.59471], [5.02893, 51.59172], [5.01394, 51.60158], [5.01521, 51.60289], [5.02061, 51.60094]]]]}}, {"type": "Feature", "properties": {"statcode": "BU08556004", "statnaam": "Bedrijventerrein Vossenberg"}, "geometry": {"type": "MultiPolygon", "coordinates": [[[[5.02893, 51.59172], [5.03177, 51.58981], [5.02581, 51.58664], [5.0287, 51.58481], [5.02791, 51.58302], [5.00602, 51.59127], [5.00206, 51.59278], [5.00638, 51.59716], [5.01394, 51.60158], [5.02893, 51.59172]]]]}}, {"type": "Feature", "properties": {"statcode": "BU08556005", "statnaam": "Bedrijventerrein Vossenberg Scheg Oost"}, "geometry": {"type": "MultiPolygon", "coordinates": [[[[5.03883, 51.59146], [5.03401, 51.58839], [5.03177, 51.58981], [5.02893, 51.59172], [5.03411, 51.59471], [5.03883, 51.59146]]]]}}, {"type": "Feature", "properties": {"statcode": "BU08556006", "statnaam": "Bedrijventerrein Vossenberg PDV"}, "geometry": {"type": "MultiPolygon", "coordinates": [[[[5.03401, 51.58839], [5.0287, 51.58481], [5.02581, 51.58664], [5.03177, 51.58981], [5.03401, 51.58839]]]]}}, {"type": "Feature", "properties": {"statcode": "BU08556007", "statnaam": "Bedrijventerrein Albion"}, "geometry": {"type": "MultiPolygon", "coordinates": [[[[5.03768, 51.58591], [5.04467, 51.58104], [5.03994, 51.58153], [5.03264, 51.58227], [5.02791, 51.58302], [5.0287, 51.58481], [5.03401, 51.58839], [5.03768, 51.58591]]]]}}, {"type": "Feature", "properties": {"statcode": "BU08556101", "statnaam": "De Katsbogten"}, "geometry": {"type": "MultiPolygon", "coordinates": [[[[5.04793, 51.53944], [5.04573, 51.5336], [5.04436, 51.53083], [5.03272, 51.53017], [5.03356, 51.53102], [5.03159, 51.5353], [5.03322, 51.53993], [5.03672, 51.53999], [5.04793, 51.53944]]]]}}, {"type": "Feature", "properties": {"statcode": "BU08556102", "statnaam": "Tradepark 58 Noord"}, "geometry": {"type": "MultiPolygon", "coordinates": [[[[5.06298, 51.538], [5.06291, 51.53784], [5.06188, 51.53771], [5.06032, 51.53787], [5.05546, 51.53608], [5.05171, 51.53506], [5.04573, 51.5336], [5.04793, 51.53944], [5.0613, 51.53816], [5.06298, 51.538]]]]}}, {"type": "Feature", "properties": {"statcode": "BU08556103", "statnaam": "Tradepark 58 Zuid"}, "geometry": {"type": "MultiPolygon", "coordinates": [[[[5.05277, 51.53242], [5.05227, 51.52976], [5.05078, 51.52995], [5.04482, 51.53064], [5.04436, 51.53083], [5.04573, 51.5336], [5.05171, 51.53506], [5.05277, 51.53242]]]]}}, {"type": "Feature", "properties": {"statcode": "BU08556202", "statnaam": "Buitengebied Zuid-Oost"}, "geometry": {"type": "MultiPolygon", "coordinates": [[[[5.12535, 51.55059], [5.12389, 51.54829], [5.12305, 51.54447], [5.13085, 51.53906], [5.13366, 51.535], [5.13545, 51.53358], [5.1302, 51.5303], [5.12706, 51.53235], [5.1188, 51.54592], [5.1182, 51.54689], [5.12438, 51.55162], [5.12535, 51.55059]]]]}}, {"type": "Feature", "properties": {"statcode": "BU08556301", "statnaam": "Wijkevoort"}, "geometry": {"type": "MultiPolygon", "coordinates": [[[[4.95437, 51.56225], [4.95452, 51.561], [4.95836, 51.56207], [4.96601, 51.55742], [4.97533, 51.55404], [4.97505, 51.55128], [4.97874, 51.54759], [4.97912, 51.54559], [4.97845, 51.54481], [4.96924, 51.54899], [4.96413, 51.54991], [4.95348, 51.55053], [4.95298, 51.55341], [4.95118, 51.55805], [4.95114, 51.56092], [4.95437, 51.56225]]]]}}, {"type": "Feature", "properties": {"statcode": "BU08556302", "statnaam": "Buitengebied Gilzerbaan West"}, "geometry": {"type": "MultiPolygon", "coordinates": [[[[4.98875, 51.56286], [4.99261, 51.55969], [5.00423, 51.55296], [5.01128, 51.54687], [5.01988, 51.54196], [5.0205, 51.53895], [5.00157, 51.53749], [4.99341, 51.53841], [4.98763, 51.54002], [4.97546, 51.54013], [4.97666, 51.54242], [4.97956, 51.5442], [4.97845, 51.54481], [4.97912, 51.54559], [4.97874, 51.54759], [4.97505, 51.55128], [4.97533, 51.55404], [4.96601, 51.55742], [4.95836, 51.56207], [4.95452, 51.561], [4.95437, 51.56225], [4.96418, 51.56524], [4.96695, 51.56731], [4.96657, 51.56783], [4.96783, 51.56872], [4.9681, 51.56932], [4.98694, 51.56586], [4.98875, 51.56286]]]]}}, {"type": "Feature", "properties": {"statcode": "BU08556303", "statnaam": "Buitengebied Gilzerbaan Oost"}, "geometry": {"type": "MultiPolygon", "coordinates": [[[[4.99286, 51.56495], [4.99794, 51.56424], [4.99703, 51.56186], [5.00274, 51.55816], [5.00529, 51.55488], [5.00892, 51.55434], [5.01183, 51.56229], [5.01795, 51.56149], [5.03825, 51.55863], [5.03969, 51.55836], [5.03799, 51.55365], [5.03984, 51.55368], [5.03966, 51.55161], [5.0382, 51.55151], [5.03829, 51.54963], [5.03597, 51.54618], [5.02995, 51.54403], [5.03322, 51.53993], [5.03159, 51.5353], [5.03356, 51.53102], [5.03272, 51.53017], [5.0305, 51.52951], [5.02752, 51.53344], [5.0225, 51.53846], [5.0205, 51.53895], [5.01988, 51.54196], [5.01128, 51.54687], [5.00423, 51.55296], [4.99261, 51.55969], [4.98875, 51.56286], [4.98694, 51.56586], [4.99286, 51.56495]]]]}}, {"type": "Feature", "properties": {"statcode": "BU08556304", "statnaam": "Amarant Piusoord"}, "geometry": {"type": "MultiPolygon", "coordinates": [[[[5.00815, 51.56279], [5.01183, 51.56229], [5.00892, 51.55434], [5.00529, 51.55488], [5.00274, 51.55816], [4.99703, 51.56186], [4.99794, 51.56424], [5.00815, 51.56279]]]]}}, {"type": "Feature", "properties": {"statcode": "BU08556401", "statnaam": "Buitengebied Noord-Oost"}, "geometry": {"type": "MultiPolygon", "coordinates": [[[[5.10132, 51.61658], [5.10466, 51.61244], [5.1151, 51.60714], [5.11728, 51.60447], [5.12884, 51.5947], [5.12973, 51.5925], [5.12834, 51.59233], [5.11623, 51.58707], [5.11, 51.58554], [5.10933, 51.58927], [5.10699, 51.59202], [5.09459, 51.59777], [5.08601, 51.59909], [5.07415, 51.59774], [5.07155, 51.59789], [5.07151, 51.60827], [5.07207, 51.60832], [5.07406, 51.60948], [5.07402, 51.60568], [5.07554, 51.60577], [5.07554, 51.60895], [5.08018, 51.60954], [5.07944, 51.61078], [5.09374, 51.61125], [5.096, 51.61247], [5.09916, 51.61771], [5.10132, 51.61658]]]]}}, {"type": "Feature", "properties": {"statcode": "BU08556402", "statnaam": "Rugdijk-Hazennest"}, "geometry": {"type": "MultiPolygon", "coordinates": [[[[5.09459, 51.59777], [5.10699, 51.59202], [5.10933, 51.58927], [5.11, 51.58554], [5.1117, 51.58358], [5.11616, 51.58135], [5.11591, 51.58088], [5.10883, 51.5843], [5.10568, 51.58582], [5.10233, 51.58746], [5.09621, 51.59053], [5.09015, 51.59203], [5.08172, 51.59405], [5.07399, 51.59569], [5.07134, 51.59624], [5.07155, 51.59789], [5.07415, 51.59774], [5.08601, 51.59909], [5.09459, 51.59777]]]]}}, {"type": "Feature", "properties": {"statcode": "BU08556403", "statnaam": "Oostkamer West"}, "geometry": {"type": "MultiPolygon", "coordinates": [[[[5.12245, 51.58695], [5.11874, 51.585], [5.11825, 51.58527], [5.11616, 51.58135], [5.1117, 51.58358], [5.11, 51.58554], [5.11623, 51.58707], [5.12834, 51.59233], [5.12245, 51.58695]]]]}}, {"type": "Feature", "properties": {"statcode": "BU08556501", "statnaam": "Buitengebied Noord-West"}, "geometry": {"type": "MultiPolygon", "coordinates": [[[[4.96532, 51.61294], [4.97755, 51.60909], [4.98236, 51.60867], [4.98351, 51.60736], [4.99154, 51.60792], [5.00449, 51.60789], [5.04204, 51.60614], [5.04402, 51.60736], [5.04501, 51.6111], [5.06025, 51.61078], [5.06177, 51.60935], [5.07059, 51.61029], [5.07098, 51.60863], [5.07151, 51.60827], [5.07155, 51.59789], [5.0676, 51.59781], [5.05623, 51.59417], [5.05298, 51.59408], [5.03813, 51.59707], [5.02061, 51.60094], [5.01521, 51.60289], [5.00396, 51.6069], [4.99636, 51.60753], [4.98423, 51.6072], [4.98099, 51.60573], [4.97713, 51.6022], [4.95025, 51.61239], [4.95027, 51.61241], [4.95293, 51.61472], [4.95786, 51.61376], [4.96078, 51.61349], [4.96532, 51.61294]]]]}}, {"type": "Feature", "properties": {"statcode": "BU08556601", "statnaam": "Bedrijventerrein Schepersven"}, "geometry": {"type": "MultiPolygon", "coordinates": [[[[5.12786, 51.58204], [5.12444, 51.57797], [5.12381, 51.57722], [5.11863, 51.57958], [5.11965, 51.58068], [5.11951, 51.58313], [5.12319, 51.58354], [5.12786, 51.58204]]]]}}, {"type": "Feature", "properties": {"statcode": "BU08556602", "statnaam": "Oostkamer Oost"}, "geometry": {"type": "MultiPolygon", "coordinates": [[[[5.13132, 51.58608], [5.12786, 51.58204], [5.12319, 51.58354], [5.11951, 51.58313], [5.11965, 51.58068], [5.11863, 51.57958], [5.11591, 51.58088], [5.11616, 51.58135], [5.11825, 51.58527], [5.11874, 51.585], [5.12245, 51.58695], [5.12834, 51.59233], [5.12973, 51.5925], [5.13132, 51.58608]]]]}}, {"type": "Feature", "properties": {"statcode": "BU08556603", "statnaam": "Buitengebied B-E Noord-West"}, "geometry": {"type": "MultiPolygon", "coordinates": [[[[5.14413, 51.60209], [5.14606, 51.60236], [5.1405, 51.59664], [5.13506, 51.59051], [5.13132, 51.58608], [5.12973, 51.5925], [5.12884, 51.5947], [5.13241, 51.59955], [5.13744, 51.60133], [5.13644, 51.60251], [5.13682, 51.60339], [5.14413, 51.60209]]]]}}, {"type": "Feature", "properties": {"statcode": "BU08556604", "statnaam": "Buitengebied B-E Noord-Oost"}, "geometry": {"type": "MultiPolygon", "coordinates": [[[[5.14822, 51.60096], [5.15237, 51.60019], [5.15842, 51.60056], [5.1631, 51.6015], [5.16632, 51.59779], [5.16568, 51.59686], [5.1703, 51.59224], [5.16144, 51.58667], [5.15619, 51.58794], [5.15576, 51.59016], [5.15315, 51.59231], [5.15289, 51.59374], [5.14447, 51.59292], [5.14357, 51.59582], [5.14114, 51.59618], [5.1405, 51.59664], [5.14606, 51.60236], [5.14822, 51.60096]]]]}}, {"type": "Feature", "properties": {"statcode": "BU08556605", "statnaam": "Bedrijventerrein Rhijnkant"}, "geometry": {"type": "MultiPolygon", "coordinates": [[[[5.14357, 51.59582], [5.14447, 51.59292], [5.14285, 51.5914], [5.14152, 51.5926], [5.14114, 51.59618], [5.14357, 51.59582]]]]}}, {"type": "Feature", "properties": {"statcode": "BU08556606", "statnaam": "Berkel Noord"}, "geometry": {"type": "MultiPolygon", "coordinates": [[[[5.14114, 51.59618], [5.14152, 51.5926], [5.14285, 51.5914], [5.14447, 51.59292], [5.15289, 51.59374], [5.15315, 51.59231], [5.14922, 51.59154], [5.14943, 51.59039], [5.14871, 51.59009], [5.14504, 51.58924], [5.14455, 51.58964], [5.13918, 51.58753], [5.13506, 51.59051], [5.1405, 51.59664], [5.14114, 51.59618]]]]}}, {"type": "Feature", "properties": {"statcode": "BU08556607", "statnaam": "Berkelse Akkers"}, "geometry": {"type": "MultiPolygon", "coordinates": [[[[5.15576, 51.59016], [5.15619, 51.58794], [5.14871, 51.59009], [5.14943, 51.59039], [5.14922, 51.59154], [5.15315, 51.59231], [5.15576, 51.59016]]]]}}, {"type": "Feature", "properties": {"statcode": "BU08556608", "statnaam": "Ruiven"}, "geometry": {"type": "MultiPolygon", "coordinates": [[[[5.15619, 51.58794], [5.16144, 51.58667], [5.15964, 51.58556], [5.15076, 51.5801], [5.14877, 51.57771], [5.14629, 51.58166], [5.14587, 51.58251], [5.14882, 51.58464], [5.14504, 51.58924], [5.14871, 51.59009], [5.15619, 51.58794]]]]}}, {"type": "Feature", "properties": {"statcode": "BU08556609", "statnaam": "Eikenbosch"}, "geometry": {"type": "MultiPolygon", "coordinates": [[[[5.14504, 51.58924], [5.14882, 51.58464], [5.14587, 51.58251], [5.14629, 51.58166], [5.13883, 51.58085], [5.14076, 51.58207], [5.13878, 51.58409], [5.14126, 51.58583], [5.13918, 51.58753], [5.14455, 51.58964], [5.14504, 51.58924]]]]}}, {"type": "Feature", "properties": {"statcode": "BU08556610", "statnaam": "Koningsoord"}, "geometry": {"type": "MultiPolygon", "coordinates": [[[[5.13918, 51.58753], [5.14126, 51.58583], [5.13878, 51.58409], [5.13272, 51.58359], [5.13132, 51.58608], [5.13506, 51.59051], [5.13918, 51.58753]]]]}}, {"type": "Feature", "properties": {"statcode": "BU08556611", "statnaam": "Rauwbraken"}, "geometry": {"type": "MultiPolygon", "coordinates": [[[[5.13272, 51.58359], [5.13878, 51.58409], [5.14076, 51.58207], [5.13883, 51.58085], [5.1355, 51.57865], [5.13215, 51.57779], [5.13075, 51.57878], [5.13224, 51.5804], [5.13005, 51.58096], [5.12786, 51.58204], [5.13132, 51.58608], [5.13272, 51.58359]]]]}}, {"type": "Feature", "properties": {"statcode": "BU08556612", "statnaam": "Enschot Oost"}, "geometry": {"type": "MultiPolygon", "coordinates": [[[[5.14877, 51.57771], [5.14716, 51.5768], [5.14749, 51.57557], [5.1441, 51.57626], [5.13834, 51.5743], [5.1355, 51.57865], [5.13883, 51.58085], [5.14629, 51.58166], [5.14877, 51.57771]]]]}}, {"type": "Feature", "properties": {"statcode": "BU08556613", "statnaam": "Enschot Midden"}, "geometry": {"type": "MultiPolygon", "coordinates": [[[[5.13834, 51.5743], [5.1281, 51.57056], [5.12711, 51.57249], [5.12987, 51.57311], [5.13093, 51.57507], [5.13006, 51.57601], [5.13215, 51.57779], [5.1355, 51.57865], [5.13834, 51.5743]]]]}}, {"type": "Feature", "properties": {"statcode": "BU08556614", "statnaam": "Enschotse Akkers"}, "geometry": {"type": "MultiPolygon", "coordinates": [[[[5.13224, 51.5804], [5.13075, 51.57878], [5.13215, 51.57779], [5.13006, 51.57601], [5.12809, 51.57813], [5.13005, 51.58096], [5.13224, 51.5804]]]]}}, {"type": "Feature", "properties": {"statcode": "BU08556615", "statnaam": "Bedrijventerrein Enschot"}, "geometry": {"type": "MultiPolygon", "coordinates": [[[[5.13005, 51.58096], [5.12809, 51.57813], [5.13006, 51.57601], [5.13093, 51.57507], [5.12987, 51.57311], [5.12711, 51.57249], [5.12444, 51.57797], [5.12786, 51.58204], [5.13005, 51.58096]]]]}}, {"type": "Feature", "properties": {"statcode": "BU08556616", "statnaam": "Enschot West"}, "geometry": {"type": "MultiPolygon", "coordinates": [[[[5.12711, 51.57249], [5.1281, 51.57056], [5.13008, 51.56745], [5.12658, 51.56663], [5.12536, 51.56876], [5.12058, 51.57], [5.11929, 51.57172], [5.12381, 51.57722], [5.12444, 51.57797], [5.12711, 51.57249]]]]}}, {"type": "Feature", "properties": {"statcode": "BU08556617", "statnaam": "Enschot Zuid"}, "geometry": {"type": "MultiPolygon", "coordinates": [[[[5.14749, 51.57557], [5.14552, 51.57451], [5.14496, 51.57388], [5.14268, 51.57037], [5.13008, 51.56745], [5.1281, 51.57056], [5.13834, 51.5743], [5.1441, 51.57626], [5.14749, 51.57557]]]]}}, {"type": "Feature", "properties": {"statcode": "BU08556618", "statnaam": "Buitengebied B-E Zuid-West"}, "geometry": {"type": "MultiPolygon", "coordinates": [[[[5.12525, 51.55245], [5.12438, 51.55162], [5.12176, 51.55431], [5.12304, 51.55674], [5.12886, 51.55984], [5.12658, 51.56663], [5.13008, 51.56745], [5.14268, 51.57037], [5.13784, 51.5632], [5.12525, 51.55245]]]]}}, {"type": "Feature", "properties": {"statcode": "BU08556619", "statnaam": "Buitengebied B-E Zuid-Oost"}, "geometry": {"type": "MultiPolygon", "coordinates": [[[[5.13914, 51.56132], [5.13787, 51.55909], [5.13757, 51.55208], [5.13912, 51.5507], [5.14116, 51.54953], [5.14784, 51.54712], [5.14747, 51.54681], [5.13239, 51.55195], [5.12855, 51.5527], [5.12525, 51.55245], [5.13784, 51.5632], [5.13914, 51.56132]]]]}}, {"type": "Feature", "properties": {"statcode": "BU08556620", "statnaam": "Buitengebied B-E Zuid"}, "geometry": {"type": "MultiPolygon", "coordinates": [[[[5.14747, 51.54681], [5.14382, 51.54623], [5.13869, 51.54596], [5.14188, 51.54209], [5.13366, 51.535], [5.13085, 51.53906], [5.12305, 51.54447], [5.12389, 51.54829], [5.12535, 51.55059], [5.12438, 51.55162], [5.12525, 51.55245], [5.12855, 51.5527], [5.13239, 51.55195], [5.14747, 51.54681]]]]}}, {"type": "Feature", "properties": {"statcode": "BU08556701", "statnaam": "Groenstraat"}, "geometry": {"type": "MultiPolygon", "coordinates": [[[[5.14999, 51.6172], [5.14321, 51.61397], [5.1411, 51.61197], [5.13813, 51.61269], [5.13478, 51.61347], [5.14204, 51.61857], [5.14699, 51.62029], [5.14999, 51.6172]]]]}}, {"type": "Feature", "properties": {"statcode": "BU08556702", "statnaam": "Achthoeven"}, "geometry": {"type": "MultiPolygon", "coordinates": [[[[5.15151, 51.61713], [5.14914, 51.61571], [5.15117, 51.61391], [5.15416, 51.61306], [5.15152, 51.60807], [5.1411, 51.61197], [5.14321, 51.61397], [5.14999, 51.6172], [5.15151, 51.61713]]]]}}, {"type": "Feature", "properties": {"statcode": "BU08556703", "statnaam": "Den Bogerd"}, "geometry": {"type": "MultiPolygon", "coordinates": [[[[5.15874, 51.61472], [5.15792, 51.61232], [5.15416, 51.61306], [5.15117, 51.61391], [5.14914, 51.61571], [5.15151, 51.61713], [5.15874, 51.61472]]]]}}, {"type": "Feature", "properties": {"statcode": "BU08556704", "statnaam": "De Mortel"}, "geometry": {"type": "MultiPolygon", "coordinates": [[[[5.15792, 51.61232], [5.15768, 51.61153], [5.15912, 51.61007], [5.1586, 51.60854], [5.15375, 51.60723], [5.15152, 51.60807], [5.15416, 51.61306], [5.15792, 51.61232]]]]}}, {"type": "Feature", "properties": {"statcode": "BU08556705", "statnaam": "De Kuil"}, "geometry": {"type": "MultiPolygon", "coordinates": [[[[5.1411, 51.61197], [5.13416, 51.60482], [5.12684, 51.60784], [5.13587, 51.61103], [5.13813, 51.61269], [5.1411, 51.61197]]]]}}, {"type": "Feature", "properties": {"statcode": "BU08556706", "statnaam": "Zeshoeven"}, "geometry": {"type": "MultiPolygon", "coordinates": [[[[5.15152, 51.60807], [5.15375, 51.60723], [5.15169, 51.60658], [5.14928, 51.60535], [5.14606, 51.60236], [5.14413, 51.60209], [5.13682, 51.60339], [5.13416, 51.60482], [5.1411, 51.61197], [5.15152, 51.60807]]]]}}, {"type": "Feature", "properties": {"statcode": "BU08556707", "statnaam": "Bedrijventerrein Kreitenmolen"}, "geometry": {"type": "MultiPolygon", "coordinates": [[[[5.1682, 51.60774], [5.16596, 51.60543], [5.15639, 51.60483], [5.15169, 51.60658], [5.15375, 51.60723], [5.1586, 51.60854], [5.16618, 51.61058], [5.1682, 51.60774]]]]}}, {"type": "Feature", "properties": {"statcode": "BU08556708", "statnaam": "Buitengebied Udenhout Zuid-Oost"}, "geometry": {"type": "MultiPolygon", "coordinates": [[[[5.17527, 51.60951], [5.16999, 51.60372], [5.17954, 51.59766], [5.1703, 51.59224], [5.16568, 51.59686], [5.16632, 51.59779], [5.1631, 51.6015], [5.15842, 51.60056], [5.15237, 51.60019], [5.14822, 51.60096], [5.14606, 51.60236], [5.14928, 51.60535], [5.15169, 51.60658], [5.15639, 51.60483], [5.16596, 51.60543], [5.1682, 51.60774], [5.16618, 51.61058], [5.17087, 51.61186], [5.17488, 51.61049], [5.17527, 51.60951]]]]}}, {"type": "Feature", "properties": {"statcode": "BU08556709", "statnaam": "Buitengebied Udenhout Zuid-West"}, "geometry": {"type": "MultiPolygon", "coordinates": [[[[5.12684, 51.60784], [5.13416, 51.60482], [5.13682, 51.60339], [5.13644, 51.60251], [5.13744, 51.60133], [5.13241, 51.59955], [5.12884, 51.5947], [5.11728, 51.60447], [5.1151, 51.60714], [5.11765, 51.60719], [5.122, 51.60834], [5.12684, 51.60784]]]]}}, {"type": "Feature", "properties": {"statcode": "BU08556710", "statnaam": "Buitengebied Udenhout Noord"}, "geometry": {"type": "MultiPolygon", "coordinates": [[[[5.14494, 51.64051], [5.14921, 51.63865], [5.16921, 51.6187], [5.16521, 51.61446], [5.16526, 51.61249], [5.16801, 51.61137], [5.17087, 51.61186], [5.16618, 51.61058], [5.1586, 51.60854], [5.15912, 51.61007], [5.15768, 51.61153], [5.15792, 51.61232], [5.15874, 51.61472], [5.15151, 51.61713], [5.14999, 51.6172], [5.14699, 51.62029], [5.14204, 51.61857], [5.13478, 51.61347], [5.13813, 51.61269], [5.13587, 51.61103], [5.12684, 51.60784], [5.122, 51.60834], [5.11765, 51.60719], [5.1151, 51.60714], [5.10466, 51.61244], [5.10132, 51.61658], [5.10296, 51.61691], [5.10122, 51.62041], [5.09985, 51.62785], [5.09812, 51.62824], [5.09818, 51.62882], [5.10137, 51.63271], [5.10614, 51.63596], [5.11588, 51.63761], [5.12307, 51.63819], [5.12926, 51.63788], [5.13771, 51.64027], [5.14494, 51.64051]]]]}}, {"type": "Feature", "properties": {"statcode": "BU08556801", "statnaam": "Kern Biezenmortel"}, "geometry": {"type": "MultiPolygon", "coordinates": [[[[5.18088, 51.62904], [5.17951, 51.62876], [5.17988, 51.6255], [5.18277, 51.62135], [5.18422, 51.62166], [5.18507, 51.62088], [5.18601, 51.61775], [5.18013, 51.61538], [5.17879, 51.61484], [5.17809, 51.61631], [5.17952, 51.61774], [5.17935, 51.62063], [5.17686, 51.6209], [5.17528, 51.62366], [5.1773, 51.62894], [5.18043, 51.63043], [5.18088, 51.62904]]]]}}, {"type": "Feature", "properties": {"statcode": "BU08556802", "statnaam": "Huize Assisië"}, "geometry": {"type": "MultiPolygon", "coordinates": [[[[5.19359, 51.6156], [5.19078, 51.61493], [5.19108, 51.61329], [5.18244, 51.6114], [5.18013, 51.61538], [5.18601, 51.61775], [5.1926, 51.62041], [5.19359, 51.6156]]]]}}, {"type": "Feature", "properties": {"statcode": "BU08556803", "statnaam": "Buitengebied Biezenmortel"}, "geometry": {"type": "MultiPolygon", "coordinates": [[[[5.19129, 51.63689], [5.19223, 51.63445], [5.19298, 51.63426], [5.19366, 51.63061], [5.19588, 51.62798], [5.20122, 51.62396], [5.20277, 51.62262], [5.20788, 51.6204], [5.20781, 51.6202], [5.21071, 51.61559], [5.20203, 51.61148], [5.18895, 51.60357], [5.18688, 51.60175], [5.17954, 51.59766], [5.16999, 51.60372], [5.17527, 51.60951], [5.17488, 51.61049], [5.17087, 51.61186], [5.16801, 51.61137], [5.16526, 51.61249], [5.16521, 51.61446], [5.16921, 51.6187], [5.14921, 51.63865], [5.14494, 51.64051], [5.16007, 51.63954], [5.17206, 51.6389], [5.17839, 51.63968], [5.17793, 51.64162], [5.17897, 51.64166], [5.17958, 51.63989], [5.18401, 51.64068], [5.19182, 51.63948], [5.19199, 51.63809], [5.19129, 51.63689]], [[5.17879, 51.61484], [5.18013, 51.61538], [5.18244, 51.6114], [5.19108, 51.61329], [5.19078, 51.61493], [5.19359, 51.6156], [5.1926, 51.62041], [5.18601, 51.61775], [5.18507, 51.62088], [5.18422, 51.62166], [5.18277, 51.62135], [5.17988, 51.6255], [5.17951, 51.62876], [5.18088, 51.62904], [5.18043, 51.63043], [5.1773, 51.62894], [5.17528, 51.62366], [5.17686, 51.6209], [5.17935, 51.62063], [5.17952, 51.61774], [5.17809, 51.61631], [5.17879, 51.61484]]]]}}]}