{"type": "FeatureCollection", "features": [{"type": "Feature", "properties": {"statcode": "WK085510", "statnaam": "Binnenstad"}, "geometry": {"type": "MultiPolygon", "coordinates": [[[[5.08704, 51.55147], [5.07998, 51.55041], [5.08007, 51.55249], [5.08117, 51.55336], [5.07982, 51.55432], [5.08061, 51.555], [5.07828, 51.55527], [5.07813, 51.56008], [5.08403, 51.56015], [5.09129, 51.55956], [5.09106, 51.55721], [5.09049, 51.55514], [5.08997, 51.55333], [5.08922, 51.55196], [5.08702, 51.5515], [5.08704, 51.55147]]]]}}, {"type": "Feature", "properties": {"statcode": "WK085511", "statnaam": "Hoogvenne"}, "geometry": {"type": "MultiPolygon", "coordinates": [[[[5.09822, 51.55208], [5.0926, 51.55098], [5.08896, 51.55123], [5.08922, 51.55196], [5.08997, 51.55333], [5.09049, 51.55514], [5.09106, 51.55721], [5.09129, 51.55956], [5.09152, 51.5599], [5.09829, 51.56022], [5.10062, 51.56065], [5.10355, 51.56123], [5.10464, 51.55755], [5.10517, 51.55624], [5.10617, 51.55501], [5.10378, 51.55415], [5.10002, 51.55283], [5.09845, 51.55244], [5.09799, 51.55239], [5.09822, 51.55208]]]]}}, {"type": "Feature", "properties": {"statcode": "WK085512", "statnaam": "Armhoef"}, "geometry": {"type": "MultiPolygon", "coordinates": [[[[5.11198, 51.55711], [5.10617, 51.55501], [5.10517, 51.55624], [5.10464, 51.55755], [5.10355, 51.56123], [5.10661, 51.56175], [5.109, 51.56223], [5.11113, 51.55853], [5.11198, 51.55711]]]]}}, {"type": "Feature", "properties": {"statcode": "WK085513", "statnaam": "Jeruzalem"}, "geometry": {"type": "MultiPolygon", "coordinates": [[[[5.1146, 51.55276], [5.10986, 51.55157], [5.10963, 51.55175], [5.10775, 51.55333], [5.10617, 51.55501], [5.11198, 51.55711], [5.11312, 51.55522], [5.1146, 51.55276]]]]}}, {"type": "Feature", "properties": {"statcode": "WK085514", "statnaam": "Fatima"}, "geometry": {"type": "MultiPolygon", "coordinates": [[[[5.10992, 51.55152], [5.10408, 51.54887], [5.10014, 51.54704], [5.09983, 51.54689], [5.09619, 51.54728], [5.09546, 51.54971], [5.09283, 51.54944], [5.0926, 51.55098], [5.09822, 51.55208], [5.09799, 51.55239], [5.09845, 51.55244], [5.10002, 51.55283], [5.10378, 51.55415], [5.10617, 51.55501], [5.10775, 51.55333], [5.10963, 51.55175], [5.10986, 51.55157], [5.10992, 51.55152]]]]}}, {"type": "Feature", "properties": {"statcode": "WK085515", "statnaam": "Broekhoven"}, "geometry": {"type": "MultiPolygon", "coordinates": [[[[5.0926, 51.55098], [5.09283, 51.54944], [5.09546, 51.54971], [5.09619, 51.54728], [5.09983, 51.54689], [5.09958, 51.54678], [5.09416, 51.54428], [5.08969, 51.5433], [5.08302, 51.5436], [5.08431, 51.54612], [5.08819, 51.54886], [5.08798, 51.54939], [5.08704, 51.55147], [5.08702, 51.5515], [5.08922, 51.55196], [5.08896, 51.55123], [5.0926, 51.55098]]]]}}, {"type": "Feature", "properties": {"statcode": "WK085516", "statnaam": "Oerle"}, "geometry": {"type": "MultiPolygon", "coordinates": [[[[5.08819, 51.54886], [5.08431, 51.54612], [5.08302, 51.5436], [5.08021, 51.54379], [5.07741, 51.54397], [5.06895, 51.54401], [5.06497, 51.54397], [5.06706, 51.54836], [5.06772, 51.54867], [5.0696, 51.54837], [5.07775, 51.54715], [5.08058, 51.54704], [5.07998, 51.55041], [5.08704, 51.55147], [5.08798, 51.54939], [5.08819, 51.54886]]]]}}, {"type": "Feature", "properties": {"statcode": "WK085517", "statnaam": "Korvel"}, "geometry": {"type": "MultiPolygon", "coordinates": [[[[5.06497, 51.54397], [5.06397, 51.54394], [5.05582, 51.54393], [5.0542, 51.54464], [5.05417, 51.546], [5.05671, 51.54728], [5.0568, 51.54733], [5.06013, 51.55012], [5.06142, 51.5518], [5.06336, 51.55478], [5.06381, 51.55625], [5.06843, 51.5559], [5.069, 51.5536], [5.06923, 51.55262], [5.06923, 51.55261], [5.06929, 51.54995], [5.0683, 51.54913], [5.06772, 51.54867], [5.06706, 51.54836], [5.06497, 51.54397]]]]}}, {"type": "Feature", "properties": {"statcode": "WK085518", "statnaam": "Trouwlaan - Uitvindersbuurt"}, "geometry": {"type": "MultiPolygon", "coordinates": [[[[5.07998, 51.55041], [5.08058, 51.54704], [5.07775, 51.54715], [5.0696, 51.54837], [5.06772, 51.54867], [5.0683, 51.54913], [5.06929, 51.54995], [5.07365, 51.55094], [5.0763, 51.55158], [5.07962, 51.55418], [5.07982, 51.55432], [5.08117, 51.55336], [5.08007, 51.55249], [5.07998, 51.55041]]]]}}, {"type": "Feature", "properties": {"statcode": "WK085519", "statnaam": "Sint Anna"}, "geometry": {"type": "MultiPolygon", "coordinates": [[[[5.07365, 51.55094], [5.06929, 51.54995], [5.06923, 51.55261], [5.06923, 51.55262], [5.069, 51.5536], [5.06843, 51.5559], [5.06849, 51.5559], [5.0757, 51.55536], [5.07828, 51.55527], [5.08061, 51.555], [5.07982, 51.55432], [5.07962, 51.55418], [5.0763, 51.55158], [5.07365, 51.55094]]]]}}, {"type": "Feature", "properties": {"statcode": "WK085520", "statnaam": "Noordhoek"}, "geometry": {"type": "MultiPolygon", "coordinates": [[[[5.06464, 51.56051], [5.06807, 51.56034], [5.07423, 51.56044], [5.0743, 51.56044], [5.07709, 51.56033], [5.07813, 51.56008], [5.07828, 51.55527], [5.0757, 51.55536], [5.06849, 51.5559], [5.06843, 51.5559], [5.06381, 51.55625], [5.06464, 51.56051]]]]}}, {"type": "Feature", "properties": {"statcode": "WK085521", "statnaam": "Spoorzone Zuid"}, "geometry": {"type": "MultiPolygon", "coordinates": [[[[5.07734, 51.56118], [5.09152, 51.5599], [5.09129, 51.55956], [5.08403, 51.56015], [5.07813, 51.56008], [5.07709, 51.56033], [5.0743, 51.56044], [5.07423, 51.56044], [5.06807, 51.56034], [5.06464, 51.56051], [5.06518, 51.56289], [5.07445, 51.56155], [5.07734, 51.56118]]]]}}, {"type": "Feature", "properties": {"statcode": "WK085522", "statnaam": "Bouwmeester"}, "geometry": {"type": "MultiPolygon", "coordinates": [[[[5.07724, 51.56716], [5.07745, 51.56202], [5.07457, 51.56215], [5.07445, 51.56155], [5.06518, 51.56289], [5.06576, 51.56626], [5.06918, 51.56676], [5.06936, 51.56682], [5.07409, 51.56855], [5.0756, 51.56793], [5.07724, 51.56716]]]]}}, {"type": "Feature", "properties": {"statcode": "WK085523", "statnaam": "De Hasselt"}, "geometry": {"type": "MultiPolygon", "coordinates": [[[[5.08055, 51.57274], [5.0756, 51.56793], [5.07409, 51.56855], [5.06936, 51.56682], [5.06918, 51.56676], [5.06576, 51.56626], [5.0663, 51.57556], [5.06643, 51.57557], [5.07223, 51.57617], [5.07384, 51.57633], [5.07732, 51.57647], [5.07941, 51.5738], [5.08055, 51.57274]]]]}}, {"type": "Feature", "properties": {"statcode": "WK085524", "statnaam": "Het Goirke"}, "geometry": {"type": "MultiPolygon", "coordinates": [[[[5.08183, 51.5672], [5.07724, 51.56716], [5.0756, 51.56793], [5.08055, 51.57274], [5.07941, 51.5738], [5.07732, 51.57647], [5.08602, 51.57678], [5.08498, 51.57581], [5.08346, 51.5753], [5.08357, 51.57333], [5.08659, 51.5685], [5.08575, 51.56782], [5.08256, 51.56741], [5.08183, 51.5672]]]]}}, {"type": "Feature", "properties": {"statcode": "WK085525", "statnaam": "Groeseind-Hoefstraat"}, "geometry": {"type": "MultiPolygon", "coordinates": [[[[5.0983, 51.56855], [5.09446, 51.56739], [5.08831, 51.56753], [5.08675, 51.56782], [5.08575, 51.56782], [5.08659, 51.5685], [5.08357, 51.57333], [5.08346, 51.5753], [5.08498, 51.57581], [5.08602, 51.57678], [5.08841, 51.57607], [5.09349, 51.57298], [5.09358, 51.57289], [5.09649, 51.57024], [5.0983, 51.56855]]]]}}, {"type": "Feature", "properties": {"statcode": "WK085526", "statnaam": "Loven-Besterd"}, "geometry": {"type": "MultiPolygon", "coordinates": [[[[5.0983, 51.56855], [5.10044, 51.5657], [5.10052, 51.56553], [5.10145, 51.56421], [5.10318, 51.5619], [5.10355, 51.56123], [5.10062, 51.56065], [5.09829, 51.56022], [5.09152, 51.5599], [5.09208, 51.56094], [5.09178, 51.56165], [5.08831, 51.56753], [5.09446, 51.56739], [5.0983, 51.56855]]]]}}, {"type": "Feature", "properties": {"statcode": "WK085527", "statnaam": "Theresia"}, "geometry": {"type": "MultiPolygon", "coordinates": [[[[5.08831, 51.56753], [5.09178, 51.56165], [5.08699, 51.56184], [5.08012, 51.56187], [5.07747, 51.56191], [5.07745, 51.56202], [5.07724, 51.56716], [5.08183, 51.5672], [5.08256, 51.56741], [5.08575, 51.56782], [5.08675, 51.56782], [5.08831, 51.56753]]]]}}, {"type": "Feature", "properties": {"statcode": "WK085528", "statnaam": "Spoorzone Noord"}, "geometry": {"type": "MultiPolygon", "coordinates": [[[[5.09208, 51.56094], [5.09152, 51.5599], [5.07734, 51.56118], [5.07445, 51.56155], [5.07457, 51.56215], [5.07745, 51.56202], [5.07747, 51.56191], [5.08012, 51.56187], [5.08699, 51.56184], [5.09178, 51.56165], [5.09208, 51.56094]]]]}}, {"type": "Feature", "properties": {"statcode": "WK085529", "statnaam": "Kanaalzone"}, "geometry": {"type": "MultiPolygon", "coordinates": [[[[5.09067, 51.57811], [5.09655, 51.5742], [5.10077, 51.57072], [5.10643, 51.56591], [5.10832, 51.56329], [5.109, 51.56223], [5.10661, 51.56175], [5.10355, 51.56123], [5.10318, 51.5619], [5.10145, 51.56421], [5.10052, 51.56553], [5.10044, 51.5657], [5.0983, 51.56855], [5.09649, 51.57024], [5.09358, 51.57289], [5.09349, 51.57298], [5.08841, 51.57607], [5.08602, 51.57678], [5.07732, 51.57647], [5.07384, 51.57633], [5.07223, 51.57617], [5.06643, 51.57557], [5.0663, 51.57556], [5.06624, 51.57864], [5.07266, 51.57798], [5.07344, 51.57791], [5.08461, 51.57897], [5.09067, 51.57811]]]]}}, {"type": "Feature", "properties": {"statcode": "WK085530", "statnaam": "Moerenburg"}, "geometry": {"type": "MultiPolygon", "coordinates": [[[[5.12886, 51.55984], [5.12304, 51.55674], [5.12176, 51.55431], [5.12438, 51.55162], [5.1182, 51.54689], [5.1146, 51.55276], [5.11312, 51.55522], [5.11198, 51.55711], [5.11113, 51.55853], [5.109, 51.56223], [5.10982, 51.56242], [5.12658, 51.56663], [5.12886, 51.55984]]]]}}, {"type": "Feature", "properties": {"statcode": "WK085531", "statnaam": "De Leij"}, "geometry": {"type": "MultiPolygon", "coordinates": [[[[5.10982, 51.53938], [5.1061, 51.53743], [5.10456, 51.53811], [5.10293, 51.53853], [5.10055, 51.53816], [5.09935, 51.53959], [5.10068, 51.54004], [5.10126, 51.54177], [5.10137, 51.54562], [5.09983, 51.54689], [5.10014, 51.54704], [5.10408, 51.54887], [5.10992, 51.55152], [5.10986, 51.55157], [5.1146, 51.55276], [5.1182, 51.54689], [5.1188, 51.54592], [5.11349, 51.54235], [5.11366, 51.54101], [5.11252, 51.54002], [5.10982, 51.53938]]]]}}, {"type": "Feature", "properties": {"statcode": "WK085532", "statnaam": "Groenewoud"}, "geometry": {"type": "MultiPolygon", "coordinates": [[[[5.10137, 51.54562], [5.10126, 51.54177], [5.10068, 51.54004], [5.09935, 51.53959], [5.10055, 51.53816], [5.10293, 51.53853], [5.10456, 51.53811], [5.1061, 51.53743], [5.10282, 51.53604], [5.09647, 51.53497], [5.08548, 51.53559], [5.08346, 51.53582], [5.08202, 51.54067], [5.08265, 51.54064], [5.08302, 51.5436], [5.08969, 51.5433], [5.09416, 51.54428], [5.09958, 51.54678], [5.09983, 51.54689], [5.10137, 51.54562]]]]}}, {"type": "Feature", "properties": {"statcode": "WK085533", "statnaam": "Stappegoor"}, "geometry": {"type": "MultiPolygon", "coordinates": [[[[5.08302, 51.5436], [5.08265, 51.54064], [5.08202, 51.54067], [5.08346, 51.53582], [5.07383, 51.53672], [5.07353, 51.53674], [5.06468, 51.53743], [5.06291, 51.53784], [5.06298, 51.538], [5.06409, 51.54131], [5.0647, 51.54319], [5.06497, 51.54397], [5.06895, 51.54401], [5.07741, 51.54397], [5.08021, 51.54379], [5.08302, 51.5436]]]]}}, {"type": "Feature", "properties": {"statcode": "WK085534", "statnaam": "Bedrijventerrein Het Laar"}, "geometry": {"type": "MultiPolygon", "coordinates": [[[[5.05582, 51.54393], [5.06397, 51.54394], [5.06497, 51.54397], [5.0647, 51.54319], [5.06409, 51.54131], [5.06298, 51.538], [5.0613, 51.53816], [5.04793, 51.53944], [5.05094, 51.54376], [5.05417, 51.546], [5.0542, 51.54464], [5.05582, 51.54393]]]]}}, {"type": "Feature", "properties": {"statcode": "WK085535", "statnaam": "De Blaak"}, "geometry": {"type": "MultiPolygon", "coordinates": [[[[5.04108, 51.55795], [5.05015, 51.55199], [5.05671, 51.54728], [5.05417, 51.546], [5.05094, 51.54376], [5.04793, 51.53944], [5.03672, 51.53999], [5.03322, 51.53993], [5.02995, 51.54403], [5.03597, 51.54618], [5.03829, 51.54963], [5.0382, 51.55151], [5.03966, 51.55161], [5.03984, 51.55368], [5.03799, 51.55365], [5.03969, 51.55836], [5.04108, 51.55795]]]]}}, {"type": "Feature", "properties": {"statcode": "WK085536", "statnaam": "Zorgvlied"}, "geometry": {"type": "MultiPolygon", "coordinates": [[[[5.0568, 51.54733], [5.05671, 51.54728], [5.05015, 51.55199], [5.04108, 51.55795], [5.0555, 51.55687], [5.06381, 51.55625], [5.06336, 51.55478], [5.06142, 51.5518], [5.06013, 51.55012], [5.0568, 51.54733]]]]}}, {"type": "Feature", "properties": {"statcode": "WK085537", "statnaam": "De Reit"}, "geometry": {"type": "MultiPolygon", "coordinates": [[[[5.06464, 51.56051], [5.06381, 51.55625], [5.0555, 51.55687], [5.04108, 51.55795], [5.03969, 51.55836], [5.03825, 51.55863], [5.03962, 51.56109], [5.04251, 51.5663], [5.0461, 51.56575], [5.05119, 51.56497], [5.057, 51.56409], [5.06183, 51.56338], [5.06518, 51.56289], [5.06464, 51.56051]]]]}}, {"type": "Feature", "properties": {"statcode": "WK085538", "statnaam": "Het Zand"}, "geometry": {"type": "MultiPolygon", "coordinates": [[[[5.06576, 51.56626], [5.06518, 51.56289], [5.06183, 51.56338], [5.057, 51.56409], [5.05119, 51.56497], [5.0461, 51.56575], [5.04251, 51.5663], [5.04319, 51.56811], [5.04374, 51.57004], [5.04485, 51.57241], [5.04619, 51.57557], [5.04793, 51.57718], [5.04467, 51.58104], [5.06412, 51.57891], [5.06624, 51.57864], [5.0663, 51.57556], [5.06576, 51.56626]]]]}}, {"type": "Feature", "properties": {"statcode": "WK085539", "statnaam": "Wandelbos Noord"}, "geometry": {"type": "MultiPolygon", "coordinates": [[[[5.04619, 51.57557], [5.04485, 51.57241], [5.03809, 51.57477], [5.0373, 51.57498], [5.02913, 51.57624], [5.02264, 51.57876], [5.02741, 51.58203], [5.02791, 51.58302], [5.03264, 51.58227], [5.03994, 51.58153], [5.04467, 51.58104], [5.04793, 51.57718], [5.04619, 51.57557]]]]}}, {"type": "Feature", "properties": {"statcode": "WK085540", "statnaam": "Wandelbos Zuid"}, "geometry": {"type": "MultiPolygon", "coordinates": [[[[5.04319, 51.56811], [5.04251, 51.5663], [5.01785, 51.57004], [5.01997, 51.57294], [5.02247, 51.57862], [5.02264, 51.57876], [5.02913, 51.57624], [5.0373, 51.57498], [5.03809, 51.57477], [5.04485, 51.57241], [5.04374, 51.57004], [5.04319, 51.56811]]]]}}, {"type": "Feature", "properties": {"statcode": "WK085541", "statnaam": "De Oude Warande"}, "geometry": {"type": "MultiPolygon", "coordinates": [[[[5.04251, 51.5663], [5.03962, 51.56109], [5.03825, 51.55863], [5.01795, 51.56149], [5.01859, 51.56388], [5.01727, 51.56713], [5.01785, 51.57004], [5.04251, 51.5663]]]]}}, {"type": "Feature", "properties": {"statcode": "WK085542", "statnaam": "Stokhasselt"}, "geometry": {"type": "MultiPolygon", "coordinates": [[[[5.07427, 51.58061], [5.07344, 51.57791], [5.07266, 51.57798], [5.06624, 51.57864], [5.06772, 51.58379], [5.0693, 51.5881], [5.06972, 51.5894], [5.07036, 51.5916], [5.07134, 51.59624], [5.07399, 51.59569], [5.08172, 51.59405], [5.08131, 51.59073], [5.08089, 51.58982], [5.07967, 51.58719], [5.07913, 51.58627], [5.07622, 51.58271], [5.07427, 51.58061]]]]}}, {"type": "Feature", "properties": {"statcode": "WK085543", "statnaam": "Heikant"}, "geometry": {"type": "MultiPolygon", "coordinates": [[[[5.09371, 51.5811], [5.09067, 51.57811], [5.08461, 51.57897], [5.07344, 51.57791], [5.07427, 51.58061], [5.07622, 51.58271], [5.07913, 51.58627], [5.07967, 51.58719], [5.08089, 51.58982], [5.08131, 51.59073], [5.08172, 51.59405], [5.09015, 51.59203], [5.09621, 51.59053], [5.09588, 51.5891], [5.09481, 51.58451], [5.09371, 51.5811]]]]}}, {"type": "Feature", "properties": {"statcode": "WK085544", "statnaam": "Quirijnstok"}, "geometry": {"type": "MultiPolygon", "coordinates": [[[[5.10538, 51.57685], [5.10267, 51.5738], [5.09686, 51.57434], [5.09655, 51.5742], [5.09067, 51.57811], [5.09371, 51.5811], [5.09481, 51.58451], [5.09588, 51.5891], [5.09621, 51.59053], [5.10233, 51.58746], [5.10568, 51.58582], [5.10883, 51.5843], [5.10587, 51.5807], [5.10802, 51.57998], [5.10538, 51.57685]]]]}}, {"type": "Feature", "properties": {"statcode": "WK085545", "statnaam": "Ind.terrein Loven"}, "geometry": {"type": "MultiPolygon", "coordinates": [[[[5.12381, 51.57722], [5.11929, 51.57172], [5.11627, 51.56801], [5.11274, 51.56392], [5.10982, 51.56242], [5.109, 51.56223], [5.10832, 51.56329], [5.10643, 51.56591], [5.10077, 51.57072], [5.09655, 51.5742], [5.09686, 51.57434], [5.10267, 51.5738], [5.10538, 51.57685], [5.10802, 51.57998], [5.10587, 51.5807], [5.10883, 51.5843], [5.11591, 51.58088], [5.11863, 51.57958], [5.12381, 51.57722]]]]}}, {"type": "Feature", "properties": {"statcode": "WK085546", "statnaam": "Bosscheweg"}, "geometry": {"type": "MultiPolygon", "coordinates": [[[[5.12058, 51.57], [5.12536, 51.56876], [5.12658, 51.56663], [5.10982, 51.56242], [5.11274, 51.56392], [5.11627, 51.56801], [5.11929, 51.57172], [5.12058, 51.57]]]]}}, {"type": "Feature", "properties": {"statcode": "WK085547", "statnaam": "Gesworen Hoek"}, "geometry": {"type": "MultiPolygon", "coordinates": [[[[5.02264, 51.57876], [5.02247, 51.57862], [5.01928, 51.57971], [5.01657, 51.58077], [5.01356, 51.58247], [5.00957, 51.58394], [5.00696, 51.58439], [5.00906, 51.58589], [5.00504, 51.58814], [5.00602, 51.59127], [5.02791, 51.58302], [5.02741, 51.58203], [5.02264, 51.57876]]]]}}, {"type": "Feature", "properties": {"statcode": "WK085548", "statnaam": "Huibeven"}, "geometry": {"type": "MultiPolygon", "coordinates": [[[[5.01997, 51.57294], [5.01785, 51.57004], [5.00535, 51.57191], [5.00711, 51.57678], [5.00693, 51.57802], [5.00506, 51.57918], [5.00696, 51.58439], [5.00957, 51.58394], [5.01356, 51.58247], [5.01657, 51.58077], [5.01928, 51.57971], [5.02247, 51.57862], [5.01997, 51.57294]]]]}}, {"type": "Feature", "properties": {"statcode": "WK085549", "statnaam": "Campenhoef"}, "geometry": {"type": "MultiPolygon", "coordinates": [[[[5.00183, 51.57778], [5.0025, 51.57664], [5.00711, 51.57678], [5.00535, 51.57191], [5.00156, 51.57247], [4.99451, 51.5735], [4.99287, 51.57374], [4.99324, 51.57625], [4.99553, 51.58004], [5.00213, 51.57819], [5.00183, 51.57778]]]]}}, {"type": "Feature", "properties": {"statcode": "WK085550", "statnaam": "Heyhoef"}, "geometry": {"type": "MultiPolygon", "coordinates": [[[[5.00693, 51.57802], [5.00711, 51.57678], [5.0025, 51.57664], [5.00183, 51.57778], [5.00213, 51.57819], [5.00375, 51.57893], [5.00506, 51.57918], [5.00693, 51.57802]]]]}}, {"type": "Feature", "properties": {"statcode": "WK085551", "statnaam": "Heerevelden"}, "geometry": {"type": "MultiPolygon", "coordinates": [[[[5.00375, 51.57893], [5.00213, 51.57819], [4.99553, 51.58004], [4.99629, 51.58248], [4.99637, 51.58277], [4.99736, 51.58586], [5.00218, 51.58513], [5.00696, 51.58439], [5.00506, 51.57918], [5.00375, 51.57893]]]]}}, {"type": "Feature", "properties": {"statcode": "WK085552", "statnaam": "Dongewijk"}, "geometry": {"type": "MultiPolygon", "coordinates": [[[[4.99324, 51.57625], [4.99287, 51.57374], [4.98664, 51.57468], [4.9866, 51.57502], [4.98637, 51.57977], [4.98556, 51.58408], [4.99629, 51.58248], [4.99553, 51.58004], [4.99324, 51.57625]]]]}}, {"type": "Feature", "properties": {"statcode": "WK085553", "statnaam": "Tuindorp De Kievit"}, "geometry": {"type": "MultiPolygon", "coordinates": [[[[5.00504, 51.58814], [5.00906, 51.58589], [5.00696, 51.58439], [5.00218, 51.58513], [4.99736, 51.58586], [4.99637, 51.58277], [4.99629, 51.58248], [4.98556, 51.58408], [4.98472, 51.5882], [4.98692, 51.58739], [4.98742, 51.58912], [4.99096, 51.59127], [4.99504, 51.59097], [5.00037, 51.59016], [5.00504, 51.58814]]]]}}, {"type": "Feature", "properties": {"statcode": "WK085554", "statnaam": "Leeuwerik"}, "geometry": {"type": "MultiPolygon", "coordinates": [[[[4.99614, 51.595], [5.00206, 51.59278], [5.00602, 51.59127], [5.00504, 51.58814], [5.00037, 51.59016], [4.99504, 51.59097], [4.99096, 51.59127], [4.98742, 51.58912], [4.98692, 51.58739], [4.98472, 51.5882], [4.98416, 51.58854], [4.97899, 51.59311], [4.97671, 51.59208], [4.97429, 51.59208], [4.9734, 51.59207], [4.97286, 51.59731], [4.96777, 51.59769], [4.96874, 51.60206], [4.96784, 51.60286], [4.96116, 51.60618], [4.94881, 51.61038], [4.94785, 51.61117], [4.95025, 51.61239], [4.97713, 51.6022], [4.98395, 51.59961], [4.9898, 51.59739], [4.99523, 51.59535], [4.99614, 51.595]]]]}}, {"type": "Feature", "properties": {"statcode": "WK085555", "statnaam": "Dalem Noord"}, "geometry": {"type": "MultiPolygon", "coordinates": [[[[4.97899, 51.59311], [4.98416, 51.58854], [4.98472, 51.5882], [4.98556, 51.58408], [4.98385, 51.58383], [4.97611, 51.58471], [4.97234, 51.58515], [4.9734, 51.59207], [4.97429, 51.59208], [4.97671, 51.59208], [4.97899, 51.59311]]]]}}, {"type": "Feature", "properties": {"statcode": "WK085556", "statnaam": "Dalem Zuid"}, "geometry": {"type": "MultiPolygon", "coordinates": [[[[4.97611, 51.58471], [4.98385, 51.58383], [4.98556, 51.58408], [4.98637, 51.57977], [4.9866, 51.57502], [4.98664, 51.57468], [4.98254, 51.57531], [4.97724, 51.57611], [4.97266, 51.57678], [4.9692, 51.57727], [4.97027, 51.57722], [4.97234, 51.58515], [4.97611, 51.58471]]]]}}, {"type": "Feature", "properties": {"statcode": "WK085557", "statnaam": "Koolhoven"}, "geometry": {"type": "MultiPolygon", "coordinates": [[[[4.99312, 51.57064], [4.99286, 51.56495], [4.98694, 51.56586], [4.9681, 51.56932], [4.96899, 51.5713], [4.96678, 51.57366], [4.9692, 51.57727], [4.97266, 51.57678], [4.97724, 51.57611], [4.98254, 51.57531], [4.98664, 51.57468], [4.99287, 51.57374], [4.99312, 51.57064]]]]}}, {"type": "Feature", "properties": {"statcode": "WK085558", "statnaam": "Witbrant"}, "geometry": {"type": "MultiPolygon", "coordinates": [[[[5.01859, 51.56388], [5.01795, 51.56149], [5.01183, 51.56229], [5.00815, 51.56279], [4.99794, 51.56424], [4.99286, 51.56495], [4.99312, 51.57064], [4.99287, 51.57374], [4.99451, 51.5735], [5.00156, 51.57247], [5.00535, 51.57191], [5.01785, 51.57004], [5.01727, 51.56713], [5.01859, 51.56388]]]]}}, {"type": "Feature", "properties": {"statcode": "WK085559", "statnaam": "Bedrijventerrein Kraaiven"}, "geometry": {"type": "MultiPolygon", "coordinates": [[[[5.07134, 51.59624], [5.07036, 51.5916], [5.06972, 51.5894], [5.0693, 51.5881], [5.06772, 51.58379], [5.06624, 51.57864], [5.06412, 51.57891], [5.04467, 51.58104], [5.03768, 51.58591], [5.03401, 51.58839], [5.03883, 51.59146], [5.03411, 51.59471], [5.03813, 51.59707], [5.05298, 51.59408], [5.05623, 51.59417], [5.0676, 51.59781], [5.07155, 51.59789], [5.07134, 51.59624]]]]}}, {"type": "Feature", "properties": {"statcode": "WK085560", "statnaam": "Bedrijventerrein Vossenberg"}, "geometry": {"type": "MultiPolygon", "coordinates": [[[[5.03768, 51.58591], [5.04467, 51.58104], [5.03994, 51.58153], [5.03264, 51.58227], [5.02791, 51.58302], [5.00602, 51.59127], [5.00206, 51.59278], [4.99614, 51.595], [4.99523, 51.59535], [4.9898, 51.59739], [4.98395, 51.59961], [4.97713, 51.6022], [4.98099, 51.60573], [4.98423, 51.6072], [4.99636, 51.60753], [5.00396, 51.6069], [5.01521, 51.60289], [5.02061, 51.60094], [5.03813, 51.59707], [5.03411, 51.59471], [5.03883, 51.59146], [5.03401, 51.58839], [5.03768, 51.58591]]]]}}, {"type": "Feature", "properties": {"statcode": "WK085561", "statnaam": "De Katsbogten"}, "geometry": {"type": "MultiPolygon", "coordinates": [[[[5.06298, 51.538], [5.06291, 51.53784], [5.06188, 51.53771], [5.06032, 51.53787], [5.05546, 51.53608], [5.05171, 51.53506], [5.05277, 51.53242], [5.05227, 51.52976], [5.05078, 51.52995], [5.04482, 51.53064], [5.04436, 51.53083], [5.03272, 51.53017], [5.03356, 51.53102], [5.03159, 51.5353], [5.03322, 51.53993], [5.03672, 51.53999], [5.04793, 51.53944], [5.0613, 51.53816], [5.06298, 51.538]]]]}}, {"type": "Feature", "properties": {"statcode": "WK085562", "statnaam": "Buitengebied Tilburg Zuid-Oost"}, "geometry": {"type": "MultiPolygon", "coordinates": [[[[5.12535, 51.55059], [5.12389, 51.54829], [5.12305, 51.54447], [5.13085, 51.53906], [5.13366, 51.535], [5.13545, 51.53358], [5.1302, 51.5303], [5.12706, 51.53235], [5.1188, 51.54592], [5.1182, 51.54689], [5.12438, 51.55162], [5.12535, 51.55059]]]]}}, {"type": "Feature", "properties": {"statcode": "WK085563", "statnaam": "Buitengebied Tilburg Zuid-West"}, "geometry": {"type": "MultiPolygon", "coordinates": [[[[5.03969, 51.55836], [5.03799, 51.55365], [5.03984, 51.55368], [5.03966, 51.55161], [5.0382, 51.55151], [5.03829, 51.54963], [5.03597, 51.54618], [5.02995, 51.54403], [5.03322, 51.53993], [5.03159, 51.5353], [5.03356, 51.53102], [5.03272, 51.53017], [5.0305, 51.52951], [5.02752, 51.53344], [5.0225, 51.53846], [5.0205, 51.53895], [5.00157, 51.53749], [4.99341, 51.53841], [4.98763, 51.54002], [4.97546, 51.54013], [4.97666, 51.54242], [4.97956, 51.5442], [4.97845, 51.54481], [4.96924, 51.54899], [4.96413, 51.54991], [4.95348, 51.55053], [4.95298, 51.55341], [4.95118, 51.55805], [4.95114, 51.56092], [4.95437, 51.56225], [4.96418, 51.56524], [4.96695, 51.56731], [4.96657, 51.56783], [4.96783, 51.56872], [4.9681, 51.56932], [4.98694, 51.56586], [4.99286, 51.56495], [4.99794, 51.56424], [5.00815, 51.56279], [5.01183, 51.56229], [5.01795, 51.56149], [5.03825, 51.55863], [5.03969, 51.55836]]]]}}, {"type": "Feature", "properties": {"statcode": "WK085564", "statnaam": "Buitengebied Tilburg Noord-Oost"}, "geometry": {"type": "MultiPolygon", "coordinates": [[[[5.1151, 51.60714], [5.11728, 51.60447], [5.12884, 51.5947], [5.12973, 51.5925], [5.12834, 51.59233], [5.12245, 51.58695], [5.11874, 51.585], [5.11825, 51.58527], [5.11616, 51.58135], [5.11591, 51.58088], [5.10883, 51.5843], [5.10568, 51.58582], [5.10233, 51.58746], [5.09621, 51.59053], [5.09015, 51.59203], [5.08172, 51.59405], [5.07399, 51.59569], [5.07134, 51.59624], [5.07155, 51.59789], [5.07151, 51.60827], [5.07207, 51.60832], [5.07406, 51.60948], [5.07402, 51.60568], [5.07554, 51.60577], [5.07554, 51.60895], [5.08018, 51.60954], [5.07944, 51.61078], [5.09374, 51.61125], [5.096, 51.61247], [5.09916, 51.61771], [5.10132, 51.61658], [5.10466, 51.61244], [5.1151, 51.60714]]]]}}, {"type": "Feature", "properties": {"statcode": "WK085565", "statnaam": "Buitengebied Tilburg Noord-West"}, "geometry": {"type": "MultiPolygon", "coordinates": [[[[4.96532, 51.61294], [4.97755, 51.60909], [4.98236, 51.60867], [4.98351, 51.60736], [4.99154, 51.60792], [5.00449, 51.60789], [5.04204, 51.60614], [5.04402, 51.60736], [5.04501, 51.6111], [5.06025, 51.61078], [5.06177, 51.60935], [5.07059, 51.61029], [5.07098, 51.60863], [5.07151, 51.60827], [5.07155, 51.59789], [5.0676, 51.59781], [5.05623, 51.59417], [5.05298, 51.59408], [5.03813, 51.59707], [5.02061, 51.60094], [5.01521, 51.60289], [5.00396, 51.6069], [4.99636, 51.60753], [4.98423, 51.6072], [4.98099, 51.60573], [4.97713, 51.6022], [4.95025, 51.61239], [4.95027, 51.61241], [4.95293, 51.61472], [4.95786, 51.61376], [4.96078, 51.61349], [4.96532, 51.61294]]]]}}, {"type": "Feature", "properties": {"statcode": "WK085566", "statnaam": "Berkel-Enschot"}, "geometry": {"type": "MultiPolygon", "coordinates": [[[[5.13682, 51.60339], [5.14413, 51.60209], [5.14606, 51.60236], [5.14822, 51.60096], [5.15237, 51.60019], [5.15842, 51.60056], [5.1631, 51.6015], [5.16632, 51.59779], [5.16568, 51.59686], [5.1703, 51.59224], [5.16144, 51.58667], [5.15964, 51.58556], [5.15076, 51.5801], [5.14877, 51.57771], [5.14716, 51.5768], [5.14749, 51.57557], [5.14552, 51.57451], [5.14496, 51.57388], [5.14268, 51.57037], [5.13784, 51.5632], [5.13914, 51.56132], [5.13787, 51.55909], [5.13757, 51.55208], [5.13912, 51.5507], [5.14116, 51.54953], [5.14784, 51.54712], [5.14747, 51.54681], [5.14382, 51.54623], [5.13869, 51.54596], [5.14188, 51.54209], [5.13366, 51.535], [5.13085, 51.53906], [5.12305, 51.54447], [5.12389, 51.54829], [5.12535, 51.55059], [5.12438, 51.55162], [5.12176, 51.55431], [5.12304, 51.55674], [5.12886, 51.55984], [5.12658, 51.56663], [5.12536, 51.56876], [5.12058, 51.57], [5.11929, 51.57172], [5.12381, 51.57722], [5.11863, 51.57958], [5.11591, 51.58088], [5.11616, 51.58135], [5.11825, 51.58527], [5.11874, 51.585], [5.12245, 51.58695], [5.12834, 51.59233], [5.12973, 51.5925], [5.12884, 51.5947], [5.13241, 51.59955], [5.13744, 51.60133], [5.13644, 51.60251], [5.13682, 51.60339]]]]}}, {"type": "Feature", "properties": {"statcode": "WK085567", "statnaam": "Udenhout"}, "geometry": {"type": "MultiPolygon", "coordinates": [[[[5.14921, 51.63865], [5.16921, 51.6187], [5.16521, 51.61446], [5.16526, 51.61249], [5.16801, 51.61137], [5.17087, 51.61186], [5.17488, 51.61049], [5.17527, 51.60951], [5.16999, 51.60372], [5.17954, 51.59766], [5.1703, 51.59224], [5.16568, 51.59686], [5.16632, 51.59779], [5.1631, 51.6015], [5.15842, 51.60056], [5.15237, 51.60019], [5.14822, 51.60096], [5.14606, 51.60236], [5.14413, 51.60209], [5.13682, 51.60339], [5.13644, 51.60251], [5.13744, 51.60133], [5.13241, 51.59955], [5.12884, 51.5947], [5.11728, 51.60447], [5.1151, 51.60714], [5.10466, 51.61244], [5.10132, 51.61658], [5.10296, 51.61691], [5.10122, 51.62041], [5.09985, 51.62785], [5.09812, 51.62824], [5.09818, 51.62882], [5.10137, 51.63271], [5.10614, 51.63596], [5.11588, 51.63761], [5.12307, 51.63819], [5.12926, 51.63788], [5.13771, 51.64027], [5.14494, 51.64051], [5.14921, 51.63865]]]]}}, {"type": "Feature", "properties": {"statcode": "WK085568", "statnaam": "Biezenmortel"}, "geometry": {"type": "MultiPolygon", "coordinates": [[[[5.17897, 51.64166], [5.17958, 51.63989], [5.18401, 51.64068], [5.19182, 51.63948], [5.19199, 51.63809], [5.19129, 51.63689], [5.19223, 51.63445], [5.19298, 51.63426], [5.19366, 51.63061], [5.19588, 51.62798], [5.20122, 51.62396], [5.20277, 51.62262], [5.20788, 51.6204], [5.20781, 51.6202], [5.21071, 51.61559], [5.20203, 51.61148], [5.18895, 51.60357], [5.18688, 51.60175], [5.17954, 51.59766], [5.16999, 51.60372], [5.17527, 51.60951], [5.17488, 51.61049], [5.17087, 51.61186], [5.16801, 51.61137], [5.16526, 51.61249], [5.16521, 51.61446], [5.16921, 51.6187], [5.14921, 51.63865], [5.14494, 51.64051], [5.16007, 51.63954], [5.17206, 51.6389], [5.17839, 51.63968], [5.17793, 51.64162], [5.17897, 51.64166]]]]}}]}