{"type": "FeatureCollection", "features": [{"type": "Feature", "properties": {"statcode": "BU09832201", "statnaam": "Smeliënkamp"}, "geometry": {"type": "MultiPolygon", "coordinates": [[[[6.15511, 51.37282], [6.15835, 51.37083], [6.14641, 51.37158], [6.14616, 51.37474], [6.1487, 51.37627], [6.15511, 51.37282]]]]}}, {"type": "Feature", "properties": {"statcode": "BU09832803", "statnaam": "Ubroek"}, "geometry": {"type": "MultiPolygon", "coordinates": [[[[6.16539, 51.37949], [6.1671, 51.37669], [6.16747, 51.37472], [6.16147, 51.37622], [6.1562, 51.37796], [6.1545, 51.37703], [6.15186, 51.37721], [6.148, 51.38042], [6.14775, 51.38165], [6.1492, 51.38179], [6.16153, 51.38444], [6.16539, 51.37949]]]]}}, {"type": "Feature", "properties": {"statcode": "BU09831202", "statnaam": "Maaswaard"}, "geometry": {"type": "MultiPolygon", "coordinates": [[[[6.16675, 51.36717], [6.16462, 51.36598], [6.16268, 51.36469], [6.15904, 51.36441], [6.15654, 51.36537], [6.16221, 51.36917], [6.16675, 51.36717]]]]}}, {"type": "Feature", "properties": {"statcode": "BU09832301", "statnaam": "Molenbossen"}, "geometry": {"type": "MultiPolygon", "coordinates": [[[[6.15114, 51.3619], [6.14992, 51.36093], [6.1524, 51.36051], [6.1493, 51.35742], [6.14581, 51.35592], [6.14185, 51.35806], [6.14819, 51.3628], [6.15114, 51.3619]]]]}}, {"type": "Feature", "properties": {"statcode": "BU09831201", "statnaam": "Sinselveld"}, "geometry": {"type": "MultiPolygon", "coordinates": [[[[6.16462, 51.36598], [6.16381, 51.3646], [6.16523, 51.36415], [6.16675, 51.36492], [6.16828, 51.36464], [6.17115, 51.36219], [6.16975, 51.36098], [6.16877, 51.36003], [6.16085, 51.3619], [6.16268, 51.36469], [6.16462, 51.36598]]]]}}, {"type": "Feature", "properties": {"statcode": "BU09831102", "statnaam": "Q4"}, "geometry": {"type": "MultiPolygon", "coordinates": [[[[6.17335, 51.37337], [6.17141, 51.37191], [6.16947, 51.37075], [6.16554, 51.3717], [6.16747, 51.37472], [6.17335, 51.37337]]]]}}, {"type": "Feature", "properties": {"statcode": "BU09832401", "statnaam": "Vossener-Centrum"}, "geometry": {"type": "MultiPolygon", "coordinates": [[[[6.13575, 51.36767], [6.1349, 51.365], [6.13202, 51.36591], [6.12928, 51.36484], [6.12732, 51.36524], [6.13112, 51.36939], [6.13575, 51.36767]]]]}}, {"type": "Feature", "properties": {"statcode": "BU09831308", "statnaam": "Stalberg-Noord"}, "geometry": {"type": "MultiPolygon", "coordinates": [[[[6.20074, 51.37514], [6.20207, 51.37521], [6.20215, 51.37575], [6.22033, 51.37462], [6.22639, 51.36034], [6.22461, 51.35932], [6.20586, 51.36452], [6.19943, 51.36594], [6.1989, 51.36502], [6.19722, 51.36436], [6.18973, 51.36388], [6.18929, 51.36424], [6.18965, 51.36486], [6.19261, 51.36751], [6.19605, 51.37079], [6.19755, 51.37159], [6.19232, 51.37448], [6.1941, 51.37661], [6.20074, 51.37514]]]]}}, {"type": "Feature", "properties": {"statcode": "BU09831512", "statnaam": "Auxillatrix"}, "geometry": {"type": "MultiPolygon", "coordinates": [[[[6.19242, 51.34093], [6.18988, 51.33946], [6.19413, 51.33471], [6.19091, 51.33494], [6.1883, 51.33507], [6.1789, 51.33357], [6.17739, 51.33831], [6.17987, 51.34189], [6.18061, 51.34392], [6.18433, 51.34332], [6.18571, 51.34465], [6.19242, 51.34093]]]]}}, {"type": "Feature", "properties": {"statcode": "BU09832302", "statnaam": "Annakamp-Oost"}, "geometry": {"type": "MultiPolygon", "coordinates": [[[[6.14043, 51.36468], [6.14413, 51.36283], [6.14586, 51.3631], [6.14819, 51.3628], [6.14185, 51.35806], [6.13856, 51.35935], [6.14065, 51.36011], [6.14062, 51.36087], [6.13857, 51.36251], [6.13731, 51.36274], [6.13743, 51.36411], [6.14043, 51.36468]]]]}}, {"type": "Feature", "properties": {"statcode": "BU09831209", "statnaam": "Onderste en Bovenste Molen"}, "geometry": {"type": "MultiPolygon", "coordinates": [[[[6.17582, 51.3519], [6.17861, 51.34838], [6.18571, 51.34465], [6.18433, 51.34332], [6.18061, 51.34392], [6.17987, 51.34189], [6.17097, 51.3432], [6.16552, 51.34334], [6.16607, 51.34242], [6.16441, 51.34235], [6.16223, 51.34356], [6.16217, 51.34636], [6.16109, 51.34739], [6.17002, 51.35133], [6.1761, 51.35489], [6.17582, 51.3519]]]]}}, {"type": "Feature", "properties": {"statcode": "BU09831305", "statnaam": "Stalberg-West"}, "geometry": {"type": "MultiPolygon", "coordinates": [[[[6.18968, 51.36883], [6.19032, 51.36857], [6.18763, 51.36635], [6.18965, 51.36486], [6.18929, 51.36424], [6.18859, 51.36404], [6.18481, 51.3661], [6.18042, 51.36661], [6.18093, 51.36938], [6.18725, 51.36945], [6.18968, 51.36883]]]]}}, {"type": "Feature", "properties": {"statcode": "BU09832812", "statnaam": "Zaarderheiken"}, "geometry": {"type": "MultiPolygon", "coordinates": [[[[6.12084, 51.41711], [6.12288, 51.4139], [6.12071, 51.41301], [6.10869, 51.41076], [6.10721, 51.40885], [6.10884, 51.40766], [6.11325, 51.40631], [6.1229, 51.39806], [6.12573, 51.39822], [6.12786, 51.39903], [6.12808, 51.39371], [6.1098, 51.39356], [6.08883, 51.40372], [6.09557, 51.40441], [6.10054, 51.4061], [6.10202, 51.4095], [6.10116, 51.41339], [6.10427, 51.41305], [6.10205, 51.41958], [6.10764, 51.42025], [6.10896, 51.41943], [6.10948, 51.42046], [6.11668, 51.42132], [6.11675, 51.42102], [6.11647, 51.42099], [6.12084, 51.41711]]]]}}, {"type": "Feature", "properties": {"statcode": "BU09832303", "statnaam": "Annakamp-West"}, "geometry": {"type": "MultiPolygon", "coordinates": [[[[6.13731, 51.36274], [6.13857, 51.36251], [6.14062, 51.36087], [6.14065, 51.36011], [6.13856, 51.35935], [6.13193, 51.36155], [6.13368, 51.3633], [6.13731, 51.36274]]]]}}, {"type": "Feature", "properties": {"statcode": "BU09832808", "statnaam": "Fresh Park"}, "geometry": {"type": "MultiPolygon", "coordinates": [[[[6.12241, 51.41586], [6.1245, 51.41544], [6.12455, 51.4148], [6.12773, 51.41479], [6.1282, 51.41389], [6.13117, 51.4147], [6.1326, 51.41378], [6.13409, 51.41614], [6.13527, 51.41611], [6.14089, 51.39487], [6.14142, 51.3944], [6.13892, 51.39438], [6.13727, 51.39771], [6.12585, 51.40617], [6.12507, 51.40973], [6.12288, 51.4139], [6.12084, 51.41711], [6.12241, 51.41586]]]]}}, {"type": "Feature", "properties": {"statcode": "BU09832502", "statnaam": "Klingerberg-Noord"}, "geometry": {"type": "MultiPolygon", "coordinates": [[[[6.13824, 51.38047], [6.13401, 51.37594], [6.13224, 51.37666], [6.12304, 51.37727], [6.12284, 51.38145], [6.12771, 51.38483], [6.13824, 51.38047]]]]}}, {"type": "Feature", "properties": {"statcode": "BU09832404", "statnaam": "Vossener-Zuid"}, "geometry": {"type": "MultiPolygon", "coordinates": [[[[6.13202, 51.36591], [6.1349, 51.365], [6.13368, 51.3633], [6.13193, 51.36155], [6.12714, 51.36358], [6.12732, 51.36524], [6.12928, 51.36484], [6.13202, 51.36591]]]]}}, {"type": "Feature", "properties": {"statcode": "BU09833201", "statnaam": "Lage Heide"}, "geometry": {"type": "MultiPolygon", "coordinates": [[[[6.15222, 51.33842], [6.14552, 51.3308], [6.14048, 51.32387], [6.12873, 51.32787], [6.13509, 51.33357], [6.1353, 51.33209], [6.13907, 51.332], [6.14377, 51.33457], [6.14371, 51.33712], [6.14261, 51.33905], [6.14515, 51.3403], [6.15222, 51.33842]]]]}}, {"type": "Feature", "properties": {"statcode": "BU09832403", "statnaam": "Vossener-West"}, "geometry": {"type": "MultiPolygon", "coordinates": [[[[6.13125, 51.3712], [6.13112, 51.36939], [6.12732, 51.36524], [6.12714, 51.36358], [6.12462, 51.36562], [6.12636, 51.37088], [6.13125, 51.3712]]]]}}, {"type": "Feature", "properties": {"statcode": "BU09831203", "statnaam": "Spoorsingel"}, "geometry": {"type": "MultiPolygon", "coordinates": [[[[6.17101, 51.36527], [6.1761, 51.3611], [6.17371, 51.36092], [6.16975, 51.36098], [6.17115, 51.36219], [6.16828, 51.36464], [6.16675, 51.36492], [6.16523, 51.36415], [6.16381, 51.3646], [6.16462, 51.36598], [6.16675, 51.36717], [6.17101, 51.36527]]]]}}, {"type": "Feature", "properties": {"statcode": "BU09831510", "statnaam": "Grote Hei"}, "geometry": {"type": "MultiPolygon", "coordinates": [[[[6.22461, 51.35932], [6.19718, 51.34365], [6.19458, 51.34557], [6.18519, 51.34837], [6.1835, 51.3475], [6.18571, 51.34465], [6.17861, 51.34838], [6.1808, 51.34841], [6.18592, 51.35028], [6.19157, 51.35396], [6.19345, 51.3555], [6.19343, 51.35664], [6.19511, 51.35871], [6.19666, 51.36038], [6.19692, 51.36077], [6.20669, 51.35858], [6.20586, 51.36452], [6.22461, 51.35932]]]]}}, {"type": "Feature", "properties": {"statcode": "BU09832806", "statnaam": "Ecopark"}, "geometry": {"type": "MultiPolygon", "coordinates": [[[[6.1098, 51.39356], [6.12808, 51.39371], [6.12747, 51.39009], [6.1243, 51.38649], [6.11895, 51.38903], [6.08892, 51.38923], [6.0876, 51.38954], [6.08422, 51.39172], [6.07737, 51.39427], [6.08382, 51.39468], [6.1098, 51.39356]]]]}}, {"type": "Feature", "properties": {"statcode": "BU09831401", "statnaam": "Craneveld"}, "geometry": {"type": "MultiPolygon", "coordinates": [[[[6.17109, 51.37975], [6.18085, 51.37716], [6.18342, 51.37558], [6.18074, 51.3734], [6.17848, 51.37507], [6.17528, 51.37608], [6.1671, 51.37669], [6.16539, 51.37949], [6.16669, 51.37958], [6.17109, 51.37975]]]]}}, {"type": "Feature", "properties": {"statcode": "BU09831306", "statnaam": "Groeneveld"}, "geometry": {"type": "MultiPolygon", "coordinates": [[[[6.18481, 51.3661], [6.18859, 51.36404], [6.18749, 51.36187], [6.18451, 51.36029], [6.18036, 51.36052], [6.17905, 51.36123], [6.18042, 51.36661], [6.18481, 51.3661]]]]}}, {"type": "Feature", "properties": {"statcode": "BU09831503", "statnaam": "Jezuïtenbuurt"}, "geometry": {"type": "MultiPolygon", "coordinates": [[[[6.18888, 51.3617], [6.18882, 51.35976], [6.18655, 51.35593], [6.18017, 51.35982], [6.18036, 51.36052], [6.18451, 51.36029], [6.18749, 51.36187], [6.18888, 51.3617]]]]}}, {"type": "Feature", "properties": {"statcode": "BU09831505", "statnaam": "Bloemenbuurt"}, "geometry": {"type": "MultiPolygon", "coordinates": [[[[6.19477, 51.36062], [6.19511, 51.35871], [6.19343, 51.35664], [6.19345, 51.3555], [6.19157, 51.35396], [6.18642, 51.35574], [6.18655, 51.35593], [6.18882, 51.35976], [6.18958, 51.36149], [6.19206, 51.36178], [6.19477, 51.36062]]]]}}, {"type": "Feature", "properties": {"statcode": "BU09831508", "statnaam": "Stalberg (midden)"}, "geometry": {"type": "MultiPolygon", "coordinates": [[[[6.19692, 51.36077], [6.19666, 51.36038], [6.19477, 51.36062], [6.19206, 51.36178], [6.18958, 51.36149], [6.18888, 51.3617], [6.18749, 51.36187], [6.18859, 51.36404], [6.18929, 51.36424], [6.18973, 51.36388], [6.19722, 51.36436], [6.1989, 51.36502], [6.19692, 51.36077]]]]}}, {"type": "Feature", "properties": {"statcode": "BU09831103", "statnaam": "Rosarium e.o."}, "geometry": {"type": "MultiPolygon", "coordinates": [[[[6.17835, 51.37081], [6.17802, 51.37009], [6.17416, 51.3671], [6.17264, 51.36782], [6.17141, 51.37191], [6.17335, 51.37337], [6.17835, 51.37081]]]]}}, {"type": "Feature", "properties": {"statcode": "BU09832809", "statnaam": "Trade-Port-Oost"}, "geometry": {"type": "MultiPolygon", "coordinates": [[[[6.13727, 51.39771], [6.13892, 51.39438], [6.12808, 51.39371], [6.12786, 51.39903], [6.12585, 51.40617], [6.13727, 51.39771]]]]}}, {"type": "Feature", "properties": {"statcode": "BU09831605", "statnaam": "Noorderpoort"}, "geometry": {"type": "MultiPolygon", "coordinates": [[[[6.18122, 51.39459], [6.17852, 51.39258], [6.17415, 51.3917], [6.1723, 51.39567], [6.18122, 51.39459]]]]}}, {"type": "Feature", "properties": {"statcode": "BU09831207", "statnaam": "Wylrehof"}, "geometry": {"type": "MultiPolygon", "coordinates": [[[[6.15904, 51.36441], [6.15578, 51.36074], [6.15635, 51.3592], [6.15803, 51.35832], [6.15601, 51.35684], [6.15617, 51.3558], [6.15914, 51.35391], [6.1638, 51.3555], [6.16568, 51.35455], [6.17002, 51.35133], [6.16109, 51.34739], [6.16026, 51.34841], [6.15769, 51.34909], [6.15387, 51.349], [6.1498, 51.35038], [6.15089, 51.35304], [6.14581, 51.35592], [6.1493, 51.35742], [6.1524, 51.36051], [6.15654, 51.36537], [6.15904, 51.36441]]]]}}, {"type": "Feature", "properties": {"statcode": "BU09833204", "statnaam": "Op de Heide"}, "geometry": {"type": "MultiPolygon", "coordinates": [[[[6.16227, 51.33232], [6.15989, 51.33045], [6.16099, 51.32922], [6.15901, 51.32854], [6.14552, 51.3308], [6.15222, 51.33842], [6.16227, 51.33232]]]]}}, {"type": "Feature", "properties": {"statcode": "BU09831405", "statnaam": "Genooy"}, "geometry": {"type": "MultiPolygon", "coordinates": [[[[6.16477, 51.39631], [6.16751, 51.39553], [6.16634, 51.39453], [6.16792, 51.38762], [6.16543, 51.38749], [6.16468, 51.38364], [6.16562, 51.38194], [6.16722, 51.38222], [6.16669, 51.37958], [6.16539, 51.37949], [6.16153, 51.38444], [6.15304, 51.39592], [6.1543, 51.3956], [6.16477, 51.39631]]]]}}, {"type": "Feature", "properties": {"statcode": "BU09833102", "statnaam": "Tegelen-Centrum"}, "geometry": {"type": "MultiPolygon", "coordinates": [[[[6.13815, 51.34557], [6.14107, 51.34502], [6.14515, 51.3403], [6.14261, 51.33905], [6.13983, 51.33748], [6.13861, 51.33838], [6.13463, 51.33758], [6.13007, 51.33621], [6.13086, 51.33733], [6.13008, 51.33809], [6.12793, 51.338], [6.12746, 51.34137], [6.13409, 51.34427], [6.13374, 51.3449], [6.13815, 51.34557]]]]}}, {"type": "Feature", "properties": {"statcode": "BU09831205", "statnaam": "Hagerhof-Oost"}, "geometry": {"type": "MultiPolygon", "coordinates": [[[[6.16877, 51.36003], [6.17138, 51.35891], [6.16568, 51.35455], [6.1638, 51.3555], [6.15978, 51.35758], [6.15803, 51.35832], [6.16085, 51.3619], [6.16877, 51.36003]]]]}}, {"type": "Feature", "properties": {"statcode": "BU09831301", "statnaam": "De Tichelarij"}, "geometry": {"type": "MultiPolygon", "coordinates": [[[[6.1941, 51.37661], [6.19232, 51.37448], [6.19127, 51.37382], [6.18269, 51.3722], [6.18074, 51.3734], [6.18342, 51.37558], [6.18806, 51.37909], [6.1941, 51.37661]]]]}}, {"type": "Feature", "properties": {"statcode": "BU09833205", "statnaam": "Kaldenkerkerweg-Oost"}, "geometry": {"type": "MultiPolygon", "coordinates": [[[[6.16167, 51.33752], [6.16892, 51.33301], [6.16928, 51.32969], [6.16227, 51.33232], [6.15222, 51.33842], [6.15601, 51.34182], [6.15744, 51.3444], [6.16167, 51.33752]]]]}}, {"type": "Feature", "properties": {"statcode": "BU09832601", "statnaam": "Kern Hout-Blerick"}, "geometry": {"type": "MultiPolygon", "coordinates": [[[[6.12714, 51.36358], [6.13193, 51.36155], [6.13856, 51.35935], [6.13176, 51.35654], [6.13151, 51.35595], [6.13057, 51.35525], [6.12754, 51.3549], [6.12457, 51.35558], [6.12464, 51.35685], [6.12109, 51.35926], [6.12334, 51.3633], [6.12462, 51.36562], [6.12714, 51.36358]]]]}}, {"type": "Feature", "properties": {"statcode": "BU09833105", "statnaam": "Maasveld II"}, "geometry": {"type": "MultiPolygon", "coordinates": [[[[6.14298, 51.34954], [6.13818, 51.34712], [6.13815, 51.34557], [6.13374, 51.3449], [6.13071, 51.34732], [6.1376, 51.35163], [6.13921, 51.35261], [6.14298, 51.34954]]]]}}, {"type": "Feature", "properties": {"statcode": "BU09831307", "statnaam": "Hogekamp"}, "geometry": {"type": "MultiPolygon", "coordinates": [[[[6.18093, 51.36938], [6.18042, 51.36661], [6.17905, 51.36123], [6.1761, 51.3611], [6.17101, 51.36527], [6.17416, 51.3671], [6.17802, 51.37009], [6.18093, 51.36938]]]]}}, {"type": "Feature", "properties": {"statcode": "BU09832701", "statnaam": "Kern Boekend"}, "geometry": {"type": "MultiPolygon", "coordinates": [[[[6.12304, 51.37727], [6.12636, 51.37088], [6.12188, 51.37182], [6.1211, 51.3728], [6.11958, 51.37321], [6.11525, 51.37373], [6.11369, 51.37453], [6.11251, 51.37659], [6.11294, 51.37846], [6.1195, 51.38126], [6.12284, 51.38145], [6.12304, 51.37727]]]]}}, {"type": "Feature", "properties": {"statcode": "BU09831404", "statnaam": "Genooybergen"}, "geometry": {"type": "MultiPolygon", "coordinates": [[[[6.1723, 51.39567], [6.17415, 51.3917], [6.17525, 51.38943], [6.17117, 51.38792], [6.17085, 51.38649], [6.17299, 51.38608], [6.17266, 51.38421], [6.16826, 51.38378], [6.16722, 51.38222], [6.16562, 51.38194], [6.16468, 51.38364], [6.16543, 51.38749], [6.16792, 51.38762], [6.16634, 51.39453], [6.16751, 51.39553], [6.16477, 51.39631], [6.17167, 51.39707], [6.1723, 51.39567]]]]}}, {"type": "Feature", "properties": {"statcode": "BU09832402", "statnaam": "Vossener-Noord"}, "geometry": {"type": "MultiPolygon", "coordinates": [[[[6.13621, 51.37149], [6.13607, 51.37015], [6.13575, 51.36767], [6.13112, 51.36939], [6.13125, 51.3712], [6.13621, 51.37149]]]]}}, {"type": "Feature", "properties": {"statcode": "BU09832801", "statnaam": "Horsterweg"}, "geometry": {"type": "MultiPolygon", "coordinates": [[[[6.14775, 51.38165], [6.148, 51.38042], [6.15186, 51.37721], [6.1545, 51.37703], [6.1562, 51.37796], [6.16147, 51.37622], [6.15657, 51.37502], [6.15511, 51.37282], [6.1487, 51.37627], [6.13824, 51.38047], [6.14016, 51.38133], [6.14775, 51.38165]]]]}}, {"type": "Feature", "properties": {"statcode": "BU09831206", "statnaam": "Hagerhof-West"}, "geometry": {"type": "MultiPolygon", "coordinates": [[[[6.16268, 51.36469], [6.16085, 51.3619], [6.15803, 51.35832], [6.15635, 51.3592], [6.15578, 51.36074], [6.15904, 51.36441], [6.16268, 51.36469]]]]}}, {"type": "Feature", "properties": {"statcode": "BU09831509", "statnaam": "Stalberg-Oost"}, "geometry": {"type": "MultiPolygon", "coordinates": [[[[6.20586, 51.36452], [6.20669, 51.35858], [6.19692, 51.36077], [6.1989, 51.36502], [6.19943, 51.36594], [6.20586, 51.36452]]]]}}, {"type": "Feature", "properties": {"statcode": "BU09833203", "statnaam": "Kaldenkerkerweg-West"}, "geometry": {"type": "MultiPolygon", "coordinates": [[[[6.15744, 51.3444], [6.15601, 51.34182], [6.15222, 51.33842], [6.14515, 51.3403], [6.15727, 51.34569], [6.15744, 51.3444]]]]}}, {"type": "Feature", "properties": {"statcode": "BU09831101", "statnaam": "Winkelcentrum"}, "geometry": {"type": "MultiPolygon", "coordinates": [[[[6.17264, 51.36782], [6.17416, 51.3671], [6.17101, 51.36527], [6.16675, 51.36717], [6.16221, 51.36917], [6.16554, 51.3717], [6.16947, 51.37075], [6.17141, 51.37191], [6.17264, 51.36782]]]]}}, {"type": "Feature", "properties": {"statcode": "BU09832810", "statnaam": "Trade-Port-Noord"}, "geometry": {"type": "MultiPolygon", "coordinates": [[[[6.10205, 51.41958], [6.10427, 51.41305], [6.10116, 51.41339], [6.10202, 51.4095], [6.10054, 51.4061], [6.09557, 51.40441], [6.08883, 51.40372], [6.07687, 51.40958], [6.07761, 51.41961], [6.07769, 51.42017], [6.08182, 51.42058], [6.10205, 51.41958]]]]}}, {"type": "Feature", "properties": {"statcode": "BU09831104", "statnaam": "Binnenstad-Noord"}, "geometry": {"type": "MultiPolygon", "coordinates": [[[[6.17528, 51.37608], [6.17848, 51.37507], [6.18074, 51.3734], [6.17835, 51.37081], [6.17335, 51.37337], [6.16747, 51.37472], [6.1671, 51.37669], [6.17528, 51.37608]]]]}}, {"type": "Feature", "properties": {"statcode": "BU09831601", "statnaam": "Kern 't Ven"}, "geometry": {"type": "MultiPolygon", "coordinates": [[[[6.19922, 51.38943], [6.19742, 51.38599], [6.18806, 51.37909], [6.18406, 51.38116], [6.18959, 51.38597], [6.18844, 51.38687], [6.18858, 51.38921], [6.19242, 51.39143], [6.19922, 51.38943]]]]}}, {"type": "Feature", "properties": {"statcode": "BU09831303", "statnaam": "Groenstraat-Noord"}, "geometry": {"type": "MultiPolygon", "coordinates": [[[[6.19605, 51.37079], [6.19261, 51.36751], [6.19032, 51.36857], [6.18968, 51.36883], [6.19363, 51.37218], [6.19605, 51.37079]]]]}}, {"type": "Feature", "properties": {"statcode": "BU09832202", "statnaam": "Vastenavondkamp-Noord"}, "geometry": {"type": "MultiPolygon", "coordinates": [[[[6.1487, 51.37627], [6.14616, 51.37474], [6.13647, 51.37288], [6.13401, 51.37594], [6.13824, 51.38047], [6.1487, 51.37627]]]]}}, {"type": "Feature", "properties": {"statcode": "BU09831403", "statnaam": "'t Zand"}, "geometry": {"type": "MultiPolygon", "coordinates": [[[[6.17741, 51.38632], [6.18281, 51.38209], [6.17635, 51.38136], [6.17109, 51.37975], [6.16669, 51.37958], [6.16722, 51.38222], [6.16826, 51.38378], [6.17266, 51.38421], [6.17299, 51.38608], [6.17085, 51.38649], [6.17117, 51.38792], [6.17525, 51.38943], [6.17741, 51.38632]]]]}}, {"type": "Feature", "properties": {"statcode": "BU09833103", "statnaam": "Krekelsberg"}, "geometry": {"type": "MultiPolygon", "coordinates": [[[[6.13983, 51.33748], [6.13509, 51.33357], [6.13463, 51.33758], [6.13861, 51.33838], [6.13983, 51.33748]]]]}}, {"type": "Feature", "properties": {"statcode": "BU09832811", "statnaam": "Floriade Park"}, "geometry": {"type": "MultiPolygon", "coordinates": [[[[6.12507, 51.40973], [6.12585, 51.40617], [6.12786, 51.39903], [6.12573, 51.39822], [6.1229, 51.39806], [6.11325, 51.40631], [6.10884, 51.40766], [6.10721, 51.40885], [6.10869, 51.41076], [6.12071, 51.41301], [6.12288, 51.4139], [6.12507, 51.40973]]]]}}, {"type": "Feature", "properties": {"statcode": "BU09831504", "statnaam": "Vogelbuurt"}, "geometry": {"type": "MultiPolygon", "coordinates": [[[[6.18642, 51.35574], [6.19157, 51.35396], [6.18592, 51.35028], [6.1808, 51.34841], [6.17861, 51.34838], [6.17582, 51.3519], [6.1802, 51.35297], [6.18112, 51.35444], [6.18642, 51.35574]]]]}}, {"type": "Feature", "properties": {"statcode": "BU09832802", "statnaam": "Kazerneterrein"}, "geometry": {"type": "MultiPolygon", "coordinates": [[[[6.16747, 51.37472], [6.16554, 51.3717], [6.16221, 51.36917], [6.15835, 51.37083], [6.15511, 51.37282], [6.15657, 51.37502], [6.16147, 51.37622], [6.16747, 51.37472]]]]}}, {"type": "Feature", "properties": {"statcode": "BU09831506", "statnaam": "Casinoflat"}, "geometry": {"type": "MultiPolygon", "coordinates": [[[[6.18958, 51.36149], [6.18882, 51.35976], [6.18888, 51.3617], [6.18958, 51.36149]]]]}}, {"type": "Feature", "properties": {"statcode": "BU09833502", "statnaam": "Nieuw-Steyl"}, "geometry": {"type": "MultiPolygon", "coordinates": [[[[6.13509, 51.33357], [6.12873, 51.32787], [6.12621, 51.32858], [6.12274, 51.32793], [6.13007, 51.33621], [6.13463, 51.33758], [6.13509, 51.33357]]]]}}, {"type": "Feature", "properties": {"statcode": "BU09833202", "statnaam": "Bedr.terr. Windhond"}, "geometry": {"type": "MultiPolygon", "coordinates": [[[[6.14371, 51.33712], [6.14377, 51.33457], [6.13907, 51.332], [6.1353, 51.33209], [6.13509, 51.33357], [6.13983, 51.33748], [6.14261, 51.33905], [6.14371, 51.33712]]]]}}, {"type": "Feature", "properties": {"statcode": "BU09831304", "statnaam": "Groenstraat-Zuid"}, "geometry": {"type": "MultiPolygon", "coordinates": [[[[6.19261, 51.36751], [6.18965, 51.36486], [6.18763, 51.36635], [6.19032, 51.36857], [6.19261, 51.36751]]]]}}, {"type": "Feature", "properties": {"statcode": "BU09831511", "statnaam": "Keulse Barriére"}, "geometry": {"type": "MultiPolygon", "coordinates": [[[[6.19458, 51.34557], [6.19718, 51.34365], [6.19242, 51.34093], [6.18571, 51.34465], [6.1835, 51.3475], [6.18519, 51.34837], [6.19458, 51.34557]]]]}}, {"type": "Feature", "properties": {"statcode": "BU09832203", "statnaam": "Vastenavondkamp-Zuid"}, "geometry": {"type": "MultiPolygon", "coordinates": [[[[6.14641, 51.37158], [6.14359, 51.36982], [6.14324, 51.37035], [6.13697, 51.37068], [6.13607, 51.37015], [6.13621, 51.37149], [6.13647, 51.37288], [6.14616, 51.37474], [6.14641, 51.37158]]]]}}, {"type": "Feature", "properties": {"statcode": "BU09832805", "statnaam": "Havengebied"}, "geometry": {"type": "MultiPolygon", "coordinates": [[[[6.16153, 51.38444], [6.1492, 51.38179], [6.1427, 51.38795], [6.14142, 51.3944], [6.14089, 51.39487], [6.15304, 51.39592], [6.16153, 51.38444]]]]}}, {"type": "Feature", "properties": {"statcode": "BU09832702", "statnaam": "Verspreide huizen Boekend"}, "geometry": {"type": "MultiPolygon", "coordinates": [[[[6.11895, 51.38903], [6.1243, 51.38649], [6.12771, 51.38483], [6.12284, 51.38145], [6.1195, 51.38126], [6.11294, 51.37846], [6.11251, 51.37659], [6.11369, 51.37453], [6.11525, 51.37373], [6.11958, 51.37321], [6.1211, 51.3728], [6.12188, 51.37182], [6.12636, 51.37088], [6.12462, 51.36562], [6.12334, 51.3633], [6.12007, 51.36402], [6.11257, 51.36408], [6.11053, 51.36592], [6.10758, 51.3659], [6.10755, 51.3644], [6.10375, 51.36455], [6.10326, 51.3659], [6.09494, 51.3656], [6.09076, 51.37148], [6.08719, 51.37166], [6.07759, 51.37817], [6.09046, 51.38591], [6.09037, 51.38911], [6.08892, 51.38923], [6.11895, 51.38903]]]]}}, {"type": "Feature", "properties": {"statcode": "BU09832804", "statnaam": "Groot Boller"}, "geometry": {"type": "MultiPolygon", "coordinates": [[[[6.1427, 51.38795], [6.1492, 51.38179], [6.14775, 51.38165], [6.14016, 51.38133], [6.13824, 51.38047], [6.12771, 51.38483], [6.1243, 51.38649], [6.12747, 51.39009], [6.12808, 51.39371], [6.13892, 51.39438], [6.14142, 51.3944], [6.1427, 51.38795]]]]}}, {"type": "Feature", "properties": {"statcode": "BU09832101", "statnaam": "Blerick-Centrum"}, "geometry": {"type": "MultiPolygon", "coordinates": [[[[6.15835, 51.37083], [6.16221, 51.36917], [6.15654, 51.36537], [6.1524, 51.36051], [6.14992, 51.36093], [6.15114, 51.3619], [6.14819, 51.3628], [6.14586, 51.3631], [6.14782, 51.36772], [6.14641, 51.37158], [6.15835, 51.37083]]]]}}, {"type": "Feature", "properties": {"statcode": "BU09832603", "statnaam": "Meuleveld"}, "geometry": {"type": "MultiPolygon", "coordinates": [[[[6.14185, 51.35806], [6.14581, 51.35592], [6.13921, 51.35261], [6.1376, 51.35163], [6.13418, 51.35285], [6.13151, 51.35595], [6.13176, 51.35654], [6.13856, 51.35935], [6.14185, 51.35806]]]]}}, {"type": "Feature", "properties": {"statcode": "BU09831402", "statnaam": "Withuis"}, "geometry": {"type": "MultiPolygon", "coordinates": [[[[6.18281, 51.38209], [6.18406, 51.38116], [6.18806, 51.37909], [6.18342, 51.37558], [6.18085, 51.37716], [6.17109, 51.37975], [6.17635, 51.38136], [6.18281, 51.38209]]]]}}, {"type": "Feature", "properties": {"statcode": "BU09831602", "statnaam": "Arenborg"}, "geometry": {"type": "MultiPolygon", "coordinates": [[[[6.20964, 51.38617], [6.20964, 51.38305], [6.2013, 51.37612], [6.20215, 51.37575], [6.20207, 51.37521], [6.20074, 51.37514], [6.1941, 51.37661], [6.18806, 51.37909], [6.19742, 51.38599], [6.19922, 51.38943], [6.20964, 51.38617]]]]}}, {"type": "Feature", "properties": {"statcode": "BU09832102", "statnaam": "Hazenkamp"}, "geometry": {"type": "MultiPolygon", "coordinates": [[[[6.14782, 51.36772], [6.14586, 51.3631], [6.14413, 51.36283], [6.14043, 51.36468], [6.13743, 51.36411], [6.1349, 51.365], [6.13575, 51.36767], [6.13607, 51.37015], [6.13697, 51.37068], [6.14324, 51.37035], [6.14359, 51.36982], [6.14641, 51.37158], [6.14782, 51.36772]]]]}}, {"type": "Feature", "properties": {"statcode": "BU09832807", "statnaam": "Heierhoeve"}, "geometry": {"type": "MultiPolygon", "coordinates": [[[[6.08883, 51.40372], [6.1098, 51.39356], [6.08382, 51.39468], [6.07737, 51.39427], [6.07437, 51.39391], [6.07312, 51.39573], [6.07208, 51.3983], [6.0719, 51.40163], [6.07401, 51.40546], [6.07336, 51.40611], [6.07687, 51.40958], [6.08883, 51.40372]]]]}}, {"type": "Feature", "properties": {"statcode": "BU09831208", "statnaam": "bedrijventerrein Hagerhof"}, "geometry": {"type": "MultiPolygon", "coordinates": [[[[6.15978, 51.35758], [6.1638, 51.3555], [6.15914, 51.35391], [6.15617, 51.3558], [6.15601, 51.35684], [6.15803, 51.35832], [6.15978, 51.35758]]]]}}, {"type": "Feature", "properties": {"statcode": "BU09832304", "statnaam": "Zonneveld"}, "geometry": {"type": "MultiPolygon", "coordinates": [[[[6.13743, 51.36411], [6.13731, 51.36274], [6.13368, 51.3633], [6.1349, 51.365], [6.13743, 51.36411]]]]}}, {"type": "Feature", "properties": {"statcode": "BU09833501", "statnaam": "Kloosterdorp"}, "geometry": {"type": "MultiPolygon", "coordinates": [[[[6.12434, 51.34126], [6.126, 51.34079], [6.12746, 51.34137], [6.12793, 51.338], [6.13008, 51.33809], [6.13086, 51.33733], [6.13007, 51.33621], [6.12274, 51.32793], [6.11735, 51.32682], [6.11743, 51.32699], [6.1182, 51.32992], [6.11706, 51.33377], [6.11666, 51.33911], [6.11879, 51.34102], [6.12325, 51.34337], [6.12434, 51.34126]]]]}}, {"type": "Feature", "properties": {"statcode": "BU09831204", "statnaam": "Hagerbroek"}, "geometry": {"type": "MultiPolygon", "coordinates": [[[[6.17726, 51.35845], [6.1761, 51.35489], [6.17002, 51.35133], [6.16568, 51.35455], [6.17138, 51.35891], [6.17371, 51.36092], [6.1761, 51.3611], [6.17726, 51.35845]]]]}}, {"type": "Feature", "properties": {"statcode": "BU09831502", "statnaam": "Dr. Poelsplein e.o."}, "geometry": {"type": "MultiPolygon", "coordinates": [[[[6.17905, 51.36123], [6.18036, 51.36052], [6.18017, 51.35982], [6.18655, 51.35593], [6.18642, 51.35574], [6.18112, 51.35444], [6.17816, 51.3591], [6.17726, 51.35845], [6.1761, 51.3611], [6.17905, 51.36123]]]]}}, {"type": "Feature", "properties": {"statcode": "BU09832501", "statnaam": "Klingerberg-Zuid"}, "geometry": {"type": "MultiPolygon", "coordinates": [[[[6.13224, 51.37666], [6.13401, 51.37594], [6.13647, 51.37288], [6.13621, 51.37149], [6.13125, 51.3712], [6.12636, 51.37088], [6.12304, 51.37727], [6.13224, 51.37666]]]]}}, {"type": "Feature", "properties": {"statcode": "BU09833101", "statnaam": "Bosserhof"}, "geometry": {"type": "MultiPolygon", "coordinates": [[[[6.15089, 51.35304], [6.1498, 51.35038], [6.15387, 51.349], [6.15769, 51.34909], [6.16026, 51.34841], [6.16109, 51.34739], [6.15727, 51.34569], [6.14515, 51.3403], [6.14107, 51.34502], [6.13815, 51.34557], [6.13818, 51.34712], [6.14298, 51.34954], [6.13921, 51.35261], [6.14581, 51.35592], [6.15089, 51.35304]]]]}}, {"type": "Feature", "properties": {"statcode": "BU09833207", "statnaam": "Snelle Sprong"}, "geometry": {"type": "MultiPolygon", "coordinates": [[[[6.16928, 51.32969], [6.16419, 51.32555], [6.15959, 51.31969], [6.15916, 51.31542], [6.14586, 51.32258], [6.14048, 51.32387], [6.14552, 51.3308], [6.15901, 51.32854], [6.16099, 51.32922], [6.15989, 51.33045], [6.16227, 51.33232], [6.16928, 51.32969]]]]}}, {"type": "Feature", "properties": {"statcode": "BU09831606", "statnaam": "Venkoelen"}, "geometry": {"type": "MultiPolygon", "coordinates": [[[[6.20526, 51.39952], [6.21136, 51.40092], [6.22667, 51.40027], [6.22677, 51.39937], [6.22432, 51.3971], [6.21445, 51.38962], [6.2163, 51.38409], [6.20964, 51.38617], [6.19922, 51.38943], [6.19242, 51.39143], [6.18498, 51.39362], [6.18278, 51.39354], [6.18122, 51.39459], [6.1723, 51.39567], [6.17167, 51.39707], [6.20689, 51.40542], [6.20526, 51.39952]]]]}}, {"type": "Feature", "properties": {"statcode": "BU09831604", "statnaam": "Veegtes"}, "geometry": {"type": "MultiPolygon", "coordinates": [[[[6.18278, 51.39354], [6.18498, 51.39362], [6.19242, 51.39143], [6.18858, 51.38921], [6.18844, 51.38687], [6.18959, 51.38597], [6.18406, 51.38116], [6.18281, 51.38209], [6.17741, 51.38632], [6.17525, 51.38943], [6.17415, 51.3917], [6.17852, 51.39258], [6.18122, 51.39459], [6.18278, 51.39354]]]]}}, {"type": "Feature", "properties": {"statcode": "BU09832602", "statnaam": "Verspreide huizen Hout-Blerick"}, "geometry": {"type": "MultiPolygon", "coordinates": [[[[6.11257, 51.36408], [6.12007, 51.36402], [6.12334, 51.3633], [6.12109, 51.35926], [6.12464, 51.35685], [6.12457, 51.35558], [6.12754, 51.3549], [6.13057, 51.35525], [6.13151, 51.35595], [6.13418, 51.35285], [6.1376, 51.35163], [6.13071, 51.34732], [6.12325, 51.34337], [6.11959, 51.34648], [6.11877, 51.34593], [6.11247, 51.35162], [6.1071, 51.356], [6.10184, 51.35679], [6.09965, 51.3571], [6.09494, 51.3656], [6.10326, 51.3659], [6.10375, 51.36455], [6.10755, 51.3644], [6.10758, 51.3659], [6.11053, 51.36592], [6.11257, 51.36408]]]]}}, {"type": "Feature", "properties": {"statcode": "BU09831603", "statnaam": "Herungerberg"}, "geometry": {"type": "MultiPolygon", "coordinates": [[[[6.2163, 51.38409], [6.22033, 51.37462], [6.20215, 51.37575], [6.2013, 51.37612], [6.20964, 51.38305], [6.20964, 51.38617], [6.2163, 51.38409]]]]}}, {"type": "Feature", "properties": {"statcode": "BU09831501", "statnaam": "Vierpaardjes"}, "geometry": {"type": "MultiPolygon", "coordinates": [[[[6.18112, 51.35444], [6.1802, 51.35297], [6.17582, 51.3519], [6.1761, 51.35489], [6.17726, 51.35845], [6.17816, 51.3591], [6.18112, 51.35444]]]]}}, {"type": "Feature", "properties": {"statcode": "BU09831302", "statnaam": "Rijnbeek"}, "geometry": {"type": "MultiPolygon", "coordinates": [[[[6.19755, 51.37159], [6.19605, 51.37079], [6.19363, 51.37218], [6.18968, 51.36883], [6.18725, 51.36945], [6.18093, 51.36938], [6.17802, 51.37009], [6.17835, 51.37081], [6.18074, 51.3734], [6.18269, 51.3722], [6.19127, 51.37382], [6.19232, 51.37448], [6.19755, 51.37159]]]]}}, {"type": "Feature", "properties": {"statcode": "BU09831210", "statnaam": "Krekelveld"}, "geometry": {"type": "MultiPolygon", "coordinates": [[[[6.17371, 51.36092], [6.17138, 51.35891], [6.16877, 51.36003], [6.16975, 51.36098], [6.17371, 51.36092]]]]}}, {"type": "Feature", "properties": {"statcode": "BU09833104", "statnaam": "Maasveld I"}, "geometry": {"type": "MultiPolygon", "coordinates": [[[[6.13374, 51.3449], [6.13409, 51.34427], [6.12746, 51.34137], [6.126, 51.34079], [6.12434, 51.34126], [6.12325, 51.34337], [6.13071, 51.34732], [6.13374, 51.3449]]]]}}, {"type": "Feature", "properties": {"statcode": "BU09833206", "statnaam": "Ulingshei"}, "geometry": {"type": "MultiPolygon", "coordinates": [[[[6.16217, 51.34636], [6.16223, 51.34356], [6.16441, 51.34235], [6.16607, 51.34242], [6.16552, 51.34334], [6.17097, 51.3432], [6.17987, 51.34189], [6.17739, 51.33831], [6.1789, 51.33357], [6.16892, 51.33301], [6.16167, 51.33752], [6.15744, 51.3444], [6.15727, 51.34569], [6.16109, 51.34739], [6.16217, 51.34636]]]]}}, {"type": "Feature", "properties": {"statcode": "BU09831507", "statnaam": "Postwegflat"}, "geometry": {"type": "MultiPolygon", "coordinates": [[[[6.19666, 51.36038], [6.19511, 51.35871], [6.19477, 51.36062], [6.19666, 51.36038]]]]}}, {"type": "Feature", "properties": {"statcode": "BU09834402", "statnaam": "Lingsfort"}, "geometry": {"type": "MultiPolygon", "coordinates": [[[[6.21903, 51.48498], [6.22355, 51.47496], [6.22345, 51.47281], [6.22203, 51.47269], [6.214, 51.47491], [6.19586, 51.47117], [6.19437, 51.4728], [6.19421, 51.47555], [6.19508, 51.47629], [6.19663, 51.47662], [6.19747, 51.47514], [6.21542, 51.47814], [6.21691, 51.48109], [6.21544, 51.48124], [6.2148, 51.48417], [6.21677, 51.48413], [6.21772, 51.48535], [6.21903, 51.48498]]]]}}, {"type": "Feature", "properties": {"statcode": "BU09835108", "statnaam": "Maalbeek"}, "geometry": {"type": "MultiPolygon", "coordinates": [[[[6.14586, 51.32258], [6.15916, 51.31542], [6.15424, 51.31111], [6.15382, 51.30745], [6.14514, 51.29812], [6.12901, 51.2857], [6.12476, 51.27755], [6.12006, 51.28511], [6.11446, 51.28918], [6.10701, 51.29147], [6.10315, 51.2887], [6.0933, 51.29544], [6.09277, 51.29539], [6.10558, 51.30688], [6.10859, 51.30467], [6.11351, 51.29969], [6.12578, 51.3079], [6.13536, 51.31718], [6.14048, 51.32387], [6.14586, 51.32258]]]]}}, {"type": "Feature", "properties": {"statcode": "BU09834101", "statnaam": "Velden-West"}, "geometry": {"type": "MultiPolygon", "coordinates": [[[[6.16777, 51.42253], [6.16562, 51.41333], [6.16673, 51.40802], [6.16471, 51.40766], [6.16252, 51.40809], [6.16095, 51.41121], [6.16065, 51.41599], [6.1626, 51.41693], [6.16687, 51.42311], [6.16777, 51.42253]]]]}}, {"type": "Feature", "properties": {"statcode": "BU09834303", "statnaam": "Verspreide huizen Lomm"}, "geometry": {"type": "MultiPolygon", "coordinates": [[[[6.22345, 51.47281], [6.22211, 51.46153], [6.22012, 51.45552], [6.22059, 51.44665], [6.21424, 51.44674], [6.214, 51.44545], [6.2026, 51.44392], [6.1738, 51.43781], [6.17134, 51.43707], [6.1644, 51.43629], [6.15661, 51.43642], [6.15675, 51.43838], [6.15392, 51.43809], [6.15524, 51.44267], [6.15729, 51.44539], [6.16484, 51.45257], [6.1734, 51.45888], [6.17664, 51.45769], [6.17906, 51.46073], [6.18724, 51.46746], [6.1956, 51.46811], [6.19586, 51.47117], [6.214, 51.47491], [6.22203, 51.47269], [6.22345, 51.47281]], [[6.16563, 51.45037], [6.16705, 51.44889], [6.16537, 51.44452], [6.16608, 51.44288], [6.16872, 51.44093], [6.1705, 51.4412], [6.17308, 51.44525], [6.17434, 51.44505], [6.17977, 51.44361], [6.18221, 51.44528], [6.18083, 51.44609], [6.18162, 51.44854], [6.17957, 51.44898], [6.18292, 51.4524], [6.17752, 51.45334], [6.16741, 51.45154], [6.16563, 51.45037]]]]}}, {"type": "Feature", "properties": {"statcode": "BU09834107", "statnaam": "Verspreide huizen Velden"}, "geometry": {"type": "MultiPolygon", "coordinates": [[[[6.21476, 51.43388], [6.20689, 51.40542], [6.17167, 51.39707], [6.17286, 51.39839], [6.17464, 51.39885], [6.17451, 51.40002], [6.17059, 51.4026], [6.1695, 51.40193], [6.16673, 51.40802], [6.17619, 51.40984], [6.17834, 51.415], [6.17761, 51.41698], [6.17251, 51.41858], [6.17397, 51.42188], [6.17713, 51.42435], [6.17957, 51.42436], [6.17825, 51.42336], [6.18521, 51.41975], [6.18939, 51.41376], [6.18963, 51.41146], [6.19242, 51.41083], [6.19297, 51.41157], [6.19649, 51.41246], [6.19995, 51.4127], [6.20162, 51.41802], [6.19296, 51.42178], [6.18417, 51.42666], [6.18407, 51.42795], [6.18877, 51.43196], [6.18775, 51.43221], [6.18288, 51.43009], [6.18099, 51.43043], [6.1738, 51.43781], [6.2026, 51.44392], [6.214, 51.44545], [6.21476, 51.43388]]]]}}, {"type": "Feature", "properties": {"statcode": "BU09834301", "statnaam": "Kern Lomm"}, "geometry": {"type": "MultiPolygon", "coordinates": [[[[6.17752, 51.45334], [6.18292, 51.4524], [6.17957, 51.44898], [6.1741, 51.44817], [6.17434, 51.44505], [6.17308, 51.44525], [6.1705, 51.4412], [6.16872, 51.44093], [6.16608, 51.44288], [6.16537, 51.44452], [6.16705, 51.44889], [6.16563, 51.45037], [6.16741, 51.45154], [6.17752, 51.45334]]]]}}, {"type": "Feature", "properties": {"statcode": "BU09835105", "statnaam": "Witveld"}, "geometry": {"type": "MultiPolygon", "coordinates": [[[[6.12316, 51.32282], [6.11601, 51.31635], [6.11205, 51.31427], [6.12045, 51.32422], [6.12316, 51.32282]]]]}}, {"type": "Feature", "properties": {"statcode": "BU09834401", "statnaam": "Kern Arcen"}, "geometry": {"type": "MultiPolygon", "coordinates": [[[[6.18365, 51.48261], [6.18456, 51.48085], [6.18445, 51.4766], [6.18735, 51.47661], [6.188, 51.47801], [6.18923, 51.47797], [6.19068, 51.47688], [6.18729, 51.46799], [6.18284, 51.46419], [6.18213, 51.46434], [6.18229, 51.46952], [6.17871, 51.47029], [6.17761, 51.47383], [6.17464, 51.47728], [6.1705, 51.48125], [6.17279, 51.48131], [6.17518, 51.47846], [6.1769, 51.47923], [6.17476, 51.48128], [6.18365, 51.48261]]]]}}, {"type": "Feature", "properties": {"statcode": "BU09835107", "statnaam": "Geloö"}, "geometry": {"type": "MultiPolygon", "coordinates": [[[[6.14048, 51.32387], [6.13536, 51.31718], [6.13243, 51.3183], [6.12992, 51.32065], [6.12529, 51.32474], [6.12873, 51.32787], [6.14048, 51.32387]]]]}}, {"type": "Feature", "properties": {"statcode": "BU09834104", "statnaam": "Schandelo"}, "geometry": {"type": "MultiPolygon", "coordinates": [[[[6.18099, 51.43043], [6.18288, 51.43009], [6.18775, 51.43221], [6.18877, 51.43196], [6.18407, 51.42795], [6.18417, 51.42666], [6.19296, 51.42178], [6.20162, 51.41802], [6.19995, 51.4127], [6.19649, 51.41246], [6.19297, 51.41157], [6.19242, 51.41083], [6.18963, 51.41146], [6.18939, 51.41376], [6.18521, 51.41975], [6.17825, 51.42336], [6.17957, 51.42436], [6.17713, 51.42435], [6.17807, 51.42526], [6.17618, 51.42647], [6.17108, 51.42651], [6.17046, 51.43108], [6.1727, 51.43401], [6.17134, 51.43707], [6.1738, 51.43781], [6.18099, 51.43043]]]]}}, {"type": "Feature", "properties": {"statcode": "BU09835101", "statnaam": "Kern Belfeld"}, "geometry": {"type": "MultiPolygon", "coordinates": [[[[6.13243, 51.3183], [6.13536, 51.31718], [6.12578, 51.3079], [6.11351, 51.29969], [6.10859, 51.30467], [6.11051, 51.30934], [6.10909, 51.31011], [6.10593, 51.31216], [6.10788, 51.31448], [6.11205, 51.31427], [6.11601, 51.31635], [6.11823, 51.31545], [6.12714, 51.31873], [6.12992, 51.32065], [6.13243, 51.3183]]]]}}, {"type": "Feature", "properties": {"statcode": "BU09834103", "statnaam": "Hasselderheide"}, "geometry": {"type": "MultiPolygon", "coordinates": [[[[6.17618, 51.42647], [6.17807, 51.42526], [6.17713, 51.42435], [6.17397, 51.42188], [6.16996, 51.42356], [6.17108, 51.42651], [6.17618, 51.42647]]]]}}, {"type": "Feature", "properties": {"statcode": "BU09835103", "statnaam": "Bolenberg"}, "geometry": {"type": "MultiPolygon", "coordinates": [[[[6.11051, 51.30934], [6.10859, 51.30467], [6.10558, 51.30688], [6.10909, 51.31011], [6.11051, 51.30934]]]]}}, {"type": "Feature", "properties": {"statcode": "BU09835102", "statnaam": "Gebied Patersweg"}, "geometry": {"type": "MultiPolygon", "coordinates": [[[[6.10909, 51.31011], [6.10558, 51.30688], [6.09277, 51.29539], [6.09171, 51.29494], [6.08722, 51.29511], [6.08472, 51.29745], [6.08914, 51.29924], [6.09228, 51.30132], [6.10045, 51.30721], [6.10593, 51.31216], [6.10909, 51.31011]]]]}}, {"type": "Feature", "properties": {"statcode": "BU09834302", "statnaam": "Spikweien"}, "geometry": {"type": "MultiPolygon", "coordinates": [[[[6.17957, 51.44898], [6.18162, 51.44854], [6.18083, 51.44609], [6.18221, 51.44528], [6.17977, 51.44361], [6.17434, 51.44505], [6.1741, 51.44817], [6.17957, 51.44898]]]]}}, {"type": "Feature", "properties": {"statcode": "BU09835104", "statnaam": "Aan de Stuw"}, "geometry": {"type": "MultiPolygon", "coordinates": [[[[6.12873, 51.32787], [6.12529, 51.32474], [6.12316, 51.32282], [6.12045, 51.32422], [6.11205, 51.31427], [6.10788, 51.31448], [6.10933, 51.31618], [6.11539, 51.322], [6.11735, 51.32682], [6.12274, 51.32793], [6.12621, 51.32858], [6.12873, 51.32787]]]]}}, {"type": "Feature", "properties": {"statcode": "BU09834102", "statnaam": "Velden-Oost"}, "geometry": {"type": "MultiPolygon", "coordinates": [[[[6.16996, 51.42356], [6.17397, 51.42188], [6.17251, 51.41858], [6.17761, 51.41698], [6.17834, 51.415], [6.17619, 51.40984], [6.16673, 51.40802], [6.16562, 51.41333], [6.16777, 51.42253], [6.16996, 51.42356]]]]}}, {"type": "Feature", "properties": {"statcode": "BU09834106", "statnaam": "De Krosselt"}, "geometry": {"type": "MultiPolygon", "coordinates": [[[[6.17451, 51.40002], [6.17464, 51.39885], [6.17286, 51.39839], [6.17167, 51.39707], [6.16477, 51.39631], [6.16389, 51.3976], [6.1695, 51.40193], [6.17059, 51.4026], [6.17451, 51.40002]]]]}}, {"type": "Feature", "properties": {"statcode": "BU09834404", "statnaam": "Verspreide huizen Arcen"}, "geometry": {"type": "MultiPolygon", "coordinates": [[[[6.21419, 51.50291], [6.21276, 51.49131], [6.21772, 51.48535], [6.21677, 51.48413], [6.2148, 51.48417], [6.21544, 51.48124], [6.21691, 51.48109], [6.21542, 51.47814], [6.19747, 51.47514], [6.19663, 51.47662], [6.19508, 51.47629], [6.19421, 51.47555], [6.19437, 51.4728], [6.19586, 51.47117], [6.1956, 51.46811], [6.18724, 51.46746], [6.17906, 51.46073], [6.17664, 51.45769], [6.1734, 51.45888], [6.17813, 51.46445], [6.17871, 51.47029], [6.18229, 51.46952], [6.18213, 51.46434], [6.18284, 51.46419], [6.18729, 51.46799], [6.19068, 51.47688], [6.19273, 51.47995], [6.1974, 51.48164], [6.20472, 51.48627], [6.20425, 51.48807], [6.2012, 51.49072], [6.19784, 51.49056], [6.19457, 51.48949], [6.19261, 51.48741], [6.18944, 51.48671], [6.1864, 51.48706], [6.18528, 51.48801], [6.16656, 51.48801], [6.1666, 51.48979], [6.16922, 51.49923], [6.16919, 51.50308], [6.18836, 51.50508], [6.20404, 51.50431], [6.21336, 51.50782], [6.21419, 51.50291]]]]}}, {"type": "Feature", "properties": {"statcode": "BU09834105", "statnaam": "Hasselt en Het Vorst"}, "geometry": {"type": "MultiPolygon", "coordinates": [[[[6.15675, 51.43838], [6.15661, 51.43642], [6.1644, 51.43629], [6.17134, 51.43707], [6.1727, 51.43401], [6.17046, 51.43108], [6.17108, 51.42651], [6.16996, 51.42356], [6.16777, 51.42253], [6.16687, 51.42311], [6.1626, 51.41693], [6.16065, 51.41599], [6.16095, 51.41121], [6.16252, 51.40809], [6.16471, 51.40766], [6.16673, 51.40802], [6.1695, 51.40193], [6.16389, 51.3976], [6.16477, 51.39631], [6.1543, 51.3956], [6.15304, 51.39592], [6.14899, 51.40777], [6.15137, 51.41461], [6.15682, 51.41912], [6.15838, 51.42273], [6.15783, 51.42667], [6.15461, 51.4347], [6.15392, 51.43809], [6.15675, 51.43838]]]]}}, {"type": "Feature", "properties": {"statcode": "BU09835106", "statnaam": "Geloérveld / Pannenberg"}, "geometry": {"type": "MultiPolygon", "coordinates": [[[[6.12992, 51.32065], [6.12714, 51.31873], [6.11823, 51.31545], [6.11601, 51.31635], [6.12316, 51.32282], [6.12529, 51.32474], [6.12992, 51.32065]]]]}}, {"type": "Feature", "properties": {"statcode": "BU09834403", "statnaam": "Brandemolen en Veld"}, "geometry": {"type": "MultiPolygon", "coordinates": [[[[6.2012, 51.49072], [6.20425, 51.48807], [6.20472, 51.48627], [6.1974, 51.48164], [6.19273, 51.47995], [6.19068, 51.47688], [6.18923, 51.47797], [6.188, 51.47801], [6.18735, 51.47661], [6.18445, 51.4766], [6.18456, 51.48085], [6.18365, 51.48261], [6.17476, 51.48128], [6.1769, 51.47923], [6.17518, 51.47846], [6.17279, 51.48131], [6.1705, 51.48125], [6.16711, 51.48579], [6.16656, 51.48801], [6.18528, 51.48801], [6.1864, 51.48706], [6.18944, 51.48671], [6.19261, 51.48741], [6.19457, 51.48949], [6.19784, 51.49056], [6.2012, 51.49072]]]]}}]}