{"type": "FeatureCollection", "features": [{"type": "Feature", "properties": {"statcode": "WK178301", "statnaam": "Wijk 01 Naaldwijk"}, "geometry": {"type": "MultiPolygon", "coordinates": [[[[4.22287, 51.9924], [4.22276, 51.99149], [4.23369, 51.99304], [4.23561, 51.99193], [4.24178, 51.99053], [4.24493, 51.99099], [4.24911, 51.98858], [4.23828, 51.98382], [4.23501, 51.98238], [4.2247, 51.97871], [4.21853, 51.97699], [4.21658, 51.97338], [4.21674, 51.97147], [4.214, 51.97045], [4.2125, 51.97199], [4.21121, 51.9715], [4.21, 51.97324], [4.20707, 51.9729], [4.20399, 51.97774], [4.20762, 51.9788], [4.2091, 51.98032], [4.20588, 51.9831], [4.20318, 51.98521], [4.19872, 51.98677], [4.19563, 51.9896], [4.19033, 51.98848], [4.18801, 51.99453], [4.18499, 51.9977], [4.17835, 52.00884], [4.17951, 52.00994], [4.18418, 52.01095], [4.1971, 52.01174], [4.20008, 52.01423], [4.20467, 52.0098], [4.21227, 52.0058], [4.2142, 52.00379], [4.21874, 52.0012], [4.22344, 51.99646], [4.22287, 51.9924]]]]}}, {"type": "Feature", "properties": {"statcode": "WK178302", "statnaam": "Wijk 02 Honselersdijk"}, "geometry": {"type": "MultiPolygon", "coordinates": [[[[4.22481, 52.02072], [4.23234, 52.01882], [4.2382, 52.01905], [4.24166, 52.01984], [4.24907, 52.01224], [4.2543, 52.00944], [4.27312, 51.99925], [4.26525, 51.99584], [4.24911, 51.98858], [4.24493, 51.99099], [4.24178, 51.99053], [4.23561, 51.99193], [4.23369, 51.99304], [4.22276, 51.99149], [4.22287, 51.9924], [4.22344, 51.99646], [4.21874, 52.0012], [4.2142, 52.00379], [4.21227, 52.0058], [4.20467, 52.0098], [4.20008, 52.01423], [4.20143, 52.01519], [4.20803, 52.01764], [4.21313, 52.02], [4.21629, 52.01986], [4.22071, 52.02096], [4.22481, 52.02072]]]]}}, {"type": "Feature", "properties": {"statcode": "WK178303", "statnaam": "Wijk 03 Maasdijk"}, "geometry": {"type": "MultiPolygon", "coordinates": [[[[4.2125, 51.97199], [4.214, 51.97045], [4.21674, 51.97147], [4.21916, 51.96879], [4.23139, 51.95675], [4.23396, 51.95333], [4.23353, 51.95267], [4.2341, 51.94974], [4.2394, 51.94464], [4.23972, 51.94447], [4.24126, 51.94367], [4.24032, 51.94287], [4.23694, 51.94393], [4.23192, 51.94295], [4.23177, 51.94292], [4.22829, 51.94799], [4.22145, 51.94267], [4.21953, 51.9414], [4.21782, 51.94164], [4.1924, 51.95481], [4.18672, 51.96268], [4.18937, 51.96476], [4.1912, 51.96544], [4.19061, 51.96598], [4.20231, 51.9704], [4.20379, 51.96983], [4.21121, 51.9715], [4.2125, 51.97199]]]]}}, {"type": "Feature", "properties": {"statcode": "WK178304", "statnaam": "Wijk 04 's-Gravenzande"}, "geometry": {"type": "MultiPolygon", "coordinates": [[[[4.18801, 51.99453], [4.19033, 51.98848], [4.19563, 51.9896], [4.19872, 51.98677], [4.20318, 51.98521], [4.20588, 51.9831], [4.2091, 51.98032], [4.20762, 51.9788], [4.20399, 51.97774], [4.20707, 51.9729], [4.21, 51.97324], [4.21121, 51.9715], [4.20379, 51.96983], [4.20231, 51.9704], [4.19061, 51.96598], [4.18792, 51.96539], [4.18658, 51.96587], [4.18747, 51.96682], [4.1759, 51.97169], [4.16961, 51.97397], [4.15506, 51.97784], [4.1553, 51.9796], [4.14728, 51.98139], [4.14995, 51.98481], [4.14894, 51.98509], [4.15096, 51.98762], [4.13861, 51.99165], [4.13557, 51.9927], [4.13236, 51.99546], [4.13099, 51.99718], [4.13252, 51.99854], [4.1253, 52.00164], [4.1374, 52.00989], [4.15274, 52.02222], [4.15567, 52.02067], [4.15953, 52.01892], [4.16666, 52.0166], [4.17261, 52.01651], [4.17544, 52.01566], [4.1782, 52.01376], [4.17951, 52.00994], [4.17835, 52.00884], [4.18499, 51.9977], [4.18801, 51.99453]]]]}}, {"type": "Feature", "properties": {"statcode": "WK178305", "statnaam": "Wijk 05 Monster"}, "geometry": {"type": "MultiPolygon", "coordinates": [[[[4.18957, 52.0515], [4.19174, 52.05219], [4.19634, 52.05566], [4.20412, 52.04473], [4.20416, 52.04467], [4.20904, 52.03827], [4.21243, 52.03403], [4.20958, 52.03365], [4.21226, 52.03075], [4.21019, 52.03029], [4.20693, 52.03105], [4.20336, 52.03103], [4.19794, 52.02837], [4.20054, 52.02612], [4.19753, 52.02271], [4.20143, 52.01519], [4.20008, 52.01423], [4.1971, 52.01174], [4.18418, 52.01095], [4.17951, 52.00994], [4.1782, 52.01376], [4.17544, 52.01566], [4.17261, 52.01651], [4.16666, 52.0166], [4.15953, 52.01892], [4.15567, 52.02067], [4.15274, 52.02222], [4.16059, 52.02883], [4.16819, 52.03399], [4.17548, 52.04155], [4.18765, 52.05645], [4.18918, 52.05547], [4.18748, 52.05212], [4.18957, 52.0515]], [[4.16571, 52.02745], [4.16807, 52.02872], [4.17267, 52.03121], [4.17048, 52.03254], [4.16403, 52.02852], [4.16571, 52.02745]]]]}}, {"type": "Feature", "properties": {"statcode": "WK178306", "statnaam": "Wijk 06 Wateringen"}, "geometry": {"type": "MultiPolygon", "coordinates": [[[[4.27297, 52.03552], [4.2759, 52.03156], [4.2779, 52.03247], [4.28174, 52.02737], [4.2828, 52.02763], [4.28347, 52.0267], [4.28525, 52.02742], [4.28588, 52.02648], [4.28505, 52.02627], [4.28565, 52.02591], [4.28515, 52.02562], [4.28825, 52.02376], [4.28677, 52.02297], [4.287, 52.02287], [4.29434, 52.01936], [4.28974, 52.01765], [4.29551, 52.01485], [4.29861, 52.01688], [4.30108, 52.01787], [4.30266, 52.01649], [4.30764, 52.01815], [4.30982, 52.01563], [4.30759, 52.01469], [4.28146, 52.00292], [4.26959, 52.00905], [4.27871, 52.01401], [4.27232, 52.01723], [4.26619, 52.02098], [4.26415, 52.02314], [4.25942, 52.02197], [4.25889, 52.02554], [4.25638, 52.02835], [4.25913, 52.02957], [4.26665, 52.03301], [4.27266, 52.03592], [4.27297, 52.03552]]]]}}, {"type": "Feature", "properties": {"statcode": "WK178307", "statnaam": "Wijk 07 De Lier"}, "geometry": {"type": "MultiPolygon", "coordinates": [[[[4.26982, 51.99289], [4.27112, 51.99225], [4.27189, 51.99289], [4.28032, 51.99035], [4.28033, 51.98974], [4.28036, 51.98854], [4.28409, 51.98564], [4.28754, 51.98902], [4.28868, 51.98883], [4.29019, 51.9874], [4.29049, 51.98663], [4.29191, 51.98297], [4.29331, 51.98321], [4.29563, 51.9836], [4.29599, 51.98266], [4.29632, 51.98176], [4.29878, 51.98216], [4.29927, 51.98111], [4.3007, 51.98116], [4.30182, 51.9812], [4.3029, 51.98009], [4.30269, 51.9797], [4.29825, 51.97746], [4.29598, 51.97753], [4.28755, 51.97336], [4.2893, 51.97191], [4.28509, 51.96989], [4.28413, 51.97063], [4.28232, 51.96979], [4.28031, 51.97145], [4.27816, 51.97043], [4.27469, 51.9734], [4.27322, 51.97364], [4.27195, 51.97161], [4.27246, 51.97026], [4.27146, 51.96986], [4.27654, 51.96505], [4.26345, 51.96009], [4.25827, 51.95897], [4.25363, 51.95887], [4.23396, 51.95333], [4.23139, 51.95675], [4.21916, 51.96879], [4.21674, 51.97147], [4.21658, 51.97338], [4.21853, 51.97699], [4.2247, 51.97871], [4.23501, 51.98238], [4.23828, 51.98382], [4.24911, 51.98858], [4.26525, 51.99584], [4.26725, 51.99358], [4.26982, 51.99289]]]]}}, {"type": "Feature", "properties": {"statcode": "WK178308", "statnaam": "Wijk 08 Kwintsheul"}, "geometry": {"type": "MultiPolygon", "coordinates": [[[[4.25889, 52.02554], [4.25942, 52.02197], [4.26415, 52.02314], [4.26619, 52.02098], [4.27232, 52.01723], [4.27871, 52.01401], [4.26959, 52.00905], [4.28146, 52.00292], [4.27312, 51.99925], [4.2543, 52.00944], [4.24907, 52.01224], [4.24166, 52.01984], [4.2511, 52.02236], [4.24822, 52.02523], [4.25489, 52.02829], [4.25638, 52.02835], [4.25889, 52.02554]]]]}}, {"type": "Feature", "properties": {"statcode": "WK178309", "statnaam": "Wijk 09 Poeldijk"}, "geometry": {"type": "MultiPolygon", "coordinates": [[[[4.24142, 52.03195], [4.24429, 52.02885], [4.24481, 52.02873], [4.24822, 52.02523], [4.2511, 52.02236], [4.24166, 52.01984], [4.2382, 52.01905], [4.23234, 52.01882], [4.22481, 52.02072], [4.22071, 52.02096], [4.21629, 52.01986], [4.21313, 52.02], [4.20803, 52.01764], [4.20143, 52.01519], [4.19753, 52.02271], [4.20054, 52.02612], [4.19794, 52.02837], [4.20336, 52.03103], [4.20693, 52.03105], [4.21019, 52.03029], [4.21226, 52.03075], [4.21373, 52.03169], [4.21923, 52.03374], [4.22833, 52.03464], [4.23505, 52.03926], [4.24142, 52.03195]]]]}}, {"type": "Feature", "properties": {"statcode": "WK178310", "statnaam": "Wijk 10 Ter Heijde"}, "geometry": {"type": "MultiPolygon", "coordinates": [[[[4.17267, 52.03121], [4.16807, 52.02872], [4.16571, 52.02745], [4.16403, 52.02852], [4.17048, 52.03254], [4.17267, 52.03121]]]]}}]}